,id,name,lat,lng,category,address,address2,city,state,postal,country,phone,web,features,modalities,searchGoogle,search,ct,ct_areas,echo,echo_areas,mr,mr_areas,nuclear,nuclear_areas,vascular,vascular_areas,pediatric_echo,pediatric_echo_areas,ct-dental,ct-dental_areas,stenting,stenting_areas,vein_center,vein_center_areas,cardiac_electrophysiology,cardiac_electrophysiology_areas,cardiovascular_catheterization,cardiovascular_catheterization_areas,jrcdms,jrcdms_areas
0,1,"Alabama Cardiology, P.C.",34.695888,-86.568272,granted,4700 Whitesburg Dr Ste 200,,Huntsville,AL,35802,USA,,,,nuclear,"www.google.com/search?q=Alabama+Cardiology,+P.C.","Alabama Cardiology, P.C. Huntsville",,,,,,,"May 31, 2023",Myocardial Perfusion Imaging,,,,,,,,,,,,,,,,
1,2,Alabama Cardiovascular Group,33.432537,-86.723032,granted,3686 Grandview Parkway,Suite 720,Birmingham,AL,35243,USA,,www.alcardio.com,,echo,,Alabama Cardiovascular Group Birmingham,,,"Nov 30, 2022",Adult Transthoracic,,,,,,,,,,,,,,,,,,,,
2,3,Alabama Cardiovascular Group,33.637732,-86.618441,granted,5890 Valley Road,Suite 200,Birmingham,AL,35235,USA,,www.alcardio.com,,echo,,Alabama Cardiovascular Group Birmingham,,,"Nov 30, 2022",Adult Transthoracic,,,,,,,,,,,,,,,,,,,,
3,4,"Alabama Cardiovascular Group, PC",33.432537,-86.723032,granted,3686 Grandview Parkway,Suite 720,Birmingham,AL,35243,USA,,www.alcardio.com/,,nuclear,,"Alabama Cardiovascular Group, PC Birmingham",,,,,,,"Oct 31, 2022","Equilibrium Radionuclide Angiography, Myocardial Perfusion Imaging",,,,,,,,,,,,,,,,
4,5,"Alabama Cardiovascular Group, PC",33.637732,-86.618441,granted,5890 Valley Road,Suite 200,Birmingham,AL,35235,USA,,www.alcardio.com/,,nuclear,,"Alabama Cardiovascular Group, PC Birmingham",,,,,,,"Oct 31, 2022",Myocardial Perfusion Imaging,,,,,,,,,,,,,,,,
5,6,Alabama Ear Specialists,33.512001,-86.786998,granted,2937 7th Ave South,,Birmingham,AL,35233,USA,,www.alabamaear.com,,ct,,Alabama Ear Specialists Birmingham,"Dec 31, 2023",Maxillofacial CT,,,,,,,,,,,,,,,,,,,,,,
6,7,"Alabama Ear, Nose and Throat Specialists LLC",33.233481,-87.540261,granted,302 Merchants Walk,Suite 100,Tuscaloosa,AL,35406,USA,,www.alabamaentspecialists.com,,ct,,"Alabama Ear, Nose and Throat Specialists LLC Tuscaloosa","Feb 28, 2025",Maxillofacial CT,,,,,,,,,,,,,,,,,,,,,,
7,8,Alabama Heart and Vascular Medicine,33.225907,-87.529985,multigranted,100 Rice Mine Road Loop,Suite 104,Tuscaloosa,AL,35406,USA,,,,"echo, vascular",www.google.com/search?q=Alabama+Heart+and+Vascular+Medicine,Alabama Heart and Vascular Medicine Tuscaloosa,,,"Sep 30, 2023","Adult Stress, Adult Transthoracic",,,,,"Nov 30, 2023","Extracranial Cerebrovascular Testing, Peripheral Arterial Testing, Peripheral Venous Testing, Visceral Vascular Testing",,,,,,,,,,,,,,
8,9,"Alabama Heart and Vascular, PC",33.463732,-86.775072,granted,"2022 Brookwood Medical Cemter Drive, Suite 403",,Birmingham,AL,35209,USA,,,,nuclear,"www.google.com/search?q=Alabama+Heart+and+Vascular,+PC","Alabama Heart and Vascular, PC Birmingham",,,,,,,"Apr 30, 2024",Myocardial Perfusion Imaging,,,,,,,,,,,,,,,,
9,10,ALABAMA HEART CARE LLC,33.261366,-87.516553,granted,4810 Harkey Lane,,Tuscaloosa,AL,35406,USA,,,,echo,www.google.com/search?q=ALABAMA+HEART+CARE+LLC,ALABAMA HEART CARE LLC Tuscaloosa,,,"Sep 30, 2024",Adult Transthoracic,,,,,,,,,,,,,,,,,,,,
10,11,"Alabama Medical Group, P.C.",30.682822,-88.130745,multigranted,101 Memorial hospital Drive,Suite 200,Mobile,AL,36608,USA,,,,"echo, nuclear, vascular","www.google.com/search?q=Alabama+Medical+Group,+P.C.","Alabama Medical Group, P.C. Mobile",,,"Dec 31, 2024",Adult Transthoracic,,,"Dec 31, 2024","General Nuclear Medicine, Myocardial Perfusion Imaging","Jun 30, 2025","Extracranial Cerebrovascular Testing, Peripheral Arterial Testing, Peripheral Venous Testing",,,,,,,,,,,,,,
11,12,Alabama Nasal and Sinus Center,33.422828,-86.670189,granted,7191 Cahaba Valley Road,Suite 301,Birmingham,AL,35242,USA,,,,ct,www.google.com/search?q=Alabama+Nasal+and+Sinus+Center,Alabama Nasal and Sinus Center Birmingham,"May 31, 2024",Maxillofacial CT,,,,,,,,,,,,,,,,,,,,,,
12,13,American Health Imaging 3T of Brookwood,33.466728,-86.776386,granted,509 Brookwood Blvd Suite 111,,Homewood,AL,35209,United States ,,www.americanhealthimaging.com/,,mr,,American Health Imaging 3T of Brookwood Homewood,,,,,"Sep 29, 2022","Body MRI, Musculoskeletal MRI, Neurological MRI, MRA",,,,,,,,,,,,,,,,,,
13,14,"American Health Imaging of Birmingham, LLC",33.509729,-86.800629,granted,2101 4th Avenue South,Suite 100,Birmingham,AL,35233,USA,,www.americanhealthimaging.com/location/birmingham-al/,,mr,,"American Health Imaging of Birmingham, LLC Birmingham",,,,,"Sep 29, 2022","Body MRI, Musculoskeletal MRI, Neurological MRI, MRA",,,,,,,,,,,,,,,,,,
14,15,"American Health Imaging of Grandview, LLC",33.438626,-86.71827,multigranted,3570 Grandview Pkwy,Suite 102,Birmingham,AL,35243,USA,,www.americanhealthimaging.com/location/grandview-al/,,"ct, mr",,"American Health Imaging of Grandview, LLC Birmingham","Sep 29, 2022","Body CT, Neurological CT, Vascular CTA | Maxillofacial CT",,,"Sep 29, 2022","Body MRI, Musculoskeletal MRI, Neurological MRI | MRA",,,,,,,,,,,,,,,,,,
15,16,American Health Imaging of Greystone,33.41677,-86.665736,multigranted,7500 Hugh Daniel Dr Suite 150,,Birmingham,AL,35242,United States ,,americanhealthimaging.com/location/greystone-al/,,"ct, mr",,American Health Imaging of Greystone Birmingham,"Sep 29, 2022","Body CT, Neurological CT, Vascular CTA | Maxillofacial CT",,,"Sep 29, 2022","Body MRI, Musculoskeletal MRI, Neurological MRI | MRA",,,,,,,,,,,,,,,,,,
16,17,American Health Imaging of Homewood,33.479544,-86.788056,multigranted,"1 Independence Plaza, Suite 140",,Homewood,AL,35209,United States ,,americanhealthimaging.com/location/homewood-al/,,"ct, mr",,American Health Imaging of Homewood Homewood,"Sep 29, 2022","Body CT, Neurological CT, Vascular CTA | Maxillofacial CT",,,"Sep 29, 2022","Body MRI, Musculoskeletal MRI, Neurological MRI | MRA",,,,,,,,,,,,,,,,,,
17,18,American Health Imaging of Shelby,33.245853,-86.815768,multigranted,224 1st St. North Suite 150,,Alabaster,AL,35007,United States,,www.americanhealthimaging.com/,,"ct, mr",,American Health Imaging of Shelby Alabaster,"Sep 29, 2022","Body CT, Neurological CT, Vascular CTA | Maxillofacial CT",,,"Sep 29, 2022","Body MRI, Musculoskeletal MRI, Neurological MRI | MRA",,,,,,,,,,,,,,,,,,
18,19,American Health Imaging Open Upright MRI,33.475121,-86.787252,granted,3105 Independence Dr Suite 101,,Homewood,AL,35209,United States ,,www.americanhealthimaging.com/,,mr,,American Health Imaging Open Upright MRI Homewood,,,,,"Sep 29, 2022","Body MRI, Musculoskeletal MRI, Neurological MRI, MRA",,,,,,,,,,,,,,,,,,
19,20,"Amy Carter, M.D.",34.690528,-86.507312,granted,5540 Highway 431 South,,Brownsboro,AL,35741-9771,USA,,,,nuclear,"www.google.com/search?q=Amy+Carter,+M.D.","Amy Carter, M.D. Brownsboro",,,,,,,"Apr 30, 2024",Myocardial Perfusion Imaging,,,,,,,,,,,,,,,,
20,21,Appalachian Cardiovascular Associates,34.461188,-85.704825,granted,"1990 Gault Ave, N",Suite 202,Fort Payne,AL,35967,USA,,www.cardio-vascular.us,,nuclear,,Appalachian Cardiovascular Associates Fort Payne,,,,,,,"Jan 31, 2024",Myocardial Perfusion Imaging,,,,,,,,,,,,,,,,
21,22,Baptist Medical Center South Echo Lab,32.327144,-86.276764,granted,2105 East South Boulevard,,Montgomery,AL,36116,USA,,,,echo,www.google.com/search?q=Baptist+Medical+Center+South+Echo+Lab,Baptist Medical Center South Echo Lab Montgomery,,,"Nov 30, 2024",Adult Transthoracic,,,,,,,,,,,,,,,,,,,,
22,23,Birmingham Heart Clinic,33.603022,-86.66233,multigranted,100 Pilot Medical Drive,Suite 300,Birmingham,AL,35235,USA,,,,"nuclear, echo, ct, vascular",www.google.com/search?q=Birmingham+Heart+Clinic,Birmingham Heart Clinic Birmingham,"Nov 30, 2023","Coronary CTA, Vascular CTA, Coronary Calcium Scoring","May 31, 2023",Adult Transthoracic,,,"Feb 28, 2023","Myocardial Perfusion Imaging, Positron Emission Tomography (PET)","Mar 31, 2024",Peripheral Venous Testing,,,,,,,,,,,,,,
23,24,"Birmingham Heart Clinic, P.C., Northside Medical Associates",33.604536,-86.288713,granted,74 Plaza Drive,Suite 2B,Pell City,AL,35125,USA,,,,nuclear,"www.google.com/search?q=Birmingham+Heart+Clinic,+P.C.,+Northside+Medical+Associates","Birmingham Heart Clinic, P.C., Northside Medical Associates Pell City",,,,,,,"Feb 28, 2023",Myocardial Perfusion Imaging,,,,,,,,,,,,,,,,
24,25,"Birmingham Heart Clinic, St. Vincent’s Birmingham Cardiology, LLC",33.506957,-86.787793,granted,2217 Decatur Hwy,,Gardendale,AL,35071,USA,,,,nuclear,"www.google.com/search?q=Birmingham+Heart+Clinic,+St.+Vincent’s+Birmingham+Cardiology,+LLC","Birmingham Heart Clinic, St. Vincent’s Birmingham Cardiology, LLC Gardendale",,,,,,,"Feb 28, 2023",Myocardial Perfusion Imaging,,,,,,,,,,,,,,,,
25,26,"Birmingham Internal Medicine Associates, LLC dba Complete Health",33.499127,-86.847503,granted,"832 Princeton Avenue, S.W.",,Birmingham,AL,35211,USA,,,,nuclear,"www.google.com/search?q=Birmingham+Internal+Medicine+Associates,+LLC+dba+Complete+Health","Birmingham Internal Medicine Associates, LLC dba Complete Health Birmingham",,,,,,,"Sep 30, 2023","General Nuclear Medicine, Myocardial Perfusion Imaging",,,,,,,,,,,,,,,,
26,27,"Birmingham Internal Medicine Associates, LLC dba Complete Health",33.499127,-86.847503,granted,832 Princeton Avenue SW,,Birmingham,AL,35211,USA,,,,echo,"www.google.com/search?q=Birmingham+Internal+Medicine+Associates,+LLC+dba+Complete+Health","Birmingham Internal Medicine Associates, LLC dba Complete Health Birmingham",,,"Mar 31, 2023",Adult Transthoracic,,,,,,,,,,,,,,,,,,,,
27,28,"Birmingham Vascular Associates, P.C.",33.464417,-86.774034,granted,1021 Montgomery Highway,Ste. 206,Vestavia Hills,AL,35216,USA,,,,vascular,"www.google.com/search?q=Birmingham+Vascular+Associates,+P.C.","Birmingham Vascular Associates, P.C. Vestavia Hills",,,,,,,,,"May 31, 2024","Peripheral Arterial Testing, Peripheral Venous Testing",,,,,,,,,,,,,,
28,29,Brookwood Cardiology Diagnostic Center,33.434988,-86.732028,granted,3980 Colonnade Parkway,,Birmingham,AL,35243,USA,,,,echo,www.google.com/search?q=Brookwood+Cardiology+Diagnostic+Center,Brookwood Cardiology Diagnostic Center Birmingham,,,"Mar 31, 2024",Adult Transthoracic,,,,,,,,,,,,,,,,,,,,
29,30,Brookwood Medical Center,33.463073,-86.776522,granted,2010 Brookwood Medical Center Drive,,Birmingham,AL,35209,USA,,,,echo,www.google.com/search?q=Brookwood+Medical+Center,Brookwood Medical Center Birmingham,,,"Mar 31, 2024",Adult Transthoracic,,,,,,,,,,,,,,,,,,,,
30,31,"Cardiac and Vascular Consultants, LLC",33.659585,-85.824978,multigranted,1131 Leighton Avenue,,Anniston,AL,36207,USA,,,,"nuclear, vascular, echo","www.google.com/search?q=Cardiac+and+Vascular+Consultants,+LLC","Cardiac and Vascular Consultants, LLC Anniston",,,"Apr 30, 2024",Adult Transthoracic,,,"Jan 31, 2023",Myocardial Perfusion Imaging,"Sep 30, 2023","Extracranial Cerebrovascular Testing, Peripheral Arterial Testing, Peripheral Venous Testing",,,,,,,,,,,,,,
31,32,Cardiology Associates - Fairhope,30.5196,-87.888693,granted,188 Hospital Drive,Suite 100,Fairhope,AL,36532,USA,,,,nuclear,www.google.com/search?q=Cardiology+Associates+-+Fairhope,Cardiology Associates - Fairhope Fairhope,,,,,,,"Dec 31, 2023","Equilibrium Radionuclide Angiography, Myocardial Perfusion Imaging, Positron Emission Tomography (PET)",,,,,,,,,,,,,,,,
32,33,Cardiology Associates - Foley,30.427784,-87.683188,granted,1721 N. McKenzie Street,,Foley,AL,36535,USA,,,,nuclear,www.google.com/search?q=Cardiology+Associates+-+Foley,Cardiology Associates - Foley Foley,,,,,,,"Dec 31, 2023","Equilibrium Radionuclide Angiography, Myocardial Perfusion Imaging",,,,,,,,,,,,,,,,
33,34,Cardiology Associates - Springhill,30.687018,-88.130269,granted,3715 Dauphin Street,Suite 4400,Mobile,AL,36608,USA,,,,nuclear,www.google.com/search?q=Cardiology+Associates+-+Springhill,Cardiology Associates - Springhill Mobile,,,,,,,"Dec 31, 2023","Equilibrium Radionuclide Angiography, Myocardial Perfusion Imaging, Positron Emission Tomography (PET)",,,,,,,,,,,,,,,,
34,35,"Cardiology Associates of West Alabama, P.C.",33.246688,-87.548442,granted,4401 Watermelon Road,,Northport,AL,35473,USA,,,,echo,"www.google.com/search?q=Cardiology+Associates+of+West+Alabama,+P.C.","Cardiology Associates of West Alabama, P.C. Northport",,,"Apr 30, 2025",Adult Transthoracic,,,,,,,,,,,,,,,,,,,,
35,36,"Cardiology Associates, P.A.",31.235541,-85.456339,granted,"4300 W. Main St., Suite 102",,Dothan,AL,36305,USA,,,,nuclear,"www.google.com/search?q=Cardiology+Associates,+P.A.","Cardiology Associates, P.A. Dothan",,,,,,,"Jul 31, 2024","Equilibrium Radionuclide Angiography, Myocardial Perfusion Imaging",,,,,,,,,,,,,,,,
36,37,"Cardiology Associates, PA",31.213813,-85.361778,granted,"1118 Ross Clark Circle, Suite 501",,Dothan,AL,36301,USA,,,,echo,"www.google.com/search?q=Cardiology+Associates,+PA","Cardiology Associates, PA Dothan",,,"Dec 31, 2023",Adult Transthoracic,,,,,,,,,,,,,,,,,,,,
37,38,"Cardiology Associates, PA",31.235541,-85.456339,granted,"4300 West Main Street, Suite 102",,Dothan,AL,36305,USA,,,,echo,"www.google.com/search?q=Cardiology+Associates,+PA","Cardiology Associates, PA Dothan",,,"Dec 31, 2023",Adult Transthoracic,,,,,,,,,,,,,,,,,,,,
38,39,Cardiology Consultants PC of Tuscaloosa,33.206292,-87.526816,granted,701 University Boulevard East,Suite 400,Tuscaloosa,AL,35401,USA,,www.mycvmd.com,,nuclear,,Cardiology Consultants PC of Tuscaloosa Tuscaloosa,,,,,,,"Sep 30, 2023",Myocardial Perfusion Imaging,,,,,,,,,,,,,,,,
39,40,"Cardiology Consultants, P.C.",33.206292,-87.526816,granted,701 University Boulevard East,,Tuscaloosa,AL,35401,USA,,,,vascular,"www.google.com/search?q=Cardiology+Consultants,+P.C.","Cardiology Consultants, P.C. Tuscaloosa",,,,,,,,,"Mar 31, 2025","Extracranial Cerebrovascular Testing, Visceral Vascular Testing",,,,,,,,,,,,,,
40,41,"Cardiology Consultants, PC",33.206292,-87.526816,granted,701 University Boulevard East,Suite 400,Tuscaloosa,AL,35401,USA,,,,echo,"www.google.com/search?q=Cardiology+Consultants,+PC","Cardiology Consultants, PC Tuscaloosa",,,"May 31, 2025",Adult Transthoracic,,,,,,,,,,,,,,,,,,,,
41,42,Cardiology of Central Alabama,32.929683,-85.966809,multigranted,3368 Highway 280,Suite 130,Alexander City,AL,35010,USA,,www.kevinsublettmd.com,,"echo, vascular",,Cardiology of Central Alabama Alexander City,,,"Jun 30, 2023",Adult Transthoracic,,,,,"Jun 30, 2025",Extracranial Cerebrovascular Testing,,,,,,,,,,,,,,
42,43,"Cardiology, PC",33.498972,-86.846607,granted,801 Princeton Avenue SW,Suite 106,Birmingham,AL,35211,USA,,,,nuclear,"www.google.com/search?q=Cardiology,+PC","Cardiology, PC Birmingham",,,,,,,"Feb 28, 2023","Equilibrium Radionuclide Angiography, Myocardial Perfusion Imaging, Positron Emission Tomography (PET)",,,,,,,,,,,,,,,,
43,44,"Columbiana Clinic, LLC",33.189445,-86.600801,granted,22266 Hwy 25,,Columbiana,AL,35051,USA,,www.columbianaclinicllc.com/,,nuclear,,"Columbiana Clinic, LLC Columbiana",,,,,,,"Apr 30, 2024",Myocardial Perfusion Imaging,,,,,,,,,,,,,,,,
44,45,CPC Cardiology,34.1986,-86.804032,granted,1800 Al-157,,Cullman,AL,35058,USA,,,,echo,www.google.com/search?q=CPC+Cardiology,CPC Cardiology Cullman,,,"Aug 31, 2025",Adult Transthoracic,,,,,,,,,,,,,,,,,,,,
45,46,"Decatur ENT Assoc, PC",34.588402,-86.97144,granted,1218 13th AVE SE,,Decatur,AL,35601,USA,,decaturent.com,,ct,,"Decatur ENT Assoc, PC Decatur","Jul 31, 2025",Maxillofacial CT,,,,,,,,,,,,,,,,,,,,,,
46,47,Diagnostic and Medical Center,30.691935,-88.082681,granted,1700 Springhill Avenue,,Mobile,AL,36607,USA,,www.mobileinfirmary.org,,echo,,Diagnostic and Medical Center Mobile,,,"Feb 28, 2025",Adult Transthoracic,,,,,,,,,,,,,,,,,,,,
47,48,"East Alabama Arthritis Center, PC",32.631283,-85.449627,granted,1536 Professional Parkway,,Auburn,AL,36830,USA,,www.eaarthritiscenter.com,,mr,,"East Alabama Arthritis Center, PC Auburn",,,,,"Jul 31, 2024",Musculoskeletal MRI,,,,,,,,,,,,,,,,,,
48,49,"East Alabama Ear, Nose, and Throat PC",32.635108,-85.404576,granted,1965 First Avenue,,Opelika,AL,36801,USA,,,,ct,"www.google.com/search?q=East+Alabama+Ear,+Nose,+and+Throat+PC","East Alabama Ear, Nose, and Throat PC Opelika","Oct 31, 2024",Maxillofacial CT,,,,,,,,,,,,,,,,,,,,,,
49,50,East Alabama Medical Center,32.638055,-85.404003,granted,2000 Pepperell Parkway,,Opelika,AL,36802,USA,,www.eamc.org,,echo,,East Alabama Medical Center Opelika,,,"Apr 30, 2025",Adult Transthoracic,,,,,,,,,,,,,,,,,,,,
50,51,Eastern Shore Heart Center,30.513744,-87.886178,granted,19725 South Greeno Road,,Fairhope,AL,36532,USA,,,,echo,www.google.com/search?q=Eastern+Shore+Heart+Center,Eastern Shore Heart Center Fairhope,,,"Dec 30, 2022",Adult Transthoracic,,,,,,,,,,,,,,,,,,,,
51,52,Eastern Shore Heart Center,30.513744,-87.886178,granted,19725 South Greeno Road,,Fairhope,AL,36532,USA,,,,nuclear,www.google.com/search?q=Eastern+Shore+Heart+Center,Eastern Shore Heart Center Fairhope,,,,,,,"Feb 28, 2023",Myocardial Perfusion Imaging,,,,,,,,,,,,,,,,
52,53,ENT Associates of Alabama,33.250556,-86.81337,granted,644 2nd St. NE,Suite 107,Alabaster,AL,35007,USA,,www.entalabama.com,,ct,,ENT Associates of Alabama Alabaster,"May 31, 2024",Maxillofacial CT,,,,,,,,,,,,,,,,,,,,,,
53,54,ENT Associates of Alabama,33.59465,-86.665573,granted,48 Medical Park Dr. E.,Suite 153,Birmingham,AL,35235,USA,,,,ct,www.google.com/search?q=ENT+Associates+of+Alabama,ENT Associates of Alabama Birmingham,"May 31, 2024",Maxillofacial CT,,,,,,,,,,,,,,,,,,,,,,
54,55,ENT Associates of Alabama,33.649902,-86.815229,granted,931 Sharit Avenue,Suite 101,Gardendale,AL,35071,USA,,,,ct,www.google.com/search?q=ENT+Associates+of+Alabama,ENT Associates of Alabama Gardendale,"May 31, 2024",Maxillofacial CT,,,,,,,,,,,,,,,,,,,,,,
55,56,ENT Associates of Alabama,33.624157,-86.714564,granted,3686 Grandview Parkway,"Physicians Plaza, Suite 530",Birmingham,AL,35243,USA,,www.entalabama.com,,ct,,ENT Associates of Alabama Birmingham,"May 31, 2024",Maxillofacial CT,,,,,,,,,,,,,,,,,,,,,,
56,57,ENT Associates of Alabama,34.198598,-86.806052,granted,1948 Alabama Highway 157,Suite 410,Cullman,AL,35058,USA,,,,ct,www.google.com/search?q=ENT+Associates+of+Alabama,ENT Associates of Alabama Cullman,"May 31, 2024",Maxillofacial CT,,,,,,,,,,,,,,,,,,,,,,
57,58,ENT Care,31.235541,-85.456339,granted,"4300 West Main Street, Ste 403",,Dothan,AL,36305,USA,,www.entcare.org,,ct,,ENT Care Dothan,"Oct 31, 2023",Maxillofacial CT,,,,,,,,,,,,,,,,,,,,,,
58,59,ENT Center of Northwest Alabama,34.823065,-87.649534,granted,1949 Florence blvd,,Florence,AL,35630,USA,,entcenteralabama.com,,ct,,ENT Center of Northwest Alabama Florence,"Jan 31, 2024",Maxillofacial CT,,,,,,,,,,,,,,,,,,,,,,
59,60,ENT Centers of Excellence,30.42931,-87.683186,granted,"1851 N McKenzie, St 106",,Foley,AL,36535,USA,,www.entcoe.com/,,ct,,ENT Centers of Excellence Foley,"Jan 29, 2023",Maxillofacial CT,,,,,,,,,,,,,,,,,,,,,,
60,61,Enterprise Open MRI,31.325604,-85.835494,granted,100 Professional Lane Suite B,,Enterprise,AL,36330,USA,,,,mr,www.google.com/search?q=Enterprise+Open+MRI,Enterprise Open MRI Enterprise,,,,,"Feb 29, 2024","Musculoskeletal MRI, Neurological MRI",,,,,,,,,,,,,,,,,,
61,62,Excel ENT of Alabama,33.359817,-86.77048,granted,2161 Valleydale Rd,,Birmingham,AL,35244,USA,,www.excelental.com,,ct,,Excel ENT of Alabama Birmingham,"Sep 29, 2022",Maxillofacial CT,,,,,,,,,,,,,,,,,,,,,,
62,63,Express MRI,33.409392,-86.665447,granted,250 Doug Baker Blvd,,Birmingham,AL,35242,USA,,www.expressmri.com,,mr,,Express MRI Birmingham,,,,,"Aug 31, 2023","Musculoskeletal MRI, Neurological MRI",,,,,,,,,,,,,,,,,,
63,64,Geneva Medical Group,31.048827,-85.884424,granted,701 West Maple Ave,,Geneva,AL,36340,USA,,,,nuclear,www.google.com/search?q=Geneva+Medical+Group,Geneva Medical Group Geneva,,,,,,,"Apr 30, 2024",Myocardial Perfusion Imaging,,,,,,,,,,,,,,,,
64,65,Grandview Medical Center,33.43248,-86.723028,granted,3690 Grandview Parkway,,Birmingham,AL,35243,USA,,,,cardiac_electrophysiology,www.google.com/search?q=Grandview+Medical+Center,Grandview Medical Center Birmingham,,,,,,,,,,,,,,,,,,,"Feb 28, 2023","Testing and Ablation, Device Implantation, Chronic Lead Extraction, Left Atrial Appendage Occlusion, Device Clinic",,,,
65,66,Grandview Medical Center,33.43248,-86.723028,granted,3690 Grandview Pkwy,,Birmingham,AL,35243,USA,,,,echo,www.google.com/search?q=Grandview+Medical+Center,Grandview Medical Center Birmingham,,,"Jul 31, 2023",Adult Transthoracic,,,,,,,,,,,,,,,,,,,,
66,67,Grandview Medical Center,33.434363,-86.720483,granted,3690 Grandview Parkway,,Birmingham,AL,35243,USA,,,,nuclear,www.google.com/search?q=Grandview+Medical+Center,Grandview Medical Center Birmingham,,,,,,,"Jul 31, 2023",Myocardial Perfusion Imaging,,,,,,,,,,,,,,,,
67,68,"Healthscan Imaging, LLC",32.344817,-86.19449,granted,2525 Bell Road,,Montgomery,AL,36109,USA,,,,nuclear,"www.google.com/search?q=Healthscan+Imaging,+LLC","Healthscan Imaging, LLC Montgomery",,,,,,,"Apr 30, 2024",Myocardial Perfusion Imaging,,,,,,,,,,,,,,,,
68,69,"Heart Center, INC",34.746895,-87.702011,multigranted,1100 S Jackson Hwy,Suite 104,Sheffield,AL,35660,USA,,,,"vascular, echo","www.google.com/search?q=Heart+Center,+INC","Heart Center, INC Sheffield",,,"Jul 31, 2025",Adult Transthoracic,,,,,"Nov 30, 2023",Extracranial Cerebrovascular Testing,,,,,,,,,,,,,,
69,70,"Heart Group of Eastern Shore, PC",30.495887,-87.873913,granted,150 South Ingleside Street,4 Medical Park,Fairhope,AL,36532,USA,,,,echo,"www.google.com/search?q=Heart+Group+of+Eastern+Shore,+PC","Heart Group of Eastern Shore, PC Fairhope",,,"Mar 31, 2023",Adult Transthoracic,,,,,,,,,,,,,,,,,,,,
70,71,"Heart Group of the Eastern Shore, PC",30.519199,-87.890331,granted,150 South Ingleside Street,Suite 4,Fairhope,AL,36532,USA,,,,nuclear,"www.google.com/search?q=Heart+Group+of+the+Eastern+Shore,+PC","Heart Group of the Eastern Shore, PC Fairhope",,,,,,,"Jun 30, 2023",Myocardial Perfusion Imaging,,,,,,,,,,,,,,,,
71,72,"Heart South Cardiovascular Grooup, PC",32.854871,-86.625465,granted,206 Medical Center Drive,,Clanton,AL,35045,,,,,nuclear,"www.google.com/search?q=Heart+South+Cardiovascular+Grooup,+PC","Heart South Cardiovascular Grooup, PC Clanton",,,,,,,"Nov 30, 2022",Myocardial Perfusion Imaging,,,,,,,,,,,,,,,,
72,73,"Heart South Cardiovascular Group, PC",33.255808,-86.813755,granted,1022 1st Street North,Suite 500,Alabaster,AL,35007,USA,,www.heartsouthpc.com,,nuclear,,"Heart South Cardiovascular Group, PC Alabaster",,,,,,,"Nov 30, 2022","Equilibrium Radionuclide Angiography, Myocardial Perfusion Imaging, Positron Emission Tomography (PET)",,,,,,,,,,,,,,,,
73,74,"Heart South Cardiovascular Group, PC",33.255808,-86.813755,multigranted,"1022 1st Street, North, Suite 500",,Alabaster,AL,35007,USA,,www.heartsouthpc.com,,"vascular, echo",,"Heart South Cardiovascular Group, PC Alabaster",,,"Mar 31, 2024",Adult Transthoracic,,,,,"Aug 31, 2023",Extracranial Cerebrovascular Testing,,,,,,,,,,,,,,
74,75,"Hearts South, P.C.",31.213813,-85.361778,granted,"Doctors Building, Suite 403",1118 Ross Clark Circle,Dothan,AL,36301,USA,,heartssouthpc.com,,nuclear,,"Hearts South, P.C. Dothan",,,,,,,"Oct 31, 2023",Myocardial Perfusion Imaging,,,,,,,,,,,,,,,,
75,76,"Hearts South, PC",31.213813,-85.361778,multigranted,1118 Ross Clark Circle Suite 403,,Dothan,AL,36301,USA,,,,"echo, vascular","www.google.com/search?q=Hearts+South,+PC","Hearts South, PC Dothan",,,"Aug 31, 2024",Adult Transthoracic,,,,,"Aug 31, 2025",Extracranial Cerebrovascular Testing,,,,,,,,,,,,,,
76,77,HH Heart Center LLC of Sheffield,34.746895,-87.702011,granted,1100 S. Jackson Hwy,Suite 104,Sheffield,AL,35660,USA,,,,nuclear,www.google.com/search?q=HH+Heart+Center+LLC+of+Sheffield,HH Heart Center LLC of Sheffield Sheffield,,,,,,,"Jul 31, 2023",Myocardial Perfusion Imaging,,,,,,,,,,,,,,,,
77,78,Hoover Ear Nose and Throat Associates PC,33.379427,-86.797858,granted,2116 Data Park Circle,,Hoover,AL,35244,USA,,,,ct,www.google.com/search?q=Hoover+Ear+Nose+and+Throat+Associates+PC,Hoover Ear Nose and Throat Associates PC Hoover,"Apr 30, 2023",Maxillofacial CT,,,,,,,,,,,,,,,,,,,,,,
78,79,Houston County Healthcare Authority,31.325941,-85.835122,granted,"101 Professional Ln, A",,Enterprise,AL,36330,USA,,www.samc.org/index.php/about-us-emc/primary-care-fac/home,,nuclear,,Houston County Healthcare Authority Enterprise,,,,,,,"Apr 30, 2024",Myocardial Perfusion Imaging,,,,,,,,,,,,,,,,
79,80,"Huntsville Cardiovascular Clinic, PC",34.697117,-86.568325,granted,4601 Whitesburg Drive,Suite 201,Huntsville,AL,35802,USA,,,,echo,"www.google.com/search?q=Huntsville+Cardiovascular+Clinic,+PC","Huntsville Cardiovascular Clinic, PC Huntsville",,,"Dec 31, 2022",Adult Transthoracic,,,,,,,,,,,,,,,,,,,,
80,81,"Huntsville Ear, Nose and Throat Physicians PC",34.693943,-86.574391,granted,285 Chateau Dr,,Huntsville,AL,35801,USA,,,,ct,"www.google.com/search?q=Huntsville+Ear,+Nose+and+Throat+Physicians+PC","Huntsville Ear, Nose and Throat Physicians PC Huntsville","Apr 30, 2025",Maxillofacial CT,,,,,,,,,,,,,,,,,,,,,,
81,82,Huntsville Hospital,34.721226,-86.581547,granted,101 Sivley Road,,Huntsville,AL,35801,USA,,,,echo,www.google.com/search?q=Huntsville+Hospital,Huntsville Hospital Huntsville,,,"Dec 31, 2023",Adult Transthoracic,,,,,,,,,,,,,,,,,,,,
82,83,Huntsville Hospital,34.721226,-86.581547,granted,101 Sivley Rd,,Huntsville,AL,35801,USA,,,,nuclear,www.google.com/search?q=Huntsville+Hospital,Huntsville Hospital Huntsville,,,,,,,"Jun 30, 2023","Equilibrium Radionuclide Angiography, Myocardial Perfusion Imaging",,,,,,,,,,,,,,,,
83,84,Huntsville Hospital,34.721501,-86.577679,granted,930 Franklin Street,,Huntsville,AL,35801,USA,,,,nuclear,www.google.com/search?q=Huntsville+Hospital,Huntsville Hospital Huntsville,,,,,,,"Jun 30, 2023","Equilibrium Radionuclide Angiography, Myocardial Perfusion Imaging, Positron Emission Tomography (PET)",,,,,,,,,,,,,,,,
84,85,Huntsville Hospital,34.721501,-86.577679,granted,930 Franklin Street,,Huntsville,AL,35801,USA,,,,vascular,www.google.com/search?q=Huntsville+Hospital,Huntsville Hospital Huntsville,,,,,,,,,"Nov 30, 2023","Extracranial Cerebrovascular Testing, Peripheral Arterial Testing, Peripheral Venous Testing, Visceral Vascular Testing",,,,,,,,,,,,,,
85,86,Huntsville Hospital,34.721226,-86.581547,granted,101 Sivley Road,,Huntsville,AL,35801,USA,,,,vascular,www.google.com/search?q=Huntsville+Hospital,Huntsville Hospital Huntsville,,,,,,,,,"Nov 30, 2023","Extracranial Cerebrovascular Testing, Peripheral Arterial Testing, Peripheral Venous Testing, Visceral Vascular Testing",,,,,,,,,,,,,,
86,87,Huntsville Hospital,34.721501,-86.577679,granted,930 Franklin Street,,Huntsville,AL,35801,USA,,,,echo,www.google.com/search?q=Huntsville+Hospital,Huntsville Hospital Huntsville,,,"Dec 31, 2023",Adult Transthoracic,,,,,,,,,,,,,,,,,,,,
87,88,IH Diagnostic and Medical Clinic,30.91168,-87.78761,granted,1908 Hand Ave.,,Bay Minette,AL,36507,USA,,Diagnosticandmedicalclinic.org,,echo,,IH Diagnostic and Medical Clinic Bay Minette,,,"Feb 28, 2025",Adult Transthoracic,,,,,,,,,,,,,,,,,,,,
88,89,IH Diagnostic and Medical Clinic Eastern Shore,30.65605,-87.90157,granted,7101 US Highway 90,Suite 104,Daphne,AL,36526,USA,,Diagnosticandmedical.com,,echo,,IH Diagnostic and Medical Clinic Eastern Shore Daphne,,,"Feb 28, 2025",Adult Transthoracic,,,,,,,,,,,,,,,,,,,,
89,90,"IMC-Diagnostic and Medical Clinic, PC",30.692285,-88.078249,granted,1700 Springhill Ave. Suite 100,,Mobile,AL,36604,USA,,www.diagnosticandmedical.com,,nuclear,,"IMC-Diagnostic and Medical Clinic, PC Mobile",,,,,,,"Dec 31, 2023",Myocardial Perfusion Imaging,,,,,,,,,,,,,,,,
90,91,"IMC-Diagnostic and Medical Clinic, PC West Location",30.673708,-88.190562,granted,831-C Hillcrest Road,,Mobile,AL,36695,USA,,,,nuclear,"www.google.com/search?q=IMC-Diagnostic+and+Medical+Clinic,+PC+West+Location","IMC-Diagnostic and Medical Clinic, PC West Location Mobile",,,,,,,"Dec 31, 2023",Myocardial Perfusion Imaging,,,,,,,,,,,,,,,,
91,92,Infirmary Medical Clinics Grove Hill,31.69381,-87.77577,granted,297-A South Jackson St.,,Grove Hill,AL,36451,USA,,Diagnosticandmedicalclinic.org,,echo,,Infirmary Medical Clinics Grove Hill Grove Hill,,,"Feb 28, 2025",Adult Transthoracic,,,,,,,,,,,,,,,,,,,,
92,93,"Infirmary Medical Clinics, Diagnostic and Medical Clinic, LLC",30.79943,-88.07478,granted,1020 Cleveland Road,,Saraland,AL,36571,USA,,www.infirmaryhealth.org,,echo,,"Infirmary Medical Clinics, Diagnostic and Medical Clinic, LLC Saraland",,,"Feb 28, 2025",Adult Transthoracic,,,,,,,,,,,,,,,,,,,,
93,94,"Infirmary Medical Clinics, Diagnostic and Medical Clinic, LLC",30.665716,-88.190698,granted,831-C Hillcrest Road,,Mobile,AL,36695,USA,,www.infirmaryhealth.org,,echo,,"Infirmary Medical Clinics, Diagnostic and Medical Clinic, LLC Mobile",,,"Feb 28, 2025",Adult Transthoracic,,,,,,,,,,,,,,,,,,,,
94,95,"J. Scott Robertson MD, PC",33.383015,-86.732122,granted,2001 Providence Park,,Birmingham,AL,35242,USA,,,,ct,"www.google.com/search?q=J.+Scott+Robertson+MD,+PC","J. Scott Robertson MD, PC Birmingham","Dec 30, 2022",Maxillofacial CT,,,,,,,,,,,,,,,,,,,,,,
95,96,Jasper,33.840956,-87.236303,granted,3400 Highway 78 East,Suite 205,Jasper,AL,35501,USA,,entalabama.com,,ct,,Jasper Jasper,"May 31, 2024",Maxillofacial CT,,,,,,,,,,,,,,,,,,,,,,
96,97,"John F. Simmons, MD, PC",31.050023,-85.891427,granted,915 West Hospital Drive,,Geneva,AL,36340,USA,,,,nuclear,"www.google.com/search?q=John+F.+Simmons,+MD,+PC","John F. Simmons, MD, PC Geneva",,,,,,,"Apr 30, 2024",Myocardial Perfusion Imaging,,,,,,,,,,,,,,,,
97,98,"Krichev Family Medicine, PC",34.690528,-86.507312,granted,5540 Highway 431 South,,Brownsboro,AL,35741,USA,,,,nuclear,"www.google.com/search?q=Krichev+Family+Medicine,+PC","Krichev Family Medicine, PC Brownsboro",,,,,,,"Apr 30, 2024",Myocardial Perfusion Imaging,,,,,,,,,,,,,,,,
98,99,Lake Martin Vascular Clinic,32.920151,-85.955288,granted,1120 Airport Drive Suite 102,,Alexander City,AL,35010,USA,,,,vascular,www.google.com/search?q=Lake+Martin+Vascular+Clinic,Lake Martin Vascular Clinic Alexander City,,,,,,,,,"Oct 30, 2022","Peripheral Arterial Testing, Peripheral Venous Testing",,,,,,,,,,,,,,
99,100,Madison Hospital,34.749229,-86.764968,granted,8375 Hwy 72 W,,Madison,AL,35758,United States ,,madisonalhospital.org,,echo,,Madison Hospital Madison,,,"Dec 31, 2023",Adult Transthoracic,,,,,,,,,,,,,,,,,,,,
100,101,Madison Hospital Vein Center,34.749493,-86.763646,granted,8371 Hwy 72 West,,Madison,AL,35758,USA,,,,vascular,www.google.com/search?q=Madison+Hospital+Vein+Center,Madison Hospital Vein Center Madison,,,,,,,,,"Jun 30, 2024",Peripheral Venous Testing,,,,,,,,,,,,,,
101,102,Medical Care Associates,32.482346,-86.424611,granted,102 Medical Center Dr Suite A,,Prattville,AL,36066,USA,,,,nuclear,www.google.com/search?q=Medical+Care+Associates,Medical Care Associates Prattville,,,,,,,"Apr 30, 2024",Myocardial Perfusion Imaging,,,,,,,,,,,,,,,,
102,103,"Medical West Hospital Authority, An Affiliate of UAB Health System",33.373086,-86.991709,granted,995 9th Avenue SW,,Bessemer,AL,35022,USA,,www.medicalwesthospital.org,,vascular,,"Medical West Hospital Authority, An Affiliate of UAB Health System Bessemer",,,,,,,,,"Jul 31, 2023","Extracranial Cerebrovascular Testing, Peripheral Arterial Testing, Peripheral Venous Testing",,,,,,,,,,,,,,
103,104,"Medvision, L.L.C.",32.344817,-86.19449,granted,2525 Bell Road,,Montgomery,AL,36117,USA,,,,nuclear,"www.google.com/search?q=Medvision,+L.L.C.","Medvision, L.L.C. Montgomery",,,,,,,"Apr 30, 2024",Myocardial Perfusion Imaging,,,,,,,,,,,,,,,,
104,105,Mobile Cardiovascular Imaging,30.691623,-88.086001,granted,1901 Springhill Avenue,,Mobile,AL,36607,USA,,,,vascular,www.google.com/search?q=Mobile+Cardiovascular+Imaging,Mobile Cardiovascular Imaging Mobile,,,,,,,,,"Feb 28, 2025","Extracranial Cerebrovascular Testing, Peripheral Arterial Testing, Peripheral Venous Testing",,,,,,,,,,,,,,
105,106,"Mobile Heart Specialists, PC",31.473944,-86.908979,granted,100 Lewis Steet,PO Box 706,Evergreen,AL,36401,USA,,,,echo,"www.google.com/search?q=Mobile+Heart+Specialists,+PC","Mobile Heart Specialists, PC Evergreen",,,"May 31, 2025",Adult Stress,,,,,,,,,,,,,,,,,,,,
106,107,"Mobile Heart Specialists, PC",31.089917,-88.237501,granted,19140 South 3rd Street,,Citronelle,AL,36522,USA,,,,echo,"www.google.com/search?q=Mobile+Heart+Specialists,+PC","Mobile Heart Specialists, PC Citronelle",,,"May 31, 2025",Adult Transthoracic,,,,,,,,,,,,,,,,,,,,
107,108,"Mobile Heart Specialists, PC",30.681005,-88.196806,granted,6701 Suite A-107 Airport Blvd,,Mobile,AL,36608,USA,,mobheart.com,,nuclear,,"Mobile Heart Specialists, PC Mobile",,,,,,,"Nov 30, 2023",Myocardial Perfusion Imaging,,,,,,,,,,,,,,,,
108,109,"Mobile Heart Specialists, PC",30.681005,-88.196806,granted,6701 Airport Boulevard,Suite A-107,Mobile,AL,36608,USA,,www.mobheart.com,,echo,,"Mobile Heart Specialists, PC Mobile",,,"May 31, 2025","Adult Stress, Adult Transthoracic",,,,,,,,,,,,,,,,,,,,
109,110,Mobile Infirmary Medical Center,30.696441,-88.08101,multigranted,5 Mobile Infirmary Circle,,Mobile,AL,36607,USA,,www.mobileinfirmary.org,,"vascular, echo",,Mobile Infirmary Medical Center Mobile,,,"Feb 28, 2025",Adult Transthoracic,,,,,"May 31, 2024","Extracranial Cerebrovascular Testing, Peripheral Arterial Testing, Peripheral Venous Testing",,,,,,,,,,,,,,
110,111,"Mohammad Yunus, MD, PA",30.787945,-85.675052,granted,404 E Hwy 90,,Bonifay,AL,32425,USA,,,,nuclear,"www.google.com/search?q=Mohammad+Yunus,+MD,+PA","Mohammad Yunus, MD, PA Bonifay",,,,,,,"Apr 30, 2024",Myocardial Perfusion Imaging,,,,,,,,,,,,,,,,
111,112,Montgomery Cardiovascular Associates,32.601879,-86.204281,granted,"277 Huntress Street, Suite 203",,Wetumpka,AL,36092,USA,,,,nuclear,www.google.com/search?q=Montgomery+Cardiovascular+Associates,Montgomery Cardiovascular Associates Wetumpka,,,,,,,"Mar 31, 2025",Myocardial Perfusion Imaging,,,,,,,,,,,,,,,,
112,113,Montgomery Cardiovascular Associates,31.807878,-85.989299,granted,199 US Hwy 231 N,,Troy,AL,36081,USA,,,,nuclear,www.google.com/search?q=Montgomery+Cardiovascular+Associates,Montgomery Cardiovascular Associates Troy,,,,,,,"Mar 31, 2025",Myocardial Perfusion Imaging,,,,,,,,,,,,,,,,
113,114,Montgomery Cardiovascular Associates,32.378431,-86.172628,granted,273 Winton M. Blount Loop,,Montgomery,AL,36117,USA,,www.mcva.com,,nuclear,,Montgomery Cardiovascular Associates Montgomery,,,,,,,"Mar 31, 2025","Equilibrium Radionuclide Angiography, Myocardial Perfusion Imaging, Other Cardiovascular Imaging",,,,,,,,,,,,,,,,
114,115,Montgomery Cardiovascular Associates,32.378431,-86.172628,granted,273 Winton M. Blount Loop,,Montgomery,AL,36117,USA,,www.mcva.com,,echo,,Montgomery Cardiovascular Associates Montgomery,,,"Oct 30, 2022",Adult Transthoracic,,,,,,,,,,,,,,,,,,,,
115,116,Montgomery Otolaryngology,32.368249,-86.285473,granted,1111 Olive Street,,Montgomery,AL,36106,USA,,,,ct,www.google.com/search?q=Montgomery+Otolaryngology,Montgomery Otolaryngology Montgomery,"Jul 31, 2024",Maxillofacial CT,,,,,,,,,,,,,,,,,,,,,,
116,117,Montgomery Vascular Surgery,32.327124,-86.278093,granted,2055 East South Boulevard,Suite 503,Montgomery,AL,36116,USA,,,,vascular,www.google.com/search?q=Montgomery+Vascular+Surgery,Montgomery Vascular Surgery Montgomery,,,,,,,,,"Jul 31, 2025","Extracranial Cerebrovascular Testing, Peripheral Arterial Testing, Peripheral Venous Testing",,,,,,,,,,,,,,
117,118,Mulberry Medical Associates,32.366722,-86.283189,granted,1301 Mulberry Street,,Montgomery,AL,36117,USA,,,,nuclear,www.google.com/search?q=Mulberry+Medical+Associates,Mulberry Medical Associates Montgomery,,,,,,,"Apr 30, 2024",Myocardial Perfusion Imaging,,,,,,,,,,,,,,,,
118,119,North Alabama ENT Associates,34.723508,-86.579195,granted,1963 Memorial Parkway SW,Suite 5,Huntsville,AL,35801,USA,,www.nalent.com,,ct,,North Alabama ENT Associates Huntsville,"Feb 28, 2023",Maxillofacial CT,,,,,,,,,,,,,,,,,,,,,,
119,120,Northeast Orthopedic Clinic PC,34.00603,-86.005267,granted,507 South 4th Street,,Gadsden,AL,35901,USA,,,,mr,www.google.com/search?q=Northeast+Orthopedic+Clinic+PC,Northeast Orthopedic Clinic PC Gadsden,,,,,"Oct 31, 2023",Musculoskeletal MRI,,,,,,,,,,,,,,,,,,
120,121,OrthoSports 1st,33.34466,-86.849581,granted,1031 Brock’s Gap Pkwy Ste 185,,Hoover,AL,35244,USA,,,,mr,www.google.com/search?q=OrthoSports+1st,OrthoSports 1st Hoover,,,,,"Aug 31, 2023",Musculoskeletal MRI,,,,,,,,,,,,,,,,,,
121,122,Pell City Internal and Family Medicine,33.605946,-86.302964,granted,"41 Eminence Way, Suite A",,Pell City,AL,35128,USA,,,,nuclear,www.google.com/search?q=Pell+City+Internal+and+Family+Medicine,Pell City Internal and Family Medicine Pell City,,,,,,,"Apr 30, 2024",Myocardial Perfusion Imaging,,,,,,,,,,,,,,,,
122,123,Phenix City Children’s and Family Clinic,32.497692,-85.042128,granted,"3700 South Railroad Street, Ste A",,Phenix City,AL,36867,United States,,,,nuclear,www.google.com/search?q=Phenix+City+Children’s+and+Family+Clinic,Phenix City Children’s and Family Clinic Phenix City,,,,,,,"Apr 30, 2024",Myocardial Perfusion Imaging,,,,,,,,,,,,,,,,
123,124,Physicians Care of Thomasville,31.804011,-87.753903,granted,33621 Hwy 43 Suite 202,,Thomasville,AL,36784,USA,,,,nuclear,www.google.com/search?q=Physicians+Care+of+Thomasville,Physicians Care of Thomasville Thomasville,,,,,,,"Apr 30, 2024",Myocardial Perfusion Imaging,,,,,,,,,,,,,,,,
124,125,Piedmont Physicians Columbus,32.892713,-85.874908,granted,5009 Riverchase Drive Suite 500,,Phenix City,AL,36867,United States,,,,nuclear,www.google.com/search?q=Piedmont+Physicians+Columbus,Piedmont Physicians Columbus Phenix City,,,,,,,"Apr 30, 2024",Myocardial Perfusion Imaging,,,,,,,,,,,,,,,,
125,126,Pinnacle Cardiovascular Associates,32.827354,-85.187796,granted,1701 48th Street,,Valley,AL,36854,USA,,,,nuclear,www.google.com/search?q=Pinnacle+Cardiovascular+Associates,Pinnacle Cardiovascular Associates Valley,,,,,,,"Mar 31, 2024",Myocardial Perfusion Imaging,,,,,,,,,,,,,,,,
126,127,"Pinnacle Cardiovascular Associates, LLC",32.624273,-85.460091,granted,2601 Village Professional Drive,,Opelika,AL,36801,USA,,,,echo,"www.google.com/search?q=Pinnacle+Cardiovascular+Associates,+LLC","Pinnacle Cardiovascular Associates, LLC Opelika",,,"Sep 29, 2022",Adult Transthoracic,,,,,,,,,,,,,,,,,,,,
127,128,Premier Cardiology Consultants,31.452762,-85.632554,granted,320 White Ave,,Ozark,AL,36360,USA,,,,nuclear,www.google.com/search?q=Premier+Cardiology+Consultants,Premier Cardiology Consultants Ozark,,,,,,,"Apr 30, 2024",Myocardial Perfusion Imaging,,,,,,,,,,,,,,,,
128,129,Premier Cardiology Consultants,31.321907,-85.833874,granted,"806 Glover Ave, Ste A",,Enterprise,AL,36330,USA,,,,nuclear,www.google.com/search?q=Premier+Cardiology+Consultants,Premier Cardiology Consultants Enterprise,,,,,,,"Apr 30, 2024",Myocardial Perfusion Imaging,,,,,,,,,,,,,,,,
129,130,"Premier Cardiology Consultants, Inc.",31.297462,-86.495599,granted,"109 Medical Park Drive, Ste A",,Andalusia,AL,36420,USA,,,,nuclear,"www.google.com/search?q=Premier+Cardiology+Consultants,+Inc.","Premier Cardiology Consultants, Inc. Andalusia",,,,,,,"Apr 30, 2024",Myocardial Perfusion Imaging,,,,,,,,,,,,,,,,
130,131,"Premier Cardiology Consultants, Inc.",31.21335,-85.36214,granted,1093 Ross Clark Circle,,Dothan,AL,36303,USA,,,,nuclear,"www.google.com/search?q=Premier+Cardiology+Consultants,+Inc.","Premier Cardiology Consultants, Inc. Dothan",,,,,,,"Apr 30, 2024",Myocardial Perfusion Imaging,,,,,,,,,,,,,,,,
131,132,"Premier Health Center, LLC",33.757335,-87.06424,granted,"2165 Hwy 78, Ste 100",,Dora,AL,35062,USA,,,,nuclear,"www.google.com/search?q=Premier+Health+Center,+LLC","Premier Health Center, LLC Dora",,,,,,,"Apr 30, 2024",Myocardial Perfusion Imaging,,,,,,,,,,,,,,,,
132,133,Primary Care Internists,32.366604,-86.285328,granted,1722 Pine Street,,Montgomery,AL,36106,USA,,,,nuclear,www.google.com/search?q=Primary+Care+Internists,Primary Care Internists Montgomery,,,,,,,"Apr 30, 2024",Myocardial Perfusion Imaging,,,,,,,,,,,,,,,,
133,134,Princeton Baptist Medical Center,33.499133,-86.846016,granted,701 Princeton Ave. SW,,Birmingham,AL,35211,USA,,princetonbaptistmedicalcenter.com,,echo,,Princeton Baptist Medical Center Birmingham,,,"Sep 30, 2024",Adult Transthoracic,,,,,,,,,,,,,,,,,,,,
134,135,"Professional Medical Associates, PC",31.317689,-85.855844,granted,"101 East Brunson Street, Suite 200",,Enterprise,AL,36330,USA,,,,nuclear,"www.google.com/search?q=Professional+Medical+Associates,+PC","Professional Medical Associates, PC Enterprise",,,,,,,"Apr 30, 2024",Myocardial Perfusion Imaging,,,,,,,,,,,,,,,,
135,136,"Rao Heart and Vascular, LLC",31.24318,-85.452963,granted,200 Medical Care Way,,Dothan,AL,36303,,,,,nuclear,"www.google.com/search?q=Rao+Heart+and+Vascular,+LLC","Rao Heart and Vascular, LLC Dothan",,,,,,,"Apr 30, 2024",Myocardial Perfusion Imaging,,,,,,,,,,,,,,,,
136,137,"Rihner, Gupta and Grosz Cardiology, P.C.",30.680806,-88.203079,multigranted,600 Providence Park Drive East,,Mobile,AL,36695,USA,,,,"echo, nuclear, vascular","www.google.com/search?q=Rihner,+Gupta+and+Grosz+Cardiology,+P.C.","Rihner, Gupta and Grosz Cardiology, P.C. Mobile",,,"Dec 31, 2022",Adult Transthoracic,,,"Dec 31, 2022","Myocardial Perfusion Imaging, Positron Emission Tomography (PET)","Dec 31, 2022","Extracranial Cerebrovascular Testing, Peripheral Arterial Testing, Peripheral Venous Testing",,,,,,,,,,,,,,
137,138,River Region Cardiology,32.380344,-86.174037,granted,185 Mitylene Park Lane,,Montgomery,AL,36117,USA,,,,echo,www.google.com/search?q=River+Region+Cardiology,River Region Cardiology Montgomery,,,"Feb 29, 2024",Adult Transthoracic,,,,,,,,,,,,,,,,,,,,
138,139,"River Region Cardiology Associates, PC",32.380344,-86.174037,granted,185 Mitylene Park Lane,,Montgomery,AL,36117,USA,,www.rrcamd.com,,nuclear,,"River Region Cardiology Associates, PC Montgomery",,,,,,,"Dec 31, 2024","Myocardial Perfusion Imaging, Positron Emission Tomography (PET)",,,,,,,,,,,,,,,,
139,140,Salame Heart and Vascular Clinic,33.655754,-85.824926,multigranted,1031 Quintard Ave,Suite IA,Anninston,AL,36201,USA,,,,"echo, nuclear",www.google.com/search?q=Salame+Heart+and+Vascular+Clinic,Salame Heart and Vascular Clinic Anninston,,,"Dec 31, 2022",Adult Transthoracic,,,"Mar 31, 2024",Myocardial Perfusion Imaging,,,,,,,,,,,,,,,,
140,141,"Scottsboro Quick Care Clinics, Inc.",34.655568,-86.035164,granted,"1508 South Broad Street, Suite 200",,Scottsboro,AL,35768,USA,,,,nuclear,"www.google.com/search?q=Scottsboro+Quick+Care+Clinics,+Inc.","Scottsboro Quick Care Clinics, Inc. Scottsboro",,,,,,,"Apr 30, 2024",Myocardial Perfusion Imaging,,,,,,,,,,,,,,,,
141,142,"Seale Harris Clinic,pc",33.509239,-86.788353,granted,805 St. Vincent’s Drive,Suite 510,Birmingham,AL,35205,USA,,www.sealeharris.com,,nuclear,,"Seale Harris Clinic,pc Birmingham",,,,,,,"Jul 31, 2023",Myocardial Perfusion Imaging,,,,,,,,,,,,,,,,
142,143,South Baldwin Regional Medical Center,30.426109,-87.683187,granted,1613 North McKenzie Street,,Foley,AL,36535,USA,,www.southbaldwinrmc.com,,echo,,South Baldwin Regional Medical Center Foley,,,"Jan 31, 2025",Adult Transthoracic,,,,,,,,,,,,,,,,,,,,
143,144,Southeast Cardiology - Dothan,31.212912,-85.362277,granted,1146 Ross Clark Circle,,Dothan,AL,36301,USA,,,,nuclear,www.google.com/search?q=Southeast+Cardiology+-+Dothan,Southeast Cardiology - Dothan Dothan,,,,,,,"Apr 30, 2023",Myocardial Perfusion Imaging,,,,,,,,,,,,,,,,
144,145,Southeast Cardiology - Enterprise,31.318182,-85.85707,granted,409 N Main Street,,Enterprise,AL,36330,USA,,,,nuclear,www.google.com/search?q=Southeast+Cardiology+-+Enterprise,Southeast Cardiology - Enterprise Enterprise,,,,,,,"Apr 30, 2023",Myocardial Perfusion Imaging,,,,,,,,,,,,,,,,
145,146,Southeast Cardiology Clinic - Dothan,31.212912,-85.362277,multigranted,1146 Ross Clark Circle,,Dothan,AL,36301,USA,,,,"echo, vascular",www.google.com/search?q=Southeast+Cardiology+Clinic+-+Dothan,Southeast Cardiology Clinic - Dothan Dothan,,,"May 31, 2023",Adult Transthoracic,,,,,"May 31, 2023",Extracranial Cerebrovascular Testing,,,,,,,,,,,,,,
146,147,Southeast Cardiology Clinic - Dothan South,31.21236,-85.362881,multigranted,2020 Alexander Drive,,Dothan,AL,36301,,,,,"echo, vascular",www.google.com/search?q=Southeast+Cardiology+Clinic+-+Dothan+South,Southeast Cardiology Clinic - Dothan South Dothan,,,"May 31, 2023",Adult Transthoracic,,,,,"May 31, 2023",Extracranial Cerebrovascular Testing,,,,,,,,,,,,,,
147,148,Southeast Cardiology Clinic - Enterprise,31.318182,-85.85707,multigranted,409 North Main Street,,Enterprise,AL,36330,USA,,,,"echo, vascular",www.google.com/search?q=Southeast+Cardiology+Clinic+-+Enterprise,Southeast Cardiology Clinic - Enterprise Enterprise,,,"May 31, 2023",Adult Transthoracic,,,,,"May 31, 2023",Extracranial Cerebrovascular Testing,,,,,,,,,,,,,,
148,149,Southeast Cardiology Clinic - Troy,31.822604,-85.994945,granted,1340 US-231 S,Suite 2,Troy,AL,36081,USA,,,,echo,www.google.com/search?q=Southeast+Cardiology+Clinic+-+Troy,Southeast Cardiology Clinic - Troy Troy,,,"May 31, 2023",Adult Transthoracic,,,,,,,,,,,,,,,,,,,,
149,150,Southeastern Cardiology Consultants,32.327124,-86.278093,granted,"2055 East South Boulevard, Suite 403",,Montgomery,AL,36116,USA,,,,nuclear,www.google.com/search?q=Southeastern+Cardiology+Consultants,Southeastern Cardiology Consultants Montgomery,,,,,,,"Apr 30, 2024",Myocardial Perfusion Imaging,,,,,,,,,,,,,,,,
150,151,"Southeastern Cardiology Consultants, PC",32.327124,-86.278093,multigranted,2055 East South Blvd.,Suite 403,Montgomery,AL,36116,USA,,,,"echo, vascular","www.google.com/search?q=Southeastern+Cardiology+Consultants,+PC","Southeastern Cardiology Consultants, PC Montgomery",,,"Dec 31, 2023",Adult Transthoracic,,,,,"Jan 31, 2024",Extracranial Cerebrovascular Testing,,,,,,,,,,,,,,
151,152,"Southern Health Associates, LLC",31.782676,-85.94739,granted,801 South Franklin,,Troy,AL,36081,USA,,,,nuclear,"www.google.com/search?q=Southern+Health+Associates,+LLC","Southern Health Associates, LLC Troy",,,,,,,"Apr 30, 2024",Myocardial Perfusion Imaging,,,,,,,,,,,,,,,,
152,153,"Southview Medical Group, PC",33.509156,-86.788316,multigranted,"833 St. Vincent’s Dr. POB 3, Suite 300",,Birmingham,AL,35205,USA,,,,"echo, nuclear","www.google.com/search?q=Southview+Medical+Group,+PC","Southview Medical Group, PC Birmingham",,,"Feb 28, 2023",Adult Transthoracic,,,"Jan 31, 2024","Equilibrium Radionuclide Angiography, Myocardial Perfusion Imaging",,,,,,,,,,,,,,,,
153,154,Springhill Memorial Hospital,30.685946,-88.131719,multigranted,3719 Dauphin Street,,Mobile,AL,36608,USA,,springhillmedicalcenter.com,,"vascular, echo",,Springhill Memorial Hospital Mobile,,,"Oct 30, 2022",Adult Transthoracic,,,,,"Sep 29, 2022","Extracranial Cerebrovascular Testing, Peripheral Arterial Testing, Peripheral Venous Testing, Visceral Vascular Testing",,,,,,,,,,,,,,
154,155,St. Vincent’s,33.509156,-86.788316,granted,833 St. Vincent’s Drive,POB-3 Suite 402,Birmingham,AL,35205,USA,,entalabama.com,,ct,,St. Vincent’s Birmingham,"May 31, 2024",Maxillofacial CT,,,,,,,,,,,,,,,,,,,,,,
155,156,St. Vincent’s East,33.59576,-86.664984,granted,50 Medical Park Drive East,,Birmingham,AL,35235,USA,,,,echo,www.google.com/search?q=St.+Vincent’s+East,St. Vincent’s East Birmingham,,,"Nov 30, 2024",Adult Transthoracic,,,,,,,,,,,,,,,,,,,,
156,157,St. Vincent’s One Nineteen,33.422828,-86.670189,granted,7191 Cahaba Valley Road,,Birmingham,AL,35242,USA,,,,echo,www.google.com/search?q=St.+Vincent’s+One+Nineteen,St. Vincent’s One Nineteen Birmingham,,,"Sep 30, 2024",Adult Transthoracic,,,,,,,,,,,,,,,,,,,,
157,158,The Childrens Hospital of Alabama,33.503222,-86.805381,granted,1600 7th Avenue South,"4th Floor BRHC, attn Heather Hargis",Birmingham,AL,35233,USA,,,,pediatric_echo,www.google.com/search?q=The+Childrens+Hospital+of+Alabama,The Childrens Hospital of Alabama Birmingham,,,,,,,,,,,"Jul 31, 2024",Pediatric Transthoracic,,,,,,,,,,,,
158,159,The Kirklin Clinic at Acton Road,33.413416,-86.760006,granted,2145 Bonner Way,,Birmingham,AL,35243,USA,,,,nuclear,www.google.com/search?q=The+Kirklin+Clinic+at+Acton+Road,The Kirklin Clinic at Acton Road Birmingham,,,,,,,"Aug 31, 2025",Myocardial Perfusion Imaging,,,,,,,,,,,,,,,,
159,160,The Kirklin Clinic at Acton Road,33.413396,-86.760029,granted,2145 Bonner Way,,Birmingham,AL,35243,USA,,,,echo,www.google.com/search?q=The+Kirklin+Clinic+at+Acton+Road,The Kirklin Clinic at Acton Road Birmingham,,,"Oct 31, 2024",Adult Transthoracic,,,,,,,,,,,,,,,,,,,,
160,161,The Kirklin Clinic of UAB Hospital,33.507361,-86.799892,granted,2000 Sixth Avenue South,,Birmingham,AL,35233,USA,,,,echo,www.google.com/search?q=The+Kirklin+Clinic+of+UAB+Hospital,The Kirklin Clinic of UAB Hospital Birmingham,,,"Oct 31, 2024","Adult Transesophageal, Adult Transthoracic",,,,,,,,,,,,,,,,,,,,
161,162,The Kirklin Clinic of UAB Hospital,33.507361,-86.799892,granted,2000 6th Avenue South,4th Floor Nuclear Cardiology,Birmingham,AL,35233,USA,,,,nuclear,www.google.com/search?q=The+Kirklin+Clinic+of+UAB+Hospital,The Kirklin Clinic of UAB Hospital Birmingham,,,,,,,"Aug 31, 2025","Equilibrium Radionuclide Angiography, Myocardial Perfusion Imaging, Other Cardiovascular Imaging",,,,,,,,,,,,,,,,
162,163,"The Orthopaedic Center, PC",34.723508,-86.579195,granted,927 Franklin St.,3rd Floor,Huntsville,AL,35801,USA,,www.visittoc.com,,ct,,"The Orthopaedic Center, PC Huntsville","Nov 30, 2024",Body CT,,,,,,,,,,,,,,,,,,,,,,
163,164,The Vascular Institute of Birmingham,33.588286,-86.682363,granted,1112 Gene Reed Road,,Birmingham,AL,35235,USA,,https:www.new-legs.com,,vascular,,The Vascular Institute of Birmingham Birmingham,,,,,,,,,"Nov 30, 2023","Extracranial Cerebrovascular Testing, Peripheral Arterial Testing, Peripheral Venous Testing",,,,,,,,,,,,,,
164,165,Thomas Hospital,30.519999,-87.890333,granted,750 Morphy Avenue,,Fairhope,AL,36533,USA,,,,echo,www.google.com/search?q=Thomas+Hospital,Thomas Hospital Fairhope,,,"Jul 31, 2023",Adult Transthoracic,,,,,,,,,,,,,,,,,,,,
165,166,Thomas Hospital Vascular Laboratory,30.519999,-87.890333,granted,750 Morphy Avenue,P.O. Drawer 929,Fairhope,AL,36533,USA,,www.thomashospital.com,,vascular,,Thomas Hospital Vascular Laboratory Fairhope,,,,,,,,,"May 31, 2025","Extracranial Cerebrovascular Testing, Peripheral Arterial Testing, Peripheral Venous Testing",,,,,,,,,,,,,,
166,167,Tuscaloosa Ear Nose Throat Center,33.23013,-87.534859,granted,1300 McFarland Blvd NE Suite 150,,Tuscaloosa,AL,35406,USA,,tuscaloosaent.com,,ct,,Tuscaloosa Ear Nose Throat Center Tuscaloosa,"Nov 30, 2024",Maxillofacial CT,,,,,,,,,,,,,,,,,,,,,,
167,168,UAB Cardiovascular MRI,33.507556,-86.809324,granted,D101 Boshell Diabetes Building,University of Alabama at Birmingham,Birmingham,AL,35294,USA,,,,mr,www.google.com/search?q=UAB+Cardiovascular+MRI,UAB Cardiovascular MRI Birmingham,,,,,"Apr 30, 2025","Cardiovascular MRI, Neurological MRI, MRA",,,,,,,,,,,,,,,,,,
168,169,UAB Highlands,33.495602,-86.806804,granted,1201 11th Avenue South,Suite 301,Birmingham,AL,35205,USA,,,,vascular,www.google.com/search?q=UAB+Highlands,UAB Highlands Birmingham,,,,,,,,,"Dec 30, 2022","Extracranial Cerebrovascular Testing, Peripheral Arterial Testing, Peripheral Venous Testing, Visceral Vascular Testing, Screening",,,,,,,,,,,,,,
169,170,UAB Medicine Primary and Specialty Care of Gardendale,33.6494,-86.819169,granted,960 Rocket Way,,Gardendale,AL,35071,USA,,,,echo,www.google.com/search?q=UAB+Medicine+Primary+and+Specialty+Care+of+Gardendale,UAB Medicine Primary and Specialty Care of Gardendale Gardendale,,,"Oct 31, 2024",Adult Transthoracic,,,,,,,,,,,,,,,,,,,,
170,171,University of Alabama Birmingham Hospital,33.522859,-86.807705,granted,Sw 619th St S,,Birmingham,AL,35249,USA,,,,echo,www.google.com/search?q=University+of+Alabama+Birmingham+Hospital,University of Alabama Birmingham Hospital Birmingham,,,"Oct 31, 2024",Adult Transthoracic,,,,,,,,,,,,,,,,,,,,
171,172,University of Alabama Birmingham- Highlands,33.495602,-86.806804,granted,1201 11th Ave S,,Birmingham,AL,35205,USA,,,,echo,www.google.com/search?q=University+of+Alabama+Birmingham-+Highlands,University of Alabama Birmingham- Highlands Birmingham,,,"Oct 31, 2024",Adult Transthoracic,,,,,,,,,,,,,,,,,,,,
172,173,University of Alabama Hospital at Birmingham,33.51385,-86.809527,granted,1720 2nd Ave South,NP6300,Birmingham,AL,35294,USA,,,,cardiac_electrophysiology,www.google.com/search?q=University+of+Alabama+Hospital+at+Birmingham,University of Alabama Hospital at Birmingham Birmingham,,,,,,,,,,,,,,,,,,,"Sep 30, 2022","Testing and Ablation, Device Implantation, Chronic Lead Extraction, Left Atrial Appendage Occlusion, Device Clinic",,,,
173,174,University of Health Services Foundation,33.495602,-86.806804,granted,1201 11th Avenue South,Suite 301,Birmingham,AL,35205,USA,,uabhealth.org/vein,,vein_center,,University of Health Services Foundation Birmingham,,,,,,,,,,,,,,,,,"Apr 30, 2023",Superficial Venous Evaluation and Management,,,,,,
174,175,"University of South Alabama, by and through its USA Health Physicians Group, Pediatric Cardiology Cl",30.695661,-88.074831,granted,"1601 Center Street, Suite 1S",,Mobile,AL,36604,USA,,,,pediatric_echo,"www.google.com/search?q=University+of+South+Alabama,+by+and+through+its+USA+Health+Physicians+Group,+Pediatric+Cardiology+Cl","University of South Alabama, by and through its USA Health Physicians Group, Pediatric Cardiology Cl Mobile",,,,,,,,,,,"Apr 30, 2025","Pediatric Transthoracic, Fetal",,,,,,,,,,,,
175,176,University Orthopaedic Clinic,33.205428,-87.531529,granted,400 Paul Bryant Drive East,,Tuscaloosa,AL,35401,USA,,,,mr,www.google.com/search?q=University+Orthopaedic+Clinic,University Orthopaedic Clinic Tuscaloosa,,,,,"Sep 30, 2024",Musculoskeletal MRI,,,,,,,,,,,,,,,,,,
176,177,USA Health University Hospital,30.716146,-88.09558,multigranted,2451 University Hospital Drive,,Mobile,AL,36617,USA,,,,"echo, nuclear",www.google.com/search?q=USA+Health+University+Hospital,USA Health University Hospital Mobile,,,"Dec 31, 2022",Adult Transthoracic,,,"May 31, 2025",Myocardial Perfusion Imaging,,,,,,,,,,,,,,,,
177,178,"Valley E.N.T Associates, P.C.",34.779123,-86.927278,granted,15232 Greenfield Dr.,,Athens,AL,35613,USA,,,,ct,"www.google.com/search?q=Valley+E.N.T+Associates,+P.C.","Valley E.N.T Associates, P.C. Athens","May 31, 2025",Maxillofacial CT,,,,,,,,,,,,,,,,,,,,,,
178,179,"Valley Vascular Consultants, P.C.",34.721067,-86.582199,granted,201 Sivley  Road,Suite 530,Huntsville,AL,35801,USA,,www.tvvc.org,,vascular,,"Valley Vascular Consultants, P.C. Huntsville",,,,,,,,,"Mar 01, 2023",Extracranial Cerebrovascular Testing,,,,,,,,,,,,,,
179,180,Varicosity Vein Center,33.48243,-86.787457,multigranted,2704 20th Street So,Suite 100,Homewood,AL,35209,USA,,www.varicosityveincenter.com,,"vein_center, vascular",,Varicosity Vein Center Homewood,,,,,,,,,"Apr 30, 2025",Peripheral Venous Testing,,,,,,,"Jun 30, 2023",Superficial Venous Evaluation and Management,,,,,,
180,181,Vascular Lab at The Kirklin Clinic of UAB Hospital,33.507361,-86.799892,granted,"2000 6th Avenue South, 5th Floor",,Birmingham,AL,35233,USA,,,,vascular,www.google.com/search?q=Vascular+Lab+at+The+Kirklin+Clinic+of+UAB+Hospital,Vascular Lab at The Kirklin Clinic of UAB Hospital Birmingham,,,,,,,,,"Dec 30, 2022","Extracranial Cerebrovascular Testing, Peripheral Arterial Testing, Peripheral Venous Testing, Visceral Vascular Testing, Screening",,,,,,,,,,,,,,
181,182,Wiregrass Surgical Associates,31.235541,-85.456339,granted,4300 West Main St. Suite 24,,Dothan,AL,36305,USA,,mrossusgraceba.net,,vascular,,Wiregrass Surgical Associates Dothan,,,,,,,,,"Nov 29, 2022",Extracranial Cerebrovascular Testing,,,,,,,,,,,,,,
