,id,name,lat,lng,category,address,address2,city,state,postal,country,phone,web,features,modalities,searchGoogle,search,ct,ct_areas,echo,echo_areas,mr,mr_areas,nuclear,nuclear_areas,vascular,vascular_areas,pediatric_echo,pediatric_echo_areas,ct-dental,ct-dental_areas,stenting,stenting_areas,vein_center,vein_center_areas,cardiac_electrophysiology,cardiac_electrophysiology_areas,cardiovascular_catheterization,cardiovascular_catheterization_areas,jrcdms,jrcdms_areas
0,1,Academy Heights Foot Clinic PC,38.947048,-104.808365,granted,1155 Kelly Johnson Blvd,#310,Colorado Springs,CO,80920,USA,,,,mr,www.google.com/search?q=Academy+Heights+Foot+Clinic+PC,Academy Heights Foot Clinic PC Colorado Springs,,,,,"Nov 30, 2023",Musculoskeletal MRI,,,,,,,,,,,,,,,,,,
1,2,Advanced ENT and Allergy Center,39.618675,-104.902397,granted,7400 East Crestline Circle,Suite 100,Greenwood Village,CO,80111,USA,,,,ct,www.google.com/search?q=Advanced+ENT+and+Allergy+Center,Advanced ENT and Allergy Center Greenwood Village,"Aug 31, 2024",Maxillofacial CT,,,,,,,,,,,,,,,,,,,,,,
2,3,Albert Vein Institute,39.545352,-104.870518,granted,9400 Station Street,Suite 200,Lonetree,CO,80124,USA,,www.albertvein.com,,vascular,,Albert Vein Institute Lonetree,,,,,,,,,"Apr 30, 2025",Peripheral Venous Testing,,,,,,,,,,,,,,
3,4,Albert Vein Institute,38.986822,-104.806918,multigranted,10807 New Allegiance Drive,Suite 450,Colorado Spring,CO,80921,USA,,www.albertvein.com,,"vein_center, vascular",,Albert Vein Institute Colorado Spring,,,,,,,,,"Apr 30, 2025",Peripheral Venous Testing,,,,,,,"Jun 30, 2024",Superficial Venous Evaluation and Management,,,,,,
4,5,"Alpine Ear, Nose and Throat PC",40.432634,-105.078838,granted,3820 North Grant Ave,,Loveland,CO,80538,USA,,,,ct,"www.google.com/search?q=Alpine+Ear,+Nose+and+Throat+PC","Alpine Ear, Nose and Throat PC Loveland","Dec 30, 2022",Maxillofacial CT,,,,,,,,,,,,,,,,,,,,,,
5,6,"Alpine Surgical, LLC",40.014807,-105.236406,granted,"4743 Arapahoe Avenue, Ste 102",,Boulder,CO,80303,USA,,www.boulderveins.com,,vascular,,"Alpine Surgical, LLC Boulder",,,,,,,,,"Jun 30, 2023",Peripheral Venous Testing,,,,,,,,,,,,,,
6,7,"American Vein and Vascular Institute, Canon City",38.438365,-105.230946,granted,109 Latigo Lane,Suite D,Canon City,CO,81212,USA,,,,vascular,"www.google.com/search?q=American+Vein+and+Vascular+Institute,+Canon+City","American Vein and Vascular Institute, Canon City Canon City",,,,,,,,,"Oct 31, 2023",Peripheral Venous Testing,,,,,,,,,,,,,,
7,8,"American Vein and Vascular Institute, Colorado Springs",38.829348,-104.794904,granted,"175 S. Union Blvd, Suite 200",,Colorado Springs,CO,80910,USA,,americanvein.com,,vascular,,"American Vein and Vascular Institute, Colorado Springs Colorado Springs",,,,,,,,,"Oct 31, 2023",Peripheral Venous Testing,,,,,,,,,,,,,,
8,9,"American Vein and Vascular Institute, Fort Collins",40.519737,-105.042874,granted,1915 Wilmington Dr,Suite 100,Fort Collins,CO,80528,USA,,americanvein.com,,vascular,,"American Vein and Vascular Institute, Fort Collins Fort Collins",,,,,,,,,"Oct 31, 2023",Peripheral Venous Testing,,,,,,,,,,,,,,
9,10,"American Vein and Vascular Institute, Highlands Ranch",39.558935,-104.991896,granted,"300 Plaza Drive, Suite 205",,Littleton,CO,80129,USA,,americanvein.com,,vascular,,"American Vein and Vascular Institute, Highlands Ranch Littleton",,,,,,,,,"Oct 31, 2023",Peripheral Venous Testing,,,,,,,,,,,,,,
10,11,"American Vein and Vascular Institute, Parker",39.554039,-104.770345,granted,19284 Cottonwood Drive,Suite 204,Parker,CO,80138,USA,,,,vascular,"www.google.com/search?q=American+Vein+and+Vascular+Institute,+Parker","American Vein and Vascular Institute, Parker Parker",,,,,,,,,"Oct 31, 2023",Peripheral Venous Testing,,,,,,,,,,,,,,
11,12,"American Vein and Vascular Institute, Pueblo Riverwalk",38.265526,-104.611827,granted,115 E. Riverwalk,Suite 200,Pueblo,CO,81003,USA,,www.americanvein.com,,vascular,,"American Vein and Vascular Institute, Pueblo Riverwalk Pueblo",,,,,,,,,"Oct 31, 2023",Peripheral Venous Testing,,,,,,,,,,,,,,
12,13,"American Vein and Vascular Institute, Vail Valley",39.643564,-106.59579,granted,105 Edwards Village Blvd C202,,Edwards,CO,81632,USA,,www.americanvein.com,,vascular,,"American Vein and Vascular Institute, Vail Valley Edwards",,,,,,,,,"Oct 31, 2023",Peripheral Venous Testing,,,,,,,,,,,,,,
13,14,"American Vein and Vascular Institute, Westminster",39.898463,-104.996642,granted,11150 Huron Street,Suite 212,Northglenn,CO,80234,USA,,americanvein.com,,vascular,,"American Vein and Vascular Institute, Westminster Northglenn",,,,,,,,,"Oct 31, 2023",Peripheral Venous Testing,,,,,,,,,,,,,,
14,15,Associates of Otolaryngology,39.671293,-104.977948,granted,850 East Harvard Avenue,Suite 505,Denver,CO,80210,USA,,,,ct,www.google.com/search?q=Associates+of+Otolaryngology,Associates of Otolaryngology Denver,"Aug 31, 2022",Maxillofacial CT,,,,,,,,,,,,,,,,,,,,,,
15,16,Aurora Denver Cardiology Associates,39.746083,-104.967888,granted,1601 E. 19th Avenue,Suite 5000,Denver,CO,80218,USA,,adca.biz,,vascular,,Aurora Denver Cardiology Associates Denver,,,,,,,,,"Nov 30, 2023",Extracranial Cerebrovascular Testing,,,,,,,,,,,,,,
16,17,Aurora Denver Cardiology Associates,39.690499,-104.831155,granted,1444 S. Potomac,,Aurora,CO,80012,USA,,www.auroramed.com,,echo,,Aurora Denver Cardiology Associates Aurora,,,"Jan 31, 2024","Adult Stress, Adult Transthoracic",,,,,,,,,,,,,,,,,,,,
17,18,Aurora Denver Cardiology Associates,39.527353,-104.872629,granted,10103 Ridgegate Parkway,Suite 103,Lone Tree,CO,80124,USA,,www.adca.bz,,vascular,,Aurora Denver Cardiology Associates Lone Tree,,,,,,,,,"Nov 30, 2023",Extracranial Cerebrovascular Testing,,,,,,,,,,,,,,
18,19,Aurora Denver Cardiology Associates,39.690499,-104.831155,granted,1444 South Potomac Street,Suite 300,Aurora,CO,80012,USA,,www.adca.bz,,vascular,,Aurora Denver Cardiology Associates Aurora,,,,,,,,,"Nov 30, 2023",Extracranial Cerebrovascular Testing,,,,,,,,,,,,,,
19,20,Avsita Adventist,39.951377,-105.15137,granted,90 Health Park Drive,Suite 190,Louisville,CO,80027,USA,,chvpc.com,,echo,,Avsita Adventist Louisville,,,"Sep 30, 2023",Adult Transthoracic,,,,,,,,,,,,,,,,,,,,
20,21,"Banner Health CardioVascular Institute of North Colorado, Lady Moon Clinic",40.521117,-105.010885,granted,4700 Lady Moon Drive,,Fort Collins,CO,80528,USA,,,,echo,"www.google.com/search?q=Banner+Health+CardioVascular+Institute+of+North+Colorado,+Lady+Moon+Clinic","Banner Health CardioVascular Institute of North Colorado, Lady Moon Clinic Fort Collins",,,"Mar 31, 2024",Adult Transthoracic,,,,,,,,,,,,,,,,,,,,
21,22,"Banner Health, CardioVascular Institute of North Colorado, Banner Fort Collins Medical Center",40.521588,-105.01084,granted,4700 Lady Moon Drive,,Fort Collins,CO,80528,USA,,,,echo,"www.google.com/search?q=Banner+Health,+CardioVascular+Institute+of+North+Colorado,+Banner+Fort+Collins+Medical+Center","Banner Health, CardioVascular Institute of North Colorado, Banner Fort Collins Medical Center Fort Collins",,,"Mar 31, 2024","Adult Transesophageal, Adult Transthoracic",,,,,,,,,,,,,,,,,,,,
22,23,"Banner Health, CardioVascular Institute of North Colorado, Cardiology Clinic",40.415762,-104.707846,granted,1800 15th Street,Suite 310,Greeley,CO,80631,USA,,www.bannerhealth.com/Locations/Colorado/Medical+Clinics/_Physician+Practices/CardioVascular+I,,echo,,"Banner Health, CardioVascular Institute of North Colorado, Cardiology Clinic Greeley",,,"Mar 31, 2024",Adult Transthoracic,,,,,,,,,,,,,,,,,,,,
23,24,"Banner Health, CardioVascular Institute of North Colorado, Loveland Clinic",40.412644,-105.05361,granted,1900 Boise Ave,,Loveland,CO,80538,USA,,,,echo,"www.google.com/search?q=Banner+Health,+CardioVascular+Institute+of+North+Colorado,+Loveland+Clinic","Banner Health, CardioVascular Institute of North Colorado, Loveland Clinic Loveland",,,"Mar 31, 2024",Adult Transthoracic,,,,,,,,,,,,,,,,,,,,
24,25,"Banner Health, CardioVascular Institute of North Colorado, McKee Medical Center",40.413679,-105.053599,granted,2000 Boise Avenue,,Loveland,CO,80538,USA,,,,echo,"www.google.com/search?q=Banner+Health,+CardioVascular+Institute+of+North+Colorado,+McKee+Medical+Center","Banner Health, CardioVascular Institute of North Colorado, McKee Medical Center Loveland",,,"Mar 31, 2024","Adult Transesophageal, Adult Transthoracic",,,,,,,,,,,,,,,,,,,,
25,26,"Banner Health, CardioVascular Institute of North Colorado, Mobile Echo EMCH",40.254665,-103.650373,granted,2400 Edison Street,,Brush,CO,80723,USA,,,,echo,"www.google.com/search?q=Banner+Health,+CardioVascular+Institute+of+North+Colorado,+Mobile+Echo+EMCH","Banner Health, CardioVascular Institute of North Colorado, Mobile Echo EMCH Brush",,,"Mar 31, 2024",Adult Transthoracic,,,,,,,,,,,,,,,,,,,,
26,27,"Banner Health, CardioVascular Institute of North Colorado, Mobile Echo HHD",40.641385,-102.630841,granted,235 W. Fletcher,,Haxtun,CO,80731,USA,,,,echo,"www.google.com/search?q=Banner+Health,+CardioVascular+Institute+of+North+Colorado,+Mobile+Echo+HHD","Banner Health, CardioVascular Institute of North Colorado, Mobile Echo HHD Haxtun",,,"Mar 31, 2024",Adult Transthoracic,,,,,,,,,,,,,,,,,,,,
27,28,"Banner Health, CardioVascular Institute of North Colorado, Mobile Echo MMH",40.580648,-102.303624,granted,505 South Baxter Avenue,,Holyoke,CO,80734,USA,,,,echo,"www.google.com/search?q=Banner+Health,+CardioVascular+Institute+of+North+Colorado,+Mobile+Echo+MMH","Banner Health, CardioVascular Institute of North Colorado, Mobile Echo MMH Holyoke",,,"Mar 31, 2024",Adult Transthoracic,,,,,,,,,,,,,,,,,,,,
28,29,"Banner Health, CardioVascular Institute of North Colorado, Mobile Echo WCDH",40.078022,-102.219362,granted,340 Birch Street,,Wray,CO,80758,USA,,,,echo,"www.google.com/search?q=Banner+Health,+CardioVascular+Institute+of+North+Colorado,+Mobile+Echo+WCDH","Banner Health, CardioVascular Institute of North Colorado, Mobile Echo WCDH Wray",,,"Mar 31, 2024",Adult Transthoracic,,,,,,,,,,,,,,,,,,,,
29,30,"Banner Health, CardioVascular Institute of North Colorado, Mobile Echo YDH",40.11708,-102.723892,granted,910 South Main Street,,Yuma,CO,80759,USA,,,,echo,"www.google.com/search?q=Banner+Health,+CardioVascular+Institute+of+North+Colorado,+Mobile+Echo+YDH","Banner Health, CardioVascular Institute of North Colorado, Mobile Echo YDH Yuma",,,"Mar 31, 2024",Adult Transthoracic,,,,,,,,,,,,,,,,,,,,
30,31,"Banner Health, CardioVascular Institute of North Colorado, North Colorado Medical Center",40.413831,-104.708929,granted,1801 16th Street,,Greeley,CO,80631,USA,,,,echo,"www.google.com/search?q=Banner+Health,+CardioVascular+Institute+of+North+Colorado,+North+Colorado+Medical+Center","Banner Health, CardioVascular Institute of North Colorado, North Colorado Medical Center Greeley",,,"Mar 31, 2024","Adult Transesophageal, Adult Transthoracic",,,,,,,,,,,,,,,,,,,,
31,32,Boulder Heart,40.014807,-105.236406,granted,4743 Arapahoe Avenue,Suite 201,Boulder,CO,80303,USA,,,,echo,www.google.com/search?q=Boulder+Heart,Boulder Heart Boulder,,,"Oct 31, 2023",Adult Transthoracic,,,,,,,,,,,,,,,,,,,,
32,33,Boulder Heart,40.014807,-105.236406,granted,4743 Arapahoe Avenue,Suite 201,Boulder,CO,80303,USA,,www.bch.org,,nuclear,,Boulder Heart Boulder,,,,,,,"Oct 31, 2024",Myocardial Perfusion Imaging,,,,,,,,,,,,,,,,
33,34,Boulder Heart,40.143216,-105.128436,granted,2101Ken Pratt Blvd.,,Longmont,CO,80501,USA,,www.bch.org,,nuclear,,Boulder Heart Longmont,,,,,,,"Oct 31, 2024",Myocardial Perfusion Imaging,,,,,,,,,,,,,,,,
34,35,Boulder Heart Lafayette,39.986934,-105.102588,granted,1000 West South Boulder Road,Suite 216,Lafayette,CO,80026,USA,,,,echo,www.google.com/search?q=Boulder+Heart+Lafayette,Boulder Heart Lafayette Lafayette,,,"Oct 31, 2023",Adult Transthoracic,,,,,,,,,,,,,,,,,,,,
35,36,Boulder Heart Longmont,40.14309,-105.128662,granted,2101 Ken Pratt Boulevard,Suite 104,Longmont,CO,80503,USA,,,,echo,www.google.com/search?q=Boulder+Heart+Longmont,Boulder Heart Longmont Longmont,,,"Oct 31, 2023",Adult Transthoracic,,,,,,,,,,,,,,,,,,,,
36,37,"Boulder Medical Center, PC",40.026386,-105.282079,granted,2750 Broadway,,Boulder,CO,80304,USA,,,,echo,"www.google.com/search?q=Boulder+Medical+Center,+PC","Boulder Medical Center, PC Boulder",,,"Jul 31, 2023",Adult Transthoracic,,,,,,,,,,,,,,,,,,,,
37,38,Cardiovascular Institute of North Colorado,40.415762,-104.707846,granted,1800 15th Street,Suite 310,Greeley,CO,80631,USA,,www.bannerhealth.com      keyword:cvi,,nuclear,,Cardiovascular Institute of North Colorado Greeley,,,,,,,"Jan 31, 2023",Myocardial Perfusion Imaging,,,,,,,,,,,,,,,,
38,39,Castle Rock Adventist Hospital,39.404112,-104.886146,granted,2350 Meadows Blvd.,,Castle Rock,CO,80109,USA,,,,echo,www.google.com/search?q=Castle+Rock+Adventist+Hospital,Castle Rock Adventist Hospital Castle Rock,,,"Feb 28, 2025",Adult Transthoracic,,,,,,,,,,,,,,,,,,,,
39,40,Centennial Medical Plaza,39.594893,-104.824248,granted,14100 East. Arapahoe RD. Suite 120,,Centennial,CO,80112,USA,,www.auroramed.com,,echo,,Centennial Medical Plaza Centennial,,,"Jan 31, 2024","Adult Stress, Adult Transthoracic",,,,,,,,,,,,,,,,,,,,
40,41,Children’s Hospital Colorado,39.741635,-104.835018,multigranted,13123 E. 16th Ave,,Aurora,CO,80045,USA,,,,"cardiovascular_catheterization, cardiac_electrophysiology",www.google.com/search?q=Children’s+Hospital+Colorado,Children’s Hospital Colorado Aurora,,,,,,,,,,,,,,,,,,,"Jun 30, 2023","Testing and Ablation, Device Implantation, Chronic Lead Extraction","Mar 31, 2023","Valve Interventions, Structural Heart Interventions, Complex Adult Congenital Heart Disease, Pediatric Cardiovascular Catheterization",,
41,42,Children’s Hospital Colorado,39.741635,-104.835018,granted,13123 East 16th Avenue,Box 100,Aurora,CO,80045,USA,,,,pediatric_echo,www.google.com/search?q=Children’s+Hospital+Colorado,Children’s Hospital Colorado Aurora,,,,,,,,,,,"Oct 31, 2023","Pediatric Transesophageal, Pediatric Transthoracic, Fetal",,,,,,,,,,,,
42,43,Children’s Hospital Colorado Briargate Specialty Clinic,38.965757,-104.753364,granted,4125 Briargate Parkway,,Colorado Springs,CO,80920,USA,,,,pediatric_echo,www.google.com/search?q=Children’s+Hospital+Colorado+Briargate+Specialty+Clinic,Children’s Hospital Colorado Briargate Specialty Clinic Colorado Springs,,,,,,,,,,,"Mar 31, 2024","Pediatric Transthoracic, Fetal",,,,,,,,,,,,
43,44,"Children’s Hospital Colorado Specialty Care Clinic, Parker",39.54833,-104.765128,granted,9399 Crown Crest Boulevard,"Sierra Building, Suite 300",Parker,CO,80138,USA,,,,pediatric_echo,"www.google.com/search?q=Children’s+Hospital+Colorado+Specialty+Care+Clinic,+Parker","Children’s Hospital Colorado Specialty Care Clinic, Parker Parker",,,,,,,,,,,"Oct 31, 2023",Pediatric Transthoracic,,,,,,,,,,,,
44,45,"Children’s Hospital Colorado Specialty Care Clinic, Wheatridge West Campus Lutheran",39.765483,-105.092142,granted,3455 Lutheran Parkway,Suite 230,Wheatridge,CO,80033,USA,,,,pediatric_echo,"www.google.com/search?q=Children’s+Hospital+Colorado+Specialty+Care+Clinic,+Wheatridge+West+Campus+Lutheran","Children’s Hospital Colorado Specialty Care Clinic, Wheatridge West Campus Lutheran Wheatridge",,,,,,,,,,,"Oct 31, 2023",Pediatric Transthoracic,,,,,,,,,,,,
45,46,"Children’s Hospital Colorado, North Campus",40.000319,-104.993151,granted,469 West State Highway 7,,Broomfield,CO,80023,USA,,,,pediatric_echo,"www.google.com/search?q=Children’s+Hospital+Colorado,+North+Campus","Children’s Hospital Colorado, North Campus Broomfield",,,,,,,,,,,"Oct 31, 2023",Pediatric Transthoracic,,,,,,,,,,,,
46,47,"Children’s Hosptial Colorado, South Campus",39.555704,-105.010062,granted,1811 Plaza Drive,,Highlands Ranch,CO,80129,USA,,,,pediatric_echo,"www.google.com/search?q=Children’s+Hosptial+Colorado,+South+Campus","Children’s Hosptial Colorado, South Campus Highlands Ranch",,,,,,,,,,,"Oct 31, 2023",Pediatric Transthoracic,,,,,,,,,,,,
47,48,"Childrens Hospital Colorado, Uptown Denver",39.74504,-104.968421,granted,1830 Franklin Street,,Denver,CO,80218,USA,,www.childrenscolorado.org/your-visit/locations/uptown-denver/,,pediatric_echo,,"Childrens Hospital Colorado, Uptown Denver Denver",,,,,,,,,,,"Oct 31, 2023",Pediatric Transthoracic,,,,,,,,,,,,
48,49,"Colorado Heart and Vascular, PC",39.951377,-105.15137,granted,90 Health Park Dr.,Suite 190,Louisville,CO,80027,USA,,,,nuclear,"www.google.com/search?q=Colorado+Heart+and+Vascular,+PC","Colorado Heart and Vascular, PC Louisville",,,,,,,"Oct 31, 2023",Myocardial Perfusion Imaging,,,,,,,,,,,,,,,,
49,50,"Colorado Heart and Vascular, PC",40.170086,-105.107297,granted,2030 Mountian View Ave.,Suite 300,Longmont,CO,80501,USA,,,,nuclear,"www.google.com/search?q=Colorado+Heart+and+Vascular,+PC","Colorado Heart and Vascular, PC Longmont",,,,,,,"Oct 31, 2023",Myocardial Perfusion Imaging,,,,,,,,,,,,,,,,
50,51,"Colorado Heart and Vascular, PC - Central",39.71795,-105.128909,granted,11700 West 2nd Place,Suite 350,Lakewood,CO,80228,USA,,www.chvpc.com,,nuclear,,"Colorado Heart and Vascular, PC - Central Lakewood",,,,,,,"Oct 31, 2023",Myocardial Perfusion Imaging,,,,,,,,,,,,,,,,
51,52,"Colorado Heart and Vascular, PC - North",39.844805,-105.019313,granted,14300 Orchard Parkway,,Westminster,CO,80023,USA,,www.chvpc.com,,nuclear,,"Colorado Heart and Vascular, PC - North Westminster",,,,,,,"Oct 31, 2023",Myocardial Perfusion Imaging,,,,,,,,,,,,,,,,
52,53,Colorado Heart and Vascular-Central,39.71795,-105.128909,granted,11700 West 2nd Place,Suite 350,Lakewood,CO,80228,USA,,chvpc.com,,echo,,Colorado Heart and Vascular-Central Lakewood,,,"Sep 30, 2023",Adult Transthoracic,,,,,,,,,,,,,,,,,,,,
53,54,Colorado Heart and Vascular-North,39.844805,-105.019313,granted,14300 Orchard Parkway,"Floor 2, Pod 3",Westminster,CO,80023,USA,,chvpc.com,,echo,,Colorado Heart and Vascular-North Westminster,,,"Sep 30, 2023",Adult Transthoracic,,,,,,,,,,,,,,,,,,,,
54,55,Colorado Heart and Vascular-North,39.95606,-104.99364,granted,14300 Orchard Parkway,"Floor 2, Pod 3",Westminster,CO,80023,USA,,chvpc.com,,vascular,,Colorado Heart and Vascular-North Westminster,,,,,,,,,"Dec 31, 2023","Extracranial Cerebrovascular Testing, Peripheral Arterial Testing",,,,,,,,,,,,,,
55,56,"Colorado Otolaryngology Associates, LLC",38.940489,-104.712228,granted,6071 E Woodmen Rd Suite 325,,Colorado Springs,CO,80932,USA,,www.coloradoent.com,,ct,,"Colorado Otolaryngology Associates, LLC Colorado Springs","Dec 31, 2022",Maxillofacial CT,,,,,,,,,,,,,,,,,,,,,,
56,57,"Colorado Otolaryngology Associates, LLC DBA Colorado ENT and Allergy",38.873639,-104.793145,granted,3030 North Circle Drive,Suite 300,Colorado Springs,CO,80909,USA,,www.coloradoent.com,,ct,,"Colorado Otolaryngology Associates, LLC DBA Colorado ENT and Allergy Colorado Springs","Dec 31, 2022",Maxillofacial CT,,,,,,,,,,,,,,,,,,,,,,
57,58,Colorado West Otolaryngologists,39.0918,-108.53493,granted,2643 Patterson Rd,Suite 503,Grand Junction,CO,81506,USA,,www.cwoto.com,,ct,,Colorado West Otolaryngologists Grand Junction,"Dec 31, 2022",Maxillofacial CT,,,,,,,,,,,,,,,,,,,,,,
58,59,"Corwin Clinic Surgical, PC",38.234179,-104.620622,granted,1925 East Orman Avenue,Suite A109,Pueblo,CO,81004,USA,,,,vascular,"www.google.com/search?q=Corwin+Clinic+Surgical,+PC","Corwin Clinic Surgical, PC Pueblo",,,,,,,,,"Dec 31, 2023","Peripheral Arterial Testing, Peripheral Venous Testing",,,,,,,,,,,,,,
59,60,Denver Health Children’s Clinic,39.72795,-104.99146,granted,777 Bannock,,Denver,CO,80204,USA,,,,pediatric_echo,www.google.com/search?q=Denver+Health+Children’s+Clinic,Denver Health Children’s Clinic Denver,,,,,,,,,,,"Oct 31, 2023",Pediatric Transthoracic,,,,,,,,,,,,
60,61,Denver Health Medical Center Echo Lab,39.72823,-104.990066,granted,777 Bannock Street,,Denver,CO,80204,USA,,,,echo,www.google.com/search?q=Denver+Health+Medical+Center+Echo+Lab,Denver Health Medical Center Echo Lab Denver,,,"Nov 29, 2022","Adult Stress, Adult Transesophageal, Adult Transthoracic",,,,,,,,,,,,,,,,,,,,
61,62,Ebert Family Clinic,39.585376,-106.094392,granted,730 North Summit Boulevard,,Frisco,CO,80443,USA,,,,pediatric_echo,www.google.com/search?q=Ebert+Family+Clinic,Ebert Family Clinic Frisco,,,,,,,,,,,"Oct 31, 2023",Pediatric Transthoracic,,,,,,,,,,,,
62,63,"ENT of Denver, PC",39.7309952,-104.9342262,granted,4500 E 9th Ave Ste 610,,Denver,CO,80220,USA,,,,ct,"www.google.com/search?q=ENT+of+Denver,+PC","ENT of Denver, PC Denver","Aug 29, 2022",Maxillofacial CT,,,,,,,,,,,,,,,,,,,,,,
63,64,Estes Park Medical Center-Cardiology,40.372288,-105.513712,granted,555 Prospect Ave,,Estes Park,CO,80517,USA,,,,echo,www.google.com/search?q=Estes+Park+Medical+Center-Cardiology,Estes Park Medical Center-Cardiology Estes Park,,,"Jan 31, 2024","Adult Stress, Adult Transthoracic",,,,,,,,,,,,,,,,,,,,
64,65,Exempla Good Samaritan Hospital,39.96931,-105.083203,granted,200 Exempla Circle,,Lafayette,CO,80026,USA,,,,echo,www.google.com/search?q=Exempla+Good+Samaritan+Hospital,Exempla Good Samaritan Hospital Lafayette,,,"Jun 30, 2025",Adult Transthoracic,,,,,,,,,,,,,,,,,,,,
65,66,Family Clinic of Fort Collins,40.574221,-105.055157,granted,1212 E. Elizabeth St,,Fort Collins,CO,80524,USA,,,,pediatric_echo,www.google.com/search?q=Family+Clinic+of+Fort+Collins,Family Clinic of Fort Collins Fort Collins,,,,,,,,,,,"Oct 31, 2023",Pediatric Transthoracic,,,,,,,,,,,,
66,67,Fort Collins Youth Clinic,40.520079,-105.054936,granted,4845 Weitzel Street,Suite 101,Timnath,CO,80547,USA,,,,pediatric_echo,www.google.com/search?q=Fort+Collins+Youth+Clinic,Fort Collins Youth Clinic Timnath,,,,,,,,,,,"Oct 31, 2023",Pediatric Transthoracic,,,,,,,,,,,,
67,68,Grand River Hospital District,39.522587,-107.77201,granted,501 Airport Rd.,,Rifle,CO,81650,USA,,www.grhd.org,,echo,,Grand River Hospital District Rifle,,,"Jan 29, 2023",Adult Transthoracic,,,,,,,,,,,,,,,,,,,,
68,69,Heart and Vascular Center,39.092971,-108.589452,granted,"607 25 Road, Suite 101",,Grand Junction,CO,81505,USA,,,,echo,www.google.com/search?q=Heart+and+Vascular+Center,Heart and Vascular Center Grand Junction,,,"Jan 29, 2023",Adult Transthoracic,,,,,,,,,,,,,,,,,,,,
69,70,Integrated ENT,39.532108,-104.874264,granted,9960 Sky Ridge Ave,,Lone Tree,CO,80124,USA,,,,ct,www.google.com/search?q=Integrated+ENT,Integrated ENT Lone Tree,"Oct 31, 2024",Maxillofacial CT,,,,,,,,,,,,,,,,,,,,,,
70,71,Kaiser Permanente Franklin Medical Office,39.747474,-104.968433,granted,2045 Franklin Street,,Denver,CO,80205,USA,,kp.org,,echo,,Kaiser Permanente Franklin Medical Office Denver,,,"Nov 30, 2024",Adult Transthoracic,,,,,,,,,,,,,,,,,,,,
71,72,Kaiser Permanente Lone Tree Medical Office,39.548704,-104.872006,granted,10240 Park Meadows Drive,,Lone Tree,CO,80124,USA,,,,echo,www.google.com/search?q=Kaiser+Permanente+Lone+Tree+Medical+Office,Kaiser Permanente Lone Tree Medical Office Lone Tree,,,"Nov 30, 2024",Adult Transthoracic,,,,,,,,,,,,,,,,,,,,
72,73,Kaiser Permanente Premier Medical Office,38.88698,-104.786708,granted,3920 North Union Blvd.,,Colorado Springs,CO,80907,USA,,,,echo,www.google.com/search?q=Kaiser+Permanente+Premier+Medical+Office,Kaiser Permanente Premier Medical Office Colorado Springs,,,"Nov 30, 2024",Adult Transthoracic,,,,,,,,,,,,,,,,,,,,
73,74,Kaiser Permanente Rock Creek Medical Office,39.967819,-105.086,granted,280 Exempla Circle,,Lafayette,CO,80026,USA,,,,echo,www.google.com/search?q=Kaiser+Permanente+Rock+Creek+Medical+Office,Kaiser Permanente Rock Creek Medical Office Lafayette,,,"Nov 30, 2024",Adult Transthoracic,,,,,,,,,,,,,,,,,,,,
74,75,Littleton Adventist Hospital,39.576554,-104.988489,granted,7700 S. Broadway,,Littleton,CO,80122,USA,,,,echo,www.google.com/search?q=Littleton+Adventist+Hospital,Littleton Adventist Hospital Littleton,,,"Feb 28, 2025",Adult Transthoracic,,,,,,,,,,,,,,,,,,,,
75,76,Longmont,40.181328,-105.128074,granted,2030 Mountain View Avenue,Suite 300,Longmont,CO,80501,USA,,chvpc.com,,echo,,Longmont Longmont,,,"Sep 30, 2023",Adult Transthoracic,,,,,,,,,,,,,,,,,,,,
76,77,"Longmont Clinic, PC",40.181323,-105.124928,granted,1925 West Mountain View Avenue,,Longmont,CO,80501,USA,,www.uchealth.org,,echo,,"Longmont Clinic, PC Longmont",,,"Jun 30, 2023",Adult Transthoracic,,,,,,,,,,,,,,,,,,,,
77,78,Medical Center of Aurora,39.689249,-104.831149,granted,1501 South Potomac Street,,Aurora,CO,80012,USA,,www.auroramed.com,,echo,,Medical Center of Aurora Aurora,,,"Jan 31, 2024","Adult Stress, Adult Transthoracic",,,,,,,,,,,,,,,,,,,,
78,79,Memorial Health System / Memorial Hospital North,38.965962,-104.758162,granted,4050 Briargate Parkway,,Colorado Springs,CO,80920,USA,,www.memorialhealthsystem.com,,vascular,,Memorial Health System / Memorial Hospital North Colorado Springs,,,,,,,,,"May 31, 2023","Extracranial Cerebrovascular Testing, Peripheral Arterial Testing, Peripheral Venous Testing",,,,,,,,,,,,,,
79,80,Memorial Hospital Central- University of Colorado Health,38.838828,-104.800454,multigranted,1400 East Boulder,,Colorado Springs,CO,80909,USA,,,,"nuclear, echo",www.google.com/search?q=Memorial+Hospital+Central-+University+of+Colorado+Health,Memorial Hospital Central- University of Colorado Health Colorado Springs,,,"Sep 30, 2023",Adult Transthoracic,,,"Aug 31, 2023","Myocardial Perfusion Imaging, Positron Emission Tomography (PET)",,,,,,,,,,,,,,,,
80,81,Memorial Hospital North- University of Colorado Health,38.965962,-104.758162,multigranted,4050 Briargate Parkway,,Colorado Springs,CO,80920,USA,,,,"nuclear, echo",www.google.com/search?q=Memorial+Hospital+North-+University+of+Colorado+Health,Memorial Hospital North- University of Colorado Health Colorado Springs,,,"Sep 30, 2023",Adult Transthoracic,,,"Aug 31, 2023",Myocardial Perfusion Imaging,,,,,,,,,,,,,,,,
81,82,Midvalley Medical Center Aspen Valley Pediatrics,39.375961,-107.077332,granted,1450 East Valley Road,Suite 104,Basalt,CO,81621,USA,,,,pediatric_echo,www.google.com/search?q=Midvalley+Medical+Center+Aspen+Valley+Pediatrics,Midvalley Medical Center Aspen Valley Pediatrics Basalt,,,,,,,,,,,"Oct 31, 2023",Pediatric Transthoracic,,,,,,,,,,,,
82,83,National Jewish Health,39.740019,-104.942892,granted,1400 Jackson Street,,Denver,CO,80206,USA,,,,echo,www.google.com/search?q=National+Jewish+Health,National Jewish Health Denver,,,"Nov 30, 2023",Adult Transthoracic,,,,,,,,,,,,,,,,,,,,
83,84,Opensided MRI of Denver,39.707867,-104.925627,granted,5250 Leetsdale Drive,,Denver,CO,80246,USA,,www.osmri.com,,mr,,Opensided MRI of Denver Denver,,,,,"Sep 30, 2023","Body MRI, Musculoskeletal MRI, Neurological MRI, MRA",,,,,,,,,,,,,,,,,,
84,85,"OptumCare Colorado Springs, LLC",38.874559,-104.797265,granted,1633 Medical Center Point,,Colorado Springs,CO,80907,USA,,,,echo,"www.google.com/search?q=OptumCare+Colorado+Springs,+LLC","OptumCare Colorado Springs, LLC Colorado Springs",,,"Jul 31, 2024","Adult Stress, Adult Transthoracic",,,,,,,,,,,,,,,,,,,,
85,86,Parker Adventist Hospital,39.550058,-104.773433,granted,9395 Crown Crest Blvd.,,Parker,CO,80138,USA,,,,echo,www.google.com/search?q=Parker+Adventist+Hospital,Parker Adventist Hospital Parker,,,"Feb 28, 2025",Adult Transthoracic,,,,,,,,,,,,,,,,,,,,
86,87,Peak ENT and Voice Center,39.927245,-105.142203,granted,403 Summit Blvd.,Suite 204,Broomfield,CO,80021,USA,,peakentandvoicecenter.com,,ct,,Peak ENT and Voice Center Broomfield,"May 31, 2023",Maxillofacial CT,,,,,,,,,,,,,,,,,,,,,,
87,88,Peakview Medical Center Poudre Valley,40.414013,-104.774319,granted,5881 West 16th St.,Suite A,Greeley,CO,80634,USA,,,,pediatric_echo,www.google.com/search?q=Peakview+Medical+Center+Poudre+Valley,Peakview Medical Center Poudre Valley Greeley,,,,,,,,,,,"Oct 31, 2023",Pediatric Transthoracic,,,,,,,,,,,,
88,89,Pediatric Associates,38.479779,-107.866424,granted,947 South 5th Street,,Montrose,CO,81401,USA,,,,pediatric_echo,www.google.com/search?q=Pediatric+Associates,Pediatric Associates Montrose,,,,,,,,,,,"Oct 31, 2023",Pediatric Transthoracic,,,,,,,,,,,,
89,90,Pediatric Partners of Glenwood Springs,39.532859,-107.322794,granted,1906 Blake Ave,,Glenwood Springs,CO,81601,USA,,,,pediatric_echo,www.google.com/search?q=Pediatric+Partners+of+Glenwood+Springs,Pediatric Partners of Glenwood Springs Glenwood Springs,,,,,,,,,,,"Oct 31, 2023",Pediatric Transthoracic,,,,,,,,,,,,
90,91,Pediatric Partners of the Southwest Horse Gulch Medical Campus,37.264887,-107.873222,granted,811 E. 3rd,Suite #300,Durango,CO,81301,USA,,,,pediatric_echo,www.google.com/search?q=Pediatric+Partners+of+the+Southwest+Horse+Gulch+Medical+Campus,Pediatric Partners of the Southwest Horse Gulch Medical Campus Durango,,,,,,,,,,,"Oct 31, 2023",Pediatric Transthoracic,,,,,,,,,,,,
91,92,Pediatric Specialtiy Clinics,39.091819,-108.542749,granted,2643 Patterson Rd.,Suite 603,Grand Junction,CO,81506,USA,,,,pediatric_echo,www.google.com/search?q=Pediatric+Specialtiy+Clinics,Pediatric Specialtiy Clinics Grand Junction,,,,,,,,,,,"Oct 31, 2023",Pediatric Transthoracic,,,,,,,,,,,,
92,93,Penrose Hospital,38.865568,-104.820123,granted,2222 North Nevada Avenue,,Colorado Springs,CO,80907,USA,,,,echo,www.google.com/search?q=Penrose+Hospital,Penrose Hospital Colorado Springs,,,"Feb 28, 2025",Adult Transthoracic,,,,,,,,,,,,,,,,,,,,
93,94,Pikes Peak ENT,38.968193,-104.782319,granted,9475 Briar Village Point Suite 225,,Colorado Springs,CO,80920,USA,,www.pikespeakent.com,,ct,,Pikes Peak ENT Colorado Springs,"Oct 31, 2022",Maxillofacial CT,,,,,,,,,,,,,,,,,,,,,,
94,95,Podiatry Associates at Aurora,39.705578,-104.829746,granted,"1444 South Potomac St., Ste. 230",,Aurora,CO,80012,USA,,,,mr,www.google.com/search?q=Podiatry+Associates+at+Aurora,Podiatry Associates at Aurora Aurora,,,,,"Sep 30, 2024",Musculoskeletal MRI,,,,,,,,,,,,,,,,,,
95,96,Porter Adventist Hospital,39.67064,-104.973482,granted,2525 S Downing St,,Denver,CO,80210,USA,,,,echo,www.google.com/search?q=Porter+Adventist+Hospital,Porter Adventist Hospital Denver,,,"Feb 28, 2025",Adult Transthoracic,,,,,,,,,,,,,,,,,,,,
96,97,Presbyterian St. Luke’s Medical Center,39.746089,-104.967175,granted,1719 East 19th Avenue,,Denver,CO,80218,USA,,pslmc.com,,echo,,Presbyterian St. Luke’s Medical Center Denver,,,"Aug 29, 2022",Adult Transthoracic,,,,,,,,,,,,,,,,,,,,
97,98,RIA Endovascular,39.624033,-104.893568,granted,8200 E. Belleview Ave,Suite 600E,Greenwood Village,CO,80111,USA,,www.riainvision.com,,vascular,,RIA Endovascular Greenwood Village,,,,,,,,,"Feb 28, 2025","Peripheral Arterial Testing, Peripheral Venous Testing",,,,,,,,,,,,,,
98,99,Rocky Mountain Family Practice,39.238794,-106.307329,granted,735 Hwy 24 South,,Leadville,CO,80461,USA,,,,pediatric_echo,www.google.com/search?q=Rocky+Mountain+Family+Practice,Rocky Mountain Family Practice Leadville,,,,,,,,,,,"Oct 31, 2023",Pediatric Transthoracic,,,,,,,,,,,,
99,100,Rocky Mountain Pediatric Cardiology,39.52777,-104.872854,granted,10099 Ridge Gate Parkway,Suite 300,Lone Tree,CO,80124,USA,,www.denverkidsheart.com,,pediatric_echo,,Rocky Mountain Pediatric Cardiology Lone Tree,,,,,,,,,,,"Feb 28, 2023","Pediatric Transthoracic, Fetal",,,,,,,,,,,,
100,101,Rocky Mountain Pediatric Cardiology PSL,39.747644,-104.964691,granted,2055 High Street,Suite 255,Denver,CO,80205,USA,,www.denverkidsheart.com,,pediatric_echo,,Rocky Mountain Pediatric Cardiology PSL Denver,,,,,,,,,,,"Feb 28, 2023","Pediatric Transthoracic, Fetal",,,,,,,,,,,,
101,102,Rose Medical Center Non-Invasive Vascular Lab,39.731076,-104.934011,granted,4567 E 9th Ave,Vascular Lab 1st Floor,Denver,CO,80220,USA,,,,vascular,www.google.com/search?q=Rose+Medical+Center+Non-Invasive+Vascular+Lab,Rose Medical Center Non-Invasive Vascular Lab Denver,,,,,,,,,"Aug 31, 2022","Extracranial Cerebrovascular Testing, Peripheral Venous Testing",,,,,,,,,,,,,,
102,103,Saint Joseph Hospital,39.745722,-104.972135,granted,1375 E 19th Avenue,,Denver,CO,80218,USA,,,,echo,www.google.com/search?q=Saint+Joseph+Hospital,Saint Joseph Hospital Denver,,,"Jun 30, 2025",Adult Transthoracic,,,,,,,,,,,,,,,,,,,,
103,104,SCL Health Lutheran Medical Center,39.769328,-105.089291,granted,8300 W. 38th Ave,,Wheat Ridge,CO,80033,USA,,,,echo,www.google.com/search?q=SCL+Health+Lutheran+Medical+Center,SCL Health Lutheran Medical Center Wheat Ridge,,,"Jan 31, 2025",Adult Transthoracic,,,,,,,,,,,,,,,,,,,,
104,105,"SCL Health Medical Group - Denver, LLC",39.746923,-104.974741,granted,1818 N Ogden St.,Suite 400B,Denver,CO,80218,USA,,www.sclhs.org,,nuclear,,"SCL Health Medical Group - Denver, LLC Denver",,,,,,,"Feb 29, 2024",Myocardial Perfusion Imaging,,,,,,,,,,,,,,,,
105,106,"SCL Health Medical Group - Denver, LLC",39.967681,-105.086471,multigranted,300 Exempla Circle ,Suite 380,Lafayette,CO,80026,USA,,www.sclhs.net,,"nuclear, echo",,"SCL Health Medical Group - Denver, LLC Lafayette",,,"Jan 31, 2025",Adult Transthoracic,,,"Feb 29, 2024",Myocardial Perfusion Imaging,,,,,,,,,,,,,,,,
106,107,"SCL Health Medical Group - Denver, LLC",39.767852,-105.088544,multigranted,3655 Lutheran Parkway,Suite 201,Wheat Ridge,CO,80033,USA,,www.sclhs.org,,"nuclear, echo",,"SCL Health Medical Group - Denver, LLC Wheat Ridge",,,"Jan 31, 2025","Adult Transesophageal, Adult Transthoracic",,,"Feb 29, 2024",Myocardial Perfusion Imaging,,,,,,,,,,,,,,,,
107,108,"SCL Health Medical Group North - Denver, LLC",39.849047,-105.016687,granted,"11900 Grant Street, Suite 240",,Northglenn,CO,80031,USA,,www.sclhs.org,,echo,,"SCL Health Medical Group North - Denver, LLC Northglenn",,,"Jan 31, 2025",Adult Transthoracic,,,,,,,,,,,,,,,,,,,,
108,109,"SCL Health Medical Group St Joseph - Denver, LLC",39.731906,-104.971463,granted,1960 N. Ogden Street,Midtown Office Building Suite 110,Denver,CO,80218,USA,,www.sclhs.org,,echo,,"SCL Health Medical Group St Joseph - Denver, LLC Denver",,,"Jan 31, 2025",Adult Transthoracic,,,,,,,,,,,,,,,,,,,,
109,110,SCL Health Platte Valley Medical Center,39.965441,-104.770924,granted,1600 Prairie Center Parkway,,Brighton,CO,80601,United States,,,,echo,www.google.com/search?q=SCL+Health+Platte+Valley+Medical+Center,SCL Health Platte Valley Medical Center Brighton,,,"Jan 31, 2025",Adult Transthoracic,,,,,,,,,,,,,,,,,,,,
110,111,Sky Ridge Medical Center,39.527909,-104.872929,granted,10101 Ridgegate Parkway,,Lone Tree,CO,80124,USA,,,,echo,www.google.com/search?q=Sky+Ridge+Medical+Center,Sky Ridge Medical Center Lone Tree,,,"Oct 31, 2023","Adult Stress, Adult Transthoracic",,,,,,,,,,,,,,,,,,,,
111,112,SLC HVI Cardiology,39.091819,-108.542749,granted,360 W. Park Drive,,Grand Junction,CO,81505,USA,,,,nuclear,www.google.com/search?q=SLC+HVI+Cardiology,SLC HVI Cardiology Grand Junction,,,,,,,"Nov 30, 2022",Myocardial Perfusion Imaging,,,,,,,,,,,,,,,,
112,113,South Denver Heart Center,39.567502,-104.999493,multigranted,1000 SouthPark Drive,,Littleton,CO,80120,USA,,www.southdenvercardiology.com,,"ct, echo, vascular, nuclear",,South Denver Heart Center Littleton,"Sep 30, 2023","Body CT, Coronary CTA, Vascular CTA, Coronary Calcium Scoring","Jul 31, 2024","Adult Stress, Adult Transthoracic",,,"Oct 31, 2025",Myocardial Perfusion Imaging,"Sep 30, 2024","Extracranial Cerebrovascular Testing, Visceral Vascular Testing",,,,,,,,,,,,,,
113,114,"Spine West A Professional, LLC",39.985311,-105.227593,granted,5387 Manhattan Circle,,Boulder,CO,80303,USA,,www.SpineWest.com,,mr,,"Spine West A Professional, LLC Boulder",,,,,"Mar 31, 2025",Musculoskeletal MRI,,,,,,,,,,,,,,,,,,
114,115,St. Francis Medical Center,38.940341,-104.71433,granted,6001 East Woodmen Road,,Colorado Springs,CO,80923,USA,,,,echo,www.google.com/search?q=St.+Francis+Medical+Center,St. Francis Medical Center Colorado Springs,,,"Feb 28, 2025",Adult Transthoracic,,,,,,,,,,,,,,,,,,,,
115,116,"Stuart S. Kassan, MD, FACP, PC",39.712034,-105.133071,granted,198 Union Blvd,Suite 150,Lakewood,CO,80228,USA,,,,mr,"www.google.com/search?q=Stuart+S.+Kassan,+MD,+FACP,+PC","Stuart S. Kassan, MD, FACP, PC Lakewood",,,,,"Dec 31, 2022",Musculoskeletal MRI,,,,,,,,,,,,,,,,,,
116,117,Total Vein Care,40.563439,-105.056968,granted,1136 East Stuart Street,Suite 4102,Fort Collins,CO,80525,USA,,,,vascular,www.google.com/search?q=Total+Vein+Care,Total Vein Care Fort Collins,,,,,,,,,"Jul 31, 2025",Peripheral Venous Testing,,,,,,,,,,,,,,
117,118,Touchstone Imaging Aurora,39.661676,-104.856611,granted,3055 South Parker Rd,Building A Suite 103,Aurora,CO,80014,US,,www.touchstoneimaging.com/locations/aurora/,,mr,,Touchstone Imaging Aurora Aurora,,,,,"Sep 29, 2022","Body MRI, Musculoskeletal MRI, Neurological MRI, MRA",,,,,,,,,,,,,,,,,,
118,119,Touchstone Imaging Highline,39.580799,-104.990447,granted,26 West Dry Creek Circle,,Littleton,CO,80120,US,,www.touchstoneimaging.com/locations/highline/,,ct,,Touchstone Imaging Highline Littleton,"Sep 29, 2022","Body CT, Neurological CT, Vascular CTA, Maxillofacial CT",,,,,,,,,,,,,,,,,,,,,,
119,120,UCHealth Lone Tree Medical Center,39.553873,-104.878495,granted,9548 Park Meadows Drive,,Lone Tree,CO,80124,USA,,www.uchealth.org/locations/uchealth-lone-tree-health-center/,,echo,,UCHealth Lone Tree Medical Center Lone Tree,,,"Feb 28, 2023",Adult Transthoracic,,,,,,,,,,,,,,,,,,,,
120,121,UCHealth Longs Peak Hospital,40.160235,-105.062032,granted,1750 E Ken Pratt Blvd,,Longmont,CO,80504,USA,,uchealth.org,,echo,,UCHealth Longs Peak Hospital Longmont,,,"Jun 30, 2023","Adult Stress, Adult Transthoracic",,,,,,,,,,,,,,,,,,,,
121,122,UCHealth North Harmony Campus,40.523191,-105.036196,multigranted,2121 E. Harmony Road,Suite 200,Fort Collins,CO,80528,USA,,www.uchealth.org,,"vascular, echo",,UCHealth North Harmony Campus Fort Collins,,,"Jun 30, 2023","Adult Stress, Adult Transthoracic",,,,,"Feb 28, 2023",Extracranial Cerebrovascular Testing,,,,,,,,,,,,,,
122,123,UCHealth University of Colorado Hospital,39.741365,-104.841344,granted,12605 East 16th Avenue B120,,Aurora,CO,80045,USA,,,,echo,www.google.com/search?q=UCHealth+University+of+Colorado+Hospital,UCHealth University of Colorado Hospital Aurora,,,"Feb 28, 2023","Adult Stress, Adult Transesophageal, Adult Transthoracic",,,,,,,,,,,,,,,,,,,,
123,124,UCHealth Vascular Surgery,38.838828,-104.800454,granted,1400 E. Boulder,Suite 600,Colorado Springs,CO,80909,USA,,,,vascular,www.google.com/search?q=UCHealth+Vascular+Surgery,UCHealth Vascular Surgery Colorado Springs,,,,,,,,,"May 31, 2023","Extracranial Cerebrovascular Testing, Peripheral Arterial Testing, Peripheral Venous Testing",,,,,,,,,,,,,,
124,125,UCHealth Vein and Vascular Surgery,38.965929,-104.751532,granted,4110 Briargate Pkwy,Ste 140,Colorado Springs,CO,80920,USA,,,,vascular,www.google.com/search?q=UCHealth+Vein+and+Vascular+Surgery,UCHealth Vein and Vascular Surgery Colorado Springs,,,,,,,,,"May 31, 2023","Extracranial Cerebrovascular Testing, Peripheral Arterial Testing, Peripheral Venous Testing",,,,,,,,,,,,,,
125,126,UCHealth Vein and Vascular Surgery Center-Memorial Hospital North,38.965929,-104.751532,granted,4110 Briargate Parkway,Suite 140,Colorado Springs,CO,80920,USA,,,,vein_center,www.google.com/search?q=UCHealth+Vein+and+Vascular+Surgery+Center-Memorial+Hospital+North,UCHealth Vein and Vascular Surgery Center-Memorial Hospital North Colorado Springs,,,,,,,,,,,,,,,,,"Jul 31, 2023",Superficial Venous Evaluation and Management,,,,,,
126,127,UCHealth-North Greeley Hospital,40.413839,-104.710154,multigranted,6767 W 29th St.,,Greeley,CO,80634,USA,,www.uchealth.org,,"vascular, echo",,UCHealth-North Greeley Hospital Greeley,,,"Jun 30, 2023","Adult Stress, Adult Transesophageal, Adult Transthoracic",,,,,"Feb 28, 2023",Extracranial Cerebrovascular Testing,,,,,,,,,,,,,,
127,128,UCHealth-North MCR Campus,40.415172,-105.001394,multigranted,2500 Rocky Mountain Ave,,Loveland,CO,80538,USA,,www.uchealth.org,,"vascular, echo",,UCHealth-North MCR Campus Loveland,,,"Jun 30, 2023","Adult Stress, Adult Transesophageal, Adult Transthoracic",,,,,"Feb 28, 2023",Extracranial Cerebrovascular Testing,,,,,,,,,,,,,,
128,129,UCHealth-North Poudre Valley Hospital,40.573727,-105.05786,multigranted,1024 South Lemay,,Fort Collins,CO,80524,USA,,www.uchealth.org,,"vascular, echo",,UCHealth-North Poudre Valley Hospital Fort Collins,,,"Jun 30, 2023","Adult Stress, Adult Transesophageal, Adult Transthoracic",,,,,"Feb 28, 2023",Extracranial Cerebrovascular Testing,,,,,,,,,,,,,,
129,130,United Vein Centers,40.53729,-105.07464,granted,3665 John F. Kennedy Parkway,"Building 1, Suite 200",Fort Collins,CO,80525,USA,,,,vascular,www.google.com/search?q=United+Vein+Centers,United Vein Centers Fort Collins,,,,,,,,,"Jan 31, 2024",Peripheral Venous Testing,,,,,,,,,,,,,,
130,131,United Vein Centers,39.952078,-105.146932,granted,1044 South 88th Street,Suite 105,Louisville,CO,80027,USA,,,,vascular,www.google.com/search?q=United+Vein+Centers,United Vein Centers Louisville,,,,,,,,,"Jan 31, 2024",Peripheral Venous Testing,,,,,,,,,,,,,,
131,132,United Vein Centers,39.719816,-105.132495,granted,255 Union Blvd.,Suite 300,Lakewood,CO,80228,USA,,unitedveincenters.com,,vascular,,United Vein Centers Lakewood,,,,,,,,,"Jan 31, 2024",Peripheral Venous Testing,,,,,,,,,,,,,,
132,133,United Vein Centers,39.589449,-104.921981,granted,6979 South Holly Circle,Suite 125,Centennial,CO,80112,USA,,,,vascular,www.google.com/search?q=United+Vein+Centers,United Vein Centers Centennial,,,,,,,,,"Jan 31, 2024",Peripheral Venous Testing,,,,,,,,,,,,,,
133,134,University of Colorado Health-Boulder Cadiovascular,40.026386,-105.282079,granted,2750 Broadway,,Boulder,CO,80304,USA,,www.bouldermedicalcenter.com,,nuclear,,University of Colorado Health-Boulder Cadiovascular Boulder,,,,,,,"Jul 31, 2023",Myocardial Perfusion Imaging,,,,,,,,,,,,,,,,
134,135,University of Colorado Health-Medical Center of the Rockies,40.415172,-105.001394,granted,2500 Rocky Mountain Ave,Suite 1313,Loveland,CO,80538,USA,,www.uchealth.org,,nuclear,,University of Colorado Health-Medical Center of the Rockies Loveland,,,,,,,"Jul 31, 2023","Equilibrium Radionuclide Angiography, Myocardial Perfusion Imaging",,,,,,,,,,,,,,,,
135,136,University of Colorado Health-Poudre Valley Hospital-Harmony Campus,40.523191,-105.036196,granted,2121 E. Harmony Road,Suite 200,Fort Collins,CO,80528,USA,,www.uchealth.org,,nuclear,,University of Colorado Health-Poudre Valley Hospital-Harmony Campus Fort Collins,,,,,,,"Jul 31, 2023","Equilibrium Radionuclide Angiography, Myocardial Perfusion Imaging",,,,,,,,,,,,,,,,
136,137,University of Colorado Hospital,39.741364,-104.841275,granted,12605 E. 16th Ave,,Aurora,CO,80045,USA,,,,vascular,www.google.com/search?q=University+of+Colorado+Hospital,University of Colorado Hospital Aurora,,,,,,,,,"Oct 31, 2022","Extracranial Cerebrovascular Testing, Peripheral Arterial Testing, Peripheral Venous Testing",,,,,,,,,,,,,,
137,138,"Upright MRI of Colorado, LLC",39.594565,-104.840322,granted,6726 South Revere Pkwy,Suite 100,Centennial,CO,80112,USA,,,,mr,"www.google.com/search?q=Upright+MRI+of+Colorado,+LLC","Upright MRI of Colorado, LLC Centennial",,,,,"Feb 28, 2025","Musculoskeletal MRI, Neurological MRI",,,,,,,,,,,,,,,,,,
138,139,Vail Health,39.642949,-106.382866,granted,180 S Frontage Rd West,,Vail,CO,81657,USA,,,,echo,www.google.com/search?q=Vail+Health,Vail Health Vail,,,"Jan 31, 2023",Adult Transthoracic,,,,,,,,,,,,,,,,,,,,
139,140,Valley View Hospital,39.532092,-107.322936,multigranted,1906 Blake Avenue,,Glenwood Springs,CO,81601,USA,,www.vvh.org,,"echo, vascular",,Valley View Hospital Glenwood Springs,,,"Jan 29, 2023","Adult Stress, Adult Transesophageal, Adult Transthoracic",,,,,"Jun 30, 2025","Extracranial Cerebrovascular Testing, Peripheral Arterial Testing, Peripheral Venous Testing",,,,,,,,,,,,,,
140,141,Vascular and General Surgery at Penrose Hospital,38.865568,-104.820123,granted,2222 North  Nevada Avenue,Suite 5010,Colorado Springs,CO,80907,USA,,www.centura.org,,vascular,,Vascular and General Surgery at Penrose Hospital Colorado Springs,,,,,,,,,"Apr 30, 2023","Extracranial Cerebrovascular Testing, Peripheral Arterial Testing",,,,,,,,,,,,,,
141,142,Vascular Institute of the Rockies,39.746083,-104.967888,granted,4105 E Florida Ave,Ste 200 Second Floor,Denver,CO,80222,United States,,www.vascularinstitute.com/,,vascular,,Vascular Institute of the Rockies Denver,,,,,,,,,"Dec 31, 2023","Extracranial Cerebrovascular Testing, Peripheral Arterial Testing, Peripheral Venous Testing",,,,,,,,,,,,,,
142,143,Vein Care Institute,39.710942,-105.078858,granted,7390 West Alameda Avenue,,Lakewood,CO,80226,USA,,,,vascular,www.google.com/search?q=Vein+Care+Institute,Vein Care Institute Lakewood,,,,,,,,,"Dec 31, 2023",Peripheral Venous Testing,,,,,,,,,,,,,,
143,144,Western Slope Cardiology,39.091859,-108.565967,granted,360 W Park Dr,,Grand Junction,CO,81505,USA,,www.westernslopecardio.com,,echo,,Western Slope Cardiology Grand Junction,,,"Oct 31, 2022",Adult Transthoracic,,,,,,,,,,,,,,,,,,,,
144,145,William Storms Allergy Clinic,38.874559,-104.797265,granted,1625 Medical Center Point,Suite 190,Colorado Springs,CO,80907,USA,,stormsallergy.com,,ct,,William Storms Allergy Clinic Colorado Springs,"Aug 31, 2023",Maxillofacial CT,,,,,,,,,,,,,,,,,,,,,,
145,146,William Storms Allergy Clinic,39.40725,-104.863087,granted,4535 Milestone Lane,Suite B-C,Castle Rock,CO,80104,,,,,ct,www.google.com/search?q=William+Storms+Allergy+Clinic,William Storms Allergy Clinic Castle Rock,"Aug 31, 2023",Maxillofacial CT,,,,,,,,,,,,,,,,,,,,,,
146,147,Yampa Valley Medical Associates,40.461897,-106.815987,granted,940 Central Park Drive,Suite 100,Steamboat Springs,CO,80487,USA,,yvma.com,,echo,,Yampa Valley Medical Associates Steamboat Springs,,,"Oct 31, 2023",Adult Transthoracic,,,,,,,,,,,,,,,,,,,,
147,148,Yampa Valley Medical Center,40.462413,-106.81442,granted,1024 Central Park Drive,,Steamboat Springs,CO,80487,USA,,yvmc.org,,echo,,Yampa Valley Medical Center Steamboat Springs,,,"Apr 01, 2023",Adult Transthoracic,,,,,,,,,,,,,,,,,,,,
