,id,name,lat,lng,category,address,address2,city,state,postal,country,phone,web,features,modalities,searchGoogle,search,ct,ct_areas,echo,echo_areas,mr,mr_areas,nuclear,nuclear_areas,vascular,vascular_areas,pediatric_echo,pediatric_echo_areas,ct-dental,ct-dental_areas,stenting,stenting_areas,vein_center,vein_center_areas,cardiac_electrophysiology,cardiac_electrophysiology_areas,cardiovascular_catheterization,cardiovascular_catheterization_areas,jrcdms,jrcdms_areas
0,1,Advanced Cardiovascular Specialists,41.19246,-73.165205,granted,439 Mill Hill Avenue,,Bridgeport,CT,06610,USA,,,,echo,www.google.com/search?q=Advanced+Cardiovascular+Specialists,Advanced Cardiovascular Specialists Bridgeport,,,"Feb 28, 2025",Adult Transthoracic,,,,,,,,,,,,,,,,,,,,
1,2,Advanced Cardiovascular Specialists P.C.,41.19246,-73.165205,granted,439 Mill Hill Avenue,,Bridgeport,CT,06610,USA,,www.advcardiovascular.com,,nuclear,,Advanced Cardiovascular Specialists P.C. Bridgeport,,,,,,,"Aug 31, 2023","Equilibrium Radionuclide Angiography, Myocardial Perfusion Imaging",,,,,,,,,,,,,,,,
2,3,"American Diagnostics Services, Inc. - Northeast",41.874765,-70.946167,granted,460 Smith Street,,Middletown,CT,06457,USA,,,,echo,"www.google.com/search?q=American+Diagnostics+Services,+Inc.+-+Northeast","American Diagnostics Services, Inc. - Northeast Middletown",,,"May 31, 2024",Adult Transthoracic,,,,,,,,,,,,,,,,,,,,
3,4,Bridgeport Hospital Echocardiography Laboratory,41.188776,-73.16608,granted,267 Grant Street,,Bridgeport,CT,06610,USA,,www.bridgeporthospital.org,,echo,,Bridgeport Hospital Echocardiography Laboratory Bridgeport,,,"May 31, 2025","Adult Stress, Adult Transesophageal, Adult Transthoracic",,,,,,,,,,,,,,,,,,,,
4,5,Bridgeport Hospital Heart Center-Cardiac Specialists,41.410949,-73.43569,multigranted,25 Germantown Rd,,Danbury,CT,06810,USA,,www.cardiacspecialists.com,,"nuclear, vascular, echo",,Bridgeport Hospital Heart Center-Cardiac Specialists Danbury,,,"Jan 31, 2025","Adult Stress, Adult Transthoracic",,,"Jan 29, 2023","Equilibrium Radionuclide Angiography, Myocardial Perfusion Imaging","Jul 31, 2024",Extracranial Cerebrovascular Testing,,,,,,,,,,,,,,
5,6,Bridgeport Hospital Heart Center-Cardiac Specialists,41.142632,-73.25526,multigranted,1305 Post Road,Lower Level,Fairfield,CT,06824,USA,,,,"nuclear, vascular, echo",www.google.com/search?q=Bridgeport+Hospital+Heart+Center-Cardiac+Specialists,Bridgeport Hospital Heart Center-Cardiac Specialists Fairfield,,,"Jan 31, 2025","Adult Stress, Adult Transthoracic",,,"Jan 29, 2023","Equilibrium Radionuclide Angiography, Myocardial Perfusion Imaging","Jul 31, 2024","Extracranial Cerebrovascular Testing, Peripheral Arterial Testing, Visceral Vascular Testing",,,,,,,,,,,,,,
6,7,Bridgeport Hospital Heart Center-Cardiac Specialists,41.230056,-73.153796,multigranted,999 Silver Lane,,Trumbull,CT,06611,USA,,,,"nuclear, vascular, echo",www.google.com/search?q=Bridgeport+Hospital+Heart+Center-Cardiac+Specialists,Bridgeport Hospital Heart Center-Cardiac Specialists Trumbull,,,"Jan 31, 2025","Adult Stress, Adult Transthoracic",,,"Jan 29, 2023",Myocardial Perfusion Imaging,"Jul 31, 2024","Extracranial Cerebrovascular Testing, Peripheral Arterial Testing, Visceral Vascular Testing",,,,,,,,,,,,,,
7,8,Bridgeport Hospital Heart Center-Cardiac Specialists,41.229399,-73.047103,multigranted,20 Commerce park,,Milford,CT,06460,USA,,,,"nuclear, echo",www.google.com/search?q=Bridgeport+Hospital+Heart+Center-Cardiac+Specialists,Bridgeport Hospital Heart Center-Cardiac Specialists Milford,,,"Jan 31, 2025","Adult Stress, Adult Transthoracic",,,"Jan 29, 2023",Myocardial Perfusion Imaging,,,,,,,,,,,,,,,,
8,9,Bridgeport Hospital Heart Center-Cardiac Specialists,41.283787,-73.495908,granted,30 Prospect Street,Suite 200,Ridgefield,CT,06877,USA,,www.cardiacspecialists.com,,echo,,Bridgeport Hospital Heart Center-Cardiac Specialists Ridgefield,,,"Jan 31, 2025","Adult Stress, Adult Transthoracic",,,,,,,,,,,,,,,,,,,,
9,10,Bristol Hospital,41.676078,-72.934878,granted,Brewster Rd.,,Bristol,CT,06011,USA,,www.bristolhospital.org,,echo,,Bristol Hospital Bristol,,,"Mar 31, 2025","Adult Stress, Adult Transthoracic",,,,,,,,,,,,,,,,,,,,
10,11,"Cardiology Physicians of Fairfield County, LLC",41.223548,-73.218227,granted,2979 Main Street,,Bridgeport,CT,06606,USA,,,,vascular,"www.google.com/search?q=Cardiology+Physicians+of+Fairfield+County,+LLC","Cardiology Physicians of Fairfield County, LLC Bridgeport",,,,,,,,,"Aug 31, 2023","Extracranial Cerebrovascular Testing, Peripheral Arterial Testing",,,,,,,,,,,,,,
11,12,"Cardiology Physicians of Fairfield County, LLC",41.119316,-73.417226,granted,40 Cross Street,,Norwalk,CT,06851,USA,,,,vascular,"www.google.com/search?q=Cardiology+Physicians+of+Fairfield+County,+LLC","Cardiology Physicians of Fairfield County, LLC Norwalk",,,,,,,,,"Aug 31, 2023","Extracranial Cerebrovascular Testing, Peripheral Arterial Testing",,,,,,,,,,,,,,
12,13,"Cardiology Physicians of Fairfield County, LLC",41.061134,-73.541237,granted,1177 Summer Street,5th floor,Stamford,CT,06905,USA,,,,vascular,"www.google.com/search?q=Cardiology+Physicians+of+Fairfield+County,+LLC","Cardiology Physicians of Fairfield County, LLC Stamford",,,,,,,,,"Aug 31, 2023","Extracranial Cerebrovascular Testing, Peripheral Arterial Testing",,,,,,,,,,,,,,
13,14,"Cardiology, PC",41.727144,-72.801998,granted,11 South Road,Suite 100,Farmington,CT,06032,USA,,cardiologypcofhartford.com,,nuclear,,"Cardiology, PC Farmington",,,,,,,"Jul 31, 2024",Myocardial Perfusion Imaging,,,,,,,,,,,,,,,,
14,15,Cardiovascular Health LLC,41.296459,-72.928564,granted,2 Church Street South,,New Haven,CT,06519,USA,,,,echo,www.google.com/search?q=Cardiovascular+Health+LLC,Cardiovascular Health LLC New Haven,,,"Feb 28, 2025",Adult Transthoracic,,,,,,,,,,,,,,,,,,,,
15,16,Cardiovascular Health LLC,41.27821,-72.52408,granted,8 East Main Street,,Clinton,CT,06413,USA,,,,echo,www.google.com/search?q=Cardiovascular+Health+LLC,Cardiovascular Health LLC Clinton,,,"Feb 28, 2025",Adult Transthoracic,,,,,,,,,,,,,,,,,,,,
16,17,Center for Vein Restoration,41.547466,-73.061277,granted,475 Chase Parkway,,Waterbury,CT,06708,USA,,,,vascular,www.google.com/search?q=Center+for+Vein+Restoration,Center for Vein Restoration Waterbury,,,,,,,,,"Nov 30, 2022",Peripheral Venous Testing,,,,,,,,,,,,,,
17,18,Center for Vein Restoration,41.605947,-72.709312,granted,136 Berlin Rd. Suite 202,,Cromwell,CT,06416,USA,,,,vascular,www.google.com/search?q=Center+for+Vein+Restoration,Center for Vein Restoration Cromwell,,,,,,,,,"Nov 30, 2022",Peripheral Venous Testing,,,,,,,,,,,,,,
18,19,Center for Vein Restoration,41.119363,-73.417173,granted,40 Cross Street Suite 320,,Norwalk,CT,06851,USA,,,,vascular,www.google.com/search?q=Center+for+Vein+Restoration,Center for Vein Restoration Norwalk,,,,,,,,,"Nov 30, 2022",Peripheral Venous Testing,,,,,,,,,,,,,,
19,20,Center for Vein Restoration,41.998034,-72.581047,granted,"113 Elm Street, Suite 301",,Enfield,CT,06082,USA,,www.centerforvein.com,,vascular,,Center for Vein Restoration Enfield,,,,,,,,,"Nov 30, 2022",Peripheral Venous Testing,,,,,,,,,,,,,,
20,21,Center for Vein Restoration,41.062082,-73.541861,granted,1290 Summer Street,Suite 2100,Stamford,CT,06905,USA,,www.centerforvein.com,,vascular,,Center for Vein Restoration Stamford,,,,,,,,,"Nov 30, 2022",Peripheral Venous Testing,,,,,,,,,,,,,,
21,22,Center for Vein Restoration,41.816873,-72.734414,granted,701 Cottage Grove Road,Suite E110,Bloomfield,CT,06002,USA,,www.centerforvein.com,,vascular,,Center for Vein Restoration Bloomfield,,,,,,,,,"Nov 30, 2022",Peripheral Venous Testing,,,,,,,,,,,,,,
22,23,Center for Vein Restoration,41.714279,-72.589389,granted,622 Hebron Ave,Suite 103,Glastonbury,CT,06033,USA,,,,vascular,www.google.com/search?q=Center+for+Vein+Restoration,Center for Vein Restoration Glastonbury,,,,,,,,,"Nov 30, 2022",Peripheral Venous Testing,,,,,,,,,,,,,,
23,24,"Central Connecticut Cardiologists, LLC",41.768554,-72.702099,granted,19 Woodland Street,Suite 45,Hartford,CT,06105,USA,,,,nuclear,"www.google.com/search?q=Central+Connecticut+Cardiologists,+LLC","Central Connecticut Cardiologists, LLC Hartford",,,,,,,"Aug 31, 2025",Myocardial Perfusion Imaging,,,,,,,,,,,,,,,,
24,25,"Central Connecticut Cardiologists, LLC",41.768554,-72.702099,granted,19 Woodland Street,Suite 45,Hartford,CT,06105,USA,,,,echo,"www.google.com/search?q=Central+Connecticut+Cardiologists,+LLC","Central Connecticut Cardiologists, LLC Hartford",,,"Dec 31, 2024",Adult Transthoracic,,,,,,,,,,,,,,,,,,,,
25,26,"Central Connecticut Cardiologists, LLC- Enfield",41.99842,-72.592988,granted,1699  King Street,Suite 404,Enfield,CT,06082,USA,,,,echo,"www.google.com/search?q=Central+Connecticut+Cardiologists,+LLC-+Enfield","Central Connecticut Cardiologists, LLC- Enfield Enfield",,,"Dec 31, 2024",Adult Transthoracic,,,,,,,,,,,,,,,,,,,,
26,27,"Central Connecticut Cardiologists, LLC- Simsbury",41.850929,-72.813043,granted,381 Hopmeadow Street,Suite 304,Weatogue,CT,06089,USA,,,,echo,"www.google.com/search?q=Central+Connecticut+Cardiologists,+LLC-+Simsbury","Central Connecticut Cardiologists, LLC- Simsbury Weatogue",,,"Dec 31, 2024",Adult Transthoracic,,,,,,,,,,,,,,,,,,,,
27,28,Charlotte Hungerford Hospital,41.790846,-73.133143,granted,540 Litchfield St.,,Torrington,CT,06790,USA,,,,echo,www.google.com/search?q=Charlotte+Hungerford+Hospital,Charlotte Hungerford Hospital Torrington,,,"Mar 31, 2025","Adult Transesophageal, Adult Transthoracic",,,,,,,,,,,,,,,,,,,,
28,29,Charlotte Hungerford Hospital Cardiovascular Medicine,41.786012,-73.14744,granted,1215 New Litchfield Street,,Torrington,CT,06790,USA,,,,echo,www.google.com/search?q=Charlotte+Hungerford+Hospital+Cardiovascular+Medicine,Charlotte Hungerford Hospital Cardiovascular Medicine Torrington,,,"Mar 31, 2025",Adult Transthoracic,,,,,,,,,,,,,,,,,,,,
29,30,Charlotte Hungerford Multi-Speciality Group,41.786001,-73.147487,granted,1215 New Litchfield Rd,,Torrington,CT,06790,USA,,Charlotte Hungerford Hosptial,,vascular,,Charlotte Hungerford Multi-Speciality Group Torrington,,,,,,,,,"Aug 31, 2024",Extracranial Cerebrovascular Testing,,,,,,,,,,,,,,
30,31,"Connecticut Cardiology Center, PC",41.786259,-72.523806,granted,201 Main Street,,Manchester,CT,06042,USA,,,,echo,"www.google.com/search?q=Connecticut+Cardiology+Center,+PC","Connecticut Cardiology Center, PC Manchester",,,"Jul 31, 2024",Adult Transthoracic,,,,,,,,,,,,,,,,,,,,
31,32,Connecticut Children’s Medical Center,41.753482,-72.682812,granted,282 Washington St,Suite 2B,Hartford,CT,06126,USA,,,,pediatric_echo,www.google.com/search?q=Connecticut+Children’s+Medical+Center,Connecticut Children’s Medical Center Hartford,,,,,,,,,,,"Jun 30, 2023","Pediatric Transesophageal, Pediatric Transthoracic, Fetal",,,,,,,,,,,,
32,33,Connecticut Children’s Medical Center,41.727149,-72.801882,granted,11 South Rd.,,Farmington,CT,06032,USA,,,,pediatric_echo,www.google.com/search?q=Connecticut+Children’s+Medical+Center,Connecticut Children’s Medical Center Farmington,,,,,,,,,,,"Jun 30, 2023","Pediatric Transthoracic, Fetal",,,,,,,,,,,,
33,34,Connecticut Imaging Partners,41.989195,-72.568923,granted,100 Hazard Avenue,,Enfield,CT,06082,USA,,,,vascular,www.google.com/search?q=Connecticut+Imaging+Partners,Connecticut Imaging Partners Enfield,,,,,,,,,"Nov 29, 2022","Extracranial Cerebrovascular Testing, Peripheral Arterial Testing",,,,,,,,,,,,,,
34,35,Connecticut Imaging Partners,41.816391,-72.726233,granted,6 Northwestern Drive,,Bloomfield,CT,06002,USA,,www.jeffersonradiology.com,,vascular,,Connecticut Imaging Partners Bloomfield,,,,,,,,,"Nov 29, 2022","Extracranial Cerebrovascular Testing, Peripheral Arterial Testing",,,,,,,,,,,,,,
35,36,Connecticut Imaging Partners,41.730563,-72.799827,granted,399 Farmington Avenue,,Farmington,CT,06032,USA,,www.jeffersonradiology.com,,vascular,,Connecticut Imaging Partners Farmington,,,,,,,,,"Nov 29, 2022","Extracranial Cerebrovascular Testing, Peripheral Arterial Testing",,,,,,,,,,,,,,
36,37,Connecticut Imaging Partners,41.75446,-72.680755,granted,85 Seymour Street,Suite 200,Hartford,CT,06106,USA,,,,vascular,www.google.com/search?q=Connecticut+Imaging+Partners,Connecticut Imaging Partners Hartford,,,,,,,,,"Nov 29, 2022","Extracranial Cerebrovascular Testing, Peripheral Arterial Testing",,,,,,,,,,,,,,
37,38,Connecticut Imaging Partners,41.762205,-72.741094,granted,941 Farmington Avenue,,West Hartford,CT,06107,USA,,www.jeffersonradiology.com,,vascular,,Connecticut Imaging Partners West Hartford,,,,,,,,,"Nov 29, 2022","Extracranial Cerebrovascular Testing, Peripheral Arterial Testing",,,,,,,,,,,,,,
38,39,Connecticut Imaging Partners,41.715421,-72.586382,granted,"704 Hebron Avenue, Suite 100",,Glastonbury,CT,06033,USA,,www.jeffersonradiology.com,,vascular,,Connecticut Imaging Partners Glastonbury,,,,,,,,,"Nov 29, 2022","Extracranial Cerebrovascular Testing, Peripheral Arterial Testing",,,,,,,,,,,,,,
39,40,Connecticut Imaging Partners,41.81651,-72.829927,granted,"100 Simsbury Road, Suite 101",,Avon,CT,06001,USA,,,,vascular,www.google.com/search?q=Connecticut+Imaging+Partners,Connecticut Imaging Partners Avon,,,,,,,,,"Nov 29, 2022","Extracranial Cerebrovascular Testing, Peripheral Arterial Testing",,,,,,,,,,,,,,
40,41,Connecticut Imaging Partners,41.687049,-72.655115,granted,"1260 Silas Deane Highway, Suite 104",,Wethersfield,CT,06109,USA,,www.jeffersonradiology.com,,vascular,,Connecticut Imaging Partners Wethersfield,,,,,,,,,"Nov 29, 2022","Extracranial Cerebrovascular Testing, Peripheral Arterial Testing",,,,,,,,,,,,,,
41,42,Connecticut Vascular Center P.C.,41.375027,-72.883678,granted,280 State Street,,North  Haven,CT,06473,USA,,www.ctvascularcenter.com,,vascular,,Connecticut Vascular Center P.C. North  Haven,,,,,,,,,"Jul 31, 2023","Extracranial Cerebrovascular Testing, Peripheral Arterial Testing, Peripheral Venous Testing",,,,,,,,,,,,,,
42,43,Connecticut Vascular Center P.C.,41.296436,-72.768452,granted,6 Business Park Drive,,Branford,CT,06405,USA,,www.ctvascularcenter.com,,vascular,,Connecticut Vascular Center P.C. Branford,,,,,,,,,"Jul 31, 2023","Extracranial Cerebrovascular Testing, Peripheral Arterial Testing, Peripheral Venous Testing",,,,,,,,,,,,,,
43,44,Connecticut Vascular Surgical Associates Connecticut,41.304016,-73.10214,granted,100 Beard Saw Mill Road,Suite 250,Shelton,CT,06484,USA,,www.cvtsa.net,,vascular,,Connecticut Vascular Surgical Associates Connecticut Shelton,,,,,,,,,"Dec 31, 2023","Extracranial Cerebrovascular Testing, Peripheral Arterial Testing, Peripheral Venous Testing",,,,,,,,,,,,,,
44,45,Connecticut Vascular Surgical Associates Connecticut,41.172042,-73.229271,granted,501 Kings Highway East,,Fairfield,CT,06825,USA,,Pending,,vascular,,Connecticut Vascular Surgical Associates Connecticut Fairfield,,,,,,,,,"Dec 31, 2023","Extracranial Cerebrovascular Testing, Peripheral Arterial Testing, Peripheral Venous Testing",,,,,,,,,,,,,,
45,46,"Consulting Cardiologists, P.C.",41.721468,-72.586268,granted,305 Western Blvd,Suite 100,Glastonbury,CT,06033,USA,,www.consultingcardiologists.com,,nuclear,,"Consulting Cardiologists, P.C. Glastonbury",,,,,,,"Oct 31, 2024","Myocardial Perfusion Imaging, Other Cardiovascular Imaging",,,,,,,,,,,,,,,,
46,47,"Consulting Cardiologists, PC",41.721468,-72.586268,multigranted,305 Western Blvd.,,Glastonbury,CT,06033,USA,,,,"vascular, echo","www.google.com/search?q=Consulting+Cardiologists,+PC","Consulting Cardiologists, PC Glastonbury",,,"Apr 30, 2025","Adult Stress, Adult Transthoracic",,,,,"Nov 30, 2023","Extracranial Cerebrovascular Testing, Peripheral Arterial Testing",,,,,,,,,,,,,,
47,48,"Consulting Cardiologists, PC",41.75446,-72.680755,multigranted,85 Seymour Street,Suite 719,Hartford,CT,06106,USA,,,,"vascular, echo","www.google.com/search?q=Consulting+Cardiologists,+PC","Consulting Cardiologists, PC Hartford",,,"Apr 30, 2025",Adult Transthoracic,,,,,"Nov 30, 2023",Extracranial Cerebrovascular Testing,,,,,,,,,,,,,,
48,49,"Consulting Cardiologists, PC",41.81651,-72.829927,multigranted,100 Simsbury Road,Suite 202,Avon,CT,06001,USA,,,,"vascular, echo","www.google.com/search?q=Consulting+Cardiologists,+PC","Consulting Cardiologists, PC Avon",,,"Apr 30, 2025","Adult Stress, Adult Transthoracic",,,,,"Nov 30, 2023",Extracranial Cerebrovascular Testing,,,,,,,,,,,,,,
49,50,"Consulting Cardiologists, PC",41.482512,-72.773455,granted,1062 Barnes Road,Suite 300,Wallingford,CT,06492,USA,,www.consultingcardiologists.com,,nuclear,,"Consulting Cardiologists, PC Wallingford",,,,,,,"Oct 31, 2024",Myocardial Perfusion Imaging,,,,,,,,,,,,,,,,
50,51,"Consulting Cardiologists, PC",41.733139,-72.743278,granted,"433 South Main Street, Suite 109",,West Hartford,CT,06110,USA,,,,echo,"www.google.com/search?q=Consulting+Cardiologists,+PC","Consulting Cardiologists, PC West Hartford",,,"Apr 30, 2025","Adult Stress, Adult Transthoracic",,,,,,,,,,,,,,,,,,,,
51,52,"Consulting Cardiologists, PC",41.879111,-72.703716,granted,1060 Day Hill Road Suite 203,,Windsor,CT,06095,USA,,,,echo,"www.google.com/search?q=Consulting+Cardiologists,+PC","Consulting Cardiologists, PC Windsor",,,"Apr 30, 2025",Adult Transthoracic,,,,,,,,,,,,,,,,,,,,
52,53,"Consulting Cardiologists, PC",41.494718,-72.903446,granted,"280 South Main Street, Suite 205",,Cheshire,CT,06410,USA,,consultingcardiologists.com,,echo,,"Consulting Cardiologists, PC Cheshire",,,"Apr 30, 2025",Adult Transthoracic,,,,,,,,,,,,,,,,,,,,
53,54,"Consulting Cardiologists, PC",41.81651,-72.829927,granted,"100 Simsbury Road, Ste.202",,Avon,CT,06001,USA,,www.consultingcardiolgists.com,,nuclear,,"Consulting Cardiologists, PC Avon",,,,,,,"Oct 31, 2024",Myocardial Perfusion Imaging,,,,,,,,,,,,,,,,
54,55,"Consulting Cardiologists, PC",41.794969,-72.526432,multigranted,256 North Main Street,,Manchester,CT,06040,USA,,,,"vascular, echo","www.google.com/search?q=Consulting+Cardiologists,+PC","Consulting Cardiologists, PC Manchester",,,"Apr 30, 2025",Adult Transthoracic,,,,,"Nov 30, 2023",Extracranial Cerebrovascular Testing,,,,,,,,,,,,,,
55,56,"Consulting Cardiologists, PC",41.482512,-72.773455,multigranted,1062 Barnes Road,Suite 300,Wallingford,CT,06492,USA,,,,"vascular, echo","www.google.com/search?q=Consulting+Cardiologists,+PC","Consulting Cardiologists, PC Wallingford",,,"Apr 30, 2025","Adult Stress, Adult Transthoracic",,,,,"Nov 30, 2023","Extracranial Cerebrovascular Testing, Peripheral Arterial Testing",,,,,,,,,,,,,,
56,57,"Dr. Chandra K. Sacheti, MD, LLC",41.852511,-72.483498,granted,561 Talcottville Road,,Vernon,CT,06066,USA,,,,nuclear,"www.google.com/search?q=Dr.+Chandra+K.+Sacheti,+MD,+LLC","Dr. Chandra K. Sacheti, MD, LLC Vernon",,,,,,,"Dec 31, 2024",Myocardial Perfusion Imaging,,,,,,,,,,,,,,,,
57,58,Eastern Connecticut Cardiology Associates,41.773639,-72.695609,granted,290 Collins St.,,Hartford,CT,06105,USA,,,,nuclear,www.google.com/search?q=Eastern+Connecticut+Cardiology+Associates,Eastern Connecticut Cardiology Associates Hartford,,,,,,,"Feb 28, 2025",Myocardial Perfusion Imaging,,,,,,,,,,,,,,,,
58,59,Eastern Connecticut Cardiology Associates,41.773639,-72.695609,granted,290 Collins St.,,Hartford,CT,06105,USA,,,,echo,www.google.com/search?q=Eastern+Connecticut+Cardiology+Associates,Eastern Connecticut Cardiology Associates Hartford,,,"Dec 31, 2022",Adult Transthoracic,,,,,,,,,,,,,,,,,,,,
59,60,"Eastern Connecticut Cardiology Associates, LLC",41.783126,-72.525375,granted,43 West Middle Turnpike,,Manchester,CT,06040,USA,,eccallc.com,,echo,,"Eastern Connecticut Cardiology Associates, LLC Manchester",,,"Dec 31, 2022",Adult Transthoracic,,,,,,,,,,,,,,,,,,,,
60,61,"Eastern Connecticut Cardiology Associates, LLC",41.783126,-72.525375,granted,43 West Middle Turnpike,,Manchester,CT,06040,USA,,eccallc.com,,nuclear,,"Eastern Connecticut Cardiology Associates, LLC Manchester",,,,,,,"Feb 28, 2025",Myocardial Perfusion Imaging,,,,,,,,,,,,,,,,
61,62,Family Practice and Internal Medicine (Care Medica),41.391829,-72.859102,granted,52 Washington Avenue,,North Haven,CT,06473,USA,,,,echo,www.google.com/search?q=Family+Practice+and+Internal+Medicine+(Care+Medica),Family Practice and Internal Medicine (Care Medica) North Haven,,,"Sep 30, 2024",Adult Transthoracic,,,,,,,,,,,,,,,,,,,,
62,63,"Greater Hartford Cardiology Group, PC",41.771834,-72.698898,granted,1000 Asylum Avenue,Suite 4300,Hartford,CT,06105,USA,,,,nuclear,"www.google.com/search?q=Greater+Hartford+Cardiology+Group,+PC","Greater Hartford Cardiology Group, PC Hartford",,,,,,,"Sep 29, 2022",Myocardial Perfusion Imaging,,,,,,,,,,,,,,,,
63,64,"Greenwich Cardiology Associates, LLC",41.017193,-73.645975,granted,67 Holly Hill Lane,,Greenwich,CT,06830,USA,,www.gcardiology.com,,vascular,,"Greenwich Cardiology Associates, LLC Greenwich",,,,,,,,,"Oct 31, 2024",Extracranial Cerebrovascular Testing,,,,,,,,,,,,,,
64,65,Greenwich Hospital,41.034395,-73.629632,granted,5 Perryridge Rd,,Greenwich,CT,06830,USA,,,,echo,www.google.com/search?q=Greenwich+Hospital,Greenwich Hospital Greenwich,,,"Dec 30, 2022","Adult Stress, Adult Transthoracic",,,,,,,,,,,,,,,,,,,,
65,66,"Gregory S. Azia, MD",41.335337,-72.105161,granted,399 Ocean Ave,,New London,CT,06320,USA,,,,vascular,"www.google.com/search?q=Gregory+S.+Azia,+MD","Gregory S. Azia, MD New London",,,,,,,,,"May 31, 2025",Peripheral Venous Testing,,,,,,,,,,,,,,
66,67,Griffin Hospital,41.335978,-73.088689,granted,130 Division Street,,Derby,CT,06418,USA,,,,echo,www.google.com/search?q=Griffin+Hospital,Griffin Hospital Derby,,,"Mar 31, 2024","Adult Transesophageal, Adult Transthoracic",,,,,,,,,,,,,,,,,,,,
67,68,Hartford Healthcare Medical Group,41.295438,-72.376854,multigranted,51 Main Street,,Old Saybrook,CT,06475,USA,,,,"vascular, nuclear",www.google.com/search?q=Hartford+Healthcare+Medical+Group,Hartford Healthcare Medical Group Old Saybrook,,,,,,,"Aug 31, 2023",Myocardial Perfusion Imaging,"Jul 31, 2023","Extracranial Cerebrovascular Testing, Peripheral Arterial Testing",,,,,,,,,,,,,,
68,69,Hartford Healthcare Medical Group,41.278301,-72.853824,granted,251 West Main Street,,Branford,CT,06405,USA,,,,nuclear,www.google.com/search?q=Hartford+Healthcare+Medical+Group,Hartford Healthcare Medical Group Branford,,,,,,,"Aug 31, 2023",Myocardial Perfusion Imaging,,,,,,,,,,,,,,,,
69,70,Hartford Healthcare Medical Group,41.317606,-72.131612,granted,100 Perkins Farm Drive,Suite 301,Mystic,CT,06355,,,,,nuclear,www.google.com/search?q=Hartford+Healthcare+Medical+Group,Hartford Healthcare Medical Group Mystic,,,,,,,"Aug 31, 2023",Myocardial Perfusion Imaging,,,,,,,,,,,,,,,,
70,71,Hartford Healthcare Medical Group,41.63293,-72.461001,multigranted,14 Jones Hollow Road,,Marlborough,CT,06447,USA,,,,"vascular, nuclear",www.google.com/search?q=Hartford+Healthcare+Medical+Group,Hartford Healthcare Medical Group Marlborough,,,,,,,"Aug 31, 2023",Myocardial Perfusion Imaging,"Jul 31, 2023","Extracranial Cerebrovascular Testing, Peripheral Arterial Testing",,,,,,,,,,,,,,
71,72,Hartford Healthcare Medical Group,41.542567,-72.62654,multigranted,420 Saybrook Road,Suite A,Middletown,CT,06457,USA,,,,"vascular, nuclear",www.google.com/search?q=Hartford+Healthcare+Medical+Group,Hartford Healthcare Medical Group Middletown,,,,,,,"Aug 31, 2023","Equilibrium Radionuclide Angiography, Myocardial Perfusion Imaging","Jul 31, 2023","Extracranial Cerebrovascular Testing, Peripheral Arterial Testing",,,,,,,,,,,,,,
72,73,Hartford HealthCare Medical Group,41.816875,-72.734263,granted,711 Cottage Grove Road,,Bloomfield,CT,06002,USA,,www.cottagegrovecardiology.com,,nuclear,,Hartford HealthCare Medical Group Bloomfield,,,,,,,"Aug 31, 2023",Myocardial Perfusion Imaging,,,,,,,,,,,,,,,,
73,74,Hartford Healthcare Medical Group  Soundview Medical Associates,41.158171,-73.420784,granted,761 Main Avenue,Suite 201,Norwalk,CT,06851,USA,,,,echo,www.google.com/search?q=Hartford+Healthcare+Medical+Group++Soundview+Medical+Associates,Hartford Healthcare Medical Group  Soundview Medical Associates Norwalk,,,"Sep 30, 2023","Adult Stress, Adult Transthoracic",,,,,,,,,,,,,,,,,,,,
74,75,Hartford HealthCare Medical Group Cardiology,41.907633,-71.906514,granted,37 Kennedy Drive,Suite A,Putnam,CT,06260,USA,,,,echo,www.google.com/search?q=Hartford+HealthCare+Medical+Group+Cardiology,Hartford HealthCare Medical Group Cardiology Putnam,,,"Jan 31, 2024",Adult Transthoracic,,,,,,,,,,,,,,,,,,,,
75,76,Hartford HealthCare Medical Group Specialists,41.753296,-72.678814,multigranted,100 Retreat Avenue,Suite 811,Hartford,CT,06106,USA,,,,"vascular, echo",www.google.com/search?q=Hartford+HealthCare+Medical+Group+Specialists,Hartford HealthCare Medical Group Specialists Hartford,,,"May 31, 2024",Adult Transthoracic,,,,,"Jan 29, 2023",Extracranial Cerebrovascular Testing,,,,,,,,,,,,,,
76,77,Hartford HealthCare Medical Group Specialists,41.727144,-72.801998,multigranted,11 South Road,Suite 100,Farmington,CT,06032,USA,,,,"vascular, echo",www.google.com/search?q=Hartford+HealthCare+Medical+Group+Specialists,Hartford HealthCare Medical Group Specialists Farmington,,,"May 31, 2024",Adult Transthoracic,,,,,"Jan 29, 2023",Extracranial Cerebrovascular Testing,,,,,,,,,,,,,,
77,78,Hartford HealthCare Medical Group Specialists,41.810407,-72.52304,multigranted,"376 Tolland Turnpike, Suite 101",,Manchester,CT,06042,USA,,,,"vascular, echo",www.google.com/search?q=Hartford+HealthCare+Medical+Group+Specialists,Hartford HealthCare Medical Group Specialists Manchester,,,"May 31, 2024",Adult Transthoracic,,,,,"Jan 29, 2023",Extracranial Cerebrovascular Testing,,,,,,,,,,,,,,
78,79,"Hartford HealthCare Medical Group Specialists, LLC",41.816872,-72.73452,granted,711 Cottage Grove Road,,Bloomfield,CT,06002,USA,,www.cottagegrovecardiology.com,,echo,,"Hartford HealthCare Medical Group Specialists, LLC Bloomfield",,,"Jun 30, 2025",Adult Transthoracic,,,,,,,,,,,,,,,,,,,,
79,80,"Hartford HealthCare Medical Group Specialists, LLC",41.281929,-72.804025,granted,251 West Main Street,Lakeview Center,Branford,CT,06405,USA,,,,echo,"www.google.com/search?q=Hartford+HealthCare+Medical+Group+Specialists,+LLC","Hartford HealthCare Medical Group Specialists, LLC Branford",,,"Jul 31, 2024",Adult Transthoracic,,,,,,,,,,,,,,,,,,,,
80,81,"Hartford HealthCare Medical Group Specialists, LLC",41.301198,-72.93017,granted,46 Prince Street,Suite 310,New Haven,CT,06519,USA,,,,echo,"www.google.com/search?q=Hartford+HealthCare+Medical+Group+Specialists,+LLC","Hartford HealthCare Medical Group Specialists, LLC New Haven",,,"Jul 31, 2024",Adult Transthoracic,,,,,,,,,,,,,,,,,,,,
81,82,"Hartford HealthCare Medical Group Specialists, LLC",41.21508,-73.091489,granted,205 Subway Drive,,Milford,CT,06461-3000,United States,,,,echo,"www.google.com/search?q=Hartford+HealthCare+Medical+Group+Specialists,+LLC","Hartford HealthCare Medical Group Specialists, LLC Milford",,,"Jul 31, 2024","Adult Stress, Adult Transthoracic",,,,,,,,,,,,,,,,,,,,
82,83,"Hartford HealthCare Medical Group Specialists, LLC",41.369717,-72.906767,granted,1952 Whitney Ave 1,,Hamden,CT,06517,USA,,,,echo,"www.google.com/search?q=Hartford+HealthCare+Medical+Group+Specialists,+LLC","Hartford HealthCare Medical Group Specialists, LLC Hamden",,,"Jul 31, 2024",Adult Transthoracic,,,,,,,,,,,,,,,,,,,,
83,84,"Hartford HealthCare Medical Group Specialists, LLC",41.29581,-72.70122,granted,Sound Medical Centers 1591 Boston Post Road,,Guilford,CT,06437,USA,,,,echo,"www.google.com/search?q=Hartford+HealthCare+Medical+Group+Specialists,+LLC","Hartford HealthCare Medical Group Specialists, LLC Guilford",,,"Jul 31, 2024",Adult Transthoracic,,,,,,,,,,,,,,,,,,,,
84,85,Hartford HealthCare Medical Group Vascular Lab Farmington,41.730563,-72.799827,granted,399 Farmington Avenue,Suite 200,Farmington,CT,06032,USA,,www.hartfordhealthcaremedicalgroup.org/specialties_vascular.php,,vascular,,Hartford HealthCare Medical Group Vascular Lab Farmington Farmington,,,,,,,,,"Jul 31, 2025",Peripheral Venous Testing,,,,,,,,,,,,,,
85,86,Hartford HealthCare Medical Group Vascular Lab Glastonbury,41.721298,-72.588288,granted,330 Western Boulevard,suite 200,Glastonbury,CT,06033,USA,,www.hartfordhealthcaremedicalgroup.org/specialties_vascular.php,,vascular,,Hartford HealthCare Medical Group Vascular Lab Glastonbury Glastonbury,,,,,,,,,"Jul 31, 2025","Extracranial Cerebrovascular Testing, Peripheral Arterial Testing, Peripheral Venous Testing, Visceral Vascular Testing",,,,,,,,,,,,,,
86,87,Hartford HealthCare Medical Group Vascular Lab Hartford,41.75446,-72.680755,granted,85 Seymour Street,Suite 409,Hartford,CT,06106,USA,,www.hartfordhealthcaremedicalgroup.org/specialties_vascular.php,,vascular,,Hartford HealthCare Medical Group Vascular Lab Hartford Hartford,,,,,,,,,"Jul 31, 2025","Extracranial Cerebrovascular Testing, Peripheral Arterial Testing, Peripheral Venous Testing, Visceral Vascular Testing",,,,,,,,,,,,,,
87,88,Hartford HealthCare Medical Group Vascular Lab Meriden,41.551441,-72.803253,granted,455 Lewis Avenue,suite 203,Meriden,CT,06451,USA,,www.hartfordhealthcaremedicalgroup.org,,vascular,,Hartford HealthCare Medical Group Vascular Lab Meriden Meriden,,,,,,,,,"Jul 31, 2025","Extracranial Cerebrovascular Testing, Peripheral Arterial Testing, Peripheral Venous Testing, Visceral Vascular Testing",,,,,,,,,,,,,,
88,89,Hartford HealthCare Medical Group Vascular Lab Mystic,41.367431,-72.162786,granted,100 Perkins Farm Drive,suite 301,Mystic,CT,06355,USA,,,,vascular,www.google.com/search?q=Hartford+HealthCare+Medical+Group+Vascular+Lab+Mystic,Hartford HealthCare Medical Group Vascular Lab Mystic Mystic,,,,,,,,,"Jul 31, 2025","Extracranial Cerebrovascular Testing, Peripheral Arterial Testing, Peripheral Venous Testing",,,,,,,,,,,,,,
89,90,Hartford HealthCare Medical Group Vascular Lab Norwich,41.510837,-72.114308,granted,111 Salem Turnpike,suite #8,Norwich,CT,06360,USA,,,,vascular,www.google.com/search?q=Hartford+HealthCare+Medical+Group+Vascular+Lab+Norwich,Hartford HealthCare Medical Group Vascular Lab Norwich Norwich,,,,,,,,,"Jul 31, 2025","Extracranial Cerebrovascular Testing, Peripheral Arterial Testing, Peripheral Venous Testing, Visceral Vascular Testing",,,,,,,,,,,,,,
90,91,Hartford HealthCare Medical Group Vascular Lab Plainville,41.672958,-72.823962,granted,201 North Mountain Road,Suite 201,Plainville,CT,06062,USA,,www.hartfordhealthcaremedicalgroup.org/specialties_vascular.php,,vascular,,Hartford HealthCare Medical Group Vascular Lab Plainville Plainville,,,,,,,,,"Jul 31, 2025","Extracranial Cerebrovascular Testing, Peripheral Arterial Testing, Peripheral Venous Testing, Visceral Vascular Testing",,,,,,,,,,,,,,
91,92,Hartford HealthCare Medical Group Vascular Lab Southington,41.629055,-72.873691,granted,462 Queen Street,suite 302,Southington,CT,06489,USA,,,,vascular,www.google.com/search?q=Hartford+HealthCare+Medical+Group+Vascular+Lab+Southington,Hartford HealthCare Medical Group Vascular Lab Southington Southington,,,,,,,,,"Jul 31, 2025","Extracranial Cerebrovascular Testing, Peripheral Arterial Testing, Peripheral Venous Testing",,,,,,,,,,,,,,
92,93,Hartford Hospital,41.754123,-72.68082,granted,80 Seymour Street,,Hartford,CT,06102,USA,,,,echo,www.google.com/search?q=Hartford+Hospital,Hartford Hospital Hartford,,,"Sep 30, 2024","Adult Transesophageal, Adult Transthoracic",,,,,,,,,,,,,,,,,,,,
93,94,Hartford Hospital,41.754123,-72.68082,granted,80 Seymour Street,JB228,Hartford,CT,06102,USA,,,,vascular,www.google.com/search?q=Hartford+Hospital,Hartford Hospital Hartford,,,,,,,,,"Jan 31, 2024","Extracranial Cerebrovascular Testing, Peripheral Arterial Testing, Peripheral Venous Testing, Visceral Vascular Testing",,,,,,,,,,,,,,
94,95,Hartford Hospital,41.754123,-72.68082,granted,80 Seymour Street,,Hartford,CT,06102,USA,,www.harthosp.org,,nuclear,,Hartford Hospital Hartford,,,,,,,"Apr 30, 2024","Equilibrium Radionuclide Angiography, Myocardial Perfusion Imaging, Positron Emission Tomography (PET)",,,,,,,,,,,,,,,,
95,96,Heart and Vascular Center Greenwich,41.018525,-73.645525,granted,500 West Putnam Avenue,,Greenwich,CT,06830,,,,,echo,www.google.com/search?q=Heart+and+Vascular+Center+Greenwich,Heart and Vascular Center Greenwich Greenwich,,,"Feb 29, 2024","Adult Stress, Adult Transthoracic",,,,,,,,,,,,,,,,,,,,
96,97,Heart and Vascular Center Outpatient Services Greenwich,41.018525,-73.645525,granted,500 West Putnam Avenue,,Greenwich,CT,06830,USA,,,,pediatric_echo,www.google.com/search?q=Heart+and+Vascular+Center+Outpatient+Services+Greenwich,Heart and Vascular Center Outpatient Services Greenwich Greenwich,,,,,,,,,,,"Mar 31, 2025",Fetal,,,,,,,,,,,,
97,98,"Heartcare Associates of Connecticut, LLC",41.376905,-72.904244,granted,2200 Whitney Avenue,Suite 180,Hamden,CT,06518,USA,,N/A,,nuclear,,"Heartcare Associates of Connecticut, LLC Hamden",,,,,,,"Mar 31, 2025","Equilibrium Radionuclide Angiography, Myocardial Perfusion Imaging",,,,,,,,,,,,,,,,
98,99,"Heartcare Associates of Connecticut, LLC",41.277033,-72.869742,granted,203 Main Street,,East Haven,CT,06512,USA,,N/A,,nuclear,,"Heartcare Associates of Connecticut, LLC East Haven",,,,,,,"Mar 31, 2025","Equilibrium Radionuclide Angiography, Myocardial Perfusion Imaging",,,,,,,,,,,,,,,,
99,100,"HeartCare Associates of CT, LLC",41.376905,-72.904244,multigranted,2200 Whitney Ave,Suite 180,Hamden,CT,06518,USA,,,,"vascular, echo","www.google.com/search?q=HeartCare+Associates+of+CT,+LLC","HeartCare Associates of CT, LLC Hamden",,,"Sep 30, 2024","Adult Stress, Adult Transthoracic",,,,,"Nov 29, 2022 | Sep 30, 2025","Peripheral Arterial Testing, Peripheral Venous Testing | Extracranial Cerebrovascular Testing",,,,,,,,,,,,,,
100,101,"HeartCare Associates of CT, LLC",41.477854,-72.808288,granted,821 North Main Street Ext,,Wallingford,CT,06492,USA,,HeartCareAssociates.com,,echo,,"HeartCare Associates of CT, LLC Wallingford",,,"Sep 30, 2024",Adult Transthoracic,,,,,,,,,,,,,,,,,,,,
101,102,"HeartCare Associates of CT, LLC",41.271802,-72.951004,multigranted,98 Elm Street,"Suite 5, Floor 3",West Haven,CT,06516,USA,,,,"vascular, echo","www.google.com/search?q=HeartCare+Associates+of+CT,+LLC","HeartCare Associates of CT, LLC West Haven",,,"Sep 30, 2024",Adult Transthoracic,,,,,"Nov 29, 2022 | Sep 30, 2025","Peripheral Arterial Testing, Peripheral Venous Testing | Extracranial Cerebrovascular Testing",,,,,,,,,,,,,,
102,103,"HeartCare Associates of CT, LLC",41.277033,-72.869742,multigranted,203 Main Street,,East Haven,CT,06512,USA,,,,"vascular, echo","www.google.com/search?q=HeartCare+Associates+of+CT,+LLC","HeartCare Associates of CT, LLC East Haven",,,"Sep 30, 2024","Adult Stress, Adult Transthoracic",,,,,"Nov 29, 2022 | Sep 30, 2025","Peripheral Arterial Testing, Peripheral Venous Testing | Extracranial Cerebrovascular Testing",,,,,,,,,,,,,,
103,104,"Jeffrey P. Thompsen, MD, LLC",41.99709,-72.573625,granted,15 Palomba Drive,Suite 4,Enfield,CT,06082,USA,,,,echo,"www.google.com/search?q=Jeffrey+P.+Thompsen,+MD,+LLC","Jeffrey P. Thompsen, MD, LLC Enfield",,,"Jan 31, 2023",Adult Transthoracic,,,,,,,,,,,,,,,,,,,,
104,105,Jeffrey Sanderson Vascular Laboratory,41.5883,-73.407211,granted,4 Park Lane,,New Milford,CT,06776,USA,,,,vascular,www.google.com/search?q=Jeffrey+Sanderson+Vascular+Laboratory,Jeffrey Sanderson Vascular Laboratory New Milford,,,,,,,,,"Apr 30, 2023",Peripheral Venous Testing,,,,,,,,,,,,,,
105,106,Lawrence and Memorial Diagnostic Imaging at Crossroads,41.367431,-72.162791,granted,196 Parkway South,Suite 102,Waterford,CT,06385,USA,,,,echo,www.google.com/search?q=Lawrence+and+Memorial+Diagnostic+Imaging+at+Crossroads,Lawrence and Memorial Diagnostic Imaging at Crossroads Waterford,,,"Sep 30, 2024",Adult Transthoracic,,,,,,,,,,,,,,,,,,,,
106,107,Lawrence and Memorial Hospital,41.336429,-72.103074,granted,365 Montauk Avenue,,New London,CT,06320,USA,,www.lmhospital.org,,echo,,Lawrence and Memorial Hospital New London,,,"Sep 30, 2024","Adult Stress, Adult Transthoracic",,,,,,,,,,,,,,,,,,,,
107,108,Lawrence and Memorial Hospital,41.336429,-72.103074,granted,365 Montauk Ave,,New London,CT,06320,USA,,,,nuclear,www.google.com/search?q=Lawrence+and+Memorial+Hospital,Lawrence and Memorial Hospital New London,,,,,,,"Dec 31, 2024",Myocardial Perfusion Imaging,,,,,,,,,,,,,,,,
108,109,Lawrence and Memorial Hospital Pequot Health Center,41.357074,-72.027219,granted,52 Hazelnut Hill Road,,Groton,CT,06340,USA,,www.lmhospital.org,,echo,,Lawrence and Memorial Hospital Pequot Health Center Groton,,,"Sep 30, 2024",Adult Transthoracic,,,,,,,,,,,,,,,,,,,,
109,110,Lexington Cardiology Associates,41.66557,-72.77754,granted,One Liberty Square,,New Britain,CT,06051,USA,,,,echo,www.google.com/search?q=Lexington+Cardiology+Associates,Lexington Cardiology Associates New Britain,,,"Dec 30, 2022",Adult Transthoracic,,,,,,,,,,,,,,,,,,,,
110,111,Lexington Cardiology Associates,41.66592,-72.777602,granted,1 Liberty Square,,New Britain,CT,06051,USA,,,,nuclear,www.google.com/search?q=Lexington+Cardiology+Associates,Lexington Cardiology Associates New Britain,,,,,,,"Dec 30, 2022","Myocardial Perfusion Imaging, Positron Emission Tomography (PET)",,,,,,,,,,,,,,,,
111,112,Long Wharf Fetal Echocardiography,41.316388,-72.928122,granted,1 Long Wharf,,New Haven,CT,06511,USA,,,,pediatric_echo,www.google.com/search?q=Long+Wharf+Fetal+Echocardiography,Long Wharf Fetal Echocardiography New Haven,,,,,,,,,,,"Mar 31, 2025",Fetal,,,,,,,,,,,,
112,113,"Lori L. Greenwald, MD, PC dba Vanishing Veins",41.82868,-72.738024,granted,One Barnard Lane,,Bloomfield,CT,06002,USA,,www.vanishingveins.net,,vascular,,"Lori L. Greenwald, MD, PC dba Vanishing Veins Bloomfield",,,,,,,,,"Sep 30, 2024",Peripheral Venous Testing,,,,,,,,,,,,,,
113,114,Middlesex Cardiology Associates,41.542567,-72.62654,granted,420 Saybrook Road,,Middletown,CT,06457,USA,,middlesexcardiology.com,,echo,,Middlesex Cardiology Associates Middletown,,,"Jul 31, 2025",Adult Transthoracic,,,,,,,,,,,,,,,,,,,,
114,115,Middlesex Cardiology Associates,41.295438,-72.376854,granted,51 Main Street,,Old Saybrook,CT,06475,USA,,,,echo,www.google.com/search?q=Middlesex+Cardiology+Associates,Middlesex Cardiology Associates Old Saybrook,,,"Jul 31, 2025",Adult Transthoracic,,,,,,,,,,,,,,,,,,,,
115,116,Middlesex Cardiology Associates,41.63293,-72.461001,granted,14 Jones Hollow Road,,Marlborough,CT,06447,USA,,,,echo,www.google.com/search?q=Middlesex+Cardiology+Associates,Middlesex Cardiology Associates Marlborough,,,"Jul 31, 2025",Adult Transthoracic,,,,,,,,,,,,,,,,,,,,
116,117,Middlesex Hospital - Cardiology Department,41.554865,-72.647633,granted,28 Crescent Street,,Middletown,CT,06457,USA,,,,echo,www.google.com/search?q=Middlesex+Hospital+-+Cardiology+Department,Middlesex Hospital - Cardiology Department Middletown,,,"Jun 30, 2025","Adult Transesophageal, Adult Transthoracic",,,,,,,,,,,,,,,,,,,,
117,118,MidState Medical Center,41.550036,-72.803878,granted,435 Lewis Avenue,,Meriden,CT,06451,USA,,,,echo,www.google.com/search?q=MidState+Medical+Center,MidState Medical Center Meriden,,,"Jul 31, 2025",Adult Transthoracic,,,,,,,,,,,,,,,,,,,,
118,119,Milford Campus,41.217084,-73.064305,granted,300 Seaside Avenue,,Milford,CT,06460,USA,,bridgeporthospital.org,,echo,,Milford Campus Milford,,,"May 31, 2025",Adult Transthoracic,,,,,,,,,,,,,,,,,,,,
119,120,Naugatuck Valley Cardiovascular Associates,41.554502,-73.092291,granted,1625 Straits Turnpike,#209,Middlebury,CT,06762,USA,,,,echo,www.google.com/search?q=Naugatuck+Valley+Cardiovascular+Associates,Naugatuck Valley Cardiovascular Associates Middlebury,,,"May 31, 2024",Adult Transthoracic,,,,,,,,,,,,,,,,,,,,
120,121,"Naugatuck Valley Cardiovascular Associates, LLC",41.554502,-73.092291,granted,1625 Straits Turnpike,#209,Middlebury,CT,06762,USA,,,,nuclear,"www.google.com/search?q=Naugatuck+Valley+Cardiovascular+Associates,+LLC","Naugatuck Valley Cardiovascular Associates, LLC Middlebury",,,,,,,"Aug 31, 2024",Myocardial Perfusion Imaging,,,,,,,,,,,,,,,,
121,122,NEMG - Cardiology,41.276571,-73.130682,multigranted,4 Corporate Drive,Suite 100,Shelton,CT,06484,USA,,ynhh.org,,"echo, nuclear, vascular",,NEMG - Cardiology Shelton,,,"Mar 31, 2024","Adult Stress, Adult Transthoracic",,,"Jun 30, 2024","Equilibrium Radionuclide Angiography, Myocardial Perfusion Imaging","Jul 31, 2025",Extracranial Cerebrovascular Testing,,,,,,,,,,,,,,
122,123,NEMG Cardiology,41.232534,-73.184381,multigranted,112 Quarry Road,,Trumbull,CT,06611,USA,,www.cthvc.com,,"echo, nuclear",,NEMG Cardiology Trumbull,,,"Aug 31, 2023","Adult Stress, Adult Transthoracic",,,"Nov 30, 2024",Myocardial Perfusion Imaging,,,,,,,,,,,,,,,,
123,124,"New England Cardiology Associates, PC",41.7775,-72.511943,granted,257 East Center Street,,Manchester,CT,06040,USA,,,,echo,"www.google.com/search?q=New+England+Cardiology+Associates,+PC","New England Cardiology Associates, PC Manchester",,,"May 31, 2024",Adult Transthoracic,,,,,,,,,,,,,,,,,,,,
124,125,New MIlford Medical Group,41.598388,-73.404647,granted,11 Old Park Lane,,New Milford,CT,06776,USA,,www.nmmedicalgroup.com,,nuclear,,New MIlford Medical Group New Milford,,,,,,,"Jul 31, 2025",Myocardial Perfusion Imaging,,,,,,,,,,,,,,,,
125,126,New Milford Medical Group,41.598388,-73.404647,granted,11 Old Park Lane,,New Milford,CT,06776,USA,,,,echo,www.google.com/search?q=New+Milford+Medical+Group,New Milford Medical Group New Milford,,,"Aug 31, 2023",Adult Transthoracic,,,,,,,,,,,,,,,,,,,,
126,127,Norwalk Hospital Cardiology,41.110415,-73.421229,granted,24 Stevens Street,,Norwalk,CT,06850,USA,,,,echo,www.google.com/search?q=Norwalk+Hospital+Cardiology,Norwalk Hospital Cardiology Norwalk,,,"Jan 31, 2023","Adult Transesophageal, Adult Transthoracic",,,,,,,,,,,,,,,,,,,,
127,128,Nuvance Health,41.481773,-73.21137,granted,22 Old Waterbury Road,Suite 107,Southbury,CT,06844,USA,,,,echo,www.google.com/search?q=Nuvance+Health,Nuvance Health Southbury,,,"Aug 31, 2023","Adult Stress, Adult Transthoracic",,,,,,,,,,,,,,,,,,,,
128,129,Nuvance Health,41.290137,-73.494197,granted,21 South Street,Suite 1,Ridgefield,CT,06877,USA,,,,echo,www.google.com/search?q=Nuvance+Health,Nuvance Health Ridgefield,,,"Aug 31, 2023","Adult Stress, Adult Transthoracic",,,,,,,,,,,,,,,,,,,,
129,130,Nuvance Health,41.580782,-73.409959,granted,21 Elm Street,,New Milford,CT,06776,USA,,,,echo,www.google.com/search?q=Nuvance+Health,Nuvance Health New Milford,,,"Aug 31, 2023","Adult Transesophageal, Adult Transthoracic",,,,,,,,,,,,,,,,,,,,
130,131,Nuvance Health,41.412171,-73.435925,granted,41 Germantown Rd,Suite 101,Danbury,CT,06810,USA,,,,vein_center,www.google.com/search?q=Nuvance+Health,Nuvance Health Danbury,,,,,,,,,,,,,,,,,"Jun 30, 2024",Superficial Venous Evaluation and Management,,,,,,
131,132,Nuvance Health,41.406776,-73.444339,granted,24 Hospital Avenue,,Danbury,CT,06810,USA,,,,echo,www.google.com/search?q=Nuvance+Health,Nuvance Health Danbury,,,"Aug 31, 2023","Adult Stress, Adult Transesophageal, Adult Transthoracic",,,,,,,,,,,,,,,,,,,,
132,133,Nuvance Health,41.406776,-73.444339,granted,24 Hospital Avenue,,Danbury,CT,06810,USA,,,,vascular,www.google.com/search?q=Nuvance+Health,Nuvance Health Danbury,,,,,,,,,"Aug 31, 2023","Extracranial Cerebrovascular Testing, Peripheral Arterial Testing, Peripheral Venous Testing, Visceral Vascular Testing, Screening",,,,,,,,,,,,,,
133,134,Nuvance Health,41.481773,-73.21137,granted,22 Old Waterbury Road,Suite 107,Southbury,CT,06488,USA,,,,vascular,www.google.com/search?q=Nuvance+Health,Nuvance Health Southbury,,,,,,,,,"Aug 31, 2023","Extracranial Cerebrovascular Testing, Peripheral Arterial Testing, Peripheral Venous Testing, Visceral Vascular Testing, Screening",,,,,,,,,,,,,,
134,135,Prohealth Physicians,41.721267,-72.588545,granted,400 Saybrook Rd.,,Middletown,CT,06457,USA,,,,echo,www.google.com/search?q=Prohealth+Physicians,Prohealth Physicians Middletown,,,"Aug 31, 2025",Adult Transthoracic,,,,,,,,,,,,,,,,,,,,
135,136,ProHealth Physicians,41.540583,-72.787066,granted,816 Broad Street,Suite 15,Meriden,CT,06450,USA,,,,echo,www.google.com/search?q=ProHealth+Physicians,ProHealth Physicians Meriden,,,"Aug 31, 2025",Adult Transthoracic,,,,,,,,,,,,,,,,,,,,
136,137,ProHealth Physicians,41.542451,-72.626331,granted,320 Western Blvd,,Glastonbury,CT,06033,USA,,,,echo,www.google.com/search?q=ProHealth+Physicians,ProHealth Physicians Glastonbury,,,"Aug 31, 2025",Adult Transthoracic,,,,,,,,,,,,,,,,,,,,
137,138,Prohealth Physicians,41.74308,-72.730131,granted,631 South Quaker Lane,,West Hartford,CT,06110,USA,,,,echo,www.google.com/search?q=Prohealth+Physicians,Prohealth Physicians West Hartford,,,"Aug 31, 2025",Adult Transthoracic,,,,,,,,,,,,,,,,,,,,
138,139,ProHealth Physicians,41.907524,-71.914925,granted,330 Pomfret Avenue,,Putnam,CT,06260,USA,,,,echo,www.google.com/search?q=ProHealth+Physicians,ProHealth Physicians Putnam,,,"Aug 31, 2025",Adult Transthoracic,,,,,,,,,,,,,,,,,,,,
139,140,ProHealth Physicians,41.686578,-72.983918,granted,625 Clark Avenue,,Bristol,CT,06010,USA,,,,echo,www.google.com/search?q=ProHealth+Physicians,ProHealth Physicians Bristol,,,"Aug 31, 2025",Adult Transthoracic,,,,,,,,,,,,,,,,,,,,
140,141,ProHealth Physicians,41.784974,-73.143361,granted,52 Peck Road,,Torrington,CT,06790,USA,,,,echo,www.google.com/search?q=ProHealth+Physicians,ProHealth Physicians Torrington,,,"Aug 31, 2025",Adult Transthoracic,,,,,,,,,,,,,,,,,,,,
141,142,ProHealth Physicians,41.413921,-73.433241,granted,67 Sand Pit Road,Suite 300,Danbury,CT,06810,USA,,,,echo,www.google.com/search?q=ProHealth+Physicians,ProHealth Physicians Danbury,,,"Aug 31, 2025",Adult Transthoracic,,,,,,,,,,,,,,,,,,,,
142,143,ProHealth Physicians,41.370571,-73.415609,granted,515 West Middle Turnpike,,Manchester,CT,06040,USA,,,,echo,www.google.com/search?q=ProHealth+Physicians,ProHealth Physicians Manchester,,,"Aug 31, 2025",Adult Transthoracic,,,,,,,,,,,,,,,,,,,,
143,144,"Prospect Manchester Hospital, Inc.",41.781087,-72.525221,granted,71 Haynes Street,,Manchester,CT,06040,USA,,,,echo,"www.google.com/search?q=Prospect+Manchester+Hospital,+Inc.","Prospect Manchester Hospital, Inc. Manchester",,,"Aug 31, 2024",Adult Transthoracic,,,,,,,,,,,,,,,,,,,,
144,145,"Robert M. Smith, MD",41.773729,-72.69617,granted,310 Collins Street,,Hartford,CT,06105,USA,,,,nuclear,"www.google.com/search?q=Robert+M.+Smith,+MD","Robert M. Smith, MD Hartford",,,,,,,"Sep 30, 2024",Myocardial Perfusion Imaging,,,,,,,,,,,,,,,,
145,146,St. Francis Hospital and Medical Center,41.77508,-72.699468,granted,114 Woodland Street,,Hartford,CT,06105,USA,,,,echo,www.google.com/search?q=St.+Francis+Hospital+and+Medical+Center,St. Francis Hospital and Medical Center Hartford,,,"May 31, 2024","Adult Transesophageal, Adult Transthoracic",,,,,,,,,,,,,,,,,,,,
146,147,St. Vincent’s Heart and Vascular Center,41.119316,-73.417226,granted,40 Cross Street,Suite 200,Norwalk,CT,06851,USA,,,,echo,www.google.com/search?q=St.+Vincent’s+Heart+and+Vascular+Center,St. Vincent’s Heart and Vascular Center Norwalk,,,"Sep 30, 2023","Adult Stress, Adult Transthoracic",,,,,,,,,,,,,,,,,,,,
147,148,St. Vincent’s Heart and Vascular Center,41.202586,-73.204149,granted,2979  Main Street,,Bridgeport,CT,06606,USA,,,,echo,www.google.com/search?q=St.+Vincent’s+Heart+and+Vascular+Center,St. Vincent’s Heart and Vascular Center Bridgeport,,,"Sep 30, 2023","Adult Stress, Adult Transesophageal, Adult Transthoracic",,,,,,,,,,,,,,,,,,,,
148,149,St. Vincent’s Heart and Vascular Center,41.0614194,-73.5414506,granted,1177 Summer Street,5th Floor,Stamford,CT,06905,USA,,,,nuclear,www.google.com/search?q=St.+Vincent’s+Heart+and+Vascular+Center,St. Vincent’s Heart and Vascular Center Stamford,,,,,,,"Jul 31, 2025","Myocardial Perfusion Imaging, Other Cardiovascular Imaging",,,,,,,,,,,,,,,,
149,150,St. Vincent’s Heart and Vascular Center,41.119499,-73.417389,granted,40 Cross Street,Suite 200,Norwalk,CT,06851,USA,,,,nuclear,www.google.com/search?q=St.+Vincent’s+Heart+and+Vascular+Center,St. Vincent’s Heart and Vascular Center Norwalk,,,,,,,"Jul 31, 2025","Myocardial Perfusion Imaging, Other Cardiovascular Imaging",,,,,,,,,,,,,,,,
150,151,St. Vincent’s Heart and Vascular Center,41.220179,-73.1184086,granted,2979 Main Street,,Bridgeport,CT,06606,USA,,,,nuclear,www.google.com/search?q=St.+Vincent’s+Heart+and+Vascular+Center,St. Vincent’s Heart and Vascular Center Bridgeport,,,,,,,"Jul 31, 2025","Myocardial Perfusion Imaging, Other Cardiovascular Imaging",,,,,,,,,,,,,,,,
151,152,St. Vincent’s Heart and Vascular Center,41.061134,-73.541237,granted,1177 Summer Street,,Stamford,CT,06905,USA,,,,echo,www.google.com/search?q=St.+Vincent’s+Heart+and+Vascular+Center,St. Vincent’s Heart and Vascular Center Stamford,,,"Sep 30, 2023","Adult Stress, Adult Transthoracic",,,,,,,,,,,,,,,,,,,,
152,153,St. Vincent’s Heart and Vascular Center,41.29695,-73.230241,granted,115 Technology Drive,,Trumbull,CT,06611,USA,,,,echo,www.google.com/search?q=St.+Vincent’s+Heart+and+Vascular+Center,St. Vincent’s Heart and Vascular Center Trumbull,,,"Sep 30, 2023","Adult Stress, Adult Transthoracic",,,,,,,,,,,,,,,,,,,,
153,154,St. Vincent’s Medical Center,41.20101,-73.203095,granted,2800 Main Street,,Bridgeport,CT,06606,USA,,www.stvincents.org,,echo,,St. Vincent’s Medical Center Bridgeport,,,"Sep 30, 2023","Adult Stress, Adult Transesophageal, Adult Transthoracic",,,,,,,,,,,,,,,,,,,,
154,155,St. Vincent’s Medical Center,41.200083,-73.202486,granted,2800 Main Street,,Bridgeport,CT,06606,USA,,,,nuclear,www.google.com/search?q=St.+Vincent’s+Medical+Center,St. Vincent’s Medical Center Bridgeport,,,,,,,"Jul 31, 2025",Myocardial Perfusion Imaging,,,,,,,,,,,,,,,,
155,156,Starling Physicians,41.687049,-72.655115,granted,1260 Silas Deane Highway,Suite 106,Wethersfield,CT,06109,USA,,,,nuclear,www.google.com/search?q=Starling+Physicians,Starling Physicians Wethersfield,,,,,,,"Aug 31, 2025",Myocardial Perfusion Imaging,,,,,,,,,,,,,,,,
156,157,Starling Physicians Cardiology,41.66855,-72.791001,granted,1 Lake St. Building A,2nd Floor,New Britain,CT,06052,USA,,Starling Physicians Cardiology,,nuclear,,Starling Physicians Cardiology New Britain,,,,,,,"Jun 30, 2023",Myocardial Perfusion Imaging,,,,,,,,,,,,,,,,
157,158,Starling Physicians PC  New Britain,41.66855,-72.791001,granted,1 Lake Street,,New Britain,CT,06052,USA,,,,echo,www.google.com/search?q=Starling+Physicians+PC++New+Britain,Starling Physicians PC  New Britain New Britain,,,"Jan 31, 2025","Adult Stress, Adult Transthoracic",,,,,,,,,,,,,,,,,,,,
158,159,Starling Physicians PC Southington,41.597637,-72.87771,granted,209 Main Street,,Southington,CT,06489,USA,,,,echo,www.google.com/search?q=Starling+Physicians+PC+Southington,Starling Physicians PC Southington Southington,,,"Jan 31, 2025",Adult Transthoracic,,,,,,,,,,,,,,,,,,,,
159,160,"Starling Physicians, PC",41.727149,-72.801882,granted,11 South Road,,Farmington,CT,06032,USA,,,,echo,"www.google.com/search?q=Starling+Physicians,+PC","Starling Physicians, PC Farmington",,,"Jan 31, 2025",Adult Transthoracic,,,,,,,,,,,,,,,,,,,,
160,161,"Starling Physicians, PC",41.66855,-72.791001,granted,1 Lake Street,,New Britain,CT,06052,USA,,www.starlingphysicians.com,,vascular,,"Starling Physicians, PC New Britain",,,,,,,,,"Jul 31, 2025",Extracranial Cerebrovascular Testing,,,,,,,,,,,,,,
161,162,"Starling Physicians, PC",41.687105,-72.655125,granted,1260 Silas Deane Highway,Suite 109,Wethersfield,CT,06109,USA,,www.starlingphysicians.com,,vascular,,"Starling Physicians, PC Wethersfield",,,,,,,,,"Jul 31, 2025",Extracranial Cerebrovascular Testing,,,,,,,,,,,,,,
162,163,"Starling Physicians, PC",41.687105,-72.655125,granted,1260 Silas Deane Highway,Suite 106,Wethersfield,CT,06109,USA,,,,echo,"www.google.com/search?q=Starling+Physicians,+PC","Starling Physicians, PC Wethersfield",,,"Jan 31, 2025","Adult Stress, Adult Transthoracic",,,,,,,,,,,,,,,,,,,,
163,164,"Starling Physicians, PC -  Glastonbury",41.715298,-72.586732,granted,289 Western Blvd.,,Glastonbury,CT,06033,USA,,,,vascular,"www.google.com/search?q=Starling+Physicians,+PC+-++Glastonbury","Starling Physicians, PC -  Glastonbury Glastonbury",,,,,,,,,"Jul 31, 2025",Extracranial Cerebrovascular Testing,,,,,,,,,,,,,,
164,165,"Starling Physicians, PC -  Glastonbury",41.720927,-72.589763,granted,289 Western Blvd.,,Glastonbury,CT,06033,USA,,,,echo,"www.google.com/search?q=Starling+Physicians,+PC+-++Glastonbury","Starling Physicians, PC -  Glastonbury Glastonbury",,,"Jan 31, 2025","Adult Stress, Adult Transthoracic",,,,,,,,,,,,,,,,,,,,
165,166,"Starling Physicians, PC - Enfield",41.991275,-72.574578,granted,160 Hazard Avenue,,Enfield,CT,06082,USA,,www.starlingphysicians.com,,vascular,,"Starling Physicians, PC - Enfield Enfield",,,,,,,,,"Jul 31, 2025",Extracranial Cerebrovascular Testing,,,,,,,,,,,,,,
166,167,"Starling Physicians, PC - Enfield",41.991275,-72.574578,granted,9 Cranbrook Blvd,2nd Floor,Enfield,CT,06082,USA,,,,echo,"www.google.com/search?q=Starling+Physicians,+PC+-+Enfield","Starling Physicians, PC - Enfield Enfield",,,"Jan 31, 2025",Adult Transthoracic,,,,,,,,,,,,,,,,,,,,
167,168,"Starling Physicians, PC - Granby",41.953754,-72.786023,granted,18 East Granby Road,1st Floor,Granby,CT,06035,USA,,www.starlingphysicians.com,,vascular,,"Starling Physicians, PC - Granby Granby",,,,,,,,,"Jul 31, 2025",Extracranial Cerebrovascular Testing,,,,,,,,,,,,,,
168,169,"Starling Physicians, PC - Granby",41.953758,-72.786055,granted,18 East Granby Road,1st Floor,Granby,CT,06035,USA,,,,echo,"www.google.com/search?q=Starling+Physicians,+PC+-+Granby","Starling Physicians, PC - Granby Granby",,,"Jan 31, 2025",Adult Transthoracic,,,,,,,,,,,,,,,,,,,,
169,170,"Starling Physicians, PC Southington",41.597637,-72.87771,granted,209 Main St,,Southington,CT,06489,USA,,www.starlingphysicians.com,,vascular,,"Starling Physicians, PC Southington Southington",,,,,,,,,"Jul 31, 2025",Extracranial Cerebrovascular Testing,,,,,,,,,,,,,,
170,171,The Hospital of Central Connecticut,41.662015,-72.787799,granted,100 Grand Street,,New Britain,CT,06050,USA,,www.thocc.org,,echo,,The Hospital of Central Connecticut New Britain,,,"Jul 31, 2025","Adult Stress, Adult Transesophageal, Adult Transthoracic",,,,,,,,,,,,,,,,,,,,
171,172,The Hospital of Central Connecticut at Bradley Memorial,41.595891,-72.876317,granted,81 Meriden Avenue,,Southington,CT,06489,USA,,,,echo,www.google.com/search?q=The+Hospital+of+Central+Connecticut+at+Bradley+Memorial,The Hospital of Central Connecticut at Bradley Memorial Southington,,,"Jul 31, 2025",Adult Transthoracic,,,,,,,,,,,,,,,,,,,,
172,173,The Vascular Experts,41.346242,-72.101053,granted,2 Shaws Cove,Suite 203,New London,CT,06320,USA,,,,vascular,www.google.com/search?q=The+Vascular+Experts,The Vascular Experts New London,,,,,,,,,"May 31, 2025","Extracranial Cerebrovascular Testing, Peripheral Arterial Testing, Peripheral Venous Testing",,,,,,,,,,,,,,
173,174,The Vascular Experts,41.493607,-73.166297,granted,595 Straits Tpke,,Watertown,CT,06795,USA,,,,vascular,www.google.com/search?q=The+Vascular+Experts,The Vascular Experts Watertown,,,,,,,,,"May 31, 2025","Extracranial Cerebrovascular Testing, Peripheral Arterial Testing, Peripheral Venous Testing",,,,,,,,,,,,,,
174,175,The Vascular Experts,41.052801,-73.555427,granted,215 Stillwater Avenue,Unit A,Stamford,CT,06902,USA,,,,vascular,www.google.com/search?q=The+Vascular+Experts,The Vascular Experts Stamford,,,,,,,,,"May 31, 2025","Extracranial Cerebrovascular Testing, Peripheral Arterial Testing, Peripheral Venous Testing",,,,,,,,,,,,,,
175,176,The Vascular Experts,41.540487,-72.622833,granted,400 Saybrook Road,Suite 110,Middletown,CT,06457,USA,,,,vascular,www.google.com/search?q=The+Vascular+Experts,The Vascular Experts Middletown,,,,,,,,,"May 31, 2025","Extracranial Cerebrovascular Testing, Peripheral Arterial Testing, Peripheral Venous Testing",,,,,,,,,,,,,,
176,177,The Vascular Experts,41.724637,-72.798005,granted,55 South Rd,,Farmington,CT,06032,USA,,,,vascular,www.google.com/search?q=The+Vascular+Experts,The Vascular Experts Farmington,,,,,,,,,"May 31, 2025","Peripheral Arterial Testing, Peripheral Venous Testing",,,,,,,,,,,,,,
177,178,The Vascular Experts,41.319993,-72.379559,granted,599 Middlesex Turnpike,,Old Saybrook,CT,06475,USA,,,,vascular,www.google.com/search?q=The+Vascular+Experts,The Vascular Experts Old Saybrook,,,,,,,,,"May 31, 2025","Extracranial Cerebrovascular Testing, Peripheral Arterial Testing, Peripheral Venous Testing",,,,,,,,,,,,,,
178,179,The Vascular Experts,41.408976,-73.436256,granted,"7 Germantown Rd, Suite 2b",,Danbury,CT,06810,USA,,,,vascular,www.google.com/search?q=The+Vascular+Experts,The Vascular Experts Danbury,,,,,,,,,"May 31, 2025","Extracranial Cerebrovascular Testing, Peripheral Venous Testing",,,,,,,,,,,,,,
179,180,The Vascular Experts,41.163075,-73.237042,granted,75 Kings Highway Cutoff,,Fairfield,CT,06824,USA,,,,vascular,www.google.com/search?q=The+Vascular+Experts,The Vascular Experts Fairfield,,,,,,,,,"May 31, 2025","Extracranial Cerebrovascular Testing, Peripheral Arterial Testing, Peripheral Venous Testing",,,,,,,,,,,,,,
180,181,The Vascular Experts,41.781256,-72.523701,granted,360 Tollad Turnpike,Suite 1a,Manchester,CT,06040,USA,,,,vascular,www.google.com/search?q=The+Vascular+Experts,The Vascular Experts Manchester,,,,,,,,,"May 31, 2025","Extracranial Cerebrovascular Testing, Peripheral Arterial Testing, Peripheral Venous Testing",,,,,,,,,,,,,,
181,182,The Vascular Experts,41.082598,-73.462985,granted,85 Old Kings Highway North,,Darien,CT,06820,USA,,,,vascular,www.google.com/search?q=The+Vascular+Experts,The Vascular Experts Darien,,,,,,,,,"May 31, 2025","Extracranial Cerebrovascular Testing, Peripheral Arterial Testing, Peripheral Venous Testing",,,,,,,,,,,,,,
182,183,The Vascular Experts,41.51048,-72.115266,granted,113 Salem Turnpike,Ste 1,Norwich,CT,06360,USA,,thevascularexperts.com,,vascular,,The Vascular Experts Norwich,,,,,,,,,"May 31, 2025","Extracranial Cerebrovascular Testing, Peripheral Arterial Testing, Peripheral Venous Testing",,,,,,,,,,,,,,
183,184,The Vascular Experts,41.236227,-73.147243,granted,495 Hawley Lane,,Stratford,CT,06614,USA,,thevascularexperts.com,,vascular,,The Vascular Experts Stratford,,,,,,,,,"May 31, 2025","Extracranial Cerebrovascular Testing, Peripheral Arterial Testing, Peripheral Venous Testing",,,,,,,,,,,,,,
184,185,Trinity Health of New England Medical Group Hoffman Heart and Vascular Institute Glastonbury Hebron,41.713364,-72.601854,granted,300 Hebron Ave,Suite 213,Glastonbury,CT,06033,USA,,None,,nuclear,,Trinity Health of New England Medical Group Hoffman Heart and Vascular Institute Glastonbury Hebron Glastonbury,,,,,,,"Jun 30, 2024",Myocardial Perfusion Imaging,,,,,,,,,,,,,,,,
185,186,University of Connecticut Pat and Jim Calhoun Cardiology Center,41.73509,-72.79582,multigranted,263 Farmington Ave,,Farmington,CT,06030,USA,,UCHC.edu,,"vascular, echo",,University of Connecticut Pat and Jim Calhoun Cardiology Center Farmington,,,"Apr 30, 2024","Adult Stress, Adult Transesophageal, Adult Transthoracic",,,,,"Jun 30, 2023",Peripheral Arterial Testing,,,,,,,,,,,,,,
186,187,Vein Clinics of America,41.721726,-72.618801,granted,95 Glastonbury Blvd,,Glastonbury,CT,06033,USA,,www.veinclinics.com/clinic/glastonbury-connecticut/,,vascular,,Vein Clinics of America Glastonbury,,,,,,,,,"Nov 30, 2023",Peripheral Venous Testing,,,,,,,,,,,,,,
187,188,Vein Clinics of America,41.139736,-73.272848,granted,"1 Sasco Hill Road, 2",,Fairfield,CT,06824,USA,,www.veinclinics.com/clinic/fairfield-connecticut/,,vascular,,Vein Clinics of America Fairfield,,,,,,,,,"Nov 30, 2023",Peripheral Venous Testing,,,,,,,,,,,,,,
188,189,Vein Clinics of America,41.38088,-72.152443,granted,903 Hartford Turnpike,Unit 30,Waterford,CT,06385,USA,,www.veinclinics.com/clinic/waterford-connecticut/,,vascular,,Vein Clinics of America Waterford,,,,,,,,,"Nov 30, 2023",Peripheral Venous Testing,,,,,,,,,,,,,,
189,190,Vein Clinics of America,41.018525,-73.645525,granted,500 W Putnam,,Greenwich,CT,06830,USA,,www.veinclinics.com/clinic/greenwich-connecticut/,,vascular,,Vein Clinics of America Greenwich,,,,,,,,,"Nov 30, 2023",Peripheral Venous Testing,,,,,,,,,,,,,,
190,191,Vein Clinics of America,41.823547,-72.88264,granted,40 Dale Road Suite 201,,Avon,CT,06001,USA,,www.veinclinics.com/clinic/canton-connecticut/,,vascular,,Vein Clinics of America Avon,,,,,,,,,"Nov 30, 2023",Peripheral Venous Testing,,,,,,,,,,,,,,
191,192,Vein Clinics of America,41.46383,-73.231475,granted,775 Main St S,,Southbury,CT,06488,USA,,www.veinclinics.com/clinic/southbury-connecticut/,,vascular,,Vein Clinics of America Southbury,,,,,,,,,"Nov 30, 2023",Peripheral Venous Testing,,,,,,,,,,,,,,
192,193,Vein Clinics of America,41.355741,-72.871902,granted,358 Universal Dr N,,North Haven,CT,06473,USA,,www.veinclinics.com/clinic/north-haven-connecticut/,,vascular,,Vein Clinics of America North Haven,,,,,,,,,"Nov 30, 2023",Peripheral Venous Testing,,,,,,,,,,,,,,
193,194,Waterbury Hospital Cardiac Diagnostic Center,41.547542,-73.06075,multigranted,455 Chase Parkway,,Waterbury,CT,06708,USA,,,,"echo, vascular, nuclear",www.google.com/search?q=Waterbury+Hospital+Cardiac+Diagnostic+Center,Waterbury Hospital Cardiac Diagnostic Center Waterbury,,,"Dec 30, 2022",Adult Transthoracic,,,"Oct 31, 2025",Myocardial Perfusion Imaging,"Jun 30, 2025",Extracranial Cerebrovascular Testing,,,,,,,,,,,,,,
194,195,Waterbury Hospital Cardiology,41.558269,-73.058608,granted,64 Robbins Street,,Waterbury,CT,06708,USA,,,,echo,www.google.com/search?q=Waterbury+Hospital+Cardiology,Waterbury Hospital Cardiology Waterbury,,,"Dec 30, 2022",Adult Transthoracic,,,,,,,,,,,,,,,,,,,,
195,196,William W. Backus Hospital,41.543402,-72.086747,granted,326 Washington Street,,Norwich,CT,06360,USA,,www.backushospital.org,,echo,,William W. Backus Hospital Norwich,,,"Dec 30, 2022",Adult Transthoracic,,,,,,,,,,,,,,,,,,,,
196,197,Windham Community Memorial Hospital,41.716794,-72.223996,granted,112 Mansfield Avenue,,Willimantic,CT,06226,USA,,WWW.WindhamHospital.org,,echo,,Windham Community Memorial Hospital Willimantic,,,"Dec 30, 2022",Adult Transthoracic,,,,,,,,,,,,,,,,,,,,
197,198,Yale New Haven Children’s Hospital Pediatric Specialty Center Greenwich,41.018525,-73.645525,granted,500 West Putnam Avenue,,Greenwich,CT,06830,USA,,,,pediatric_echo,www.google.com/search?q=Yale+New+Haven+Children’s+Hospital+Pediatric+Specialty+Center+Greenwich,Yale New Haven Children’s Hospital Pediatric Specialty Center Greenwich Greenwich,,,,,,,,,,,"Mar 31, 2025",Pediatric Transthoracic,,,,,,,,,,,,
198,199,Yale New Haven Health Greenwich Hospital Heart and Vascular Center,41.018525,-73.645525,granted,500 West Putnam Avenue,Suite 350,Greenwich,CT,06830,USA,,,,nuclear,www.google.com/search?q=Yale+New+Haven+Health+Greenwich+Hospital+Heart+and+Vascular+Center,Yale New Haven Health Greenwich Hospital Heart and Vascular Center Greenwich,,,,,,,"Nov 30, 2023",Myocardial Perfusion Imaging,,,,,,,,,,,,,,,,
199,200,"Yale New Haven Health Greenwich Hospital, Heart and Vascular Center",41.018525,-73.645525,granted,"500 West Putnam Avenue, Suite 350",,Greenwich,CT,06830,USA,,,,vascular,"www.google.com/search?q=Yale+New+Haven+Health+Greenwich+Hospital,+Heart+and+Vascular+Center","Yale New Haven Health Greenwich Hospital, Heart and Vascular Center Greenwich",,,,,,,,,"Jun 30, 2023","Extracranial Cerebrovascular Testing, Peripheral Arterial Testing",,,,,,,,,,,,,,
200,201,Yale New Haven Hospital Heart and Vascular Center,41.381618,-72.882446,granted,2 Devine Street,,North Haven,CT,06473,USA,,,,vascular,www.google.com/search?q=Yale+New+Haven+Hospital+Heart+and+Vascular+Center,Yale New Haven Hospital Heart and Vascular Center North Haven,,,,,,,,,"Jun 30, 2023","Extracranial Cerebrovascular Testing, Peripheral Arterial Testing, Screening",,,,,,,,,,,,,,
201,202,Yale New Haven Hospital Heart and Vascular Center,41.296184,-72.488789,granted,5 Pequot Park Road,,Westbrook,CT,06498,USA,,,,vascular,www.google.com/search?q=Yale+New+Haven+Hospital+Heart+and+Vascular+Center,Yale New Haven Hospital Heart and Vascular Center Westbrook,,,,,,,,,"Jun 30, 2023","Extracranial Cerebrovascular Testing, Peripheral Arterial Testing, Screening",,,,,,,,,,,,,,
202,203,Yale New Haven Hospital Heart and Vascular Center,41.26388,-73.004949,granted,325 Boston Post Road,,Orange,CT,06477,USA,,,,vascular,www.google.com/search?q=Yale+New+Haven+Hospital+Heart+and+Vascular+Center,Yale New Haven Hospital Heart and Vascular Center Orange,,,,,,,,,"Jun 30, 2023","Extracranial Cerebrovascular Testing, Peripheral Arterial Testing, Screening",,,,,,,,,,,,,,
203,204,Yale New Haven Hospital Heart and Vascular Center,41.295204,-72.701617,granted,"111 Goose Lane, Suite 2400",,Guilford,CT,06437,USA,,,,vascular,www.google.com/search?q=Yale+New+Haven+Hospital+Heart+and+Vascular+Center,Yale New Haven Hospital Heart and Vascular Center Guilford,,,,,,,,,"Jun 30, 2023","Extracranial Cerebrovascular Testing, Peripheral Arterial Testing, Screening",,,,,,,,,,,,,,
204,205,Yale New Haven Hospital Heart and Vascular Center-Nuclear Cardiology Services,41.304285,-72.934689,granted,20 York Street,"EP-2, Nuclear Cardiology Department",New Haven,CT,06504,USA,,ynhh.org,,nuclear,,Yale New Haven Hospital Heart and Vascular Center-Nuclear Cardiology Services New Haven,,,,,,,"Nov 30, 2023","Equilibrium Radionuclide Angiography, Myocardial Perfusion Imaging, Other Cardiovascular Imaging, Positron Emission Tomography (PET)",,,,,,,,,,,,,,,,
205,206,Yale New Haven Hospital Heart and Vascular Center-Nuclear Cardiology Services,41.381618,-72.882446,granted,"2 Devine Street, Suite 1",,North Haven,CT,06473,USA,,,,nuclear,www.google.com/search?q=Yale+New+Haven+Hospital+Heart+and+Vascular+Center-Nuclear+Cardiology+Services,Yale New Haven Hospital Heart and Vascular Center-Nuclear Cardiology Services North Haven,,,,,,,"Nov 30, 2023","Equilibrium Radionuclide Angiography, Myocardial Perfusion Imaging",,,,,,,,,,,,,,,,
206,207,Yale New Haven Hospital Heart and Vascular Center-Nuclear Cardiology Services,41.290666,-72.664916,granted,111 Goose Lane,Suite 2400,Guilford,CT,06437,USA,,,,nuclear,www.google.com/search?q=Yale+New+Haven+Hospital+Heart+and+Vascular+Center-Nuclear+Cardiology+Services,Yale New Haven Hospital Heart and Vascular Center-Nuclear Cardiology Services Guilford,,,,,,,"Nov 30, 2023","Equilibrium Radionuclide Angiography, Myocardial Perfusion Imaging",,,,,,,,,,,,,,,,
207,208,Yale New Haven Hospital Heart and Vascular Center-Nuclear Cardiology Services,41.311053,-72.943226,granted,1450 Chapel St,,New Haven,CT,06511,USA,,,,nuclear,www.google.com/search?q=Yale+New+Haven+Hospital+Heart+and+Vascular+Center-Nuclear+Cardiology+Services,Yale New Haven Hospital Heart and Vascular Center-Nuclear Cardiology Services New Haven,,,,,,,"Nov 30, 2023","Equilibrium Radionuclide Angiography, Myocardial Perfusion Imaging, Other Cardiovascular Imaging",,,,,,,,,,,,,,,,
208,209,"Yale New Haven Hospital, Heart and Vascular Center",41.284325,-72.820247,granted,84 North Main Street,,Branford,CT,06405,USA,,,,echo,"www.google.com/search?q=Yale+New+Haven+Hospital,+Heart+and+Vascular+Center","Yale New Haven Hospital, Heart and Vascular Center Branford",,,"Feb 29, 2024","Adult Stress, Adult Transthoracic",,,,,,,,,,,,,,,,,,,,
209,210,"Yale New Haven Hospital, Heart and Vascular Center",41.381618,-72.882446,granted,2 Devine St.,Suite 1,North Haven,CT,06473,USA,,CA-NH.com,,echo,,"Yale New Haven Hospital, Heart and Vascular Center North Haven",,,"Feb 29, 2024","Adult Stress, Adult Transthoracic",,,,,,,,,,,,,,,,,,,,
210,211,"Yale New Haven Hospital, Heart and Vascular Center",41.295203,-72.701616,granted,111 Goose Lane,Suite 2400,Guilford,CT,06437,USA,,,,echo,"www.google.com/search?q=Yale+New+Haven+Hospital,+Heart+and+Vascular+Center","Yale New Haven Hospital, Heart and Vascular Center Guilford",,,"Feb 29, 2024","Adult Stress, Adult Transthoracic",,,,,,,,,,,,,,,,,,,,
211,212,"Yale New Haven Hospital, Heart and Vascular Center",41.26388,-73.004949,granted,325 Boston Post Road,Suite 1C,Orange,CT,06477,USA,,ca-nh.com,,echo,,"Yale New Haven Hospital, Heart and Vascular Center Orange",,,"Feb 29, 2024","Adult Stress, Adult Transthoracic",,,,,,,,,,,,,,,,,,,,
212,213,"Yale New Haven Hospital, Heart and Vascular Center",41.296184,-72.488789,granted,5 Pequot Park Road,Suite 101,Westbrook,CT,06498,USA,,,,echo,"www.google.com/search?q=Yale+New+Haven+Hospital,+Heart+and+Vascular+Center","Yale New Haven Hospital, Heart and Vascular Center Westbrook",,,"Feb 29, 2024","Adult Stress, Adult Transthoracic",,,,,,,,,,,,,,,,,,,,
213,214,Yale New Haven Hosptial Heart and Vascular Center,41.284424,-72.820125,granted,"84 North Main Street, Second Floor",,Branford,CT,06405,USA,,,,vascular,www.google.com/search?q=Yale+New+Haven+Hosptial+Heart+and+Vascular+Center,Yale New Haven Hosptial Heart and Vascular Center Branford,,,,,,,,,"Jun 30, 2023","Extracranial Cerebrovascular Testing, Peripheral Arterial Testing, Screening",,,,,,,,,,,,,,
214,215,Yale New Haven Pediatric Specialty Center - Long Wharf,41.289379,-72.929726,granted,1 Long Wharf Drive,,New Haven,CT,06511,USA,,,,pediatric_echo,www.google.com/search?q=Yale+New+Haven+Pediatric+Specialty+Center+-+Long+Wharf,Yale New Haven Pediatric Specialty Center - Long Wharf New Haven,,,,,,,,,,,"Mar 31, 2025",Pediatric Transthoracic,,,,,,,,,,,,
215,216,Yale New Haven Pediatric Specialty Center - Norwalk,41.118338,-73.418237,granted,747 Belden Avenue,,Norwalk,CT,06850,USA,,,,pediatric_echo,www.google.com/search?q=Yale+New+Haven+Pediatric+Specialty+Center+-+Norwalk,Yale New Haven Pediatric Specialty Center - Norwalk Norwalk,,,,,,,,,,,"Mar 31, 2025",Pediatric Transthoracic,,,,,,,,,,,,
216,217,Yale New Haven Pediatric Specialty Center - Old Saybrook,41.321327,-72.378782,granted,633 Middlesex Turnpike,,Old Saybrook,CT,06475,USA,,,,pediatric_echo,www.google.com/search?q=Yale+New+Haven+Pediatric+Specialty+Center+-+Old+Saybrook,Yale New Haven Pediatric Specialty Center - Old Saybrook Old Saybrook,,,,,,,,,,,"Mar 31, 2025",Pediatric Transthoracic,,,,,,,,,,,,
217,218,Yale New Haven Pediatric Specialty Center - Trumbull,41.228895,-73.24603,granted,5520 Park Avenue,,Trumbull,CT,06611,USA,,,,pediatric_echo,www.google.com/search?q=Yale+New+Haven+Pediatric+Specialty+Center+-+Trumbull,Yale New Haven Pediatric Specialty Center - Trumbull Trumbull,,,,,,,,,,,"Mar 31, 2025","Pediatric Transthoracic, Fetal",,,,,,,,,,,,
218,219,Yale University - Yale Cardiovascular - Cardiology Associates of Norwich,41.548977,-72.112267,granted,79 Wawecus Street,,Norwich,CT,06360,USA,,www.cardiologyassociates.info,,vascular,,Yale University - Yale Cardiovascular - Cardiology Associates of Norwich Norwich,,,,,,,,,"Jun 30, 2023","Extracranial Cerebrovascular Testing, Peripheral Arterial Testing, Screening",,,,,,,,,,,,,,
219,220,Yale University - Yale Cardiovascular - Cardiology Associates of Norwich,41.548977,-72.112267,granted,79 Wawecus Street,,Norwich,CT,06360,USA,,www.CardiologyAssociates.info,,nuclear,,Yale University - Yale Cardiovascular - Cardiology Associates of Norwich Norwich,,,,,,,"Nov 30, 2023",Myocardial Perfusion Imaging,,,,,,,,,,,,,,,,
220,221,Yale University-Yale Cardiovascular-Cardiology Assoicates of Norwich,41.548977,-72.112267,granted,79 Wawecus Street,,Norwich,CT,06360,USA,,www.cardiologyassociates.info,,echo,,Yale University-Yale Cardiovascular-Cardiology Assoicates of Norwich Norwich,,,"Feb 29, 2024",Adult Transthoracic,,,,,,,,,,,,,,,,,,,,
221,222,Yale-New Haven Hospital HVC Echocardiography,41.304285,-72.934689,multigranted,20 York Street,,New Haven,CT,06510,USA,,www.ynhh.org,,"echo, pediatric_echo",,Yale-New Haven Hospital HVC Echocardiography New Haven,,,"Feb 29, 2024","Adult Stress, Adult Transesophageal, Adult Transthoracic",,,,,,,"Mar 31, 2025","Pediatric Transthoracic, Fetal",,,,,,,,,,,,
222,223,YNHH HVC Echocardiography SRC,41.311053,-72.943226,granted,1450 Chapel Street,,New Haven,CT,06511,USA,,www.ynhh.org,,echo,,YNHH HVC Echocardiography SRC New Haven,,,"Feb 29, 2024","Adult Stress, Adult Transthoracic",,,,,,,,,,,,,,,,,,,,
223,224,YNHH HVC Echocardiography YPB,41.302787,-72.936111,multigranted,800 Howard Avenue,,New Haven,CT,06510,USA,,www.ynhh.org,,"echo, pediatric_echo",,YNHH HVC Echocardiography YPB New Haven,,,"Feb 29, 2024","Adult Stress, Adult Transthoracic",,,,,,,"Mar 31, 2025",Pediatric Transthoracic,,,,,,,,,,,,
