,id,name,lat,lng,category,address,address2,city,state,postal,country,phone,web,features,modalities,searchGoogle,search,ct,ct_areas,echo,echo_areas,mr,mr_areas,nuclear,nuclear_areas,vascular,vascular_areas,pediatric_echo,pediatric_echo_areas,ct-dental,ct-dental_areas,stenting,stenting_areas,vein_center,vein_center_areas,cardiac_electrophysiology,cardiac_electrophysiology_areas,cardiovascular_catheterization,cardiovascular_catheterization_areas,jrcdms,jrcdms_areas
0,1,"Advanced Ear, Nose, and Throat Associates, PC",33.907812,-84.355764,granted,"960 Johnson Ferry Road, NE",Suite 200,Atlanta,GA,30342,USA,,www.Advancedentpc.com,,ct,,"Advanced Ear, Nose, and Throat Associates, PC Atlanta","Apr 30, 2024",Maxillofacial CT,,,,,,,,,,,,,,,,,,,,,,
1,2,Advanced Medical Associates,32.558544,-83.662114,granted,1282 South Houston Lake Road,,Warner Robins,GA,31088,USA,,www.advamed.org/,,nuclear,,Advanced Medical Associates Warner Robins,,,,,,,"Apr 30, 2024",Myocardial Perfusion Imaging,,,,,,,,,,,,,,,,
2,3,"Albany Ear, Nose, Throat, Sinus and Allergy",31.609356,-84.225756,granted,605 Pointe North Blvd,,Albany,GA,31721,USA,,www.albanyent.org,,ct,,"Albany Ear, Nose, Throat, Sinus and Allergy Albany","Aug 31, 2024",Maxillofacial CT,,,,,,,,,,,,,,,,,,,,,,
3,4,"Alpharetta Cardiology, LLC",34.06863,-84.264423,granted,3400 C Old Milton Parkway,Suite 325,Alpharetta,GA,30005,USA,,www.marleneblaisemd.com,,nuclear,,"Alpharetta Cardiology, LLC Alpharetta",,,,,,,"Apr 30, 2025",Myocardial Perfusion Imaging,,,,,,,,,,,,,,,,
4,5,Alpharetta Facility,34.060854,-84.248459,granted,3905 Brookside Parkway,Sutie 202,Alpharetta,GA,30022,USA,,,,echo,www.google.com/search?q=Alpharetta+Facility,Alpharetta Facility Alpharetta,,,"Feb 29, 2024",Adult Transthoracic,,,,,,,,,,,,,,,,,,,,
5,6,"American Health Imaging of Augusta, LLC",33.484975,-82.092498,multigranted,1211 West Medical Park Drive,,Augusta,GA,30909,USA,,www.americanhealthimaging.com/location/augusta-ga/,,"ct, mr",,"American Health Imaging of Augusta, LLC Augusta","Sep 29, 2022","Body CT, Neurological CT, Vascular CTA | Maxillofacial CT",,,"Sep 29, 2022","Body MRI, Musculoskeletal MRI, Neurological MRI | MRA",,,,,,,,,,,,,,,,,,
6,7,"American Health Imaging of Brunswick, LLC",31.18767,-81.470326,multigranted,1103 Fountain Lake Dr,,Brunswick,GA,31525,USA,,www.americanhealthimaging.com/location/brunswick-ga/,,"ct, mr",,"American Health Imaging of Brunswick, LLC Brunswick","Sep 29, 2022","Body CT, Neurological CT, Vascular CTA | Maxillofacial CT",,,"Sep 29, 2022","Body MRI, Musculoskeletal MRI, Neurological MRI | MRA",,,,,,,,,,,,,,,,,,
7,8,American Health Imaging of Canton,34.260158,-84.466011,multigranted,100 Liberty Blvd. Suite 100,,Canton,GA,30114,USA,,www.americanhealthimaging.com/location/canton-ga/,,"ct, mr",,American Health Imaging of Canton Canton,"Sep 29, 2022","Body CT, Neurological CT, Vascular CTA | Maxillofacial CT",,,"Sep 29, 2022","Body MRI, Musculoskeletal MRI, Neurological MRI | MRA",,,,,,,,,,,,,,,,,,
8,9,"American Health Imaging of Cumming, LLC",34.173279,-84.129852,multigranted,1050 Haw Creek Parkway,Suite 100,Cumming,GA,30041,USA,,www.americanhealthimaging.com,,"ct, mr",,"American Health Imaging of Cumming, LLC Cumming","Sep 29, 2022","Body CT, Neurological CT, Vascular CTA | Maxillofacial CT",,,"Sep 29, 2022","Body MRI, Musculoskeletal MRI, Neurological MRI | MRA",,,,,,,,,,,,,,,,,,
9,10,"American Health Imaging of Decatur, LLC",33.792962,-84.280163,multigranted,2774 North Decatur Rd,,Decatur,GA,30033,USA,,www.americanhealthimaging.com/location/decatur-ga/,,"ct, mr",,"American Health Imaging of Decatur, LLC Decatur","Sep 29, 2022","Body CT, Neurological CT, Vascular CTA | Maxillofacial CT",,,"Sep 29, 2022","Body MRI, Musculoskeletal MRI, Neurological MRI | Breast MRI, MRA",,,,,,,,,,,,,,,,,,
10,11,American Health Imaging of Fayetteville,33.450844,-84.506585,multigranted,"1240 Hwy 54 West, Bldg 400 Ste 402",,Fayetteville,GA,30214,United States ,,americanhealthimaging.com/location/fayetteville-ga/,,"ct, mr",,American Health Imaging of Fayetteville Fayetteville,"Sep 29, 2022","Body CT, Neurological CT, Vascular CTA | Maxillofacial CT",,,"Sep 29, 2022","Body MRI, Musculoskeletal MRI, Neurological MRI | MRA",,,,,,,,,,,,,,,,,,
11,12,"American Health Imaging of Hiram, LLC",33.903546,-84.771669,multigranted,4374 Atlanta Hwy Suite 125,,Hiram,GA,30141,USA,,www.americanhealthimaging.com/location/hiram-ga/,,"ct, mr",,"American Health Imaging of Hiram, LLC Hiram","Sep 29, 2022","Body CT, Neurological CT, Vascular CTA | Maxillofacial CT",,,"Sep 29, 2022","Body MRI, Musculoskeletal MRI, Neurological MRI | MRA",,,,,,,,,,,,,,,,,,
12,13,"American Health Imaging of Lawrenceville, LLC",33.961438,-84.005636,multigranted,481 West Pike St.,,Lawrenceville,GA,30046,USA,,americanhealthimaging.com/location/lawrenceville/,,"ct, mr",,"American Health Imaging of Lawrenceville, LLC Lawrenceville","Sep 29, 2022","Body CT, Neurological CT, Vascular CTA | Maxillofacial CT",,,"Sep 29, 2022","Body MRI, Musculoskeletal MRI, Neurological MRI | Breast MRI, MRA",,,,,,,,,,,,,,,,,,
13,14,"American Health Imaging of Marietta, LLC",33.970963,-84.550563,multigranted,796 Church St Suite 100,,Marietta,GA,30060,USA,,www.americanhealthimaging.com/location/marietta-ga/,,"ct, mr",,"American Health Imaging of Marietta, LLC Marietta","Sep 29, 2022","Body CT, Neurological CT, Vascular CTA | Maxillofacial CT",,,"Sep 29, 2022","Body MRI, Musculoskeletal MRI, Neurological MRI | MRA",,,,,,,,,,,,,,,,,,
14,15,American Health Imaging of Newnan,33.404956,-84.712298,multigranted,10 Merchantile Drive,Suite A,Newnan,GA,30265,US ,,americanhealthimaging.com/location/newnan-ga/,,"ct, mr",,American Health Imaging of Newnan Newnan,"Sep 29, 2022","Body CT, Neurological CT, Vascular CTA | Maxillofacial CT",,,"Sep 29, 2022","Body MRI, Musculoskeletal MRI, Neurological MRI | MRA",,,,,,,,,,,,,,,,,,
15,16,"American Health Imaging of Sandy Springs, LLC",33.921623,-84.359891,multigranted,6095 Barfield Rd,Suite 100,Atlanta,GA,30328,USA,,www.ahicenters.com,,"ct, mr",,"American Health Imaging of Sandy Springs, LLC Atlanta","Sep 29, 2022","Body CT, Neurological CT, Vascular CTA | Maxillofacial CT",,,"Sep 29, 2022","Body MRI, Musculoskeletal MRI, Neurological MRI | Breast MRI, MRA",,,,,,,,,,,,,,,,,,
16,17,"American Health Imaging of Savannah, LLC",32.023477,-81.110654,multigranted,30 Janet Dr. 101,,Savannah,GA,31405,US,,www.americanhealthimaging.com/location/savannah-ga/,,"ct, mr",,"American Health Imaging of Savannah, LLC Savannah","Sep 29, 2022","Body CT, Neurological CT, Vascular CTA | Maxillofacial CT",,,"Sep 29, 2022","Body MRI, Musculoskeletal MRI, Neurological MRI | MRA",,,,,,,,,,,,,,,,,,
17,18,"American Health Imaging of Stand-Up MRI, LLC",33.902781,-84.438227,granted,6590 Powers Ferry Rd,,Atlanta,GA,30339-2933,USA,,www.americanhealthimaging.com,,mr,,"American Health Imaging of Stand-Up MRI, LLC Atlanta",,,,,"Sep 29, 2022","Body MRI, Musculoskeletal MRI, Neurological MRI, MRA",,,,,,,,,,,,,,,,,,
18,19,"American Health Imaging of West Cobb, LLC",33.863596,-84.622231,multigranted,2615 E. West Connector SW,Suite 122,Austell,GA,30106,USA,,www.americanhealthimaging.com/location/west-cobb-ga/,,"ct, mr",,"American Health Imaging of West Cobb, LLC Austell","Sep 29, 2022","Body CT, Neurological CT, Vascular CTA | Maxillofacial CT",,,"Sep 29, 2022","Body MRI, Musculoskeletal MRI, Neurological MRI | MRA",,,,,,,,,,,,,,,,,,
19,20,Ankle and  Foot Associates,31.222417,-82.352115,granted,501 W. Oneida St,,Waycross,GA,31501,USA,,,,ct,www.google.com/search?q=Ankle+and++Foot+Associates,Ankle and  Foot Associates Waycross,"Mar 31, 2025",Body CT,,,,,,,,,,,,,,,,,,,,,,
20,21,"Ankle and Foot Centers of Georgia, LLC",33.591572,-84.012928,granted,"1380 Milstead Ave, Suite E",,Conyers,GA,30013,USA,,,,mr,"www.google.com/search?q=Ankle+and+Foot+Centers+of+Georgia,+LLC","Ankle and Foot Centers of Georgia, LLC Conyers",,,,,"Jul 31, 2024",Musculoskeletal MRI,,,,,,,,,,,,,,,,,,
21,22,"Ankle and Foot Centers of Georgia, LLC",34.028799,-84.336108,granted,865 Holcomb Bridge Road,,Roswell,GA,30076,USA,,,,mr,"www.google.com/search?q=Ankle+and+Foot+Centers+of+Georgia,+LLC","Ankle and Foot Centers of Georgia, LLC Roswell",,,,,"Jul 31, 2024",Musculoskeletal MRI,,,,,,,,,,,,,,,,,,
22,23,"Ankle and Foot Centers of Georgia, LLC",33.559911,-84.323975,granted,7130 Mt.Zion Blvd,Suite 13,Jonesboro,GA,30236,USA,,,,mr,"www.google.com/search?q=Ankle+and+Foot+Centers+of+Georgia,+LLC","Ankle and Foot Centers of Georgia, LLC Jonesboro",,,,,"Jul 31, 2024",Musculoskeletal MRI,,,,,,,,,,,,,,,,,,
23,24,"Ankle and Foot Centers of Georgia, LLC",33.039968,-85.008077,granted,1075 Lafayette Parkway,Suite 200,LaGrange,GA,30241,USA,,,,ct,"www.google.com/search?q=Ankle+and+Foot+Centers+of+Georgia,+LLC","Ankle and Foot Centers of Georgia, LLC LaGrange","May 31, 2024",Body CT,,,,,,,,,,,,,,,,,,,,,,
24,25,"Ankle and Foot Centers of Georgia, LLC",33.427836,-84.556941,granted,"1975 Highway 54 West, Suite 200",,Peachtree City,GA,30269,USA,,,,mr,"www.google.com/search?q=Ankle+and+Foot+Centers+of+Georgia,+LLC","Ankle and Foot Centers of Georgia, LLC Peachtree City",,,,,"Jul 31, 2024",Musculoskeletal MRI,,,,,,,,,,,,,,,,,,
25,26,Archbold CCSG Cardiology,30.826095,-83.970685,granted,100 Mimosa Drive 2nd Floor,,Thomasville,GA,31792,USA,,,,echo,www.google.com/search?q=Archbold+CCSG+Cardiology,Archbold CCSG Cardiology Thomasville,,,"Sep 30, 2023",Adult Transthoracic,,,,,,,,,,,,,,,,,,,,
26,27,Archbold-Bainbridge Nuclear Cardiology,30.903865,-84.557423,granted,1323 E. Shotwell Street,,Bainbridge,GA,39819,USA,,,,echo,www.google.com/search?q=Archbold-Bainbridge+Nuclear+Cardiology,Archbold-Bainbridge Nuclear Cardiology Bainbridge,,,"Sep 30, 2023",Adult Transthoracic,,,,,,,,,,,,,,,,,,,,
27,28,"Arthritis and Rheumatology Center, PC",34.06756,-84.326701,granted,11731 Pointe Place,,Roswell,GA,30076,USA,,www.arcenterpc.com,,mr,,"Arthritis and Rheumatology Center, PC Roswell",,,,,"Jun 30, 2024",Musculoskeletal MRI,,,,,,,,,,,,,,,,,,
28,29,Ascension Medical Group St. Vincent’s Cardiology-Waycross,31.214336,-82.359545,granted,615 Pendleton St.,,Waycross,GA,31501,USA,,,,echo,www.google.com/search?q=Ascension+Medical+Group+St.+Vincent’s+Cardiology-Waycross,Ascension Medical Group St. Vincent’s Cardiology-Waycross Waycross,,,"Mar 31, 2025",Adult Transthoracic,,,,,,,,,,,,,,,,,,,,
29,30,Ashford Clinic,33.970134,-83.413215,granted,"1000 Hawthorne Ave, Ste T",,Athens,GA,30606,USA,,ashfordclinic.com,,ct,,Ashford Clinic Athens,"Jul 31, 2024",Maxillofacial CT,,,,,,,,,,,,,,,,,,,,,,
30,31,Associates in Orthopaedics and Sports Medicine,34.793039,-84.986761,granted,1104 Professional Blvd.,,Dalton,GA,30720,USA,,,,mr,www.google.com/search?q=Associates+in+Orthopaedics+and+Sports+Medicine,Associates in Orthopaedics and Sports Medicine Dalton,,,,,"Jan 29, 2023",Musculoskeletal MRI,,,,,,,,,,,,,,,,,,
31,32,Athens Heart Center,33.968581,-83.408176,granted,2005 Prince Avenue,,Athens,GA,30606,USA,,,,nuclear,www.google.com/search?q=Athens+Heart+Center,Athens Heart Center Athens,,,,,,,"Feb 28, 2023","Myocardial Perfusion Imaging, Positron Emission Tomography (PET)",,,,,,,,,,,,,,,,
32,33,"Atlanta Cardiology Consultants, PC",34.06943,-84.2625,granted,3905 Brookside Pkwy Suite 202,,Alpharetta,GA,30022,USA,,,,nuclear,"www.google.com/search?q=Atlanta+Cardiology+Consultants,+PC","Atlanta Cardiology Consultants, PC Alpharetta",,,,,,,"Jan 29, 2023",Myocardial Perfusion Imaging,,,,,,,,,,,,,,,,
33,34,"Atlanta Cardiology Consultants, PC",34.068167,-84.26249,granted,"3905 Brookside Parkway, Suite 202",,Alpharetta,GA,30022,USA,,,,echo,"www.google.com/search?q=Atlanta+Cardiology+Consultants,+PC","Atlanta Cardiology Consultants, PC Alpharetta",,,"Sep 30, 2023",Adult Transthoracic,,,,,,,,,,,,,,,,,,,,
34,35,"Atlanta ENT, Sinus and Allergy Associates, P.C.",33.905379,-84.352211,granted,5555 Peachtree Dunwoody Rd,Suite 125,Atlanta,GA,30342,USA,,www.atlantaent.com,,ct,,"Atlanta ENT, Sinus and Allergy Associates, P.C. Atlanta","Sep 30, 2023",Maxillofacial CT,,,,,,,,,,,,,,,,,,,,,,
35,36,Atlanta Heart Associates East Point Office,33.681443,-84.425859,granted,1136 Cleveland Avenue,Suite 205,East Point,GA,30344,USA,,,,nuclear,www.google.com/search?q=Atlanta+Heart+Associates+East+Point+Office,Atlanta Heart Associates East Point Office East Point,,,,,,,"Oct 31, 2024",Myocardial Perfusion Imaging,,,,,,,,,,,,,,,,
36,37,Atlanta Heart Associates Fayetteville Office,33.450435,-84.510258,granted,1260 Hwy 54,Suite 102,Fayetteville,GA,30214,USA,,,,nuclear,www.google.com/search?q=Atlanta+Heart+Associates+Fayetteville+Office,Atlanta Heart Associates Fayetteville Office Fayetteville,,,,,,,"Oct 31, 2024",Myocardial Perfusion Imaging,,,,,,,,,,,,,,,,
37,38,Atlanta Heart Associates Griffin Office,33.2319,-84.265887,granted,747 South 8th Street,,Griffin,GA,30233,USA,,,,nuclear,www.google.com/search?q=Atlanta+Heart+Associates+Griffin+Office,Atlanta Heart Associates Griffin Office Griffin,,,,,,,"Oct 31, 2024",Myocardial Perfusion Imaging,,,,,,,,,,,,,,,,
38,39,Atlanta Heart Associates Jackson Office,33.291841,-83.987996,granted,"1502 West 3rd Street, Suite D",,Jackson,GA,30233,USA,,,,nuclear,www.google.com/search?q=Atlanta+Heart+Associates+Jackson+Office,Atlanta Heart Associates Jackson Office Jackson,,,,,,,"Oct 31, 2024",Myocardial Perfusion Imaging,,,,,,,,,,,,,,,,
39,40,Atlanta Heart Associates Riverdale Office,33.578768,-84.385956,granted,483 Upper Riverdale Road,Suite C,Riverdale,GA,30274,USA,,,,nuclear,www.google.com/search?q=Atlanta+Heart+Associates+Riverdale+Office,Atlanta Heart Associates Riverdale Office Riverdale,,,,,,,"Oct 31, 2024",Myocardial Perfusion Imaging,,,,,,,,,,,,,,,,
40,41,"Atlanta Heart Associates, PC",33.508628,-84.219526,multigranted,350 Country Club Drive,Suite A,Stockbridge,GA,30281,USA,,,,"echo, nuclear","www.google.com/search?q=Atlanta+Heart+Associates,+PC","Atlanta Heart Associates, PC Stockbridge",,,"Sep 30, 2024",Adult Transthoracic,,,"Oct 31, 2024",Myocardial Perfusion Imaging,,,,,,,,,,,,,,,,
41,42,Atlanta Heart Specialists - Cumming,34.174205,-84.138069,granted,"1400 Northside Forsyth Dr., Suite 200",,Cumming,GA,30041,USA,,www.atlantaheartspecialists.com/,,nuclear,,Atlanta Heart Specialists - Cumming Cumming,,,,,,,"May 31, 2024",Myocardial Perfusion Imaging,,,,,,,,,,,,,,,,
42,43,Atlanta Heart Specialists - Decatur,33.792016,-84.283844,granted,2665 N. Decatur Rd Ste 320,,Decatur,GA,30030,USA,,www.ahsmed.com/,,nuclear,,Atlanta Heart Specialists - Decatur Decatur,,,,,,,"May 31, 2024",Myocardial Perfusion Imaging,,,,,,,,,,,,,,,,
43,44,Atlanta Heart Specialists - Hillandale,33.704278,-84.145777,granted,"5910 Hillandale Drive, Suite 350",,Lithonia,GA,30058,USA,,www.atlantaheartspecialists.com/,,nuclear,,Atlanta Heart Specialists - Hillandale Lithonia,,,,,,,"May 31, 2024",Myocardial Perfusion Imaging,,,,,,,,,,,,,,,,
44,45,Atlanta Heart Specialists - Johns Creek,34.070807,-84.172502,granted,"4375 Johns Creek Parkway, Suite 350",,Suwanee,GA,30024,USA,,www.atlantaheartspecialists.com/,,nuclear,,Atlanta Heart Specialists - Johns Creek Suwanee,,,,,,,"May 31, 2024",Myocardial Perfusion Imaging,,,,,,,,,,,,,,,,
45,46,Atlanta Heart Specialists - Lawrenceville,33.957132,-84.016949,granted,"771 Old Norcross Rd., Suite 310",,Lawrenceville,GA,30046,USA,,ahsmed.net/,,nuclear,,Atlanta Heart Specialists - Lawrenceville Lawrenceville,,,,,,,"May 31, 2024",Myocardial Perfusion Imaging,,,,,,,,,,,,,,,,
46,47,Atlanta Heart Specialists - Lilburn,33.8818,-84.063661,granted,"4120 Five Forks Trickum Road, Suite 103",,Lilburn,GA,30047,USA,,www.ahsmed.com/,,nuclear,,Atlanta Heart Specialists - Lilburn Lilburn,,,,,,,"May 31, 2024",Myocardial Perfusion Imaging,,,,,,,,,,,,,,,,
47,48,Atlanta Heart Specialists - Sandy Springs,33.909126,-84.351939,granted,"5667 Peachtree Dunwoody Rd, Suite 390",,Atlanta,GA,30342,USA,,www.ahsmed.net,,nuclear,,Atlanta Heart Specialists - Sandy Springs Atlanta,,,,,,,"May 31, 2024",Myocardial Perfusion Imaging,,,,,,,,,,,,,,,,
48,49,Atlanta Heart Specialists - Tucker,33.826108,-84.250308,granted,1468 Montreal Rd.,,Tucker,GA,30084,USA,,www.atlantaheartspecialists.com/,,nuclear,,Atlanta Heart Specialists - Tucker Tucker,,,,,,,"May 31, 2024",Myocardial Perfusion Imaging,,,,,,,,,,,,,,,,
49,50,"Atlanta Heart Specialists, LLC",33.792016,-84.283844,multigranted,2665 North Decatur Road Suite 320,,Decatur,GA,30033,USA,,,,"echo, vascular","www.google.com/search?q=Atlanta+Heart+Specialists,+LLC","Atlanta Heart Specialists, LLC Decatur",,,"Dec 30, 2022",Adult Transthoracic,,,,,"Jun 30, 2025","Extracranial Cerebrovascular Testing, Peripheral Arterial Testing, Peripheral Venous Testing",,,,,,,,,,,,,,
50,51,"Atlanta Heart Specialists, LLC",33.957132,-84.016949,multigranted,"771 Old Norcross Road, Suite 310",,Lawrenceville,GA,30046,USA,,,,"echo, vascular","www.google.com/search?q=Atlanta+Heart+Specialists,+LLC","Atlanta Heart Specialists, LLC Lawrenceville",,,"Dec 30, 2022",Adult Transthoracic,,,,,"Jun 30, 2025",Extracranial Cerebrovascular Testing,,,,,,,,,,,,,,
51,52,"Atlanta Heart Specialists, LLC",33.909029,-84.351907,granted,"5669 Peachtree Dunwoody Rd, Suite 345",,Atlanta,GA,30342,USA,,,,echo,"www.google.com/search?q=Atlanta+Heart+Specialists,+LLC","Atlanta Heart Specialists, LLC Atlanta",,,"Dec 30, 2022",Adult Transthoracic,,,,,,,,,,,,,,,,,,,,
52,53,"Atlanta Heart Specialists, LLC",33.867245,-84.094795,multigranted,"4120 Five Forks Trickum Road, Suite 103",,Lilburn,GA,30047,USA,,,,"echo, vascular","www.google.com/search?q=Atlanta+Heart+Specialists,+LLC","Atlanta Heart Specialists, LLC Lilburn",,,"Dec 30, 2022",Adult Transthoracic,,,,,"Jun 30, 2025",Peripheral Venous Testing,,,,,,,,,,,,,,
53,54,"Atlanta Heart Specialists, LLC",33.826108,-84.250308,multigranted,1468 Montreal Road,,Tucker,GA,30084,USA,,www.atlantaheartspecialists.com,,"echo, vascular",,"Atlanta Heart Specialists, LLC Tucker",,,"Dec 30, 2022",Adult Transthoracic,,,,,"Jun 30, 2025","Extracranial Cerebrovascular Testing, Peripheral Arterial Testing, Peripheral Venous Testing",,,,,,,,,,,,,,
54,55,"Atlanta Heart Specialists, LLC",34.070807,-84.172502,multigranted,4375 Johns Creek Parkway Suite 350,,Suwanee,GA,30024,USA,,,,"echo, vascular","www.google.com/search?q=Atlanta+Heart+Specialists,+LLC","Atlanta Heart Specialists, LLC Suwanee",,,"Dec 30, 2022",Adult Transthoracic,,,,,"Jun 30, 2025","Extracranial Cerebrovascular Testing, Peripheral Venous Testing",,,,,,,,,,,,,,
55,56,"Atlanta Heart Specialists, LLC",34.174205,-84.138069,multigranted,1400 Northside Boulevard Suite 200,,Cumming,GA,30041,USA,,,,"echo, vascular","www.google.com/search?q=Atlanta+Heart+Specialists,+LLC","Atlanta Heart Specialists, LLC Cumming",,,"Dec 30, 2022",Adult Transthoracic,,,,,"Jun 30, 2025",Extracranial Cerebrovascular Testing,,,,,,,,,,,,,,
56,57,"Atlanta Heart Specialists, LLC",33.704278,-84.145777,multigranted,5910 Hillandale Drive Suite 350,,Lithonia,GA,30058,USA,,,,"echo, vascular","www.google.com/search?q=Atlanta+Heart+Specialists,+LLC","Atlanta Heart Specialists, LLC Lithonia",,,"Dec 30, 2022",Adult Transthoracic,,,,,"Jun 30, 2025","Extracranial Cerebrovascular Testing, Peripheral Venous Testing",,,,,,,,,,,,,,
57,58,"Atlanta Institute for ENT, PC",33.909508,-84.352227,granted,5670 Peachtree Dunwoody Road Suite 1280,,Atlanta,GA,30342,USA,,www.ai4ent.com ,,ct,,"Atlanta Institute for ENT, PC Atlanta","Dec 31, 2023",Maxillofacial CT,,,,,,,,,,,,,,,,,,,,,,
58,59,"Atlanta Institute for ENT, PC",34.067081,-84.265593,granted,3333 Old Milton Pkwy 520,,Alpharetta,GA,30005,,,,,ct,"www.google.com/search?q=Atlanta+Institute+for+ENT,+PC","Atlanta Institute for ENT, PC Alpharetta","Dec 31, 2023",Maxillofacial CT,,,,,,,,,,,,,,,,,,,,,,
59,60,"Atlanta Laser Vein Institute, LLC",33.976376,-84.479675,granted,1050 E. Piedmont Road,Suite 104,Marietta,GA,30062,USA,,,,vascular,"www.google.com/search?q=Atlanta+Laser+Vein+Institute,+LLC","Atlanta Laser Vein Institute, LLC Marietta",,,,,,,,,"Dec 30, 2022",Peripheral Venous Testing,,,,,,,,,,,,,,
60,61,Atlanta Vein Specialists,34.069907,-84.163049,granted,4060 Johns Creek Pkwy,Bldg E,Suwanee,GA,30024,USA,,www.atlveins.com,,vascular,,Atlanta Vein Specialists Suwanee,,,,,,,,,"Jan 31, 2023",Peripheral Venous Testing,,,,,,,,,,,,,,
61,62,Atrium Health Navicent Heart and Vascular Care,32.835057,-83.632599,granted,575 First Street,,Macon,GA,31201,USA,,www.navicenthealth.org/VI,,vascular,,Atrium Health Navicent Heart and Vascular Care Macon,,,,,,,,,"Feb 29, 2024","Extracranial Cerebrovascular Testing, Peripheral Arterial Testing, Peripheral Venous Testing",,,,,,,,,,,,,,
62,63,Atrium Health Navicent Heart and Vascular Care Warner Robins,32.611824,-83.68992,granted,320 Margie Drive,,Warner Robins,GA,31088,USA,,www.navicenthealth.org/VI,,vascular,,Atrium Health Navicent Heart and Vascular Care Warner Robins Warner Robins,,,,,,,,,"Feb 29, 2024","Extracranial Cerebrovascular Testing, Peripheral Arterial Testing, Peripheral Venous Testing",,,,,,,,,,,,,,
63,64,AU Health Cardiovascular Center,33.472914,-81.989936,granted,937 15th Street,,Augusta,GA,30912,USA,,,,echo,www.google.com/search?q=AU+Health+Cardiovascular+Center,AU Health Cardiovascular Center Augusta,,,"Dec 31, 2024","Adult Stress, Adult Transthoracic",,,,,,,,,,,,,,,,,,,,
64,65,"AU Medical Center, Inc.",33.471029,-81.991453,granted,1120 15th Street,,Augusta,GA,30912,USA,,,,echo,"www.google.com/search?q=AU+Medical+Center,+Inc.","AU Medical Center, Inc. Augusta",,,"Dec 31, 2024","Adult Stress, Adult Transesophageal, Adult Transthoracic",,,,,,,,,,,,,,,,,,,,
65,66,Augusta ENT,33.475216,-81.98052,granted,720 Saint Sebastian Way,Suite 201,Augusta,GA,30901,USA,,augustaent.com,,ct,,Augusta ENT Augusta,"Dec 31, 2023",Maxillofacial CT,,,,,,,,,,,,,,,,,,,,,,
66,67,Augusta ENT,33.525607,-82.138296,granted,340 N Beliar Rd,,Evans,GA,30809,USA,,augustaent.com,,ct,,Augusta ENT Evans,"Dec 31, 2023",Maxillofacial CT,,,,,,,,,,,,,,,,,,,,,,
67,68,Augusta Orthopedic and Sports Medicine Specialists,33.48694,-82.09662,granted,3650 J Dewey Gray Circle,,Augusta,GA,30909,USA,,,,mr,www.google.com/search?q=Augusta+Orthopedic+and+Sports+Medicine+Specialists,Augusta Orthopedic and Sports Medicine Specialists Augusta,,,,,"Jan 29, 2023",Musculoskeletal MRI,,,,,,,,,,,,,,,,,,
68,69,"Austell Vascular Diagnostics, Vascular Surgical Associates, P.C",33.856085,-84.605199,granted,"1700 Hospital South Dr., Suite 502",,Austell,GA,30106,USA,,VascularSurgical.com,,vascular,,"Austell Vascular Diagnostics, Vascular Surgical Associates, P.C Austell",,,,,,,,,"Jul 31, 2024","Extracranial Cerebrovascular Testing, Peripheral Arterial Testing, Peripheral Venous Testing, Visceral Vascular Testing",,,,,,,,,,,,,,
69,70,Barbour Orthopaedics and Sports Medicine,33.905423,-84.378621,granted,5505 Roswell Road,Suite 100,Atlanta,GA,30342,USA,,www.scottbarbourmd.com,,mr,,Barbour Orthopaedics and Sports Medicine Atlanta,,,,,"Aug 31, 2023",Musculoskeletal MRI,,,,,,,,,,,,,,,,,,
70,71,Barbour Orthopaedics and Sports Medicine,33.618986,-84.36149,granted,871 Forest Pkwy,,Forest Park,GA,30297,USA,,,,mr,www.google.com/search?q=Barbour+Orthopaedics+and+Sports+Medicine,Barbour Orthopaedics and Sports Medicine Forest Park,,,,,"Aug 31, 2023",Musculoskeletal MRI,,,,,,,,,,,,,,,,,,
71,72,Barbour Orthopaedics and Sports Medicine,33.871628,-84.28022,granted,3240 NE Express Way,,Atlanta,GA,30341,USA,,www.Scottbarbourmd.com,,mr,,Barbour Orthopaedics and Sports Medicine Atlanta,,,,,"Aug 31, 2023",Musculoskeletal MRI,,,,,,,,,,,,,,,,,,
72,73,Barbour Orthopaedics and Sports Medicine,34.015981,-84.554291,granted,2505A Chastain Meadows Parkway,,Marietta,GA,30066,,,,,mr,www.google.com/search?q=Barbour+Orthopaedics+and+Sports+Medicine,Barbour Orthopaedics and Sports Medicine Marietta,,,,,"Aug 31, 2023",Musculoskeletal MRI,,,,,,,,,,,,,,,,,,
73,74,Bare Bones Medical,32.135557,-81.254116,granted,421 Pooler Pkwy,,Pooler,GA,31322,USA,,,,mr,www.google.com/search?q=Bare+Bones+Medical,Bare Bones Medical Pooler,,,,,"Apr 30, 2024",Musculoskeletal MRI,,,,,,,,,,,,,,,,,,
74,75,"Breast Care Specialists, LLC",33.907741,-84.356144,granted,975 Johnson Ferry Road,Suite 500,Atlanta,GA,30342,USA,,,,mr,"www.google.com/search?q=Breast+Care+Specialists,+LLC","Breast Care Specialists, LLC Atlanta",,,,,"Oct 31, 2023",Breast MRI,,,,,,,,,,,,,,,,,,
75,76,Brunswick Wolfson Children’s at Southeast Georgia Health System,31.174521,-81.48219,granted,"3025 Shrine Road, Suite 350",,Brunswick,GA,31520,USA,,,,pediatric_echo,www.google.com/search?q=Brunswick+Wolfson+Children’s+at+Southeast+Georgia+Health+System,Brunswick Wolfson Children’s at Southeast Georgia Health System Brunswick,,,,,,,,,,,"Apr 30, 2024",Pediatric Transthoracic,,,,,,,,,,,,
76,77,"Buckhead ENT (Keith M. Dockery, MD, PC)",33.803927,-84.393281,granted,1800 Peachtree Street NW,Suite 400,Atlanta,GA,30309,USA,,,,ct,"www.google.com/search?q=Buckhead+ENT+(Keith+M.+Dockery,+MD,+PC)","Buckhead ENT (Keith M. Dockery, MD, PC) Atlanta","Jul 31, 2025",Maxillofacial CT,,,,,,,,,,,,,,,,,,,,,,
77,78,Canton Cardiovascular Imaging Center,34.252656,-84.480619,granted,"15 Reinhardt College Parkway, Suite110 B",,Canton,GA,30114,USA,,,,nuclear,www.google.com/search?q=Canton+Cardiovascular+Imaging+Center,Canton Cardiovascular Imaging Center Canton,,,,,,,"Oct 31, 2023",Myocardial Perfusion Imaging,,,,,,,,,,,,,,,,
78,79,"Canton Vascular Diagnostics,  Vascular Surgical Associates, P.C",34.253009,-84.483138,granted,"130 Riverstone Terrace, Suite 100",,Canton,GA,30114,USA,,VascularSurgical.com,,vascular,,"Canton Vascular Diagnostics,  Vascular Surgical Associates, P.C Canton",,,,,,,,,"Jul 31, 2024","Extracranial Cerebrovascular Testing, Peripheral Arterial Testing, Peripheral Venous Testing, Visceral Vascular Testing",,,,,,,,,,,,,,
79,80,Cardiology Consultants of Atlanta,33.793671,-84.277996,granted,2801 North Decatur Road,Suite 395,Decatur,GA,30033,USA,,,,echo,www.google.com/search?q=Cardiology+Consultants+of+Atlanta,Cardiology Consultants of Atlanta Decatur,,,"Aug 31, 2023","Adult Stress, Adult Transthoracic",,,,,,,,,,,,,,,,,,,,
80,81,"Cardiology Consultants of Atlanta, PC",33.793671,-84.277996,granted,2801 North Decatur Road,Suite 395,Decatur,GA,30033,USA,,,,nuclear,"www.google.com/search?q=Cardiology+Consultants+of+Atlanta,+PC","Cardiology Consultants of Atlanta, PC Decatur",,,,,,,"Dec 31, 2023",Myocardial Perfusion Imaging,,,,,,,,,,,,,,,,
81,82,"Cardiology of Atlanta, PC",33.928455,-84.362358,granted,755 Mt. Vernon Highway NE Suite 530,,Atlanta,GA,30328,USA,,,,echo,"www.google.com/search?q=Cardiology+of+Atlanta,+PC","Cardiology of Atlanta, PC Atlanta",,,"May 31, 2025",Adult Transthoracic,,,,,,,,,,,,,,,,,,,,
82,83,Cardiovascular Associates of Eastern Georgia,32.416568,-81.769626,granted,1497 Fair Road,Suite 305,Statesboro,GA,30458,USA,,,,nuclear,www.google.com/search?q=Cardiovascular+Associates+of+Eastern+Georgia,Cardiovascular Associates of Eastern Georgia Statesboro,,,,,,,"Sep 30, 2023","Equilibrium Radionuclide Angiography, Myocardial Perfusion Imaging",,,,,,,,,,,,,,,,
83,84,"CardioVascular Group, LLC",33.970263,-84.00666,granted,755 Walther Road,,Lawrenceville,GA,30046,USA,,,,vascular,"www.google.com/search?q=CardioVascular+Group,+LLC","CardioVascular Group, LLC Lawrenceville",,,,,,,,,"Mar 31, 2024",Extracranial Cerebrovascular Testing,,,,,,,,,,,,,,
84,85,"CardioVascular Group, LLC Duluth",33.999301,-84.16159,granted,3855 Pleasant Hill Road Suite 250,,Duluth,GA,30096,USA,,,,vascular,"www.google.com/search?q=CardioVascular+Group,+LLC+Duluth","CardioVascular Group, LLC Duluth Duluth",,,,,,,,,"Mar 31, 2024",Extracranial Cerebrovascular Testing,,,,,,,,,,,,,,
85,86,"CardioVascular Group, LLC JCR",34.071194,-84.172434,granted,4365 Johns Creek Parkway Suite 450,,Suwanee,GA,30024,USA,,,,vascular,"www.google.com/search?q=CardioVascular+Group,+LLC+JCR","CardioVascular Group, LLC JCR Suwanee",,,,,,,,,"Mar 31, 2024",Extracranial Cerebrovascular Testing,,,,,,,,,,,,,,
86,87,"CardioVascular Group, LLC Snellville",33.87853,-84.025636,granted,"1608 Tree Lane, Building C",,Snellville,GA,30078,USA,,,,vascular,"www.google.com/search?q=CardioVascular+Group,+LLC+Snellville","CardioVascular Group, LLC Snellville Snellville",,,,,,,,,"Mar 31, 2024",Extracranial Cerebrovascular Testing,,,,,,,,,,,,,,
87,88,"Carrollton Ear, Nose and Throat",33.568987,-85.075269,granted,150 Clinic Ave.  Suite 201,,Carrollton,GA,30117,USA,,carrolltonent.com/,,ct,,"Carrollton Ear, Nose and Throat Carrollton","Sep 30, 2024",Maxillofacial CT,,,,,,,,,,,,,,,,,,,,,,
88,89,Carrollton Orthopaedic Clinic,33.568987,-85.075269,granted,150 Clinic Avenue,Ste 101,Carrollton,GA,30117,USA,,www.carrolltonortho.com,,ct,,Carrollton Orthopaedic Clinic Carrollton,"Nov 30, 2024",Body CT,,,,,,,,,,,,,,,,,,,,,,
89,90,"Cartersville Vascular Diagnostic, Vascular Surgical Associates, PC",34.159058,-84.787567,granted,962 Joe Frank Harris Parkway Suite 202,,Cartersville,GA,30120,USA,,,,vascular,"www.google.com/search?q=Cartersville+Vascular+Diagnostic,+Vascular+Surgical+Associates,+PC","Cartersville Vascular Diagnostic, Vascular Surgical Associates, PC Cartersville",,,,,,,,,"Jul 31, 2024","Extracranial Cerebrovascular Testing, Peripheral Arterial Testing, Peripheral Venous Testing, Visceral Vascular Testing",,,,,,,,,,,,,,
90,91,Center for Primary Care,33.526599,-82.136168,granted,363 North Belair Road,,Evans,GA,30809,USA,,www.cpcfamilymedicine.com,,echo,,Center for Primary Care Evans,,,"Jan 31, 2023",Adult Transthoracic,,,,,,,,,,,,,,,,,,,,
91,92,Center for Primary Care Central,33.484608,-82.094224,granted,3614-D J. Dewey Gray Circle,,Augusta,GA,30909,USA,,www.cpcfp.com,,echo,,Center for Primary Care Central Augusta,,,"Jan 31, 2023",Adult Transthoracic,,,,,,,,,,,,,,,,,,,,
92,93,Center for Primary Care Crossroads,33.476176,-82.128329,granted,1701 Magnolia Way,Suite 101,Augusta,GA,30909,USA,,www.cpcfp.com,,echo,,Center for Primary Care Crossroads Augusta,,,"Jan 31, 2023",Adult Transthoracic,,,,,,,,,,,,,,,,,,,,
93,94,Center for Primary Care Gateway,33.479155,-82.194217,granted,4039 Gateway Blvd.,,Grovetown,GA,30813,USA,,,,echo,www.google.com/search?q=Center+for+Primary+Care+Gateway,Center for Primary Care Gateway Grovetown,,,"Jan 31, 2023",Adult Transthoracic,,,,,,,,,,,,,,,,,,,,
94,95,Center for Primary Care McDuffie Medical,33.45713,-82.51279,granted,505 Mount Pleasant Road,,Thomson,GA,30824,USA,,,,echo,www.google.com/search?q=Center+for+Primary+Care+McDuffie+Medical,Center for Primary Care McDuffie Medical Thomson,,,"Jan 31, 2023",Adult Transthoracic,,,,,,,,,,,,,,,,,,,,
95,96,Center for Primary Care South,33.409708,-82.023799,granted,2011 Windsor Spring Rd.,,Augusta,GA,30906,USA,,www.cpcfp.com,,echo,,Center for Primary Care South Augusta,,,"Jan 31, 2023",Adult Transthoracic,,,,,,,,,,,,,,,,,,,,
96,97,Central Georgia Heart Center,32.835762,-83.63818,granted,1062 Forsyth Street,Suite 1B,Macon,GA,31201,USA,,,,nuclear,www.google.com/search?q=Central+Georgia+Heart+Center,Central Georgia Heart Center Macon,,,,,,,"Jan 31, 2024","Myocardial Perfusion Imaging, Positron Emission Tomography (PET)",,,,,,,,,,,,,,,,
97,98,"Central Georgia Heart Institute, LLC",32.618194,-83.633683,granted,1707 Watson Boulevard,Suite 200,Warner Robins,GA,31093,USA,,,,echo,"www.google.com/search?q=Central+Georgia+Heart+Institute,+LLC","Central Georgia Heart Institute, LLC Warner Robins",,,"Jun 30, 2025",Adult Transthoracic,,,,,,,,,,,,,,,,,,,,
98,99,"Champ Vascular, LLC",33.402334,-84.719817,granted,"1825 Highway 34 E, Ste 3400",,Newnan,GA,30265,USA,,,,nuclear,"www.google.com/search?q=Champ+Vascular,+LLC","Champ Vascular, LLC Newnan",,,,,,,"Apr 30, 2024",Myocardial Perfusion Imaging,,,,,,,,,,,,,,,,
99,100,"Chatham Orthopaedic Associates, P A",32.033872,-81.094752,granted,4425 Paulsen Street,,Savannah,GA,31405,USA,,chathamorthopaedics.com/,,ct,,"Chatham Orthopaedic Associates, P A Savannah","Jan 29, 2023",Body CT,,,,,,,,,,,,,,,,,,,,,,
100,101,"Cherokee Vascular Diagnostics, Vascular Surgical Associates, P.C.",34.103062,-84.535937,granted,100 Stoneforest Dr Suite 130,,Woodstock,GA,30189,USA,,VascularSurgical.com,,vascular,,"Cherokee Vascular Diagnostics, Vascular Surgical Associates, P.C. Woodstock",,,,,,,,,"Jul 31, 2024","Extracranial Cerebrovascular Testing, Peripheral Arterial Testing, Peripheral Venous Testing, Visceral Vascular Testing",,,,,,,,,,,,,,
101,102,Chhokar Clinic,32.506869,-84.959083,granted,2300 Manchester Expy Ste 1001,Butler Pavilion,Columbus,GA,31904,USA,,,,nuclear,www.google.com/search?q=Chhokar+Clinic,Chhokar Clinic Columbus,,,,,,,"Jan 31, 2024",Myocardial Perfusion Imaging,,,,,,,,,,,,,,,,
102,103,"Children’s Cardiovascular Medicine, PC",33.967451,-84.551685,granted,780 Canton Road NE,Suite 350,Marietta,GA,30060,USA,,,,pediatric_echo,"www.google.com/search?q=Children’s+Cardiovascular+Medicine,+PC","Children’s Cardiovascular Medicine, PC Marietta",,,,,,,,,,,"Feb 28, 2023",Pediatric Transthoracic,,,,,,,,,,,,
103,104,"Children’s Cardiovascular Medicine, PC",34.059983,-84.088185,granted,4310 Johns Creek Parkway,Suite 180,Suwanee,GA,30024,USA,,,,pediatric_echo,"www.google.com/search?q=Children’s+Cardiovascular+Medicine,+PC","Children’s Cardiovascular Medicine, PC Suwanee",,,,,,,,,,,"Feb 28, 2023",Pediatric Transthoracic,,,,,,,,,,,,
104,105,Children’s Healthcare of Atlanta at Egleston,33.793285,-84.320996,granted,1405 Clifton Road North East,,Atlanta,GA,30322,USA,,,,pediatric_echo,www.google.com/search?q=Children’s+Healthcare+of+Atlanta+at+Egleston,Children’s Healthcare of Atlanta at Egleston Atlanta,,,,,,,,,,,"Sep 30, 2023","Pediatric Transesophageal, Pediatric Transthoracic, Fetal",,,,,,,,,,,,
105,106,Children’s Healthcare of Atlanta at Scottish Rite,33.9079,-84.354426,granted,1001 Johnson Ferry Road North East,,Atlanta,GA,30342,USA,,,,pediatric_echo,www.google.com/search?q=Children’s+Healthcare+of+Atlanta+at+Scottish+Rite,Children’s Healthcare of Atlanta at Scottish Rite Atlanta,,,,,,,,,,,"Sep 30, 2023",Pediatric Transthoracic,,,,,,,,,,,,
106,107,City of Hope Heart and Vascular,32.530906,-82.954819,granted,207 Fairview Park Drive,Suite A,Dublin,GA,31021,USA,,,,nuclear,www.google.com/search?q=City+of+Hope+Heart+and+Vascular,City of Hope Heart and Vascular Dublin,,,,,,,"Jun 30, 2023",Myocardial Perfusion Imaging,,,,,,,,,,,,,,,,
107,108,"Coastal Cardiology, PC",31.175981,-81.483762,multigranted,3226-A Hampton Ave,,Brunswick,GA,31520,USA,,,,"echo, nuclear, vascular","www.google.com/search?q=Coastal+Cardiology,+PC","Coastal Cardiology, PC Brunswick",,,"Jul 31, 2023","Adult Stress, Adult Transthoracic",,,"Oct 31, 2023",Myocardial Perfusion Imaging,"Feb 29, 2024","Extracranial Cerebrovascular Testing, Peripheral Arterial Testing, Peripheral Venous Testing",,,,,,,,,,,,,,
108,109,Coastal ENT,32.00682,-81.107857,granted,322 Commercial Dr,Suite 2,Savannah,GA,31406,USA,,coastal-ent.com/,,ct,,Coastal ENT Savannah,"Apr 30, 2023",Maxillofacial CT,,,,,,,,,,,,,,,,,,,,,,
109,110,Colquitt Regional Medical Center,31.125488,-83.783226,granted,3131 South Main Street,,Moultrie,GA,31768,USA,,www.colquittregional.com,,echo,,Colquitt Regional Medical Center Moultrie,,,"Jun 30, 2023",Adult Transthoracic,,,,,,,,,,,,,,,,,,,,
110,111,"Columbus Cardiology Associates, P.C.",32.50606,-84.95911,multigranted,"2300 Manchester Expy,Suite 1003, Butler Pavilion",,Columbus,GA,31904,USA,,,,"vascular, echo","www.google.com/search?q=Columbus+Cardiology+Associates,+P.C.","Columbus Cardiology Associates, P.C. Columbus",,,"Jan 31, 2025",Adult Transthoracic,,,,,"Dec 30, 2022","Extracranial Cerebrovascular Testing, Peripheral Arterial Testing, Peripheral Venous Testing",,,,,,,,,,,,,,
111,112,"Columbus Cardiology Associates, PC",32.506869,-84.959083,granted,2300 Manchester Expressway Butler Pavilion Suite 1003,,Columbus,GA,31904,USA,,,,nuclear,"www.google.com/search?q=Columbus+Cardiology+Associates,+PC","Columbus Cardiology Associates, PC Columbus",,,,,,,"Apr 30, 2024",Myocardial Perfusion Imaging,,,,,,,,,,,,,,,,
112,113,Crmg Roman Primary Care,32.503091,-84.95196,granted,2737 B&C Warm Springs Road,,Columbus,GA,31904,USA,,romanmedicalgroup.org,,nuclear,,Crmg Roman Primary Care Columbus,,,,,,,"Apr 30, 2024",Myocardial Perfusion Imaging,,,,,,,,,,,,,,,,
113,114,Crmg Winship Family Medicine,32.536044,-84.981212,granted,"2401 Brookstone Centre Pkwy, Building 200",,Columbus,GA,31904,USA,,,,nuclear,www.google.com/search?q=Crmg+Winship+Family+Medicine,Crmg Winship Family Medicine Columbus,,,,,,,"Apr 30, 2024",Myocardial Perfusion Imaging,,,,,,,,,,,,,,,,
114,115,"Dalton Ear, Nose, and Throat Associates",34.78866,-84.975245,granted,1436 Chattanooga Ave,,Dalton,GA,30720,USA,,www.daltonent.com/,,ct,,"Dalton Ear, Nose, and Throat Associates Dalton","Oct 30, 2022",Maxillofacial CT,,,,,,,,,,,,,,,,,,,,,,
115,116,Dasher Heart Center,30.86175,-83.288863,granted,2501 N. Patterson St.,,Valdosta,GA,31602,USA,,,,echo,www.google.com/search?q=Dasher+Heart+Center,Dasher Heart Center Valdosta,,,"Jun 30, 2023",Adult Transthoracic,,,,,,,,,,,,,,,,,,,,
116,117,"David Dillard MD, LLC",33.970209,-83.413109,granted,1000 Hawthorne Avenue,,Athens,GA,30606,USA,,,,ct,"www.google.com/search?q=David+Dillard+MD,+LLC","David Dillard MD, LLC Athens","May 31, 2025",Maxillofacial CT,,,,,,,,,,,,,,,,,,,,,,
117,118,"David Dillard, MD LLC",33.957249,-84.016792,granted,1990 Riverside Pkwy,,Lawrenceville,GA,30043,USA,,,,ct,"www.google.com/search?q=David+Dillard,+MD+LLC","David Dillard, MD LLC Lawrenceville","May 31, 2025",Maxillofacial CT,,,,,,,,,,,,,,,,,,,,,,
118,119,DeKalb Medical,33.789556,-84.2807686,granted,2701 North Decatur Road,,Decatur,GA,30033,USA,,dekalbmedical.org,,echo,,DeKalb Medical Decatur,,,"Jun 30, 2025",Adult Transthoracic,,,,,,,,,,,,,,,,,,,,
119,120,Dekalb Medical Diagnostic Imaging Center,33.789556,-84.2807686,granted,2701 North Decatur Rd.,,Decatur,GA,30033,USA,,dekalbmedical.com,,echo,,Dekalb Medical Diagnostic Imaging Center Decatur,,,"Jun 30, 2025",Adult Transthoracic,,,,,,,,,,,,,,,,,,,,
120,121,DeKalb Medical Hillandale,33.7036449,-84.146976,granted,2801 DeKalb Medical Parkway,,Lithonia,GA,30058,USA,,www.dekalbmedical.com,,echo,,DeKalb Medical Hillandale Lithonia,,,"Jun 30, 2025",Adult Transthoracic,,,,,,,,,,,,,,,,,,,,
121,122,Digirad Emory Johns Creek,34.067206,-84.174706,granted,6335 Hospital Parkway,,Johns Creek,GA,30097,USA,,,,vascular,www.google.com/search?q=Digirad+Emory+Johns+Creek,Digirad Emory Johns Creek Johns Creek,,,,,,,,,"Nov 30, 2022","Extracranial Cerebrovascular Testing, Peripheral Arterial Testing",,,,,,,,,,,,,,
122,123,Doctors Hospital,33.482889,-82.094793,granted,3651 Wheeler Rd,,Augusta,GA,30909,USA,,www.doctors-hospital.net,,vascular,,Doctors Hospital Augusta,,,,,,,,,"May 31, 2024","Extracranial Cerebrovascular Testing, Peripheral Arterial Testing, Peripheral Venous Testing",,,,,,,,,,,,,,
123,124,"Douglasville Vascular Diagnostics, Vascular Surgical Associates, P.C.",33.740898,-84.728446,granted,6002 Professional Pkwy. Suite 240,,Douglasville,GA,30134,USA,,VascularSurgical.com,,vascular,,"Douglasville Vascular Diagnostics, Vascular Surgical Associates, P.C. Douglasville",,,,,,,,,"Jul 31, 2024","Extracranial Cerebrovascular Testing, Peripheral Arterial Testing, Peripheral Venous Testing, Visceral Vascular Testing",,,,,,,,,,,,,,
124,125,Duluth MRI,35.015868,-85.235222,granted,3655 Howell Ferry Road,Suite 100,Duluth,GA,30096,USA,,,,mr,www.google.com/search?q=Duluth+MRI,Duluth MRI Duluth,,,,,"Jun 30, 2025",Musculoskeletal MRI,,,,,,,,,,,,,,,,,,
125,126,Eagles Landing Family Practice,33.456869,-84.17851,granted,50 Kelly Road,,McDonough,GA,30253,USA,,,,echo,www.google.com/search?q=Eagles+Landing+Family+Practice,Eagles Landing Family Practice McDonough,,,"Sep 30, 2024",Adult Transthoracic,,,,,,,,,,,,,,,,,,,,
126,127,Ear Nose and Throat Clinic,31.473606,-83.488463,granted,2016 Pineview Avenue,,Tifton,GA,31794,USA,,,,ct,www.google.com/search?q=Ear+Nose+and+Throat+Clinic,Ear Nose and Throat Clinic Tifton,"Apr 30, 2024",Maxillofacial CT,,,,,,,,,,,,,,,,,,,,,,
127,128,Ear Nose and Throat Clinic of Coffee County PC,31.513586,-82.86258,granted,312 Westside Drive,,Douglas,GA,31533,USA,,,,ct,www.google.com/search?q=Ear+Nose+and+Throat+Clinic+of+Coffee+County+PC,Ear Nose and Throat Clinic of Coffee County PC Douglas,"Apr 30, 2024",Maxillofacial CT,,,,,,,,,,,,,,,,,,,,,,
128,129,Ear Nose and Throat Clinic Waycross,31.209347,-82.333367,granted,1703 Boulevard Square,,Waycross,GA,31503,USA,,,,ct,www.google.com/search?q=Ear+Nose+and+Throat+Clinic+Waycross,Ear Nose and Throat Clinic Waycross Waycross,"Apr 30, 2024",Maxillofacial CT,,,,,,,,,,,,,,,,,,,,,,
129,130,"Ear Nose Throat and Allergy Associates of South Georgia, LLC",30.87084,-83.290695,granted,2910 North Patterson Street,,Valdosta,GA,31602,USA,,entofsouthgeorgia.com,,ct,,"Ear Nose Throat and Allergy Associates of South Georgia, LLC Valdosta","Jul 31, 2024",Maxillofacial CT,,,,,,,,,,,,,,,,,,,,,,
130,131,Ear Nose Throat and Allergy Specialists,34.248069,-84.481376,granted,215 Riverstone Drive,,Canton,GA,30114,USA,,ent-specialist.org,,ct,,Ear Nose Throat and Allergy Specialists Canton,"Sep 29, 2022",Maxillofacial CT,,,,,,,,,,,,,,,,,,,,,,
131,132,"Ear, Nose and Throat Associates of Savannah",32.140163,-81.255549,granted,1000 Towne Center Blvd.,Suite 200,Pooler,GA,31322,USA,,www.entsavannah.com,,ct,,"Ear, Nose and Throat Associates of Savannah Pooler","Dec 31, 2023",Maxillofacial CT,,,,,,,,,,,,,,,,,,,,,,
132,133,"Ear, Nose and Throat Associates of Savannah",32.027461,-81.095878,granted,5201 Frederick Street,,Savannah,GA,31405,USA,,www.entsavannah.com,,ct,,"Ear, Nose and Throat Associates of Savannah Savannah","Dec 31, 2023",Maxillofacial CT,,,,,,,,,,,,,,,,,,,,,,
133,134,"Ear, Nose and Throat Specialists",34.399502,-84.41678,granted,80 A Interstate South Drive,,Jasper,GA,30143,USA,,,,ct,"www.google.com/search?q=Ear,+Nose+and+Throat+Specialists","Ear, Nose and Throat Specialists Jasper","Sep 29, 2022",Maxillofacial CT,,,,,,,,,,,,,,,,,,,,,,
134,135,"Ear, Nose and Throat Specialists, LLC",33.678356,-84.002454,granted,1370 Wellbrook Circle,,Conyers,GA,30012,USA,,www.entspecialists.net,,ct,,"Ear, Nose and Throat Specialists, LLC Conyers","Apr 30, 2024",Maxillofacial CT,,,,,,,,,,,,,,,,,,,,,,
135,136,East Atlanta Cardiology,33.716245,-84.16689,multigranted,5447 Dividend Drive,,Lithonia,GA,30058,USA,,,,"nuclear, echo",www.google.com/search?q=East+Atlanta+Cardiology,East Atlanta Cardiology Lithonia,,,"Sep 30, 2023",Adult Transthoracic,,,"Aug 31, 2023",Myocardial Perfusion Imaging,,,,,,,,,,,,,,,,
136,137,East Atlanta Cardiology,33.702578,-84.009245,multigranted,1372 Wellbrook Circle,,Conyers,GA,30012,USA,,www.eastatlantacardiology.com,,"nuclear, echo",,East Atlanta Cardiology Conyers,,,"Sep 30, 2023",Adult Transthoracic,,,"Aug 31, 2023",Myocardial Perfusion Imaging,,,,,,,,,,,,,,,,
137,138,"East Cobb Vascular Lab, Vascular Surgical Associates, PC",33.978703,-84.442741,granted,3747 Roswell Road Suite 316,,Marietta,GA,30062,USA,,www.vascularsurgical.com,,vascular,,"East Cobb Vascular Lab, Vascular Surgical Associates, PC Marietta",,,,,,,,,"Jul 31, 2024","Extracranial Cerebrovascular Testing, Peripheral Arterial Testing, Peripheral Venous Testing, Visceral Vascular Testing",,,,,,,,,,,,,,
138,139,"Effingham Hospital, Inc.",32.364734,-81.321664,granted,459 GA-119,,Springfield,GA,31329,USA,,www.effinghamhealth.org,,nuclear,,"Effingham Hospital, Inc. Springfield",,,,,,,"Jan 31, 2024",Myocardial Perfusion Imaging,,,,,,,,,,,,,,,,
139,140,Ellijay Facility,34.698354,-84.534823,granted,433 Highlands Crossings,Suite 201,Ellijay,GA,30540,USA,,,,echo,www.google.com/search?q=Ellijay+Facility,Ellijay Facility Ellijay,,,"Feb 29, 2024",Adult Transthoracic,,,,,,,,,,,,,,,,,,,,
140,141,Emory at Cumming,34.146742,-84.173042,granted,610 Peachtree Parkway,,Cumming,GA,30041,USA,,www.emoryhealthcare.org/locations/primary-care/emory-at-cumming-primary-care/,,echo,,Emory at Cumming Cumming,,,"Sep 30, 2023",Adult Transthoracic,,,,,,,,,,,,,,,,,,,,
141,142,Emory at Decatur,33.7935989,-84.2781471,granted,"2801 N Decatur Road, Suite 295",,Decatur,GA,30033,USA,,,,echo,www.google.com/search?q=Emory+at+Decatur,Emory at Decatur Decatur,,,"Sep 30, 2023",Adult Transthoracic,,,,,,,,,,,,,,,,,,,,
142,143,Emory at East Cobb,33.951839,-84.411578,granted,137 Johnson Ferry Rd,,Marietta,GA,30068,USA,,www.emoryhealthcare.org/locations/primary-care/emory-at-east-cobb/,,echo,,Emory at East Cobb Marietta,,,"Sep 30, 2023",Adult Transthoracic,,,,,,,,,,,,,,,,,,,,
143,144,Emory at Eastside,33.878455,-84.025558,granted,1608 Tree Lane Suite 101,,Snellville,GA,30078,USA,,,,echo,www.google.com/search?q=Emory+at+Eastside,Emory at Eastside Snellville,,,"Sep 30, 2023",Adult Transthoracic,,,,,,,,,,,,,,,,,,,,
144,145,Emory at Midtown,33.769592,-84.385188,granted,550 Peachtree St MOT 6th Floor,,Atlanta,GA,30308,USA,,,,echo,www.google.com/search?q=Emory+at+Midtown,Emory at Midtown Atlanta,,,"Sep 30, 2023",Adult Transthoracic,,,,,,,,,,,,,,,,,,,,
145,146,Emory at Rockdale,33.679168,-84.002779,granted,1400 Wellbrook Circle Suite 103,,Conyers,GA,30012,USA,,,,echo,www.google.com/search?q=Emory+at+Rockdale,Emory at Rockdale Conyers,,,"Sep 30, 2023",Adult Transthoracic,,,,,,,,,,,,,,,,,,,,
146,147,Emory Clinic at Sugarloaf,33.996048,-84.087486,granted,1845 Satellite Blvd.,Suite 500,Duluth,GA,30097,USA,,,,echo,www.google.com/search?q=Emory+Clinic+at+Sugarloaf,Emory Clinic at Sugarloaf Duluth,,,"Sep 30, 2023",Adult Transthoracic,,,,,,,,,,,,,,,,,,,,
147,148,"Emory Clinic Outpatient Vascular Laboratory, John’s Creek",34.067438,-84.175136,granted,6335 Hospital Parkway,Suite 203,John’s Creek,GA,30097,USA,,www.emoryhealthcare.org,,vascular,,"Emory Clinic Outpatient Vascular Laboratory, John’s Creek John’s Creek",,,,,,,,,"May 31, 2024","Extracranial Cerebrovascular Testing, Peripheral Arterial Testing, Peripheral Venous Testing, Visceral Vascular Testing, Screening",,,,,,,,,,,,,,
148,149,"Emory Clinic Outpatient Vascular Laboratory, Roswell",34.060935,-84.312826,granted,1400 Hembree Road,Suite 100,Roswell,GA,30076,USA,,www.emoryhealthcare.org,,vascular,,"Emory Clinic Outpatient Vascular Laboratory, Roswell Roswell",,,,,,,,,"May 31, 2024","Extracranial Cerebrovascular Testing, Peripheral Arterial Testing, Peripheral Venous Testing, Visceral Vascular Testing, Screening",,,,,,,,,,,,,,
149,150,"Emory Clinic, Medical Office Tower at Emory University Hospital Midtown",33.769592,-84.385188,granted,550 Peachtree Street,MOT 6th Floor,Atlanta,GA,30308,USA,,,,vascular,"www.google.com/search?q=Emory+Clinic,+Medical+Office+Tower+at+Emory+University+Hospital+Midtown","Emory Clinic, Medical Office Tower at Emory University Hospital Midtown Atlanta",,,,,,,,,"Nov 30, 2022","Extracranial Cerebrovascular Testing, Peripheral Arterial Testing, Peripheral Venous Testing, Visceral Vascular Testing, Screening",,,,,,,,,,,,,,
150,151,Emory Heart and Vascular at Saint Josephs,33.909259,-84.35199,granted,5671 Peachtree Dunwoody Road,Suite 300,Atlanta,GA,30342,USA,,www.emoryhealthcare.org,,echo,,Emory Heart and Vascular at Saint Josephs Atlanta,,,"Apr 29, 2023",Adult Transthoracic,,,,,,,,,,,,,,,,,,,,
151,152,Emory Heart Center at Villa Rica,33.745691,-84.917617,granted,705 Dallas Highway,"Suite 201A, Med Wing",Villa Rica,GA,30180,USA,,,,echo,www.google.com/search?q=Emory+Heart+Center+at+Villa+Rica,Emory Heart Center at Villa Rica Villa Rica,,,"Sep 30, 2023",Adult Transthoracic,,,,,,,,,,,,,,,,,,,,
152,153,Emory Johns Creek Hospital,34.067466,-84.175187,granted,6325 Hospital Parkway,,Johns Creek,GA,30097,USA,,www.emoryjohnscreek.com,,echo,,Emory Johns Creek Hospital Johns Creek,,,"Dec 31, 2024",Adult Transthoracic,,,,,,,,,,,,,,,,,,,,
153,154,Emory Johns Creek Hospital Cardiac Imaging,34.067438,-84.175136,granted,6335 Hospital Parkway,Suite 110,Johns Creek,GA,30097,USA,,,,echo,www.google.com/search?q=Emory+Johns+Creek+Hospital+Cardiac+Imaging,Emory Johns Creek Hospital Cardiac Imaging Johns Creek,,,"Sep 30, 2023",Adult Transthoracic,,,,,,,,,,,,,,,,,,,,
154,155,Emory Southern Heart Specialists - Fayetteville,33.43567,-84.55321,granted,115 Sumner Road,,Fayettvile,GA,30214,USA,,,,echo,www.google.com/search?q=Emory+Southern+Heart+Specialists+-+Fayetteville,Emory Southern Heart Specialists - Fayetteville Fayettvile,,,"Sep 30, 2023",Adult Transthoracic,,,,,,,,,,,,,,,,,,,,
155,156,Emory Southern Heart Specialists - Locust Grove,33.353915,-84.120185,granted,4899 Bill Gardner Parkway,,Locust Grove,GA,30248,USA,,,,echo,www.google.com/search?q=Emory+Southern+Heart+Specialists+-+Locust+Grove,Emory Southern Heart Specialists - Locust Grove Locust Grove,,,"Sep 30, 2023",Adult Transthoracic,,,,,,,,,,,,,,,,,,,,
156,157,Emory Southern Heart Specialists - Riverdale,33.577421,-84.396117,granted,6507 Professional Place,,Riverdale,GA,30274,USA,,,,echo,www.google.com/search?q=Emory+Southern+Heart+Specialists+-+Riverdale,Emory Southern Heart Specialists - Riverdale Riverdale,,,"Sep 30, 2023",Adult Transthoracic,,,,,,,,,,,,,,,,,,,,
157,158,Emory Southern Heart Specialists - Stockbridge,33.511357,-84.22297,granted,"1050 Eagle’s Landing Parkway, Suite 101",,Stockbridge,GA,30281,USA,,,,echo,www.google.com/search?q=Emory+Southern+Heart+Specialists+-+Stockbridge,Emory Southern Heart Specialists - Stockbridge Stockbridge,,,"Sep 30, 2023",Adult Transthoracic,,,,,,,,,,,,,,,,,,,,
158,159,Emory University Hospital,33.791881,-84.320977,granted,"1364 Clifton Road, NE",Suite D433,Atlanta,GA,30322,USA,,,,echo,www.google.com/search?q=Emory+University+Hospital,Emory University Hospital Atlanta,,,"May 31, 2025","Adult Transesophageal, Adult Transthoracic",,,,,,,,,,,,,,,,,,,,
159,160,Emory University Hospital Midtown,33.768386,-84.385295,granted,550 Peachtree Street Northeast,,Atlanta,GA,30308,USA,,www.emoryhealthcare.org,,echo,,Emory University Hospital Midtown Atlanta,,,"Jan 31, 2023",Adult Transthoracic,,,,,,,,,,,,,,,,,,,,
160,161,Emory University Hospital Midtown,33.768386,-84.385295,granted,550 Peachtree Street North East,,Atlanta,GA,30308,USA,,,,vascular,www.google.com/search?q=Emory+University+Hospital+Midtown,Emory University Hospital Midtown Atlanta,,,,,,,,,"Sep 30, 2024","Extracranial Cerebrovascular Testing, Peripheral Arterial Testing, Peripheral Venous Testing",,,,,,,,,,,,,,
161,162,ENT and Voice Care of Atlanta,33.823752,-84.250998,granted,"1390 Montreal Road, Suite 120",,Tucker,GA,30084,USA,,,,ct,www.google.com/search?q=ENT+and+Voice+Care+of+Atlanta,ENT and Voice Care of Atlanta Tucker,"Feb 28, 2023",Maxillofacial CT,,,,,,,,,,,,,,,,,,,,,,
162,163,"ENT of Athens, LLC",33.963595,-83.395615,granted,150 Nacoochee Ave.,,Athens,GA,30606,USA,,,,ct,"www.google.com/search?q=ENT+of+Athens,+LLC","ENT of Athens, LLC Athens","Oct 31, 2024",Maxillofacial CT,,,,,,,,,,,,,,,,,,,,,,
163,164,"ENT of Georgia, North",34.369087,-84.042523,granted,100 Dawson Commons Circle,Suite 140,Dawsonville,GA,30534,USA,,www.entofga.com,,ct,,"ENT of Georgia, North Dawsonville","Oct 31, 2023",Maxillofacial CT,,,,,,,,,,,,,,,,,,,,,,
164,165,F. Levering Neely Vascular Laboratory,33.807479,-84.393754,granted,1968 Peachtree Rd NW,,Atlanta,GA,30309,USA,,Piedmont.org,,vascular,,F. Levering Neely Vascular Laboratory Atlanta,,,,,,,,,"May 31, 2024","Extracranial Cerebrovascular Testing, Peripheral Arterial Testing, Peripheral Venous Testing, Visceral Vascular Testing",,,,,,,,,,,,,,
165,166,Fayetteville,33.44684,-84.466556,granted,600 West Lanier Avenue,Suite 204,Fayetteville,GA,30214,USA,,,,mr,www.google.com/search?q=Fayetteville,Fayetteville Fayetteville,,,,,"Jun 30, 2025",Musculoskeletal MRI,,,,,,,,,,,,,,,,,,
166,167,Fuqua Heart Center of Atlanta at Piedmont Hospital,33.807979,-84.396427,multigranted,95 Collier Road N.W.,,Atlanta,GA,30309,USA,,,,"ct, mr",www.google.com/search?q=Fuqua+Heart+Center+of+Atlanta+at+Piedmont+Hospital,Fuqua Heart Center of Atlanta at Piedmont Hospital Atlanta,"Mar 31, 2024","Coronary CTA, Vascular CTA | Coronary Calcium Scoring",,,"Mar 31, 2024",Cardiovascular MRI | MRA,,,,,,,,,,,,,,,,,,
167,168,"Gainesville Heart and Vascular Group, P.C.",34.293869,-83.829709,granted,535 Jesse Jewell Parkway,Suite C,Gainesville,GA,30501,USA,,,,nuclear,"www.google.com/search?q=Gainesville+Heart+and+Vascular+Group,+P.C.","Gainesville Heart and Vascular Group, P.C. Gainesville",,,,,,,"May 31, 2023",Myocardial Perfusion Imaging,,,,,,,,,,,,,,,,
168,169,"Gainesville Heart and Vascular Group, PC",34.293869,-83.829709,granted,535 Jesse Jewell Parkway,Suite C,Gainesville,GA,30501,USA,,,,echo,"www.google.com/search?q=Gainesville+Heart+and+Vascular+Group,+PC","Gainesville Heart and Vascular Group, PC Gainesville",,,"Dec 31, 2022",Adult Transthoracic,,,,,,,,,,,,,,,,,,,,
169,170,Georgia Bone and Joint,33.414649,-84.559466,granted,4000 Shakerag Hill Suite 100,,Peachtree City,GA,30269,USA,,www.georgiaboneandjoint.org,,mr,,Georgia Bone and Joint Peachtree City,,,,,"Sep 30, 2024",Musculoskeletal MRI,,,,,,,,,,,,,,,,,,
170,171,Georgia Clinic,33.964352,-84.254474,granted,6330 Primrose Hill Court,,Norcross,GA,30092,USA,,,,echo,www.google.com/search?q=Georgia+Clinic,Georgia Clinic Norcross,,,"Nov 30, 2023",Adult Transthoracic,,,,,,,,,,,,,,,,,,,,
171,172,Georgia Clinic at Peachtree Corners,33.964352,-84.254474,granted,6330 Primrose Hill Ct,Suite 102,Norcross,GA,30092,USA,,,,nuclear,www.google.com/search?q=Georgia+Clinic+at+Peachtree+Corners,Georgia Clinic at Peachtree Corners Norcross,,,,,,,"Aug 31, 2023",Myocardial Perfusion Imaging,,,,,,,,,,,,,,,,
172,173,"Georgia Heart Physicians, LLC",32.83426,-83.633288,granted,654 First Street,,Macon,GA,31020,USA,,,,echo,"www.google.com/search?q=Georgia+Heart+Physicians,+LLC","Georgia Heart Physicians, LLC Macon",,,"May 31, 2023",Adult Transthoracic,,,,,,,,,,,,,,,,,,,,
173,174,"Georgia Heart Physicians, LLC (Macon)",32.83426,-83.633288,granted,654 First Street,,Macon,GA,31201,USA,,ghphysicians.com,,nuclear,,"Georgia Heart Physicians, LLC (Macon) Macon",,,,,,,"May 31, 2023",Myocardial Perfusion Imaging,,,,,,,,,,,,,,,,
174,175,Georgia Heart Specialists,33.600556,-83.84887,granted,4140 Tate Street,,Covington,GA,30014,USA,,georgiaheartspecialists.com,,echo,,Georgia Heart Specialists Covington,,,"Nov 30, 2024",Adult Transthoracic,,,,,,,,,,,,,,,,,,,,
175,176,Georgia Heart Specialists,33.677987,-84.001779,granted,1366 Wellbrook Circle,,Conyers,GA,30012,USA,,,,echo,www.google.com/search?q=Georgia+Heart+Specialists,Georgia Heart Specialists Conyers,,,"Nov 30, 2024",Adult Transthoracic,,,,,,,,,,,,,,,,,,,,
176,177,Georgia Heart Specialists,33.600556,-83.84887,granted,4140 Tate Street Suite B,,Covington,GA,30014,USA,,,,vascular,www.google.com/search?q=Georgia+Heart+Specialists,Georgia Heart Specialists Covington,,,,,,,,,"Nov 30, 2022","Extracranial Cerebrovascular Testing, Peripheral Arterial Testing",,,,,,,,,,,,,,
177,178,Georgia Heart Specialists,33.677987,-84.001779,granted,1366-A Wellbrook Circle,,Conyers,GA,30012,USA,,,,vascular,www.google.com/search?q=Georgia+Heart+Specialists,Georgia Heart Specialists Conyers,,,,,,,,,"Nov 30, 2022","Extracranial Cerebrovascular Testing, Peripheral Arterial Testing, Visceral Vascular Testing",,,,,,,,,,,,,,
178,179,"Georgia Heart Specialists, LLC",33.600556,-83.84887,granted,4140 Tate Street,Suite B,Covington,GA,30014,USA,,,,nuclear,"www.google.com/search?q=Georgia+Heart+Specialists,+LLC","Georgia Heart Specialists, LLC Covington",,,,,,,"Jul 31, 2023",Myocardial Perfusion Imaging,,,,,,,,,,,,,,,,
179,180,"Georgia Nasal and Sinus Institute, PC",32.031653,-81.091876,granted,4750 Waters Ave Suite 112,,Savannah,GA,31404,USA,,sinusinstitute.com,,ct,,"Georgia Nasal and Sinus Institute, PC Savannah","Mar 31, 2025",Maxillofacial CT,,,,,,,,,,,,,,,,,,,,,,
180,181,Georgia Pain and Spine Care,33.400182,-84.724699,granted,1665 Highway 34 E. Suite 100,,Newnan,GA,30265,USA,,,,mr,www.google.com/search?q=Georgia+Pain+and+Spine+Care,Georgia Pain and Spine Care Newnan,,,,,"Mar 31, 2023",Musculoskeletal MRI,,,,,,,,,,,,,,,,,,
181,182,"Georgia Vascular Specialists, PC",33.799696,-84.392312,multigranted,1718 Peachtree Street,Suite 360,Atlanta,GA,30309,USA,,www.gvsatl.com,,"vascular, vein_center",,"Georgia Vascular Specialists, PC Atlanta",,,,,,,,,"Oct 30, 2022","Extracranial Cerebrovascular Testing, Peripheral Arterial Testing, Peripheral Venous Testing",,,,,,,"Oct 31, 2022",Superficial Venous Evaluation and Management,,,,,,
182,183,"Georgia Vascular Specialists, PC",33.704493,-84.14542,granted,6000 Hillandale Drive,Suite 140,Lithonia,GA,30058,USA,,,,vascular,"www.google.com/search?q=Georgia+Vascular+Specialists,+PC","Georgia Vascular Specialists, PC Lithonia",,,,,,,,,"Oct 30, 2022","Extracranial Cerebrovascular Testing, Peripheral Arterial Testing, Peripheral Venous Testing",,,,,,,,,,,,,,
183,184,Glenlake Medical Center,33.938286,-84.360139,granted,20 Glenlake  Pkwy,,Atlanta,GA,30328,USA,,www.kp.org,,echo,,Glenlake Medical Center Atlanta,,,"Apr 30, 2025",Adult Transthoracic,,,,,,,,,,,,,,,,,,,,
184,185,Grady Health System,33.752279,-84.382475,multigranted,"80 Jesse Hill, Jr. Dr SE",,Atlanta,GA,30303,USA,,gradyhealth.org,,"echo, vascular",,Grady Health System Atlanta,,,"Oct 31, 2023",Adult Transthoracic,,,,,"Apr 30, 2025","Extracranial Cerebrovascular Testing, Peripheral Arterial Testing, Peripheral Venous Testing",,,,,,,,,,,,,,
185,186,Gwinnett Clinic,33.967188,-84.010688,granted,475 Philip Boulevard,,Lawrenceville,GA,30045,USA,,www.gwinnettclinic.com,,nuclear,,Gwinnett Clinic Lawrenceville,,,,,,,"Aug 31, 2022",Myocardial Perfusion Imaging,,,,,,,,,,,,,,,,
186,187,Gwinnett Clinic,33.967188,-84.010688,granted,475 Phillip Blvd.,,Lawrenceville,GA,30045,USA,,www.gwinnettclinc.com,,echo,,Gwinnett Clinic Lawrenceville,,,"Jan 31, 2025",Adult Transthoracic,,,,,,,,,,,,,,,,,,,,
187,188,Gwinnett Medical Center,33.944963,-84.13524,granted,3650 Steve Reynolds Blvd,,Duluth,GA,30096,USA,,www.kp.org,,echo,,Gwinnett Medical Center Duluth,,,"Apr 30, 2025",Adult Transthoracic,,,,,,,,,,,,,,,,,,,,
188,189,Gwinnett Medical Center,33.964319,-84.014984,granted,1000 Medical Center Blvd,,Lawrenceville,GA,30046,USA,,gwinnettmedicalcenter.org,,vascular,,Gwinnett Medical Center Lawrenceville,,,,,,,,,"Dec 31, 2024",Peripheral Arterial Testing,,,,,,,,,,,,,,
189,190,Gwinnett Medical Center- Duluth,34.000694,-84.164545,granted,3620 Howell Ferry Rd,,Duluth,GA,30096,USA,,gwinnettmedicalcenter.org,,vascular,,Gwinnett Medical Center- Duluth Duluth,,,,,,,,,"Dec 31, 2024",Peripheral Arterial Testing,,,,,,,,,,,,,,
190,191,Hamilton Vascular Center,34.782728,-84.785163,granted,800 GI Maddox Parkway,,Chatsworth,GA,30705,USA,,,,vascular,www.google.com/search?q=Hamilton+Vascular+Center,Hamilton Vascular Center Chatsworth,,,,,,,,,"Jan 31, 2023","Extracranial Cerebrovascular Testing, Peripheral Arterial Testing, Peripheral Venous Testing, Visceral Vascular Testing",,,,,,,,,,,,,,
191,192,Hamilton Vascular Center,34.791794,-84.988544,granted,1109 Burleyson Road,Suite 202,Dalton,GA,30720,USA,,,,vascular,www.google.com/search?q=Hamilton+Vascular+Center,Hamilton Vascular Center Dalton,,,,,,,,,"Jan 31, 2023","Extracranial Cerebrovascular Testing, Peripheral Arterial Testing, Peripheral Venous Testing, Visceral Vascular Testing",,,,,,,,,,,,,,
192,193,Harbin Clinic Cardiology,34.186071,-84.792921,granted,150 Gentilly Boulevard,,Cartersville,GA,30120,USA,,www.harbinclinic.com,,echo,,Harbin Clinic Cardiology Cartersville,,,"Jun 30, 2025","Adult Stress, Adult Transthoracic",,,,,,,,,,,,,,,,,,,,
193,194,Harbin Clinic Heart Center,34.278195,-85.194839,granted,504 Redmond Road,,Rome,GA,30165,USA,,www.harbinclinic.com,,echo,,Harbin Clinic Heart Center Rome,,,"Jun 30, 2025","Adult Stress, Adult Transthoracic",,,,,,,,,,,,,,,,,,,,
194,195,Heart and Rhythm Specialists,34.795401,-84.985887,multigranted,1600 Broadrick Drive,,Dalton,GA,30720,USA,,heartandrhythmhotmail.com,,"echo, nuclear",,Heart and Rhythm Specialists Dalton,,,"Jan 31, 2024",Adult Transthoracic,,,"Apr 30, 2024",Myocardial Perfusion Imaging,,,,,,,,,,,,,,,,
195,196,Heart and Vascular Associates of Augusta,33.472182,-81.983445,granted,820 Saint Sebastian Way,Ste 2A,Augusta,GA,30901,USA,,,,echo,www.google.com/search?q=Heart+and+Vascular+Associates+of+Augusta,Heart and Vascular Associates of Augusta Augusta,,,"Aug 31, 2023",Adult Transthoracic,,,,,,,,,,,,,,,,,,,,
196,197,Heart and Vascular Associates of Augusta,33.47223,-81.983422,granted,820 St. Sebastian Way,Suite 2A,Augusta,GA,30901,USA,,,,nuclear,www.google.com/search?q=Heart+and+Vascular+Associates+of+Augusta,Heart and Vascular Associates of Augusta Augusta,,,,,,,"Mar 31, 2024",Myocardial Perfusion Imaging,,,,,,,,,,,,,,,,
197,198,Heart and Vascular Care,33.029606,-85.056702,granted,505 Jenkins St,,Lagrange,GA,30240,USA,,,,nuclear,www.google.com/search?q=Heart+and+Vascular+Care,Heart and Vascular Care Lagrange,,,,,,,"Apr 30, 2024",Myocardial Perfusion Imaging,,,,,,,,,,,,,,,,
198,199,"Heart and Vascular Care, Inc.",34.18479,-84.145281,granted,3970 Deputy Bill Cantrell Memorial Rd.,,Cumming,GA,30040,USA,,www.hvcmd.com,,nuclear,,"Heart and Vascular Care, Inc. Cumming",,,,,,,"Oct 31, 2023","Myocardial Perfusion Imaging, Positron Emission Tomography (PET)",,,,,,,,,,,,,,,,
199,200,"Heart and Vascular Care, Inc.",34.081784,-84.162858,granted,11315 John’s Creek Parkway Ste. 320,,Johns Creek,GA,30097,USA,,hvcmd.com,,nuclear,,"Heart and Vascular Care, Inc. Johns Creek",,,,,,,"Oct 31, 2023",Myocardial Perfusion Imaging,,,,,,,,,,,,,,,,
200,201,"Heart and Vascular Care, Inc.",34.221713,-84.471532,granted,1495 Hickory Flat Hwy Suite 140,,Canton,GA,30115,USA,,hvcmd.com,,nuclear,,"Heart and Vascular Care, Inc. Canton",,,,,,,"Oct 31, 2023",Myocardial Perfusion Imaging,,,,,,,,,,,,,,,,
201,202,"Heart and Vascular Care, Inc.",34.653271,-84.486692,granted,433 Highlands Parkway,,Elijay,GA,30540,USA,,www.hvcmd.com,,nuclear,,"Heart and Vascular Care, Inc. Elijay",,,,,,,"Oct 31, 2023",Myocardial Perfusion Imaging,,,,,,,,,,,,,,,,
202,203,"Heart and Vascular Care, Inc.",34.098147,-84.015927,granted,"4465 Nelson Brogdon Blvd, Suite 103",,Buford,GA,30518,USA,,www.hvcmd.com,,nuclear,,"Heart and Vascular Care, Inc. Buford",,,,,,,"Oct 31, 2023",Myocardial Perfusion Imaging,,,,,,,,,,,,,,,,
203,204,"Heart and Vascular Care, Inc.",34.174123,-84.137936,granted,3970 Deputy Bill Cantrell Memorial Rd,,Cumming,GA,30040,USA,,,,echo,"www.google.com/search?q=Heart+and+Vascular+Care,+Inc.","Heart and Vascular Care, Inc. Cumming",,,"Feb 29, 2024",Adult Transthoracic,,,,,,,,,,,,,,,,,,,,
204,205,"Heart and Vascular Care, Inc.",34.081784,-84.162858,granted,11315 Johns Creek Parkway,,Johns Creek,GA,30097,USA,,www.hvcmd.com,,echo,,"Heart and Vascular Care, Inc. Johns Creek",,,"Feb 29, 2024",Adult Transthoracic,,,,,,,,,,,,,,,,,,,,
205,206,"Heart and Vascular Care, Inc.",34.227156,-84.460543,granted,1495 Hickory Flat Hwy,Suite 140,Canton,GA,30115,USA,,www.hvcmd.com,,echo,,"Heart and Vascular Care, Inc. Canton",,,"Feb 29, 2024",Adult Transthoracic,,,,,,,,,,,,,,,,,,,,
206,207,"Heart and Vascular Care, Inc.",34.368816,-84.033546,granted,73 Prestige Lane,Suite 205,Dawsonville,GA,30534,USA,,www.hvcmd.com,,echo,,"Heart and Vascular Care, Inc. Dawsonville",,,"Feb 29, 2024",Adult Transthoracic,,,,,,,,,,,,,,,,,,,,
207,208,Heart MD,32.611976,-83.6531,granted,404 Corder Rd,Suite 400,Warner Robbins,GA,31088,USA,,Heart-MD.com,,nuclear,,Heart MD Warner Robbins,,,,,,,"Nov 30, 2023",Myocardial Perfusion Imaging,,,,,,,,,,,,,,,,
208,209,Heart of Georgia Cardiology,32.843637,-83.652638,granted,2064 Vineville Avenue,,Macon,GA,31204,USA,,,,echo,www.google.com/search?q=Heart+of+Georgia+Cardiology,Heart of Georgia Cardiology Macon,,,"Sep 30, 2023",Adult Transthoracic,,,,,,,,,,,,,,,,,,,,
209,210,Hillcrest Family Care,34.874257,-83.963459,granted,15 Earnest Drive,,Blairsville,GA,30512,USA,,,,mr,www.google.com/search?q=Hillcrest+Family+Care,Hillcrest Family Care Blairsville,,,,,"May 31, 2025","Musculoskeletal MRI, Neurological MRI",,,,,,,,,,,,,,,,,,
210,211,"Horizons Diagnostics, LLC",32.534188,-84.962646,multigranted,106 Enterprise Court,Suite A,Columbus,GA,31904,USA,,www.hdllc.org,,"vein_center, vascular",,"Horizons Diagnostics, LLC Columbus",,,,,,,,,"Sep 30, 2024","Extracranial Cerebrovascular Testing, Peripheral Venous Testing",,,,,,,"May 31, 2023",Superficial Venous Evaluation and Management,,,,,,
211,212,"Horizons Diagnostics, LLC",32.502929,-84.960844,granted,3934 Woodruff Road,,Columbus,GA,31904,USA,,,,vascular,"www.google.com/search?q=Horizons+Diagnostics,+LLC","Horizons Diagnostics, LLC Columbus",,,,,,,,,"Sep 30, 2024","Extracranial Cerebrovascular Testing, Peripheral Venous Testing",,,,,,,,,,,,,,
212,213,Houston Medical Center,32.618198,-83.62941,granted,1601 Watson Blvd.,,Warner Robins,GA,31093,USA,,,,echo,www.google.com/search?q=Houston+Medical+Center,Houston Medical Center Warner Robins,,,"Sep 30, 2023",Adult Transthoracic,,,,,,,,,,,,,,,,,,,,
213,214,Houston Primary Care,32.593587,-83.661813,granted,1719 Russell Parkway Bldg 700,,Warner Robins,GA,31088,USA,,,,nuclear,www.google.com/search?q=Houston+Primary+Care,Houston Primary Care Warner Robins,,,,,,,"Apr 30, 2024",Myocardial Perfusion Imaging,,,,,,,,,,,,,,,,
214,215,Inspire Orthopedics,32.017533,-81.112105,granted,6555 Abercorn St,Ste 129,Savannah,GA,31405,USA,,www.inspireorthopedics.com,,mr,,Inspire Orthopedics Savannah,,,,,"Jul 31, 2025",Musculoskeletal MRI,,,,,,,,,,,,,,,,,,
215,216,"Internal Medicine Associates, PC",32.846176,-83.620729,granted,330 Hospital Drive,"Building C, Suite 200",Macon,GA,31217,USA,,,,echo,"www.google.com/search?q=Internal+Medicine+Associates,+PC","Internal Medicine Associates, PC Macon",,,"Apr 30, 2025",Adult Transthoracic,,,,,,,,,,,,,,,,,,,,
216,217,"James Zimmerman, MD",33.954338,-84.233191,granted,6050 Peachtree Parkway,Suite 400,Peachtree Corners,GA,30092,USA,,expressmri.com/home/,,mr,,"James Zimmerman, MD Peachtree Corners",,,,,"Jul 31, 2025","Musculoskeletal MRI, Neurological MRI",,,,,,,,,,,,,,,,,,
217,218,Joseph H. Berger M.D.,30.829124,-83.977343,granted,305 West Hansell Street,,Thomasville,GA,31792,USA,,sgaberger.com,,ct,,Joseph H. Berger M.D. Thomasville,"Mar 31, 2024",Maxillofacial CT,,,,,,,,,,,,,,,,,,,,,,
218,219,"Kendall Griffith, MD, LLC",32.4152,-81.76867,granted,1058 Bermuda Run,,Statesboro,GA,30458,USA,,,,nuclear,"www.google.com/search?q=Kendall+Griffith,+MD,+LLC","Kendall Griffith, MD, LLC Statesboro",,,,,,,"Jan 31, 2024",Myocardial Perfusion Imaging,,,,,,,,,,,,,,,,
219,220,"Legacy Brain and Spine, LLC",33.968959,-84.548938,granted,718 Cherokee Street Ne,,Marietta,GA,30060,USA,,,,mr,"www.google.com/search?q=Legacy+Brain+and+Spine,+LLC","Legacy Brain and Spine, LLC Marietta",,,,,"Sep 30, 2022",Neurological MRI,,,,,,,,,,,,,,,,,,
220,221,"M and B Imaging, PC",34.302719,-83.813256,multigranted,1640 Jesse Jewell Parkway SE,Suite 2,Gainesville,GA,30501,USA,,americanhealthimaging.com/location/gainesville/,,"ct, mr",,"M and B Imaging, PC Gainesville","Sep 29, 2022","Body CT, Neurological CT, Vascular CTA | Maxillofacial CT",,,"Sep 29, 2022","Body MRI, Musculoskeletal MRI, Neurological MRI | MRA",,,,,,,,,,,,,,,,,,
221,222,"M and B Imaging, PC",33.974469,-83.413844,multigranted,2485 Jefferson Rd,Suite 104,Athens,GA,30607,USA,,www.americanhealthimaging.com/location/athens-ga/,,"ct, mr",,"M and B Imaging, PC Athens","Sep 29, 2022","Body CT, Neurological CT, Vascular CTA | Maxillofacial CT",,,"Sep 29, 2022","Body MRI, Musculoskeletal MRI, Neurological MRI | MRA",,,,,,,,,,,,,,,,,,
222,223,Marcus Stroke Neuroscience Center Neurovascular Lab,33.752156,-84.382609,granted,80 Jesse Hill Jr Dr SE,,Atlanta,GA,30303,USA,,,,vascular,www.google.com/search?q=Marcus+Stroke+Neuroscience+Center+Neurovascular+Lab,Marcus Stroke Neuroscience Center Neurovascular Lab Atlanta,,,,,,,,,"Jun 30, 2023","Extracranial Cerebrovascular Testing, Intracranial Cerebrovascular Testing",,,,,,,,,,,,,,
223,224,"Marietta Vascular Diagnostics, Vascular Surgical Associates, P.C.",33.967451,-84.551685,granted,61 Whitcher Street Suite 2100,,Marietta,GA,30060,USA,,Vascularsurgical.com,,vascular,,"Marietta Vascular Diagnostics, Vascular Surgical Associates, P.C. Marietta",,,,,,,,,"Jul 31, 2024","Extracranial Cerebrovascular Testing, Peripheral Arterial Testing, Peripheral Venous Testing, Visceral Vascular Testing",,,,,,,,,,,,,,
224,225,"Mcintosh Clinic, PC",30.827502,-83.973402,granted,119 West Hill Street,,Thomasville,GA,31792,USA,,,,echo,"www.google.com/search?q=Mcintosh+Clinic,+PC","Mcintosh Clinic, PC Thomasville",,,"Sep 30, 2023",Adult Transthoracic,,,,,,,,,,,,,,,,,,,,
225,226,"Meadows Multispecialty Associates, LLC",32.220593,-82.428157,granted,101 Harris Industrial Blvd Suite A,,Vidalia,GA,30474,USA,,,,echo,"www.google.com/search?q=Meadows+Multispecialty+Associates,+LLC","Meadows Multispecialty Associates, LLC Vidalia",,,"Sep 30, 2023",Adult Transthoracic,,,,,,,,,,,,,,,,,,,,
226,227,"Meadows Multispecialty Associates, LLC",32.220593,-82.428157,granted,101 Harris Industrial Blvd Suite A,,Vidalia,GA,30474,USA,,,,vascular,"www.google.com/search?q=Meadows+Multispecialty+Associates,+LLC","Meadows Multispecialty Associates, LLC Vidalia",,,,,,,,,"Jul 31, 2023",Extracranial Cerebrovascular Testing,,,,,,,,,,,,,,
227,228,"Med Ventures MRI, LLC",33.040406,-85.006323,granted,1075 LaFayette Pkwy,,LaGrange,GA,30241,USA,,,,mr,"www.google.com/search?q=Med+Ventures+MRI,+LLC","Med Ventures MRI, LLC LaGrange",,,,,"Jul 31, 2025",Musculoskeletal MRI,,,,,,,,,,,,,,,,,,
228,229,Memorial Health Cardiology Associates,32.031785,-81.091827,granted,4700 Waters Avenue,Suite 400,Savannah,GA,31404,USA,,,,nuclear,www.google.com/search?q=Memorial+Health+Cardiology+Associates,Memorial Health Cardiology Associates Savannah,,,,,,,"Jul 31, 2023",Myocardial Perfusion Imaging,,,,,,,,,,,,,,,,
229,230,Memorial Health Meadows Hospital,32.208861,-82.377442,granted,One Meadows Pkwy,,Vidalia,GA,30474,USA,,,,echo,www.google.com/search?q=Memorial+Health+Meadows+Hospital,Memorial Health Meadows Hospital Vidalia,,,"Jun 30, 2023",Adult Transthoracic,,,,,,,,,,,,,,,,,,,,
230,231,Memorial Health University Medical Center,32.031785,-81.091827,granted,4700 Waters Avenue,PO Box 23089,Savannah,GA,31403,USA,,,,echo,www.google.com/search?q=Memorial+Health+University+Medical+Center,Memorial Health University Medical Center Savannah,,,"Sep 30, 2023",Adult Transthoracic,,,,,,,,,,,,,,,,,,,,
231,232,Memorial Heart Care - Abercorn,32.019149,-81.111565,granted,6301 Abercorn Street,,Savannah,GA,31405,USA,,memorialhealth.com/,,nuclear,,Memorial Heart Care - Abercorn Savannah,,,,,,,"Aug 31, 2023",Myocardial Perfusion Imaging,,,,,,,,,,,,,,,,
232,233,Memorial Satilla Health,31.226007,-82.349239,granted,1900 Tebeau Street,,Waycross,GA,31501,USA,,,,echo,www.google.com/search?q=Memorial+Satilla+Health,Memorial Satilla Health Waycross,,,"Jul 31, 2024",Adult Transthoracic,,,,,,,,,,,,,,,,,,,,
233,234,Metro Vascular Laboratory - Stockbridge,33.542896,-84.275814,granted,1035 Southcrest Drive,Suite 250,Stockbridge,GA,30281,USA,,,,vascular,www.google.com/search?q=Metro+Vascular+Laboratory+-+Stockbridge,Metro Vascular Laboratory - Stockbridge Stockbridge,,,,,,,,,"Dec 31, 2024","Extracranial Cerebrovascular Testing, Peripheral Arterial Testing, Peripheral Venous Testing",,,,,,,,,,,,,,
234,235,"Meyer Cardiology, Dublin",32.547385,-82.927418,granted,112 Corporate Square,,Dublin,GA,31021,USA,,,,nuclear,"www.google.com/search?q=Meyer+Cardiology,+Dublin","Meyer Cardiology, Dublin Dublin",,,,,,,"Jul 31, 2025",Myocardial Perfusion Imaging,,,,,,,,,,,,,,,,
235,236,"Meyer Cardiology, P.C",32.845938,-83.620472,granted,360 Hospital Drive,"BLDG D, Suite 200",Macon,GA,31217,USA,,,,nuclear,"www.google.com/search?q=Meyer+Cardiology,+P.C","Meyer Cardiology, P.C Macon",,,,,,,"Jul 31, 2025",Myocardial Perfusion Imaging,,,,,,,,,,,,,,,,
236,237,"Meyer Cardiology, Warner Robins",32.612716,-83.689911,granted,312 Margie Drive,,Warner Robins,GA,31088,USA,,,,nuclear,"www.google.com/search?q=Meyer+Cardiology,+Warner+Robins","Meyer Cardiology, Warner Robins Warner Robins",,,,,,,"Jul 31, 2025",Myocardial Perfusion Imaging,,,,,,,,,,,,,,,,
237,238,"Middle Georgia Heart, LLC",32.922593,-83.731994,granted,6070 Lakeside Commons Drive,,Macon,GA,31210,USA,,,,echo,"www.google.com/search?q=Middle+Georgia+Heart,+LLC","Middle Georgia Heart, LLC Macon",,,"Aug 31, 2023",Adult Transthoracic,,,,,,,,,,,,,,,,,,,,
238,239,Morehouse Healthcare,33.804127,-84.41376,granted,1800 Howell Mill Rd.,Suite 275,Atlanta,GA,30318,USA,,www.msm.edu,,echo,,Morehouse Healthcare Atlanta,,,"Dec 31, 2023",Adult Transthoracic,,,,,,,,,,,,,,,,,,,,
239,240,Musculoskeletal Associates,31.603101,-84.206267,granted,2311 Lake Park Dr,,Albany,GA,31707,USA,,msa4life.com,,mr,,Musculoskeletal Associates Albany,,,,,"Jun 30, 2025",Musculoskeletal MRI,,,,,,,,,,,,,,,,,,
240,241,North Atlanta Heart and Vascular  Suite 390,34.177826,-84.140112,granted,1400 Northside Forsyth Dr,Suite 390,Cumming,GA,30041,USA,,,,nuclear,www.google.com/search?q=North+Atlanta+Heart+and+Vascular++Suite+390,North Atlanta Heart and Vascular  Suite 390 Cumming,,,,,,,"Mar 31, 2023",Myocardial Perfusion Imaging,,,,,,,,,,,,,,,,
241,242,North Atlanta Heart and Vascular Center,34.085343,-84.159889,granted,5400 Laurel Springs PKWY STE 1401,,Johns Creek,GA,30024,USA,,,,echo,www.google.com/search?q=North+Atlanta+Heart+and+Vascular+Center,North Atlanta Heart and Vascular Center Johns Creek,,,"Jun 30, 2024",Adult Transthoracic,,,,,,,,,,,,,,,,,,,,
242,243,North Atlanta Heart and Vascular Center,34.066725,-84.306981,granted,11780 Northfall lane STE 303,,Alpharetta,GA,30009,USA,,,,echo,www.google.com/search?q=North+Atlanta+Heart+and+Vascular+Center,North Atlanta Heart and Vascular Center Alpharetta,,,"Jun 30, 2024",Adult Transthoracic,,,,,,,,,,,,,,,,,,,,
243,244,North Atlanta Heart and Vascular Center,33.999301,-84.16159,granted,3855 Pleasant Hill Rd Suite 270,,Duluth,GA,30096,USA,,,,echo,www.google.com/search?q=North+Atlanta+Heart+and+Vascular+Center,North Atlanta Heart and Vascular Center Duluth,,,"Jun 30, 2024",Adult Transthoracic,,,,,,,,,,,,,,,,,,,,
244,245,North Atlanta Heart and Vascular Center,34.177792,-84.140149,granted,1400 Northside Forsyth Drive,Suite 380,Cumming,GA,30041,USA,,,,echo,www.google.com/search?q=North+Atlanta+Heart+and+Vascular+Center,North Atlanta Heart and Vascular Center Cumming,,,"Jun 30, 2024",Adult Transthoracic,,,,,,,,,,,,,,,,,,,,
245,246,"North Atlanta Heart and Vascular Center, P.C.",34.177792,-84.140149,granted,1400 Northside Forsyth Drive,Suite 380,Cumming,GA,30041,USA,,,,nuclear,"www.google.com/search?q=North+Atlanta+Heart+and+Vascular+Center,+P.C.","North Atlanta Heart and Vascular Center, P.C. Cumming",,,,,,,"Mar 31, 2023",Myocardial Perfusion Imaging,,,,,,,,,,,,,,,,
246,247,North Atlanta Vascular Clinic and Vein Center,34.067346,-84.173822,granted,2685 Peachtree Parkway,Suite 320,Suwanee,GA,30024,USA,,www.navascularclinic.com,,vascular,,North Atlanta Vascular Clinic and Vein Center Suwanee,,,,,,,,,"Jun 30, 2025","Extracranial Cerebrovascular Testing, Peripheral Arterial Testing, Peripheral Venous Testing",,,,,,,,,,,,,,
247,248,North Fulton Ear Nose and Throat Associates PC,34.062825,-84.32152,granted,2500 Hospital Blvd.,Ste 450,Roswell,GA,30076,USA,,www.northfultonent.com,,ct,,North Fulton Ear Nose and Throat Associates PC Roswell,"Oct 30, 2022",Maxillofacial CT,,,,,,,,,,,,,,,,,,,,,,
248,249,"Northeast Atlanta Ear Nose and Throat, PC",34.070439,-84.172496,granted,"4385 Johns Creek Parkway, 250",,Suwanee,GA,30024,USA,,,,ct,"www.google.com/search?q=Northeast+Atlanta+Ear+Nose+and+Throat,+PC","Northeast Atlanta Ear Nose and Throat, PC Suwanee","Aug 29, 2022",Maxillofacial CT,,,,,,,,,,,,,,,,,,,,,,
249,250,"Northeast Atlanta Ear Nose and Throat, PC",33.970539,-84.006772,granted,766 Walther Rd Ste 300,,Lawrenceville,GA,30046,USA,,,,ct,"www.google.com/search?q=Northeast+Atlanta+Ear+Nose+and+Throat,+PC","Northeast Atlanta Ear Nose and Throat, PC Lawrenceville","Aug 29, 2022",Maxillofacial CT,,,,,,,,,,,,,,,,,,,,,,
250,251,Northeast Georgia Medical Center,34.007701,-83.706706,granted,316 N Broad Street,,Winder,GA,30680,USA,,nghs.com,,nuclear,,Northeast Georgia Medical Center Winder,,,,,,,"Feb 28, 2023",Myocardial Perfusion Imaging,,,,,,,,,,,,,,,,
251,252,Northeast Georgia Medical Center,34.119104,-83.837215,granted,1400 River Place,,Hoschton,GA,30517,USA,,www.nghs.com,,nuclear,,Northeast Georgia Medical Center Hoschton,,,,,,,"Feb 28, 2023",Myocardial Perfusion Imaging,,,,,,,,,,,,,,,,
252,253,Northeast Georgia Medical Center,34.30335,-83.81737,granted,743 Spring Street NE,,Gainesville,GA,30501,USA,,,,nuclear,www.google.com/search?q=Northeast+Georgia+Medical+Center,Northeast Georgia Medical Center Gainesville,,,,,,,"Feb 28, 2023","Myocardial Perfusion Imaging, Other Cardiovascular Imaging",,,,,,,,,,,,,,,,
253,254,Northeast Georgia Medical Center - Outpatient Cardiovascular Diagnostics,34.30594,-83.817413,granted,"200 South Enota Drive, Suite 200",,Gainesville,GA,30501,USA,,nghs.com,,nuclear,,Northeast Georgia Medical Center - Outpatient Cardiovascular Diagnostics Gainesville,,,,,,,"Feb 28, 2023","Myocardial Perfusion Imaging, Positron Emission Tomography (PET)",,,,,,,,,,,,,,,,
254,255,Northeast Georgia Medical Center - Outpatient Cardiovascular Diagnostics,34.184143,-84.123533,granted,"900 Sanders Road, Suite A",,Cumming,GA,30041,USA,,nghs.com,,nuclear,,Northeast Georgia Medical Center - Outpatient Cardiovascular Diagnostics Cumming,,,,,,,"Feb 28, 2023",Myocardial Perfusion Imaging,,,,,,,,,,,,,,,,
255,256,Northeast Georgia Medical Center - Outpatient Cardiovascular Diagnostics,34.887152,-83.960421,granted,"346 Deep South Farm Road, Suite B",,Blairsville,GA,30512,USA,,nghs.com,,nuclear,,Northeast Georgia Medical Center - Outpatient Cardiovascular Diagnostics Blairsville,,,,,,,"Feb 28, 2023",Myocardial Perfusion Imaging,,,,,,,,,,,,,,,,
256,257,Northeast Georgia Medical Center Barrow,34.007701,-83.706706,multigranted,316 North Broad Street,,Winder,GA,30680,USA,,nghs.com,,"echo, vascular",,Northeast Georgia Medical Center Barrow Winder,,,"Jan 31, 2023",Adult Transthoracic,,,,,"Aug 31, 2023","Extracranial Cerebrovascular Testing, Peripheral Arterial Testing",,,,,,,,,,,,,,
257,258,Northeast Georgia Medical Center Lumpkin,34.523492,-83.976073,granted,227 Mountain Dr.,,Dahlonega,GA,30533,USA,,www.nghs.com/locations/lumpkin/,,echo,,Northeast Georgia Medical Center Lumpkin Dahlonega,,,"Jan 31, 2023",Adult Transthoracic,,,,,,,,,,,,,,,,,,,,
258,259,Northeast Georgia Medical Center Non-Invasive Cardiovascular Diagnostics Braselton Office,34.117473,-83.840691,multigranted,1400 River Place,Suite 100,Braselton,GA,30517,USA,,nghs.com,,"echo, vascular",,Northeast Georgia Medical Center Non-Invasive Cardiovascular Diagnostics Braselton Office Braselton,,,"Jan 31, 2023","Adult Stress, Adult Transesophageal, Adult Transthoracic",,,,,"Aug 31, 2023","Extracranial Cerebrovascular Testing, Peripheral Arterial Testing, Peripheral Venous Testing, Visceral Vascular Testing",,,,,,,,,,,,,,
259,260,Northeast Georgia Medical Center Outpatient and Inpatient Cardiovascular Diagnostics,34.307355,-83.815893,multigranted,743 Spring Street,Stribling Non-Invasive Cardiology Laboratory,Gainesville,GA,30501,USA,,nghs.com,,"echo, vascular",,Northeast Georgia Medical Center Outpatient and Inpatient Cardiovascular Diagnostics Gainesville,,,"Jan 31, 2023","Adult Stress, Adult Transesophageal, Adult Transthoracic",,,,,"Aug 31, 2023","Extracranial Cerebrovascular Testing, Peripheral Arterial Testing, Peripheral Venous Testing, Visceral Vascular Testing",,,,,,,,,,,,,,
260,261,Northeast Georgia Medical Center Outpatient Cardiovascular Diagnostics Cumming Office,34.184143,-84.123533,multigranted,900 Sanders Road,Suite A,Cumming,GA,30041,USA,,nghs.com,,"echo, vascular",,Northeast Georgia Medical Center Outpatient Cardiovascular Diagnostics Cumming Office Cumming,,,"Jan 31, 2023","Adult Stress, Adult Transthoracic",,,,,"Aug 31, 2023","Extracranial Cerebrovascular Testing, Peripheral Arterial Testing",,,,,,,,,,,,,,
261,262,Northeast Georgia Otolaryngology,34.121656,-83.829418,granted,1235 Friendship Road Suite 100,,Braselton,GA,30517,USA,,www.negaent.com,,ct,,Northeast Georgia Otolaryngology Braselton,"Oct 31, 2024",Maxillofacial CT,,,,,,,,,,,,,,,,,,,,,,
262,263,Northeast Georgia Otolaryngology Associates,34.326945,-83.806132,granted,2406 Lighthouse Manor Dr.,,Gainesville,GA,30501,USA,,www.negaoto.com,,ct,,Northeast Georgia Otolaryngology Associates Gainesville,"Oct 31, 2024",Maxillofacial CT,,,,,,,,,,,,,,,,,,,,,,
263,264,Northside Hospital,34.06863,-84.264423,granted,"3400-C Old Milton Parkway, Suite 100",,Alpharetta,GA,30005,USA,,,,vascular,www.google.com/search?q=Northside+Hospital,Northside Hospital Alpharetta,,,,,,,,,"Dec 31, 2024",Extracranial Cerebrovascular Testing,,,,,,,,,,,,,,
264,265,Northside Hospital,33.907885,-84.35505,granted,"980 Johnson Ferry Road, Suite 300",,Atlanta,GA,30342,USA,,,,vascular,www.google.com/search?q=Northside+Hospital,Northside Hospital Atlanta,,,,,,,,,"Dec 31, 2024","Extracranial Cerebrovascular Testing, Peripheral Arterial Testing, Peripheral Venous Testing",,,,,,,,,,,,,,
265,266,"Northside Hospital, Inc. - ATL Facility",34.06943,-84.2625,granted,3400 Old Milton Parkway,"Building A, Suite 100",Alpharetta,GA,30005,USA,,www.northside.com,,echo,,"Northside Hospital, Inc. - ATL Facility Alpharetta",,,"Oct 31, 2023",Adult Transthoracic,,,,,,,,,,,,,,,,,,,,
266,267,"Northside Hospital, Inc. - Atlanta",33.907895,-84.354754,multigranted,1000 Johnson Ferry Rd. NE,,Atlanta,GA,30342,USA,,Northside.com,,"nuclear, echo",,"Northside Hospital, Inc. - Atlanta Atlanta",,,"Oct 31, 2023",Adult Transthoracic,,,"Mar 31, 2023",Myocardial Perfusion Imaging,,,,,,,,,,,,,,,,
267,268,"Northside Hospital, Inc. - Cherokee",34.2461,-84.48935,multigranted,450 Northside Cherokee Blvd.,Cardiology Services,Canton,GA,30115,USA,,Northside.com,,"nuclear, echo",,"Northside Hospital, Inc. - Cherokee Canton",,,"Oct 31, 2023",Adult Transthoracic,,,"Mar 31, 2023",Myocardial Perfusion Imaging,,,,,,,,,,,,,,,,
268,269,"Northside Hospital, Inc. - Complete Cardiology",33.883744,-84.37265,multigranted,"1100 Johnson Ferry Rd., Center Pointe 2",Suite 450,Atlanta,GA,30342,USA,,,,"nuclear, echo","www.google.com/search?q=Northside+Hospital,+Inc.+-+Complete+Cardiology","Northside Hospital, Inc. - Complete Cardiology Atlanta",,,"Oct 31, 2023",Adult Transthoracic,,,"Mar 31, 2023",Myocardial Perfusion Imaging,,,,,,,,,,,,,,,,
269,270,"Northside Hospital, Inc. - CVG Buford",34.1045693,-84.025561,granted,4745 Nelson Brogdon Boulevard,Suite 300,Sugar Hill,GA,30518,USA,,cvgcares.com,,echo,,"Northside Hospital, Inc. - CVG Buford Sugar Hill",,,"Oct 31, 2023",Adult Transthoracic,,,,,,,,,,,,,,,,,,,,
270,271,"Northside Hospital, Inc. - CVG Duluth",33.999301,-84.16159,granted,3855 Pleasant Hill Road Suite 250,,Duluth,GA,30096,USA,,,,echo,"www.google.com/search?q=Northside+Hospital,+Inc.+-+CVG+Duluth","Northside Hospital, Inc. - CVG Duluth Duluth",,,"Oct 31, 2023",Adult Transthoracic,,,,,,,,,,,,,,,,,,,,
271,272,"Northside Hospital, Inc. - CVG John’s Creek",34.071194,-84.172434,granted,4365 Johns Creek Parkway,Suite 450,Suwanee,GA,30024,USA,,cvgcares.com,,echo,,"Northside Hospital, Inc. - CVG John’s Creek Suwanee",,,"Oct 31, 2023",Adult Transthoracic,,,,,,,,,,,,,,,,,,,,
272,273,"Northside Hospital, Inc. - CVG Lawrenceville",33.970263,-84.00666,multigranted,755 Walther Rd,,Lawrenceville,GA,30046,USA,,cvgcares.com,,"nuclear, echo",,"Northside Hospital, Inc. - CVG Lawrenceville Lawrenceville",,,"Oct 31, 2023",Adult Transthoracic,,,"Mar 31, 2023","Myocardial Perfusion Imaging, Positron Emission Tomography (PET)",,,,,,,,,,,,,,,,
273,274,"Northside Hospital, Inc. - CVG Snellville",33.879122,-84.026187,multigranted,"C, 1608 Tree Lane",,Snellville,GA,30078,USA,,cvgcares.com,,"nuclear, echo",,"Northside Hospital, Inc. - CVG Snellville Snellville",,,"Oct 31, 2023",Adult Transthoracic,,,"Mar 31, 2023",Myocardial Perfusion Imaging,,,,,,,,,,,,,,,,
274,275,"Northside Hospital, Inc. - Duluth",34.000694,-84.164545,multigranted,3620 Howell Ferry Rd,,Duluth,GA,30096,USA,,www.northside.com,,"nuclear, echo",,"Northside Hospital, Inc. - Duluth Duluth",,,"Oct 31, 2023",Adult Transthoracic,,,"Mar 31, 2023",Myocardial Perfusion Imaging,,,,,,,,,,,,,,,,
275,276,"Northside Hospital, Inc. - Forsyth",34.178461,-84.139402,multigranted,1200  Northside Forsyth Drive,,Cumming,GA,30041,USA,,www.northside.com,,"nuclear, echo",,"Northside Hospital, Inc. - Forsyth Cumming",,,"Oct 31, 2023",Adult Transthoracic,,,"Mar 31, 2023",Myocardial Perfusion Imaging,,,,,,,,,,,,,,,,
276,277,"Northside Hospital, Inc. - Gwinnett",33.966455,-84.013012,multigranted,1000 Medical Center Blvd,,Lawrenceville,GA,30046,USA,,www.northside.com,,"nuclear, echo",,"Northside Hospital, Inc. - Gwinnett Lawrenceville",,,"Oct 31, 2023",Adult Transthoracic,,,"Mar 31, 2023",Myocardial Perfusion Imaging,,,,,,,,,,,,,,,,
277,278,"Northside Hospital, Inc. - John Attokaren, MD",34.048981,-84.275274,granted,11600 Atlantis Place,Suite B,Alpharetta,GA,30022,USA,,johnattokarenmd.com,,echo,,"Northside Hospital, Inc. - John Attokaren, MD Alpharetta",,,"Oct 31, 2023",Adult Transthoracic,,,,,,,,,,,,,,,,,,,,
278,279,"Northside Hospital, Inc. - MANG",34.248289,-84.49184,granted,320 Hospital Rd,,Canton,GA,30114,USA,,www.medassoc.com,,echo,,"Northside Hospital, Inc. - MANG Canton",,,"Oct 31, 2023",Adult Transthoracic,,,,,,,,,,,,,,,,,,,,
279,280,"Northside Hospital, Inc. - MOB GCS Macon",32.844992,-83.617232,granted,308 Coliseum Drive,Suite 120,Macon,GA,31217,USA,,www.gacancer.com,,echo,,"Northside Hospital, Inc. - MOB GCS Macon Macon",,,"Oct 31, 2023",Adult Transthoracic,,,,,,,,,,,,,,,,,,,,
280,281,"Northside Hospital, Inc. - MOB Laureate Midtown",33.769592,-84.385188,multigranted,"1110 West Peachtree Street, NW",Suite 1100,Atlanta,GA,30309,USA,,www.laureatemed.com,,"nuclear, echo",,"Northside Hospital, Inc. - MOB Laureate Midtown Atlanta",,,"Oct 31, 2023",Adult Transthoracic,,,"Mar 31, 2023",Myocardial Perfusion Imaging,,,,,,,,,,,,,,,,
281,282,"Northside Hospital, Inc. - MOB Laureate Sandy Springs",33.922702,-84.359851,multigranted,6135 Barfield Road,Suite 200,Sandy Springs,GA,30328,USA,,www.laureatemed.com,,"nuclear, echo",,"Northside Hospital, Inc. - MOB Laureate Sandy Springs Sandy Springs",,,"Oct 31, 2023",Adult Transthoracic,,,"Mar 31, 2023",Myocardial Perfusion Imaging,,,,,,,,,,,,,,,,
282,283,"Northside Hospital, Inc. - MOB Laureate Spivey Station",33.54063,-84.303604,granted,7823 Spivey Station Boulevard,Suite 310,Jonesboro,GA,30236,USA,,www.laureatemed.com,,echo,,"Northside Hospital, Inc. - MOB Laureate Spivey Station Jonesboro",,,"Oct 31, 2023",Adult Transthoracic,,,,,,,,,,,,,,,,,,,,
283,284,"Northside Hospital, Inc. - MOB NAMA",33.821363,-84.263869,granted,2545 Lawrenceville Hwy,#200,Decatur,GA,30033,,,northatlantamedical.com/,,nuclear,,"Northside Hospital, Inc. - MOB NAMA Decatur",,,,,,,"Mar 31, 2023",Myocardial Perfusion Imaging,,,,,,,,,,,,,,,,
284,285,"Northside Hospital, Inc. - NCVI Barfield",33.921583,-84.359893,granted,6135 Barfield Rd,Suite 100,Atlanta,GA,30328,,,northsidecvi.com/locations/sandy-springs-barfield,,nuclear,,"Northside Hospital, Inc. - NCVI Barfield Atlanta",,,,,,,"Mar 31, 2023",Myocardial Perfusion Imaging,,,,,,,,,,,,,,,,
285,286,"Northside Hospital, Inc. - NCVI Braselton",34.12085,-83.831198,multigranted,1255 Friendship Road,Suite 240,Braselton,GA,30517,USA,,,,"nuclear, echo","www.google.com/search?q=Northside+Hospital,+Inc.+-+NCVI+Braselton","Northside Hospital, Inc. - NCVI Braselton Braselton",,,"Oct 31, 2023",Adult Transthoracic,,,"Mar 31, 2023",Myocardial Perfusion Imaging,,,,,,,,,,,,,,,,
286,287,"Northside Hospital, Inc. - NCVI Canton",34.253007,-84.483332,granted,470 Northside Cherokee Blvd.,Suite 480,Canton,GA,30115,USA,,Northside.com,,echo,,"Northside Hospital, Inc. - NCVI Canton Canton",,,"Oct 31, 2023",Adult Transthoracic,,,,,,,,,,,,,,,,,,,,
287,288,"Northside Hospital, Inc. - NCVI Canton",34.226774,-84.460517,granted,470 Northside Cherokee Blvd.,Suite 480,Canton,GA,30115,United States,,www.northsidecvi.com,,nuclear,,"Northside Hospital, Inc. - NCVI Canton Canton",,,,,,,"Mar 31, 2023",Myocardial Perfusion Imaging,,,,,,,,,,,,,,,,
288,289,"Northside Hospital, Inc. - NCVI Cumming",34.17722,-84.140785,multigranted,2000 Howard Farm Drive,Suite 450,Cumming,GA,30041,USA,,,,"nuclear, echo","www.google.com/search?q=Northside+Hospital,+Inc.+-+NCVI+Cumming","Northside Hospital, Inc. - NCVI Cumming Cumming",,,"Oct 31, 2023",Adult Transthoracic,,,"Mar 31, 2023",Myocardial Perfusion Imaging,,,,,,,,,,,,,,,,
289,290,"Northside Hospital, Inc. - NCVI Gainesville",34.30527,-83.81043,multigranted,1276 Jesse Jewell Pkwy NE,,Gainesville,GA,30501,,,Northsidecvi.com,,"nuclear, echo",,"Northside Hospital, Inc. - NCVI Gainesville Gainesville",,,"Oct 31, 2023",Adult Transthoracic,,,"Mar 31, 2023",Myocardial Perfusion Imaging,,,,,,,,,,,,,,,,
290,291,"Northside Hospital, Inc. - NCVI Lawrenceville",33.963135,-84.011336,multigranted,575 Professional Drive,Suite 400,Lawrenceville,GA,30046,USA,,,,"nuclear, echo","www.google.com/search?q=Northside+Hospital,+Inc.+-+NCVI+Lawrenceville","Northside Hospital, Inc. - NCVI Lawrenceville Lawrenceville",,,"Oct 31, 2023",Adult Transthoracic,,,"Mar 31, 2023",Myocardial Perfusion Imaging,,,,,,,,,,,,,,,,
291,292,"Northside Hospital, Inc. - NCVI Midtown",33.78504,-84.387815,granted,1110 West Peachtree Street NW,Suite 920,Atlanta,GA,30309,USA,,,,echo,"www.google.com/search?q=Northside+Hospital,+Inc.+-+NCVI+Midtown","Northside Hospital, Inc. - NCVI Midtown Atlanta",,,"Oct 31, 2023",Adult Transthoracic,,,,,,,,,,,,,,,,,,,,
292,293,"Northside Hospital, Inc. - NCVI Midtown",33.78504,-84.387815,granted,1110 W. Peachtree St NW,Suite 920,Atlanta,GA,30309,,,northsidecvi.com/locations/midtown-atlanta,,nuclear,,"Northside Hospital, Inc. - NCVI Midtown Atlanta",,,,,,,"Mar 31, 2023",Myocardial Perfusion Imaging,,,,,,,,,,,,,,,,
293,294,"Northside Hospital, Inc. - NH Alpharetta",34.06943,-84.2625,granted,3400 Old Milton Parkway,"Building C, Suite 360",Alpharetta,GA,30005,USA,,northsideheart.com,,echo,,"Northside Hospital, Inc. - NH Alpharetta Alpharetta",,,"Oct 31, 2023",Adult Transthoracic,,,,,,,,,,,,,,,,,,,,
294,295,"Northside Hospital, Inc. - NH Canton",34.227156,-84.460543,multigranted,460 Northside Cherokee Blvd,Suite 150,Canton,GA,30115,USA,,northsideheart.com,,"nuclear, echo",,"Northside Hospital, Inc. - NH Canton Canton",,,"Oct 31, 2023",Adult Transthoracic,,,"Mar 31, 2023",Myocardial Perfusion Imaging,,,,,,,,,,,,,,,,
295,296,"Northside Hospital, Inc. - NH East Cobb",33.968918,-84.409764,multigranted,4800 Old Towne Pkwy,Suite 420,Marietta,GA,30068,USA,,northsideheart.com/,,"nuclear, echo",,"Northside Hospital, Inc. - NH East Cobb Marietta",,,"Oct 31, 2023",Adult Transthoracic,,,"Mar 31, 2023",Myocardial Perfusion Imaging,,,,,,,,,,,,,,,,
296,297,"Northside Hospital, Inc. - NH Forsyth",34.177352,-84.140626,multigranted,1505 Northside Forsyth Drive,Suite 3600,Cumming,GA,30041,USA,,northsideheart.com,,"nuclear, echo",,"Northside Hospital, Inc. - NH Forsyth Cumming",,,"Oct 31, 2023",Adult Transthoracic,,,"Mar 31, 2023",Myocardial Perfusion Imaging,,,,,,,,,,,,,,,,
297,298,"Northside Hospital, Inc. - NH Roswell",34.066936,-84.321409,multigranted,1285 Upper Hembree Road,,Roswell,GA,30076,USA,,www.northside.com,,"nuclear, echo",,"Northside Hospital, Inc. - NH Roswell Roswell",,,"Oct 31, 2023",Adult Transthoracic,,,"Mar 31, 2023",Myocardial Perfusion Imaging,,,,,,,,,,,,,,,,
298,299,"Northside Hospital, Inc. - NH Tower",33.909508,-84.352227,multigranted,5670 Peachtree Dunwoody Rd,Suite 880,Atlanta,GA,30342,USA,,northsideheart.com,,"nuclear, echo",,"Northside Hospital, Inc. - NH Tower Atlanta",,,"Oct 31, 2023",Adult Transthoracic,,,"Mar 31, 2023",Myocardial Perfusion Imaging,,,,,,,,,,,,,,,,
299,300,"Northside Hospital, Inc. - NH Towne Lake",34.102192,-84.534149,multigranted,900 Towne Lake Parkway,Suite 400,Woodstock,GA,30189,USA,,northsideheart.com,,"nuclear, echo",,"Northside Hospital, Inc. - NH Towne Lake Woodstock",,,"Oct 31, 2023",Adult Transthoracic,,,"Mar 31, 2023",Myocardial Perfusion Imaging,,,,,,,,,,,,,,,,
300,301,"Northside Hospital, Inc. - NHCC",33.907885,-84.35505,granted,980 Johnson Ferry Road,Suite 520,Atlanta,GA,30342,USA,,Northsidehospitalcardiovascularcare.com,,echo,,"Northside Hospital, Inc. - NHCC Atlanta",,,"Oct 31, 2023",Adult Transthoracic,,,,,,,,,,,,,,,,,,,,
301,302,Northside Vascular Surgery,33.907885,-84.35505,granted,980 Johnson Ferry Road,Suite 1040,Atlanta,GA,30342,USA,,www.nvs-ga.com,,vascular,,Northside Vascular Surgery Atlanta,,,,,,,,,"Dec 31, 2024","Extracranial Cerebrovascular Testing, Peripheral Arterial Testing, Peripheral Venous Testing",,,,,,,,,,,,,,
302,303,Northside Vascular Surgery,34.174123,-84.137936,granted,1505 Northside Boulevard,Suite 2400,Cumming,GA,30041,USA,,www.nvs-ga.com,,vascular,,Northside Vascular Surgery Cumming,,,,,,,,,"Dec 31, 2024","Extracranial Cerebrovascular Testing, Peripheral Arterial Testing, Peripheral Venous Testing",,,,,,,,,,,,,,
303,304,Northside Vascular Surgery,34.253007,-84.483332,granted,460 Northside Cherokee Blvd.,Suite 100,Canton,GA,30115,USA,,www.nvs-ga.com,,vascular,,Northside Vascular Surgery Canton,,,,,,,,,"Dec 31, 2024","Extracranial Cerebrovascular Testing, Peripheral Arterial Testing, Peripheral Venous Testing",,,,,,,,,,,,,,
304,305,Northview Associates,34.52369,-83.97743,granted,70 Ansley Drive,,Dahlonega,GA,30533,USA,,www.northviewortho.com,,mr,,Northview Associates Dahlonega,,,,,"Sep 30, 2024","Musculoskeletal MRI, Neurological MRI",,,,,,,,,,,,,,,,,,
305,306,"Northwest ENT Associates, PC",34.201916,-84.796831,granted,5357 Highway 20 NE,,Cartersville,GA,30121,USA,,www.nw-ent.com,,ct,,"Northwest ENT Associates, PC Cartersville","Mar 31, 2023",Maxillofacial CT,,,,,,,,,,,,,,,,,,,,,,
306,307,"Northwest ENT Associates, PC",33.966433,-84.553945,granted,"80 Lacy Street, NW",,Marietta,GA,30060,USA,,www.NW-ENT.Com,,ct,,"Northwest ENT Associates, PC Marietta","Mar 31, 2023",Maxillofacial CT,,,,,,,,,,,,,,,,,,,,,,
307,308,"Northwest ENT Associates, PC",33.796494,-84.388134,granted,2061 Peachtree Rd,Suite 300,Atlanta,GA,30309,USA,,nw-ent.com,,ct,,"Northwest ENT Associates, PC Atlanta","Mar 31, 2023",Maxillofacial CT,,,,,,,,,,,,,,,,,,,,,,
308,309,"Northwest ENT Associates, PC",34.252913,-84.480928,granted,13 Reinhardt College Parkway,,Canton,GA,30114,USA,,www.NW-ENT.Com,,ct,,"Northwest ENT Associates, PC Canton","Mar 31, 2023",Maxillofacial CT,,,,,,,,,,,,,,,,,,,,,,
309,310,"NSC Cardiology, Inc.",34.085627,-84.159502,granted,5400 Laurel Springs Parkway Suite 1401,,Suwanee,GA,30024,USA,,heartdrsingh.com/,,nuclear,,"NSC Cardiology, Inc. Suwanee",,,,,,,"May 31, 2025",Myocardial Perfusion Imaging,,,,,,,,,,,,,,,,
310,311,NT Cardiovascular Center,32.459325,-83.711227,granted,1117 Morningside Drive,,Perry,GA,31069,USA,,,,nuclear,www.google.com/search?q=NT+Cardiovascular+Center,NT Cardiovascular Center Perry,,,,,,,"Jun 30, 2023",Myocardial Perfusion Imaging,,,,,,,,,,,,,,,,
311,312,Oconee Heart and Vascular Center at Sunset,33.965474,-83.41127,granted,"700 Sunset Dr, Bldg 300, Ste 302",,Athens,GA,30606,USA,,,,echo,www.google.com/search?q=Oconee+Heart+and+Vascular+Center+at+Sunset,Oconee Heart and Vascular Center at Sunset Athens,,,"Sep 30, 2023",Adult Transthoracic,,,,,,,,,,,,,,,,,,,,
312,313,Open MRI of Douglas LLC,31.511238,-82.867856,granted,1315 Ocilla Road,,Douglas,GA,31533,USA,,,,mr,www.google.com/search?q=Open+MRI+of+Douglas+LLC,Open MRI of Douglas LLC Douglas,,,,,"Oct 31, 2023","Musculoskeletal MRI, Neurological MRI",,,,,,,,,,,,,,,,,,
313,314,OptimOrthopedics,32.027587,-81.105159,granted,210 E. DeRenne Ave.,,Savannah,GA,31405,USA,,,,ct,www.google.com/search?q=OptimOrthopedics,OptimOrthopedics Savannah,"Sep 30, 2024",Body CT,,,,,,,,,,,,,,,,,,,,,,
314,315,Ortho Sport and Spine Physicians,31.986927,-81.15324,granted,11700 Mercy Blvd,,Savannah,GA,31419,USA,,orthosportandspine.com,,mr,,Ortho Sport and Spine Physicians Savannah,,,,,"Nov 30, 2022",Musculoskeletal MRI,,,,,,,,,,,,,,,,,,
315,316,Ortho Sport and Spine Physicians,33.913331,-84.379249,granted,5788 Roswell Road NE,,Sandy Springs,GA,30328,USA,,orthosportandspine.com,,mr,,Ortho Sport and Spine Physicians Sandy Springs,,,,,"Nov 30, 2022",Musculoskeletal MRI,,,,,,,,,,,,,,,,,,
316,317,OrthoImaging,31.611582,-84.225896,granted,619 Pointe North Blvd.,,Albany,GA,31721,USA,,www.albones.com,,mr,,OrthoImaging Albany,,,,,"Mar 31, 2024",Musculoskeletal MRI,,,,,,,,,,,,,,,,,,
317,318,"Orthopaedic Associates of Augusta, P.A.",33.531104,-82.134792,granted,2511 Associates Way,,Evans,GA,30809,USA,,www.oaapa.com,,mr,,"Orthopaedic Associates of Augusta, P.A. Evans",,,,,"Nov 30, 2023",Musculoskeletal MRI,,,,,,,,,,,,,,,,,,
318,319,Outpatient Imaging,33.410309,-84.565305,granted,10 Eastbrook Bend,,Peachtree City,GA,30269,USA,,outpatientimaging.net,,nuclear,,Outpatient Imaging Peachtree City,,,,,,,"May 31, 2024",General Nuclear Medicine,,,,,,,,,,,,,,,,
319,320,Outpatient Imaging,33.817059,-84.389596,granted,2284 Peachtree Rd N.W.,,Atlanta,GA,30309,USA,,outpatientimaging.net,,nuclear,,Outpatient Imaging Atlanta,,,,,,,"May 31, 2024",General Nuclear Medicine,,,,,,,,,,,,,,,,
320,321,"Paulding Vascular Diagnostics, Vascular Surgical Associates, P.C.",33.899955,-84.779243,granted,"148 Bill Carruth Pkwy, Suite 380",,Hiram,GA,30141,USA,,VascularSurgical.com,,vascular,,"Paulding Vascular Diagnostics, Vascular Surgical Associates, P.C. Hiram",,,,,,,,,"Jul 31, 2024","Extracranial Cerebrovascular Testing, Peripheral Arterial Testing, Peripheral Venous Testing, Visceral Vascular Testing",,,,,,,,,,,,,,
321,322,Perimeter Orthopaedics,33.909481,-84.352093,multigranted,5673 Peachtree Dunwoody Rd,Suite 825,Atlanta,GA,30342,USA,,www.perimeterortho.com,,"ct, mr",,Perimeter Orthopaedics Atlanta,"Aug 31, 2024",Body CT,,,"Apr 30, 2025",Musculoskeletal MRI,,,,,,,,,,,,,,,,,,
322,323,Phoebe Putney Memorial Hospital,31.590227,-84.157383,granted,425 West Third Avenue,,Albany,GA,31701,USA,,,,echo,www.google.com/search?q=Phoebe+Putney+Memorial+Hospital,Phoebe Putney Memorial Hospital Albany,,,"Mar 31, 2025",Adult Transthoracic,,,,,,,,,,,,,,,,,,,,
323,324,Piedmont Athens Regional,33.962377,-83.397733,granted,1199 Prince Avenue,,Athens,GA,30606,USA,,,,echo,www.google.com/search?q=Piedmont+Athens+Regional,Piedmont Athens Regional Athens,,,"Nov 30, 2024",Adult Transthoracic,,,,,,,,,,,,,,,,,,,,
324,325,Piedmont Athens Regional Medical Center,33.962377,-83.397733,granted,1199 Prince Avenue,,Athens,GA,30606,USA,,,,vascular,www.google.com/search?q=Piedmont+Athens+Regional+Medical+Center,Piedmont Athens Regional Medical Center Athens,,,,,,,,,"Apr 30, 2023","Extracranial Cerebrovascular Testing, Peripheral Arterial Testing, Peripheral Venous Testing",,,,,,,,,,,,,,
325,326,Piedmont Augusta Hospital,33.473139,-81.981699,granted,1350 Walton Way,,Augusta,GA,30901,USA,,,,vascular,www.google.com/search?q=Piedmont+Augusta+Hospital,Piedmont Augusta Hospital Augusta,,,,,,,,,"Oct 30, 2022 | Aug 31, 2025","Extracranial Cerebrovascular Testing, Intracranial Cerebrovascular Testing, Peripheral Arterial Testing, Peripheral Venous Testing | Visceral Vascular Testing",,,,,,,,,,,,,,
326,327,Piedmont Cardiovascular Imaging - 275 Collier Rd.,33.808221,-84.39719,granted,275 Collier Rd,Suite 300,Atlanta,GA,30309,USA,,Piedmont.org,,vascular,,Piedmont Cardiovascular Imaging - 275 Collier Rd. Atlanta,,,,,,,,,"May 31, 2024","Extracranial Cerebrovascular Testing, Peripheral Arterial Testing, Peripheral Venous Testing, Visceral Vascular Testing",,,,,,,,,,,,,,
327,328,Piedmont Cardiovascular Imaging - Perimeter,33.919001,-84.350567,granted,"1140 Hammond Dr.  Suite 300, Building K",,Atlanta,GA,30328,USA,,Piedmont.org,,vascular,,Piedmont Cardiovascular Imaging - Perimeter Atlanta,,,,,,,,,"May 31, 2024","Extracranial Cerebrovascular Testing, Peripheral Venous Testing",,,,,,,,,,,,,,
328,329,Piedmont Cardiovascular Imaging Center - Sharpsburg,33.402726,-84.661892,multigranted,20 Francis Way,Suite 301,Sharpsburg,GA,30277,USA,,,,"nuclear, echo",www.google.com/search?q=Piedmont+Cardiovascular+Imaging+Center+-+Sharpsburg,Piedmont Cardiovascular Imaging Center - Sharpsburg Sharpsburg,,,"Oct 31, 2024","Adult Stress, Adult Transthoracic",,,"Dec 31, 2023",Myocardial Perfusion Imaging,,,,,,,,,,,,,,,,
329,330,Piedmont Cardiovascular Imaging Center- PMPII,33.35913,-84.75242,granted,795 Poplar Road,Suite 410,Newnan,GA,30265,USA,,,,echo,www.google.com/search?q=Piedmont+Cardiovascular+Imaging+Center-+PMPII,Piedmont Cardiovascular Imaging Center- PMPII Newnan,,,"Oct 31, 2024",Adult Transthoracic,,,,,,,,,,,,,,,,,,,,
330,331,Piedmont Cardiovascular Imaging-Campus,33.808221,-84.39719,granted,275 Collier Road,Suite 300D,Atlanta,GA,30309,USA,,www.piedmont.org,,nuclear,,Piedmont Cardiovascular Imaging-Campus Atlanta,,,,,,,"Oct 31, 2023",Myocardial Perfusion Imaging,,,,,,,,,,,,,,,,
331,332,Piedmont Cardiovascular Imaging-Perimeter,33.919001,-84.350567,granted,6115 Peachtree Dunwoody Rd Suite 320,,Sandy Springs,GA,30328,USA,,www.piedmont..org,,nuclear,,Piedmont Cardiovascular Imaging-Perimeter Sandy Springs,,,,,,,"Oct 31, 2023",Myocardial Perfusion Imaging,,,,,,,,,,,,,,,,
332,333,Piedmont Fayette,33.450593,-84.510526,granted,1255 Highway 54 West,,Fayetteville,GA,30214,USA,,,,mr,www.google.com/search?q=Piedmont+Fayette,Piedmont Fayette Fayetteville,,,,,"Mar 31, 2024",Cardiovascular MRI,,,,,,,,,,,,,,,,,,
333,334,Piedmont Fayette Hospital,33.450593,-84.510526,multigranted,1255 Highway 54 West,,Fayetteville,GA,30214,USA,,,,"echo, vascular, nuclear",www.google.com/search?q=Piedmont+Fayette+Hospital,Piedmont Fayette Hospital Fayetteville,,,"Dec 31, 2023","Adult Stress, Adult Transthoracic",,,"Jun 30, 2024",Myocardial Perfusion Imaging,"Feb 29, 2024",Extracranial Cerebrovascular Testing,,,,,,,,,,,,,,
334,335,Piedmont Heart Institute,33.959337,-83.398577,granted,242 King Ave,Medical Services Building,Athens,GA,30606,USA,,,,echo,www.google.com/search?q=Piedmont+Heart+Institute,Piedmont Heart Institute Athens,,,"Mar 31, 2023",Adult Transthoracic,,,,,,,,,,,,,,,,,,,,
335,336,Piedmont Heart Institute,33.915034,-83.465125,granted,1305 Jennings Mill Rd,,Watkinsville,GA,30677,USA,,,,echo,www.google.com/search?q=Piedmont+Heart+Institute,Piedmont Heart Institute Watkinsville,,,"Mar 31, 2023",Adult Transthoracic,,,,,,,,,,,,,,,,,,,,
336,337,Piedmont Heart Institute - Austell,33.861211,-84.602522,granted,3820 Medical Park Drive,Suite 2200,Austell,GA,30106,USA,,piedmontheart.org,,nuclear,,Piedmont Heart Institute - Austell Austell,,,,,,,"Oct 31, 2023",Myocardial Perfusion Imaging,,,,,,,,,,,,,,,,
337,338,Piedmont Heart Institute - Blairsville,34.88579,-83.963404,granted,191 Deep South Farm Road,,Blairsville,GA,30512,USA,,piedmontheart.org,,nuclear,,Piedmont Heart Institute - Blairsville Blairsville,,,,,,,"Oct 31, 2023",Myocardial Perfusion Imaging,,,,,,,,,,,,,,,,
338,339,Piedmont Heart Institute - Douglasville,33.747894,-84.717377,granted,2145 Slater Mill Road,,Douglasville,GA,30135,USA,,piedmontheart.org,,nuclear,,Piedmont Heart Institute - Douglasville Douglasville,,,,,,,"Oct 31, 2023",Myocardial Perfusion Imaging,,,,,,,,,,,,,,,,
339,340,Piedmont Heart Institute- Marietta,33.970338,-84.555698,granted,"660 Cherokee Street, Suite 250",,Marietta,GA,30060,USA,,,,nuclear,www.google.com/search?q=Piedmont+Heart+Institute-+Marietta,Piedmont Heart Institute- Marietta Marietta,,,,,,,"Oct 31, 2023",Myocardial Perfusion Imaging,,,,,,,,,,,,,,,,
340,341,Piedmont Heart Institute-Austell,33.861211,-84.602522,multigranted,3820 Medical Park Drive,Suite 2200,Austell,GA,30106,USA,,www.piedmontheart.org,,"vascular, echo",,Piedmont Heart Institute-Austell Austell,,,"May 31, 2024","Adult Stress, Adult Transthoracic",,,,,"Nov 29, 2022",Extracranial Cerebrovascular Testing,,,,,,,,,,,,,,
341,342,Piedmont Heart Institute-Blairsville,34.88579,-83.963404,multigranted,191 Deep South Farm Rd,,Blairsville,GA,30512,USA,,www.piedmontheart.org,,"vascular, echo",,Piedmont Heart Institute-Blairsville Blairsville,,,"May 31, 2024",Adult Transthoracic,,,,,"Nov 29, 2022",Extracranial Cerebrovascular Testing,,,,,,,,,,,,,,
342,343,Piedmont Heart Institute-Douglasville,33.747894,-84.717377,multigranted,2145 Slater Mill Road,,Douglasville,GA,30135,USA,,,,"vascular, echo",www.google.com/search?q=Piedmont+Heart+Institute-Douglasville,Piedmont Heart Institute-Douglasville Douglasville,,,"May 31, 2024",Adult Transthoracic,,,,,"Nov 29, 2022",Extracranial Cerebrovascular Testing,,,,,,,,,,,,,,
343,344,Piedmont Heart Institute-Marietta,33.967673,-84.547965,multigranted,660 Cherokee Street,Suite 250,Marietta,GA,30060,USA,,www.piedmontheart.org,,"vascular, echo",,Piedmont Heart Institute-Marietta Marietta,,,"May 31, 2024","Adult Stress, Adult Transthoracic",,,,,"Nov 29, 2022",Extracranial Cerebrovascular Testing,,,,,,,,,,,,,,
344,345,Piedmont Henry Hospital,33.508912,-84.225638,granted,1133 Eagles Landing Parkway,,Stockbridge,GA,30281,USA,,,,nuclear,www.google.com/search?q=Piedmont+Henry+Hospital,Piedmont Henry Hospital Stockbridge,,,,,,,"Feb 28, 2025",Myocardial Perfusion Imaging,,,,,,,,,,,,,,,,
345,346,Piedmont Henry Hospital,33.510762,-84.227677,multigranted,1133 Eagles Landing Parkway,,Stockbridge,GA,30281,USA,,,,"echo, vascular",www.google.com/search?q=Piedmont+Henry+Hospital,Piedmont Henry Hospital Stockbridge,,,"May 31, 2023",Adult Transthoracic,,,,,"Mar 31, 2025",Extracranial Cerebrovascular Testing,,,,,,,,,,,,,,
346,347,Piedmont Hospital Imaging Center-275 300 Collier Rd.,33.808221,-84.39719,granted,275 Collier Rd,Suite 300,Atlanta,GA,30309,USA,,,,echo,www.google.com/search?q=Piedmont+Hospital+Imaging+Center-275+300+Collier+Rd.,Piedmont Hospital Imaging Center-275 300 Collier Rd. Atlanta,,,"Apr 30, 2025","Adult Stress, Adult Transthoracic",,,,,,,,,,,,,,,,,,,,
347,348,Piedmont Hospital Imaging Center-Perimeter,33.919068,-84.359377,granted,6115 Peachtree Dunwoody Rd,Suite 320,Sandy Springs,GA,30328,USA,,,,echo,www.google.com/search?q=Piedmont+Hospital+Imaging+Center-Perimeter,Piedmont Hospital Imaging Center-Perimeter Sandy Springs,,,"Apr 30, 2025",Adult Transthoracic,,,,,,,,,,,,,,,,,,,,
348,349,Piedmont Hospital-Fuqua Heart Center,33.796494,-84.388134,granted,95 Collier Road,Fuqua Heart Centeer,Atlanta,GA,30309,USA,,,,echo,www.google.com/search?q=Piedmont+Hospital-Fuqua+Heart+Center,Piedmont Hospital-Fuqua Heart Center Atlanta,,,"Apr 30, 2025","Adult Stress, Adult Transesophageal, Adult Transthoracic",,,,,,,,,,,,,,,,,,,,
349,350,Piedmont Mountainside Ellijay,34.654032,-84.488433,granted,309 Highland Parkway,Suite #100,East Ellijay,GA,30540,USA,,,,echo,www.google.com/search?q=Piedmont+Mountainside+Ellijay,Piedmont Mountainside Ellijay East Ellijay,,,"Aug 31, 2024",Adult Transthoracic,,,,,,,,,,,,,,,,,,,,
350,351,Piedmont Mountainside Hospital,34.252656,-84.480619,granted,15 Reinhardt College Parkway,# 110B,Canton,GA,30114,USA,,,,echo,www.google.com/search?q=Piedmont+Mountainside+Hospital,Piedmont Mountainside Hospital Canton,,,"Aug 31, 2024",Adult Transthoracic,,,,,,,,,,,,,,,,,,,,
351,352,Piedmont Mountainside Hospital,34.447466,-84.446561,granted,1266 Highway 515 South,,Jasper,GA,30143,USA,,,,echo,www.google.com/search?q=Piedmont+Mountainside+Hospital,Piedmont Mountainside Hospital Jasper,,,"Aug 31, 2024",Adult Transthoracic,,,,,,,,,,,,,,,,,,,,
352,353,Piedmont Newnan Hospital,33.359316,-84.753678,granted,745 Poplar Rd.,,Newnan,GA,30265,USA,,,,echo,www.google.com/search?q=Piedmont+Newnan+Hospital,Piedmont Newnan Hospital Newnan,,,"Oct 31, 2024","Adult Stress, Adult Transthoracic",,,,,,,,,,,,,,,,,,,,
353,354,Piedmont Newton Hospital,33.6023813,-83.8480815,granted,"5126 Hospital Drive, Northeast",,Covington,GA,30014,USA,,www.piedmont.org,,echo,,Piedmont Newton Hospital Covington,,,"Apr 30, 2025",Adult Transthoracic,,,,,,,,,,,,,,,,,,,,
354,355,Piedmont Rockdale Hospital,33.682239,-84.001941,granted,1412 Milstead Avenue,,Conyers,GA,30012,USA,,,,echo,www.google.com/search?q=Piedmont+Rockdale+Hospital,Piedmont Rockdale Hospital Conyers,,,"Jan 31, 2023",Adult Transthoracic,,,,,,,,,,,,,,,,,,,,
355,356,Polaris Spine and Neurosurgery Center,33.91886,-84.34883,granted,1150E Hammond Drive,Suite 400,Atlanta,GA,30328,USA,,,,mr,www.google.com/search?q=Polaris+Spine+and+Neurosurgery+Center,Polaris Spine and Neurosurgery Center Atlanta,,,,,"Dec 31, 2024","Musculoskeletal MRI, Neurological MRI",,,,,,,,,,,,,,,,,,
356,357,"Prime Medical Associates, Inc.",32.613842,-83.692705,granted,305 Osigian Blvd,,Warner Robins,GA,31088,USA,,,,nuclear,"www.google.com/search?q=Prime+Medical+Associates,+Inc.","Prime Medical Associates, Inc. Warner Robins",,,,,,,"Apr 30, 2024",Myocardial Perfusion Imaging,,,,,,,,,,,,,,,,
357,358,"Pro Radiology, LLC",33.812343,-84.390176,multigranted,60 Peachtree Park Dr NE,,Atlanta,GA,30309,USA,,www.americanhealthimaging.com,,"ct, mr",,"Pro Radiology, LLC Atlanta","Sep 29, 2022","Body CT, Neurological CT, Vascular CTA | Maxillofacial CT",,,"Sep 29, 2022","Body MRI, Musculoskeletal MRI, Neurological MRI | MRA",,,,,,,,,,,,,,,,,,
358,359,"Pro Radiology, LLC",34.068325,-84.163485,multigranted,"3921 Johns Creek Ct, Suite B",,Suwanee,GA,30024,USA,,www.americanhealthimaging.com,,"ct, mr",,"Pro Radiology, LLC Suwanee","Sep 29, 2022","Body CT, Neurological CT, Vascular CTA | Maxillofacial CT",,,"Sep 29, 2022","Body MRI, Musculoskeletal MRI, Neurological MRI | MRA",,,,,,,,,,,,,,,,,,
359,360,Reagan Medical Center,33.892051,-84.056161,granted,2878 Five Forks Trickum Road,,Lawrenceville,GA,30044,USA,,,,echo,www.google.com/search?q=Reagan+Medical+Center,Reagan Medical Center Lawrenceville,,,"Dec 31, 2023",Adult Transthoracic,,,,,,,,,,,,,,,,,,,,
360,361,Saint Joseph’s Hospital,31.986867,-81.153225,granted,11700 Mercy Boulevard,Plaza D Suite 6,Savannah,GA,31419,USA,,,,nuclear,www.google.com/search?q=Saint+Joseph’s+Hospital,Saint Joseph’s Hospital Savannah,,,,,,,"Dec 31, 2022",Myocardial Perfusion Imaging,,,,,,,,,,,,,,,,
361,362,Saint Joseph’s Hospital Inpatient Vascular Laboratory,33.883744,-84.37265,granted,5665 Peachtree Dunwoody Road,Harold Harrison Center,Atlanta,GA,30342,USA,,,,vascular,www.google.com/search?q=Saint+Joseph’s+Hospital+Inpatient+Vascular+Laboratory,Saint Joseph’s Hospital Inpatient Vascular Laboratory Atlanta,,,,,,,,,"May 31, 2024","Extracranial Cerebrovascular Testing, Peripheral Arterial Testing, Peripheral Venous Testing, Visceral Vascular Testing",,,,,,,,,,,,,,
362,363,Saint Joseph’s Hospital of Atlanta,33.908634,-84.35182,granted,"5665 Peachtree Dunwoody Road, North East",,Atlanta,GA,30342,USA,,www.stjosephsatlanta.org,,nuclear,,Saint Joseph’s Hospital of Atlanta Atlanta,,,,,,,"Mar 31, 2024",Myocardial Perfusion Imaging,,,,,,,,,,,,,,,,
363,364,Saint Joseph’s Hospital of Atlanta,33.908773,-84.3517905,granted,5665 Peachtree Dunwoody Road,,Atlanta,GA,30342,USA,,,,echo,www.google.com/search?q=Saint+Joseph’s+Hospital+of+Atlanta,Saint Joseph’s Hospital of Atlanta Atlanta,,,"Apr 29, 2023",Adult Transthoracic,,,,,,,,,,,,,,,,,,,,
364,365,Saint Joseph’s Hospital Outpatient Vascular Laboratory,33.909481,-84.352093,granted,"5673 Peachtree Dunwoody Road, Suite 650",,Atlanta,GA,30342,USA,,www.emoryhealthcare.org,,vascular,,Saint Joseph’s Hospital Outpatient Vascular Laboratory Atlanta,,,,,,,,,"May 31, 2024","Extracranial Cerebrovascular Testing, Peripheral Arterial Testing, Peripheral Venous Testing, Visceral Vascular Testing, Screening",,,,,,,,,,,,,,
365,366,Saint Joseph’s-Candler Health Systems,31.985079,-81.152792,granted,11705 Mercy Boulevard,,Savannah,GA,31419,USA,,www.sjchs.org,,echo,,Saint Joseph’s-Candler Health Systems Savannah,,,"Oct 31, 2024",Adult Transthoracic,,,,,,,,,,,,,,,,,,,,
366,367,"Savannah Children’s Heart Center, PC",32.031785,-81.091827,granted,4700 Waters Avenue,2nd Floor GA Ear Institute,Savannah,GA,31404,USA,,,,pediatric_echo,"www.google.com/search?q=Savannah+Children’s+Heart+Center,+PC","Savannah Children’s Heart Center, PC Savannah",,,,,,,,,,,"Sep 29, 2022",Pediatric Transthoracic,,,,,,,,,,,,
367,368,Savannah Vascular Institute,32.031785,-81.091827,granted,4750 Waters Ave,Suite 500,Savannah,GA,31404,USA,,www.savannahvascular.com,,vascular,,Savannah Vascular Institute Savannah,,,,,,,,,"May 31, 2025","Extracranial Cerebrovascular Testing, Peripheral Arterial Testing, Peripheral Venous Testing, Visceral Vascular Testing",,,,,,,,,,,,,,
368,369,SGPA Cardiology,31.175902,-81.486802,granted,2500 Starling Street,Suite #404,Brunswick,GA,31520,USA,,www.sghs.org,,echo,,SGPA Cardiology Brunswick,,,"Feb 28, 2023",Adult Transthoracic,,,,,,,,,,,,,,,,,,,,
369,370,Sibley Heart Center Cardiology Center for Advanced Pediatrics (CAP),33.831033,-84.332247,granted,1400 Tullie Road NE,,Atlanta,GA,30329,USA,,,,pediatric_echo,www.google.com/search?q=Sibley+Heart+Center+Cardiology+Center+for+Advanced+Pediatrics+(CAP),Sibley Heart Center Cardiology Center for Advanced Pediatrics (CAP) Atlanta,,,,,,,,,,,"Apr 01, 2023","Pediatric Transthoracic, Fetal",,,,,,,,,,,,
370,371,Sibley Heart Center Cardiology- Albany Clinic,31.591596,-84.156995,granted,2709 Meredyth Drive Suite 250,,Albany,GA,31701,USA,,,,pediatric_echo,www.google.com/search?q=Sibley+Heart+Center+Cardiology-+Albany+Clinic,Sibley Heart Center Cardiology- Albany Clinic Albany,,,,,,,,,,,"Apr 01, 2023","Pediatric Transthoracic, Fetal",,,,,,,,,,,,
371,372,Sibley Heart Center Cardiology- Alpharetta Clinic,34.06884,-84.265909,granted,3300 Old Milton Parkway,Suite 100,Alpharetta,GA,30005,USA,,,,pediatric_echo,www.google.com/search?q=Sibley+Heart+Center+Cardiology-+Alpharetta+Clinic,Sibley Heart Center Cardiology- Alpharetta Clinic Alpharetta,,,,,,,,,,,"Apr 01, 2023",Pediatric Transthoracic,,,,,,,,,,,,
372,373,Sibley Heart Center Cardiology- Athens Clinic,33.970209,-83.413109,granted,1000 Hawthorne Avenue,Suite S,Athens,GA,30606,USA,,,,pediatric_echo,www.google.com/search?q=Sibley+Heart+Center+Cardiology-+Athens+Clinic,Sibley Heart Center Cardiology- Athens Clinic Athens,,,,,,,,,,,"Apr 01, 2023","Pediatric Transthoracic, Fetal",,,,,,,,,,,,
373,374,Sibley Heart Center Cardiology- Columbus Clinic,32.478686,-84.982803,granted,705 17th Street,Suite 406,Columbus,GA,31901,USA,,,,pediatric_echo,www.google.com/search?q=Sibley+Heart+Center+Cardiology-+Columbus+Clinic,Sibley Heart Center Cardiology- Columbus Clinic Columbus,,,,,,,,,,,"Apr 01, 2023","Pediatric Transthoracic, Fetal",,,,,,,,,,,,
374,375,Sibley Heart Center Cardiology- Eagles Landing Clinic,33.511026,-84.22307,granted,202 Village Center Parkway,,Stockbridge,GA,30281,USA,,,,pediatric_echo,www.google.com/search?q=Sibley+Heart+Center+Cardiology-+Eagles+Landing+Clinic,Sibley Heart Center Cardiology- Eagles Landing Clinic Stockbridge,,,,,,,,,,,"Apr 01, 2023",Pediatric Transthoracic,,,,,,,,,,,,
375,376,Sibley Heart Center Cardiology- Gainesville Clinic,34.303385,-83.815972,granted,200 S. Enota Dr NE,Suite 400,Gainesville,GA,30501,USA,,,,pediatric_echo,www.google.com/search?q=Sibley+Heart+Center+Cardiology-+Gainesville+Clinic,Sibley Heart Center Cardiology- Gainesville Clinic Gainesville,,,,,,,,,,,"Apr 01, 2023",Pediatric Transthoracic,,,,,,,,,,,,
376,377,Sibley Heart Center Cardiology- Lawrenceville Clinic,33.958379,-84.015005,granted,738 Old Norcross Road Ste 110,,Lawrenceville,GA,30046,USA,,,,pediatric_echo,www.google.com/search?q=Sibley+Heart+Center+Cardiology-+Lawrenceville+Clinic,Sibley Heart Center Cardiology- Lawrenceville Clinic Lawrenceville,,,,,,,,,,,"Apr 01, 2023",Pediatric Transthoracic,,,,,,,,,,,,
377,378,Sibley Heart Center Cardiology- Macon Clinic,32.835762,-83.63818,granted,1062 Forsyth Street,Suite 3A,Macon,GA,31202,USA,,,,pediatric_echo,www.google.com/search?q=Sibley+Heart+Center+Cardiology-+Macon+Clinic,Sibley Heart Center Cardiology- Macon Clinic Macon,,,,,,,,,,,"Apr 01, 2023","Pediatric Transthoracic, Fetal",,,,,,,,,,,,
378,379,Sibley Heart Center Cardiology- Marietta Clinic,33.970248,-84.556057,granted,355 Tower Road,Suite 204,Marietta,GA,30060,USA,,,,pediatric_echo,www.google.com/search?q=Sibley+Heart+Center+Cardiology-+Marietta+Clinic,Sibley Heart Center Cardiology- Marietta Clinic Marietta,,,,,,,,,,,"Apr 01, 2023","Pediatric Transthoracic, Fetal",,,,,,,,,,,,
379,380,Sibley Heart Center Cardiology- Newnan Clinic,33.402191,-84.710581,granted,60 Oak Hill Boulevard,Suite 102,Newnan,GA,30265,USA,,,,pediatric_echo,www.google.com/search?q=Sibley+Heart+Center+Cardiology-+Newnan+Clinic,Sibley Heart Center Cardiology- Newnan Clinic Newnan,,,,,,,,,,,"Apr 01, 2023","Pediatric Transthoracic, Fetal",,,,,,,,,,,,
380,381,Sibley Heart Center Cardiology- Scottish Rite Clinic,33.905268,-84.354872,granted,5461 Meridian Mark Road,Suite 530,Atlanta,GA,30342,USA,,,,pediatric_echo,www.google.com/search?q=Sibley+Heart+Center+Cardiology-+Scottish+Rite+Clinic,Sibley Heart Center Cardiology- Scottish Rite Clinic Atlanta,,,,,,,,,,,"Apr 01, 2023","Pediatric Transthoracic, Fetal",,,,,,,,,,,,
381,382,South Atlanta Ear Nose and Throat,33.513022,-84.215779,granted,830 Eagle’s Landing Parkway Suite 102,,Stockbrigde,GA,30281,USA,,www.entgasouth.com,,ct,,South Atlanta Ear Nose and Throat Stockbrigde,"Apr 30, 2024",Maxillofacial CT,,,,,,,,,,,,,,,,,,,,,,
382,383,South Atlanta Ear Nose and Throat,33.450844,-84.506585,granted,1240 Hwy 54 West Suite 710,,Fayetteville,GA,30214,USA,,www.entgasouth.com,,ct,,South Atlanta Ear Nose and Throat Fayetteville,"Apr 30, 2024",Maxillofacial CT,,,,,,,,,,,,,,,,,,,,,,
383,384,South Atlanta Neurosurgery,33.811803,-84.30827,granted,1944 Clairmont Road,,Decatur,GA,30033,USA,,,,mr,www.google.com/search?q=South+Atlanta+Neurosurgery,South Atlanta Neurosurgery Decatur,,,,,"Apr 30, 2024","Musculoskeletal MRI, Neurological MRI",,,,,,,,,,,,,,,,,,
384,385,South Atlanta Neurosurgey,33.51247,-84.21866,granted,900 Eagles Landing Parkway,,Stockbridge,GA,30281,USA,,,,mr,www.google.com/search?q=South+Atlanta+Neurosurgey,South Atlanta Neurosurgey Stockbridge,,,,,"Apr 30, 2024","Musculoskeletal MRI, Neurological MRI",,,,,,,,,,,,,,,,,,
385,386,Southeast Cardiology Clinic - Blakely,31.375323,-84.938991,granted,11045 Columbia Street,,Blakely,GA,31723,USA,,,,echo,www.google.com/search?q=Southeast+Cardiology+Clinic+-+Blakely,Southeast Cardiology Clinic - Blakely Blakely,,,"May 31, 2023",Adult Transthoracic,,,,,,,,,,,,,,,,,,,,
386,387,Southeast Cardiology Clinic - Donalsonville,31.050907,-84.880026,granted,700 North Wiley Street,,Donalsonville,GA,39845,USA,,,,echo,www.google.com/search?q=Southeast+Cardiology+Clinic+-+Donalsonville,Southeast Cardiology Clinic - Donalsonville Donalsonville,,,"May 31, 2023",Adult Transthoracic,,,,,,,,,,,,,,,,,,,,
387,388,Southeastern Cardiology Associates,32.506869,-84.959083,granted,2121 Warm Springs Road,,Columbus,GA,31904,USA,,southeasterncardiology.com,,nuclear,,Southeastern Cardiology Associates Columbus,,,,,,,"Jun 30, 2023",Myocardial Perfusion Imaging,,,,,,,,,,,,,,,,
388,389,"Southeastern Cardiology Associates, PC",32.506869,-84.959083,multigranted,2121 Warm Springs Road,,Columbus,GA,31904,USA,,,,"echo, vascular","www.google.com/search?q=Southeastern+Cardiology+Associates,+PC","Southeastern Cardiology Associates, PC Columbus",,,"Apr 30, 2023",Adult Transthoracic,,,,,"Jun 30, 2025",Extracranial Cerebrovascular Testing,,,,,,,,,,,,,,
389,390,Southeastern Cardiovascular Associates,32.413723,-81.773079,granted,1076 Bermuda Run Road,,Statesboro,GA,30458,USA,,,,nuclear,www.google.com/search?q=Southeastern+Cardiovascular+Associates,Southeastern Cardiovascular Associates Statesboro,,,,,,,"Jan 31, 2024",Myocardial Perfusion Imaging,,,,,,,,,,,,,,,,
390,391,Southern Crescent ENT,33.51171,-84.228768,granted,1101 Hospital Dr.,Suite 100A,Stockbridge,GA,30281,USA,,www.southerncrescentent.com,,ct,,Southern Crescent ENT Stockbridge,"Jul 31, 2024",Maxillofacial CT,,,,,,,,,,,,,,,,,,,,,,
391,392,Southern Crescent Family Practice,33.620666,-84.374817,granted,455 Forest Parkway,,Forest Park,GA,30297,,,,,nuclear,www.google.com/search?q=Southern+Crescent+Family+Practice,Southern Crescent Family Practice Forest Park,,,,,,,"Jun 30, 2023",Myocardial Perfusion Imaging,,,,,,,,,,,,,,,,
392,393,"Southern ENT Specialists, LLC.",34.1124,-84.577,granted,1816 Eagle Drive,Builidng 200 Ste B,Woodstock,GA,30087,USA,,,,ct,"www.google.com/search?q=Southern+ENT+Specialists,+LLC.","Southern ENT Specialists, LLC. Woodstock","Nov 30, 2024",Maxillofacial CT,,,,,,,,,,,,,,,,,,,,,,
393,394,Southern Regional Medical Center,33.576612,-84.393249,granted,"11 Upper Riverdale Road, SW",Attn: Cardiology Dept,Riverdale,GA,30274,USA,,www.southernregional.org,,echo,,Southern Regional Medical Center Riverdale,,,"Apr 30, 2024",Adult Transthoracic,,,,,,,,,,,,,,,,,,,,
394,395,"Southern Vein Care, LLC",33.410058,-84.68261,granted,2959 Sharpsburg McCollum Rd,,Newnan,GA,30265,USA,,southernveincare.com,,vascular,,"Southern Vein Care, LLC Newnan",,,,,,,,,"Nov 29, 2022",Peripheral Venous Testing,,,,,,,,,,,,,,
395,396,"Southern Vein Care, LLC",33.427836,-84.556941,granted,1975 Highway 54 West,Suite 110,Fayetteville,GA,30214,USA,,southernveincare.com,,vascular,,"Southern Vein Care, LLC Fayetteville",,,,,,,,,"Nov 29, 2022",Peripheral Venous Testing,,,,,,,,,,,,,,
396,397,Southwood Speciality Medical Center,33.558803,-84.313944,granted,2400 Mt Zion Parkway,,Jonesboro,GA,30236,USA,,www.kp.org,,echo,,Southwood Speciality Medical Center Jonesboro,,,"Apr 30, 2025",Adult Transthoracic,,,,,,,,,,,,,,,,,,,,
397,398,St. Francis-Emory Healthcare,32.506927,-84.961378,multigranted,2122 Manchester Expressway,,Columbus,GA,31908,USA,,,,"vascular, echo",www.google.com/search?q=St.+Francis-Emory+Healthcare,St. Francis-Emory Healthcare Columbus,,,"Apr 30, 2025",Adult Transthoracic,,,,,"May 31, 2024","Extracranial Cerebrovascular Testing, Peripheral Arterial Testing, Peripheral Venous Testing",,,,,,,,,,,,,,
398,399,St. Joseph’s Hospital,31.984355,-81.209625,granted,11700 Mercy Boulevard,# 6 Plaza D,Savannah,GA,31419,USA,,,,echo,www.google.com/search?q=St.+Joseph’s+Hospital,St. Joseph’s Hospital Savannah,,,"Mar 31, 2023",Adult Transthoracic,,,,,,,,,,,,,,,,,,,,
399,400,St. Joseph’s Hospital of Atlanta,33.908634,-84.35182,granted,5665 Peachtree Dunwoody Road N.E.,,Atlanta,GA,30342,USA,,,,nuclear,www.google.com/search?q=St.+Joseph’s+Hospital+of+Atlanta,St. Joseph’s Hospital of Atlanta Atlanta,,,,,,,"Mar 31, 2024",Myocardial Perfusion Imaging,,,,,,,,,,,,,,,,
400,401,St. Joseph’s-Candler Health Systems,32.027361,-81.101731,granted,5354 Reynolds Street,,Savannah,GA,31405,USA,,www.sjchs.org,,echo,,St. Joseph’s-Candler Health Systems Savannah,,,"Oct 31, 2024",Adult Transthoracic,,,,,,,,,,,,,,,,,,,,
401,402,St. Mary’s Hospital,33.94593,-83.404467,granted,1230 Baxter Street,,Athens,GA,30606,USA,,www.stmarysathens.org,,echo,,St. Mary’s Hospital Athens,,,"Sep 30, 2023","Adult Transesophageal, Adult Transthoracic",,,,,,,,,,,,,,,,,,,,
402,403,St. Mary’s Outpatient Cardiac Vascular Lab,33.908715,-83.457866,granted,2470 Daniells Bridge Road,Building 300,Athens,GA,30606,USA,,,,echo,www.google.com/search?q=St.+Mary’s+Outpatient+Cardiac+Vascular+Lab,St. Mary’s Outpatient Cardiac Vascular Lab Athens,,,"Sep 30, 2023",Adult Transthoracic,,,,,,,,,,,,,,,,,,,,
403,404,"St. Vincent’s Ambulatory Care, Inc.",31.221902,-82.349952,granted,615 Pendleton Street,Suite B,Waycross,GA,31501,USA,,,,nuclear,"www.google.com/search?q=St.+Vincent’s+Ambulatory+Care,+Inc.","St. Vincent’s Ambulatory Care, Inc. Waycross",,,,,,,"Sep 30, 2024",Myocardial Perfusion Imaging,,,,,,,,,,,,,,,,
404,405,"Statesboro Cardiology, PC",32.433642,-81.755307,multigranted,5 Grady Johnson Road,,Statesboro,GA,30458,USA,,,,"nuclear, vascular","www.google.com/search?q=Statesboro+Cardiology,+PC","Statesboro Cardiology, PC Statesboro",,,,,,,"Feb 29, 2024",Myocardial Perfusion Imaging,"Jun 30, 2024",Peripheral Venous Testing,,,,,,,,,,,,,,
405,406,Summit MRI Center,33.96848,-84.01015,granted,455 Philip Blvd,"Building 100, Suite 140",Lawrenceville,GA,30046,USA,,,,mr,www.google.com/search?q=Summit+MRI+Center,Summit MRI Center Lawrenceville,,,,,"Sep 30, 2022",Musculoskeletal MRI,,,,,,,,,,,,,,,,,,
406,407,"Synergy Radiology, LLC",33.740931,-84.729277,multigranted,6025 Professional Parkway,Suite 104,Douglasville,GA,30134,USA,,www.americanhealthimaging.com/location/douglasville-ga/,,"ct, mr",,"Synergy Radiology, LLC Douglasville","Sep 29, 2022","Body CT, Neurological CT, Vascular CTA | Maxillofacial CT",,,"Sep 29, 2022","Body MRI, Musculoskeletal MRI, Neurological MRI | MRA",,,,,,,,,,,,,,,,,,
407,408,"Synergy Radiology, LLC",33.68074,-83.996964,multigranted,1501 Millstead Rd NE,Suite 140,Conyers,GA,30012,USA,,americanhealthimaging.com/,,"ct, mr",,"Synergy Radiology, LLC Conyers","Sep 29, 2022","Body CT, Neurological CT, Vascular CTA | Maxillofacial CT",,,"Sep 29, 2022","Body MRI, Musculoskeletal MRI, Neurological MRI | MRA",,,,,,,,,,,,,,,,,,
408,409,The Emory Clinic  Section of Vascular Surgery and Endovascular Therapy,33.792607,-84.320982,granted,1365 Clifton Road NE,Suite A-3325,Atlanta,GA,30322,USA,,www.emoryhealthcare.org/vascular/non-invasive-vascular-lab.html,,vascular,,The Emory Clinic  Section of Vascular Surgery and Endovascular Therapy Atlanta,,,,,,,,,"Oct 31, 2024","Extracranial Cerebrovascular Testing, Peripheral Arterial Testing, Peripheral Venous Testing, Visceral Vascular Testing",,,,,,,,,,,,,,
409,410,The Emory Clinic Section of Vascular Surgery and Endovascular Therapy,33.855074,-84.019713,granted,2356 Lenora Church Road,Suite 100,Snellville,GA,30078,USA,,,,vascular,www.google.com/search?q=The+Emory+Clinic+Section+of+Vascular+Surgery+and+Endovascular+Therapy,The Emory Clinic Section of Vascular Surgery and Endovascular Therapy Snellville,,,,,,,,,"Oct 31, 2024","Extracranial Cerebrovascular Testing, Peripheral Arterial Testing, Peripheral Venous Testing",,,,,,,,,,,,,,
410,411,The Emory Clinic Section of Vascular Surgery and Endovascular Therapy,33.79216,-84.282679,granted,2701 N Decatur Rd,,Decatur,GA,30033,USA,,,,vascular,www.google.com/search?q=The+Emory+Clinic+Section+of+Vascular+Surgery+and+Endovascular+Therapy,The Emory Clinic Section of Vascular Surgery and Endovascular Therapy Decatur,,,,,,,,,"Oct 31, 2024","Extracranial Cerebrovascular Testing, Peripheral Arterial Testing, Peripheral Venous Testing",,,,,,,,,,,,,,
411,412,The ENT Center of Central GA,32.578453,-83.707646,granted,6084 Lakeview Road,,Warner Robins,GA,31088,USA,,,,ct,www.google.com/search?q=The+ENT+Center+of+Central+GA,The ENT Center of Central GA Warner Robins,"Aug 31, 2023",Maxillofacial CT,,,,,,,,,,,,,,,,,,,,,,
412,413,The Harbin Clinic Cartersville Imaging Center,34.186071,-84.792921,granted,150 Gentilly Boulevard,,Cartersville,GA,30120,USA,,www.harbinclinic.com,,vascular,,The Harbin Clinic Cartersville Imaging Center Cartersville,,,,,,,,,"Sep 30, 2023","Extracranial Cerebrovascular Testing, Peripheral Arterial Testing, Peripheral Venous Testing, Visceral Vascular Testing",,,,,,,,,,,,,,
413,414,The Harbin Clinic Vascular Lab Located at Columbia Redmond Regional Medical,34.278191,-85.194131,granted,501 Redmond Road,,Rome,GA,30165,USA,,www.harbinclinic.com,,vascular,,The Harbin Clinic Vascular Lab Located at Columbia Redmond Regional Medical Rome,,,,,,,,,"Sep 30, 2023","Extracranial Cerebrovascular Testing, Peripheral Arterial Testing, Peripheral Venous Testing, Visceral Vascular Testing",,,,,,,,,,,,,,
414,415,The Harbin Clinic Vascular Lab Located at Floyd Medical Center,34.260454,-85.179957,granted,304 Turner McCall,,Rome,GA,30165,USA,,www.harbinclinic.com,,vascular,,The Harbin Clinic Vascular Lab Located at Floyd Medical Center Rome,,,,,,,,,"Sep 30, 2023","Extracranial Cerebrovascular Testing, Peripheral Arterial Testing, Peripheral Venous Testing, Visceral Vascular Testing",,,,,,,,,,,,,,
415,416,The Harbin Clinic Vascular Laboratory,34.278153,-85.196361,granted,550 Redmond Road,,Rome,GA,30165,USA,,www.harbinclinic.com,,vascular,,The Harbin Clinic Vascular Laboratory Rome,,,,,,,,,"Sep 30, 2023","Extracranial Cerebrovascular Testing, Peripheral Arterial Testing, Peripheral Venous Testing, Visceral Vascular Testing",,,,,,,,,,,,,,
416,417,The Heart Center at Northeast Georgia Medical Center Blairsville,34.88725,-83.962363,multigranted,77 Weaver Road,Suite B,Blairsville,GA,30512,USA,,the heart center at northeast georgia medical center.com,,"echo, vascular",,The Heart Center at Northeast Georgia Medical Center Blairsville Blairsville,,,"Jan 31, 2023","Adult Stress, Adult Transthoracic",,,,,"Aug 31, 2023",Extracranial Cerebrovascular Testing,,,,,,,,,,,,,,
417,418,The Heart Center at Northeast Georgia Medical Center Clayton Office,34.88831,-83.39662,multigranted,773 North Main Street,,Clayton,GA,30525,USA,,the heart center at northeast georgia medical center.com,,"echo, vascular",,The Heart Center at Northeast Georgia Medical Center Clayton Office Clayton,,,"Jan 31, 2023","Adult Stress, Adult Transthoracic",,,,,"Aug 31, 2023",Extracranial Cerebrovascular Testing,,,,,,,,,,,,,,
418,419,"The Kaufmann Clinic, Inc.",33.769592,-84.385188,granted,550 Peachtree St,Emory University Hospital MOT,Atlanta,GA,30308,USA,,www.thekaufmannclinic.com,,nuclear,,"The Kaufmann Clinic, Inc. Atlanta",,,,,,,"Apr 30, 2024",Myocardial Perfusion Imaging,,,,,,,,,,,,,,,,
419,420,"The Longstreet Clinic, PC",34.292768,-83.830271,multigranted,"705 Jesse Jewel Parkway, Suite 125",,Gainesville,GA,30501,USA,,www.longstreetclinic.com/vascular,,"vein_center, vascular",,"The Longstreet Clinic, PC Gainesville",,,,,,,,,"Feb 28, 2025","Extracranial Cerebrovascular Testing, Peripheral Arterial Testing, Peripheral Venous Testing",,,,,,,"Aug 31, 2023",Superficial Venous Evaluation and Management,,,,,,
420,421,Thomas W Kauffman DDS PC,33.757565,-84.38772,granted,133 Peachtree ST NE,Suite 4050,Atlanta,GA,30303,USA,,www.atlantasedationdentistry.org,,ct-dental,,Thomas W Kauffman DDS PC Atlanta,,,,,,,,,,,,,"Nov 29, 2022",Dental/Maxillofacial,,,,,,,,,,
421,422,Townpark Comprehensive Medical Center,34.030867,-84.622114,granted,750 Town Park Lane,,Kennesaw,GA,30144,USA,,www.kp.org,,echo,,Townpark Comprehensive Medical Center Kennesaw,,,"Apr 30, 2025",Adult Transthoracic,,,,,,,,,,,,,,,,,,,,
422,423,UND- Cardiopulmonary Associates,32.460218,-83.707395,granted,1031 Keth Drive,,Perry,GA,31069,USA,,,,nuclear,www.google.com/search?q=UND-+Cardiopulmonary+Associates,UND- Cardiopulmonary Associates Perry,,,,,,,"Jun 30, 2023",Myocardial Perfusion Imaging,,,,,,,,,,,,,,,,
423,424,University Cardiology Associates,33.53243,-82.12704,granted,4350 Towne Center Drive,MOB 4 Suite 3101,Evans,GA,30809,USA,,,,nuclear,www.google.com/search?q=University+Cardiology+Associates,University Cardiology Associates Evans,,,,,,,"Jan 31, 2024",Positron Emission Tomography (PET),,,,,,,,,,,,,,,,
424,425,University Hospital,33.532448,-82.126726,granted,4350 Towne Center Drive,Suite 3100,Evans,GA,30809,USA,,,,echo,www.google.com/search?q=University+Hospital,University Hospital Evans,,,"Feb 28, 2025",Adult Transthoracic,,,,,,,,,,,,,,,,,,,,
425,426,University Hospital,33.473124,-81.981662,granted,1348 Walton Way,Suite 5300,Augusta,GA,30901,USA,,,,echo,www.google.com/search?q=University+Hospital,University Hospital Augusta,,,"Feb 28, 2025",Adult Transthoracic,,,,,,,,,,,,,,,,,,,,
426,427,University Hospital,33.472989,-81.981332,granted,1350 Walton Way,,Augusta,GA,30901,USA,,,,echo,www.google.com/search?q=University+Hospital,University Hospital Augusta,,,"Feb 28, 2025",Adult Transthoracic,,,,,,,,,,,,,,,,,,,,
427,428,University Hospital Cardiac Imaging of Evans,33.53243,-82.12704,granted,4350 Towne Center Drive,Suite 3100,Evans,GA,30809,USA,,,,nuclear,www.google.com/search?q=University+Hospital+Cardiac+Imaging+of+Evans,University Hospital Cardiac Imaging of Evans Evans,,,,,,,"Jan 31, 2024",Myocardial Perfusion Imaging,,,,,,,,,,,,,,,,
428,429,University Hospital Cardiovascular Imaging,33.473139,-81.981699,granted,1350 Walton Way,Suite 5300,Augusta,GA,30901,USA,,,,nuclear,www.google.com/search?q=University+Hospital+Cardiovascular+Imaging,University Hospital Cardiovascular Imaging Augusta,,,,,,,"Jan 31, 2024",Myocardial Perfusion Imaging,,,,,,,,,,,,,,,,
429,430,University Hospital CVP Lab,33.473139,-81.981699,granted,1350 Walton Way,CVP Diagnostics,Augusta,GA,30901,USA,,,,nuclear,www.google.com/search?q=University+Hospital+CVP+Lab,University Hospital CVP Lab Augusta,,,,,,,"Jan 31, 2024","Myocardial Perfusion Imaging, Positron Emission Tomography (PET)",,,,,,,,,,,,,,,,
430,431,University Hospital Summerville,33.467675,-82.017889,granted,2260 Wrightsboro Road,,Augusta,GA,30904,USA,,,,echo,www.google.com/search?q=University+Hospital+Summerville,University Hospital Summerville Augusta,,,"Feb 28, 2025",Adult Transthoracic,,,,,,,,,,,,,,,,,,,,
431,432,Vein Atlanta,33.905906,-84.350287,multigranted,1100 Johnson Ferry Road NE,Suite 165,Atlanta,GA,30342,USA,,www.veinatlanta.com,,"vascular, vein_center",,Vein Atlanta Atlanta,,,,,,,,,"Jan 31, 2024",Peripheral Venous Testing,,,,,,,"Sep 30, 2024",Superficial Venous Evaluation and Management,,,,,,
432,433,Vein Atlanta,33.963669,-84.011879,granted,601A Professional Drive,Suite 170,Lawrenceville,GA,30046,USA,,,,vascular,www.google.com/search?q=Vein+Atlanta,Vein Atlanta Lawrenceville,,,,,,,,,"Jan 31, 2024",Peripheral Venous Testing,,,,,,,,,,,,,,
433,434,Vein Atlanta,33.660674,-84.513903,granted,3886 Princeton Lakes Way,,Atlanta,GA,30331,USA,,,,vascular,www.google.com/search?q=Vein+Atlanta,Vein Atlanta Atlanta,,,,,,,,,"Jan 31, 2024",Peripheral Venous Testing,,,,,,,,,,,,,,
434,435,Vein Clinics of America,33.997384,-84.588767,granted,1300 Ernest Barrett Pkwy,,Kennesaw,GA,30152,USA,,www.veinclinics.com/clinic/kennesaw-georgia/,,vascular,,Vein Clinics of America Kennesaw,,,,,,,,,"Nov 30, 2023",Peripheral Venous Testing,,,,,,,,,,,,,,
435,436,Vein Clinics of America,33.957249,-84.016792,granted,771 Old Norcross Rd,,Lawrenceville,GA,30046,USA,,www.veinclinics.com/clinic/lawrenceville-georgia/,,vascular,,Vein Clinics of America Lawrenceville,,,,,,,,,"Nov 30, 2023",Peripheral Venous Testing,,,,,,,,,,,,,,
436,437,Vein Clinics of America,33.871059,-84.335896,granted,305 Brookhaven Ave,,Atlanta,GA,30319,USA,,www.veinclinics.com/clinic/brookhaven-georgia/,,vascular,,Vein Clinics of America Atlanta,,,,,,,,,"Nov 30, 2023",Peripheral Venous Testing,,,,,,,,,,,,,,
437,438,Vein Clinics of America,34.068663,-84.278049,granted,2775 Old Milton Pkwy,,Alpharetta,GA,30009,USA,,www.veinclinics.com/clinic/old-milton-parkway-georgia/,,vascular,,Vein Clinics of America Alpharetta,,,,,,,,,"Nov 30, 2023",Peripheral Venous Testing,,,,,,,,,,,,,,
438,439,Vein Clinics of America,33.793382,-84.396786,granted,264 19th St. NW,,Atlanta,GA,30363,USA,,www.veinclinics.com/clinic/midtown-atlanta-georgia/,,vascular,,Vein Clinics of America Atlanta,,,,,,,,,"Nov 30, 2023",Peripheral Venous Testing,,,,,,,,,,,,,,
439,440,"Vein Clinics of Decatur, LLC",33.790025,-84.279944,granted,495 Winn Way,Suite 220,Decatur,GA,30030,USA,,,,vascular,"www.google.com/search?q=Vein+Clinics+of+Decatur,+LLC","Vein Clinics of Decatur, LLC Decatur",,,,,,,,,"Dec 30, 2022",Peripheral Venous Testing,,,,,,,,,,,,,,
440,441,Vein Guys,33.53243,-82.12704,granted,4350 Towne Centre Drive Suite 2000,,Evans,GA,30809,USA,,veinguys.com,,vascular,,Vein Guys Evans,,,,,,,,,"Mar 31, 2025",Peripheral Venous Testing,,,,,,,,,,,,,,
441,442,Vein Specialists of Augusta,33.534301,-82.078453,granted,501 Blackburn Drive,,Martinez,GA,30907,USA,,www.veinsaugusta.com,,vascular,,Vein Specialists of Augusta Martinez,,,,,,,,,"Jan 31, 2025",Peripheral Venous Testing,,,,,,,,,,,,,,
442,443,"Vein Specialists of the South, LLC",32.615569,-83.681166,granted,151 South Houston Lake Road,Suite 110,Warner Robins,GA,31088,USA,,www.veinspecialists.com,,vascular,,"Vein Specialists of the South, LLC Warner Robins",,,,,,,,,"Jan 31, 2023",Peripheral Venous Testing,,,,,,,,,,,,,,
443,444,"Vein Specialists of the South, LLC",32.833523,-83.629168,multigranted,556 Third Street,Suite A,Macon,GA,31201,USA,,www.veinspecialists.com,,"vein_center, vascular",,"Vein Specialists of the South, LLC Macon",,,,,,,,,"Jan 31, 2023",Peripheral Venous Testing,,,,,,,"Nov 29, 2022",Superficial Venous Evaluation and Management,,,,,,
444,445,"Vidalia Medical Associates, PC",32.208236,-82.390352,multigranted,200 Maple Drive,,Vidalia,GA,30475,USA,,,,"vascular, echo","www.google.com/search?q=Vidalia+Medical+Associates,+PC","Vidalia Medical Associates, PC Vidalia",,,"Nov 30, 2023",Adult Transthoracic,,,,,"Dec 31, 2022",Extracranial Cerebrovascular Testing,,,,,,,,,,,,,,
445,446,"Villa Rica Ear, Nose and Throat",33.745603,-84.917706,granted,705 Dallas Hwy Suite 301,,Villa Rica,GA,30180,USA,,villaricaent.com,,ct,,"Villa Rica Ear, Nose and Throat Villa Rica","Aug 31, 2024",Maxillofacial CT,,,,,,,,,,,,,,,,,,,,,,
446,447,"Vinings Vascular Diagnostic, Vascular Surgical Associates, PC",33.845955,-84.491149,granted,4441 Atlanta Rd S,,Smyrna,GA,30080,USA,,,,vascular,"www.google.com/search?q=Vinings+Vascular+Diagnostic,+Vascular+Surgical+Associates,+PC","Vinings Vascular Diagnostic, Vascular Surgical Associates, PC Smyrna",,,,,,,,,"Jul 31, 2024","Extracranial Cerebrovascular Testing, Peripheral Arterial Testing, Peripheral Venous Testing, Visceral Vascular Testing",,,,,,,,,,,,,,
447,448,Washington Internal Medicine,33.729215,-82.741858,granted,119 Gordon St,,Washington,GA,30673,USA,,,,nuclear,www.google.com/search?q=Washington+Internal+Medicine,Washington Internal Medicine Washington,,,,,,,"Apr 30, 2024",Myocardial Perfusion Imaging,,,,,,,,,,,,,,,,
448,449,Wellstar Cardiac Diagnostics - Acworth Health Park,34.068031,-84.724627,granted,4550 Cobb Parkway NW,,Acworth,GA,30101,USA,,www.cvmed.com,,nuclear,,Wellstar Cardiac Diagnostics - Acworth Health Park Acworth,,,,,,,"Dec 30, 2022",Myocardial Perfusion Imaging,,,,,,,,,,,,,,,,
449,450,WellStar Cardiac Diagnostics - Acworth Health Park,34.068544,-84.725164,granted,4550 Cobb Parkway,Suite 213,Acworth,GA,30101,USA,,,,echo,www.google.com/search?q=WellStar+Cardiac+Diagnostics+-+Acworth+Health+Park,WellStar Cardiac Diagnostics - Acworth Health Park Acworth,,,"Mar 31, 2024",Adult Transthoracic,,,,,,,,,,,,,,,,,,,,
450,451,WellStar Cardiac Diagnostics - Avalon,34.070544,-84.288152,granted,"2450 Old Milton Parkway, Suite 208",,Alpharetta,GA,30009,USA,,,,nuclear,www.google.com/search?q=WellStar+Cardiac+Diagnostics+-+Avalon,WellStar Cardiac Diagnostics - Avalon Alpharetta,,,,,,,"Dec 30, 2022",Myocardial Perfusion Imaging,,,,,,,,,,,,,,,,
451,452,WellStar Cardiac Diagnostics - Cherokee,34.143745,-84.521307,granted,"1120 WellStar Way, Suite 301",,Holly Springs,GA,30114,,,,,nuclear,www.google.com/search?q=WellStar+Cardiac+Diagnostics+-+Cherokee,WellStar Cardiac Diagnostics - Cherokee Holly Springs,,,,,,,"Dec 30, 2022",Myocardial Perfusion Imaging,,,,,,,,,,,,,,,,
452,453,Wellstar Cardiac Diagnostics - Cobb,33.856085,-84.605199,granted,1700 Hospital South Drive,Suite 410,Austell,GA,30106,USA,,,,echo,www.google.com/search?q=Wellstar+Cardiac+Diagnostics+-+Cobb,Wellstar Cardiac Diagnostics - Cobb Austell,,,"Mar 31, 2024",Adult Transthoracic,,,,,,,,,,,,,,,,,,,,
453,454,Wellstar Cardiac Diagnostics - Cobb,33.856085,-84.605199,granted,1700 Hospital South Drive,Suite 410,Austell,GA,30106,USA,,www.cvmed.com,,nuclear,,Wellstar Cardiac Diagnostics - Cobb Austell,,,,,,,"Dec 30, 2022",Myocardial Perfusion Imaging,,,,,,,,,,,,,,,,
454,455,WellStar Cardiac Diagnostics - Douglas,33.740725,-84.728586,granted,6001 Professional Parkway,Suite 2080,Douglasville,GA,30134,USA,,,,echo,www.google.com/search?q=WellStar+Cardiac+Diagnostics+-+Douglas,WellStar Cardiac Diagnostics - Douglas Douglasville,,,"Mar 31, 2024",Adult Transthoracic,,,,,,,,,,,,,,,,,,,,
455,456,Wellstar Cardiac Diagnostics - Douglas,33.740725,-84.728586,granted,6001 Professional Parkway Suite 2080,,Douglasville,GA,30135,USA,,www.cvmed.com,,nuclear,,Wellstar Cardiac Diagnostics - Douglas Douglasville,,,,,,,"Dec 30, 2022",Myocardial Perfusion Imaging,,,,,,,,,,,,,,,,
456,457,WellStar Cardiac Diagnostics - East Cobb Health Park,33.998296,-84.407279,granted,"3747 Roswell Road, NE",Suite 211,Marietta,GA,30068,USA,,Wellstar.org,,nuclear,,WellStar Cardiac Diagnostics - East Cobb Health Park Marietta,,,,,,,"Dec 30, 2022",Myocardial Perfusion Imaging,,,,,,,,,,,,,,,,
457,458,Wellstar Cardiac Diagnostics - East Cobb Health Park,33.998296,-84.407279,granted,3747 Roswell Road NE,Suite 211,Marietta,GA,30068,USA,,,,echo,www.google.com/search?q=Wellstar+Cardiac+Diagnostics+-+East+Cobb+Health+Park,Wellstar Cardiac Diagnostics - East Cobb Health Park Marietta,,,"Mar 31, 2024",Adult Transthoracic,,,,,,,,,,,,,,,,,,,,
458,459,WellStar Cardiac Diagnostics - Marietta,33.967439,-84.551157,granted,55 Whitcher Street,Suite 350,Marietta,GA,30060,USA,,,,echo,www.google.com/search?q=WellStar+Cardiac+Diagnostics+-+Marietta,WellStar Cardiac Diagnostics - Marietta Marietta,,,"Mar 31, 2024",Adult Transthoracic,,,,,,,,,,,,,,,,,,,,
459,460,Wellstar Cardiac Diagnostics - Marietta,33.967439,-84.551157,granted,55 Whitcher Street,Suite 350,Marietta,GA,30060,USA,,www.cvmed.com,,nuclear,,Wellstar Cardiac Diagnostics - Marietta Marietta,,,,,,,"Dec 30, 2022","Myocardial Perfusion Imaging, Positron Emission Tomography (PET)",,,,,,,,,,,,,,,,
460,461,Wellstar Cardiac Diagnostics - Paulding,33.900496,-84.779128,granted,144 Bill Carruth Parkway,Suite 4200,Hiram,GA,30141,USA,,,,echo,www.google.com/search?q=Wellstar+Cardiac+Diagnostics+-+Paulding,Wellstar Cardiac Diagnostics - Paulding Hiram,,,"Mar 31, 2024",Adult Transthoracic,,,,,,,,,,,,,,,,,,,,
461,462,WellStar Cardiac Diagnostics - Paulding,33.900496,-84.779128,granted,144 Bill Carruth Pkwy,Suite 4200,Hiram,GA,30141,USA,,Wellstar.org,,nuclear,,WellStar Cardiac Diagnostics - Paulding Hiram,,,,,,,"Dec 30, 2022",Myocardial Perfusion Imaging,,,,,,,,,,,,,,,,
462,463,WellStar Cardiac Diagnostics - South Cherokee,34.103294,-84.535843,granted,120 Stone Bridge Parkway,Suite 110,Woodstock,GA,30189,USA,,,,echo,www.google.com/search?q=WellStar+Cardiac+Diagnostics+-+South+Cherokee,WellStar Cardiac Diagnostics - South Cherokee Woodstock,,,"Mar 31, 2024",Adult Transthoracic,,,,,,,,,,,,,,,,,,,,
463,464,WellStar Cardiac Diagnostics - Vinings Health Park,33.845789,-84.490943,granted,4441 S Atlanta Rd Suite 211,,Smyrna,GA,30080,USA,,,,nuclear,www.google.com/search?q=WellStar+Cardiac+Diagnostics+-+Vinings+Health+Park,WellStar Cardiac Diagnostics - Vinings Health Park Smyrna,,,,,,,"Dec 30, 2022",Myocardial Perfusion Imaging,,,,,,,,,,,,,,,,
464,465,Wellstar Cardiac Diagnostics - Vinings Health Park,33.845955,-84.491149,granted,"4441 Atlanta Road, SE, Suite 211",,Smyrna,GA,60080,USA,,,,echo,www.google.com/search?q=Wellstar+Cardiac+Diagnostics+-+Vinings+Health+Park,Wellstar Cardiac Diagnostics - Vinings Health Park Smyrna,,,"Mar 31, 2024",Adult Transthoracic,,,,,,,,,,,,,,,,,,,,
465,466,Wellstar Cardiac Diagnostics - Woodstock,34.100673,-84.536751,granted,120 Stonebridge Parkway,Suite 110,Woodstock,GA,30189,USA,,www.cvmed.com,,nuclear,,Wellstar Cardiac Diagnostics - Woodstock Woodstock,,,,,,,"Dec 30, 2022",Myocardial Perfusion Imaging,,,,,,,,,,,,,,,,
466,467,Wellstar Cardiac Diagnostics Cherokee Health Park,34.143745,-84.521307,granted,1120 Wellstar Way,Suite 301,Holly Springs,GA,30114,USA,,wellstar.org,,echo,,Wellstar Cardiac Diagnostics Cherokee Health Park Holly Springs,,,"Mar 31, 2024",Adult Transthoracic,,,,,,,,,,,,,,,,,,,,
467,468,Wellstar Cobb Hospital,33.856701,-84.601561,granted,3950 Austell Road,,Austell,GA,30106,USA,,,,echo,www.google.com/search?q=Wellstar+Cobb+Hospital,Wellstar Cobb Hospital Austell,,,"Mar 31, 2024",Adult Transthoracic,,,,,,,,,,,,,,,,,,,,
468,469,Wellstar Douglas Hospital,33.738973,-84.73305,granted,8954 Hospital Drive,,Douglasville,GA,30134,USA,,,,echo,www.google.com/search?q=Wellstar+Douglas+Hospital,Wellstar Douglas Hospital Douglasville,,,"Mar 31, 2024",Adult Transthoracic,,,,,,,,,,,,,,,,,,,,
469,470,Wellstar Kennestone Regional Medical Center,33.969172,-84.550331,granted,677 Church Street,,Marietta,GA,30060,USA,,,,echo,www.google.com/search?q=Wellstar+Kennestone+Regional+Medical+Center,Wellstar Kennestone Regional Medical Center Marietta,,,"Mar 31, 2024",Adult Transthoracic,,,,,,,,,,,,,,,,,,,,
470,471,Wellstar Medical Group General Surgery,33.030449,-85.063089,multigranted,1600 Vernon Road Suite A,,Lagrange,GA,30240,USA,,,,"vascular, vein_center",www.google.com/search?q=Wellstar+Medical+Group+General+Surgery,Wellstar Medical Group General Surgery Lagrange,,,,,,,,,"Sep 30, 2023",Peripheral Venous Testing,,,,,,,"Aug 31, 2024",Superficial Venous Evaluation and Management,,,,,,
471,472,WellStar Metro Atlanta Cardiology,33.781239,-84.384037,granted,229 Peachtree Street NE,"International Tower, Suite 1200",Atlanta,GA,30303,USA,,,,nuclear,www.google.com/search?q=WellStar+Metro+Atlanta+Cardiology,WellStar Metro Atlanta Cardiology Atlanta,,,,,,,"Jul 31, 2023",Myocardial Perfusion Imaging,,,,,,,,,,,,,,,,
472,473,WellStar Paulding Hospital,33.902436,-84.785815,granted,2518 Jimmy Lee Smith Parkway,,Hiram,GA,30141,USA,,,,echo,www.google.com/search?q=WellStar+Paulding+Hospital,WellStar Paulding Hospital Hiram,,,"Mar 31, 2024",Adult Transthoracic,,,,,,,,,,,,,,,,,,,,
473,474,Wellstar Windy Hill Hospital,33.901246,-84.479252,granted,2540 Windy Hill Road,,Marietta,GA,30067,USA,,,,echo,www.google.com/search?q=Wellstar+Windy+Hill+Hospital,Wellstar Windy Hill Hospital Marietta,,,"Mar 31, 2024",Adult Transthoracic,,,,,,,,,,,,,,,,,,,,
474,475,"West Georgia Cardiology Associates, P.C.",33.580846,-85.06433,granted,129 Bankhead Highway,,Carrollton,GA,30117,USA,,,,nuclear,"www.google.com/search?q=West+Georgia+Cardiology+Associates,+P.C.","West Georgia Cardiology Associates, P.C. Carrollton",,,,,,,"Dec 31, 2023","Equilibrium Radionuclide Angiography, Myocardial Perfusion Imaging",,,,,,,,,,,,,,,,
475,476,"West Georgia Cardiology Associates, PC",33.580846,-85.06433,granted,129 Bankhead Highway,,Carrollton,GA,30117,USA,,,,echo,"www.google.com/search?q=West+Georgia+Cardiology+Associates,+PC","West Georgia Cardiology Associates, PC Carrollton",,,"Mar 31, 2023",Adult Transthoracic,,,,,,,,,,,,,,,,,,,,
476,477,"William E. Roundtree, MD, PC",32.466668,-84.967213,granted,1716 Buena Vista Road,,Columbus,GA,31906,USA,,,,nuclear,"www.google.com/search?q=William+E.+Roundtree,+MD,+PC","William E. Roundtree, MD, PC Columbus",,,,,,,"Apr 30, 2024",Myocardial Perfusion Imaging,,,,,,,,,,,,,,,,
477,478,"William M. Hudson, M.D., F.A.C.C.",34.177792,-84.140149,multigranted,110 Samaritan Drive,Suite 101,Cumming,GA,30040,USA,,,,"nuclear, echo","www.google.com/search?q=William+M.+Hudson,+M.D.,+F.A.C.C.","William M. Hudson, M.D., F.A.C.C. Cumming",,,"Apr 30, 2025",Adult Transthoracic,,,"Sep 30, 2024",Myocardial Perfusion Imaging,,,,,,,,,,,,,,,,
