,id,name,lat,lng,category,address,address2,city,state,postal,country,phone,web,features,modalities,searchGoogle,search,ct,ct_areas,echo,echo_areas,mr,mr_areas,nuclear,nuclear_areas,vascular,vascular_areas,pediatric_echo,pediatric_echo_areas,ct-dental,ct-dental_areas,stenting,stenting_areas,vein_center,vein_center_areas,cardiac_electrophysiology,cardiac_electrophysiology_areas,cardiovascular_catheterization,cardiovascular_catheterization_areas,jrcdms,jrcdms_areas
0,1,Advanced Vascular and Vein Center,40.753639,-95.369106,granted,300 Pershing Ave,,Shenandoah,IA,51601,USA,,,,vascular,www.google.com/search?q=Advanced+Vascular+and+Vein+Center,Advanced Vascular and Vein Center Shenandoah,,,,,,,,,"Sep 30, 2023","Extracranial Cerebrovascular Testing, Peripheral Arterial Testing, Peripheral Venous Testing",,,,,,,,,,,,,,
1,2,Advanced Vascular and Vein Center,41.02654,-95.213919,granted,2301 Eastern Ave,,Red Oak,IA,51566,USA,,,,vascular,www.google.com/search?q=Advanced+Vascular+and+Vein+Center,Advanced Vascular and Vein Center Red Oak,,,,,,,,,"Sep 30, 2023","Extracranial Cerebrovascular Testing, Peripheral Arterial Testing, Peripheral Venous Testing",,,,,,,,,,,,,,
2,3,Buena Vista County Hospital,42.644354,-95.223059,granted,1525 West 5th Street,,Storm Lake,IA,50588,USA,,,,echo,www.google.com/search?q=Buena+Vista+County+Hospital,Buena Vista County Hospital Storm Lake,,,"Jan 31, 2025","Adult Stress, Adult Transthoracic",,,,,,,,,,,,,,,,,,,,
3,4,Burgess Health Center,42.025739,-96.105586,granted,1600 Diamond Street,,Onawa,IA,51040,USA,,BURGESSBURGESSHC.ORG,,echo,,Burgess Health Center Onawa,,,"Jan 31, 2025","Adult Stress, Adult Transthoracic",,,,,,,,,,,,,,,,,,,,
4,5,"Burlington Ear Nose and Throat Clinic, PC",40.807195,-91.170279,granted,1225 S Gear Ave. Ste 255,,West Burlington,IA,52655,USA,,www.burlingtonent.com,,ct,,"Burlington Ear Nose and Throat Clinic, PC West Burlington","Mar 31, 2024",Maxillofacial CT,,,,,,,,,,,,,,,,,,,,,,
5,6,"Cardiovascular Medicine, PC",41.538724,-90.559095,multigranted,1236 East Rusholme 300,,Davenport,IA,52803,USA,,,,"echo, vascular, nuclear","www.google.com/search?q=Cardiovascular+Medicine,+PC","Cardiovascular Medicine, PC Davenport",,,"Sep 30, 2023",Adult Transthoracic,,,"May 31, 2025","Equilibrium Radionuclide Angiography, Myocardial Perfusion Imaging, Positron Emission Tomography (PET)","Mar 31, 2024",Extracranial Cerebrovascular Testing,,,,,,,,,,,,,,
6,7,Cherokee Regional Hospital,42.759282,-95.546962,granted,300 Valley Drive,,Cherokee,IA,51012,USA,,,,echo,www.google.com/search?q=Cherokee+Regional+Hospital,Cherokee Regional Hospital Cherokee,,,"Jan 31, 2025","Adult Stress, Adult Transthoracic",,,,,,,,,,,,,,,,,,,,
7,8,CHI Health Mercy,41.269636,-95.838201,multigranted,800 Mercy Dr.,,Council Bluffs,IA,51503,USA,,,,"vascular, echo",www.google.com/search?q=CHI+Health+Mercy,CHI Health Mercy Council Bluffs,,,"Apr 30, 2025","Adult Stress, Adult Transesophageal, Adult Transthoracic",,,,,"Nov 30, 2023","Extracranial Cerebrovascular Testing, Peripheral Arterial Testing, Peripheral Venous Testing",,,,,,,,,,,,,,
8,9,"Dubuque Orthopaedic Surgeons, PC",42.497616,-90.685692,granted,1500 Delhi St Ste 4200,,Dubuque,IA,52001,USA,,www.dubuqueorthosurgeons.com,,mr,,"Dubuque Orthopaedic Surgeons, PC Dubuque",,,,,"May 31, 2024",Musculoskeletal MRI,,,,,,,,,,,,,,,,,,
9,10,"ENT Clinic of Iowa, PC",41.594182,-93.74434,granted,2600 Westown Parkway,Ste 360,West Des Moines,IA,50266,USA,,,,ct,"www.google.com/search?q=ENT+Clinic+of+Iowa,+PC","ENT Clinic of Iowa, PC West Des Moines","Aug 31, 2024",Maxillofacial CT,,,,,,,,,,,,,,,,,,,,,,
10,11,Floyd Valley Hospital,42.79728,-96.15599,granted,714 Lincoln Street NE,,Lemars,IA,51031,USA,,,,echo,www.google.com/search?q=Floyd+Valley+Hospital,Floyd Valley Hospital Lemars,,,"Jan 31, 2025","Adult Stress, Adult Transthoracic",,,,,,,,,,,,,,,,,,,,
11,12,Genesis Medical Center,41.542837,-90.556958,granted,1227 E. Rusholme Street,,Davenport,IA,52803,USA,,,,echo,www.google.com/search?q=Genesis+Medical+Center,Genesis Medical Center Davenport,,,"Aug 31, 2024",Adult Transthoracic,,,,,,,,,,,,,,,,,,,,
12,13,Genesis Medical Center,41.825795,-90.547286,granted,1118 11th Street,,DeWitt,IA,52742,USA,,,,echo,www.google.com/search?q=Genesis+Medical+Center,Genesis Medical Center DeWitt,,,"Aug 31, 2024",Adult Transthoracic,,,,,,,,,,,,,,,,,,,,
13,14,GHG Vascular Specialists,41.55693,-90.51659,granted,1230 East Rusholme Street,"Medical Office Building 2, Suite 303",Davenport,IA,52803,USA,,,,vascular,www.google.com/search?q=GHG+Vascular+Specialists,GHG Vascular Specialists Davenport,,,,,,,,,"Feb 28, 2025","Extracranial Cerebrovascular Testing, Peripheral Arterial Testing, Peripheral Venous Testing",,,,,,,,,,,,,,
14,15,Grand River Medical Group,42.49738,-90.685999,granted,1515 Delhi Street,Suite 100,Dubuque,IA,52001,USA,,,,echo,www.google.com/search?q=Grand+River+Medical+Group,Grand River Medical Group Dubuque,,,"Jan 31, 2024","Adult Stress, Adult Transthoracic",,,,,,,,,,,,,,,,,,,,
15,16,Greater Community Hospital,34.732323,-112.027798,granted,Cottonwood & Townline,,Creston,IA,50801,USA,,,,vascular,www.google.com/search?q=Greater+Community+Hospital,Greater Community Hospital Creston,,,,,,,,,"Jan 31, 2024",Peripheral Arterial Testing,,,,,,,,,,,,,,
16,17,Greene County Medial Center,42.015264,-94.387101,multigranted,1000 West Lincolnway,,Jefferson,IA,50129,USA,,,,"echo, vascular",www.google.com/search?q=Greene+County+Medial+Center,Greene County Medial Center Jefferson,,,"Mar 01, 2023",Adult Transthoracic,,,,,"Jan 31, 2024","Extracranial Cerebrovascular Testing, Peripheral Arterial Testing",,,,,,,,,,,,,,
17,18,Guthrie County Hospital- Guthrie Center,41.677768,-94.494495,multigranted,10 North 12th Street,,Guthrie Center,IA,50115,USA,,,,"echo, vascular",www.google.com/search?q=Guthrie+County+Hospital-+Guthrie+Center,Guthrie County Hospital- Guthrie Center Guthrie Center,,,"Mar 01, 2023",Adult Transthoracic,,,,,"Jan 31, 2024","Extracranial Cerebrovascular Testing, Peripheral Arterial Testing",,,,,,,,,,,,,,
18,19,Horn Memorial,42.341031,-95.460763,granted,East 2nd Street,,Ida Gove,IA,51445,USA,,,,echo,www.google.com/search?q=Horn+Memorial,Horn Memorial Ida Gove,,,"Jan 31, 2025","Adult Stress, Adult Transthoracic",,,,,,,,,,,,,,,,,,,,
19,20,"Humboldt County Memorial Hospital, Humboldt, Ia.",42.731835,-94.230216,multigranted,1000 North 15th Street,,Humboldt,IA,50548,USA,,www.humboldthospital.org,,"echo, vascular",,"Humboldt County Memorial Hospital, Humboldt, Ia. Humboldt",,,"Jul 31, 2023",Adult Transthoracic,,,,,"Aug 31, 2025","Extracranial Cerebrovascular Testing, Peripheral Arterial Testing, Peripheral Venous Testing",,,,,,,,,,,,,,
20,21,Iowa City Veterans Affairs Health Care System,41.6970871,-91.6211923,granted,601 Highway 6 West,,Iowa City,IA,52246,USA,,,,vascular,www.google.com/search?q=Iowa+City+Veterans+Affairs+Health+Care+System,Iowa City Veterans Affairs Health Care System Iowa City,,,,,,,,,"Jun 30, 2023","Extracranial Cerebrovascular Testing, Peripheral Arterial Testing, Peripheral Venous Testing",,,,,,,,,,,,,,
21,22,Iowa ENT Center PLLC,41.570568,-93.75181,granted,105 Valley West Dr,,West Des Moines,IA,50265,USA,,,,ct,www.google.com/search?q=Iowa+ENT+Center+PLLC,Iowa ENT Center PLLC West Des Moines,"Aug 31, 2025",Maxillofacial CT,,,,,,,,,,,,,,,,,,,,,,
22,23,Iowa Heart Center,41.027492,-92.38924,granted,1005 Pennsylvania Avenue,Suite 207,Ottumwa,IA,52501,USA,,,,nuclear,www.google.com/search?q=Iowa+Heart+Center,Iowa Heart Center Ottumwa,,,,,,,"Mar 31, 2024",Myocardial Perfusion Imaging,,,,,,,,,,,,,,,,
23,24,Iowa Heart Center,42.490252,-94.191358,granted,800 Kenyon Road,,Ft Dodge,IA,50501,USA,,www.iowaheart.com,,nuclear,,Iowa Heart Center Ft Dodge,,,,,,,"Mar 31, 2024",Myocardial Perfusion Imaging,,,,,,,,,,,,,,,,
24,25,Iowa Heart Center,42.049181,-92.906678,granted,312 East Main Street,Suite 2100,Marshalltown,IA,50158,USA,,www.iowaheart.com,,nuclear,,Iowa Heart Center Marshalltown,,,,,,,"Mar 31, 2024",Myocardial Perfusion Imaging,,,,,,,,,,,,,,,,
25,26,Iowa Heart Center,42.035405,-93.58843,granted,1816 Philadelphia Street,,Ames,IA,50010,USA,,www.iowaheart.com,,nuclear,,Iowa Heart Center Ames,,,,,,,"Mar 31, 2024",Myocardial Perfusion Imaging,,,,,,,,,,,,,,,,
26,27,Iowa Heart Center,42.055681,-94.867425,granted,405 S Clark Street,Suite 205,Carroll,IA,51401,USA,,www.iowaheart.com,,nuclear,,Iowa Heart Center Carroll,,,,,,,"Mar 31, 2024",Myocardial Perfusion Imaging,,,,,,,,,,,,,,,,
27,28,Iowa Heart Center Ames,42.035405,-93.58843,multigranted,1816 Philadelphia,,Ames,IA,50010,USA,,,,"echo, vascular",www.google.com/search?q=Iowa+Heart+Center+Ames,Iowa Heart Center Ames Ames,,,"May 31, 2024","Adult Stress, Adult Transthoracic",,,,,"Jul 31, 2024","Extracranial Cerebrovascular Testing, Peripheral Arterial Testing, Peripheral Venous Testing, Visceral Vascular Testing, Screening",,,,,,,,,,,,,,
28,29,Iowa Heart Center at Fort Dodge,42.490252,-94.191358,multigranted,800 Kenyon Road,,Fort Dodge,IA,50501,USA,,,,"echo, vascular",www.google.com/search?q=Iowa+Heart+Center+at+Fort+Dodge,Iowa Heart Center at Fort Dodge Fort Dodge,,,"May 31, 2024",Adult Transthoracic,,,,,"Jul 31, 2024","Extracranial Cerebrovascular Testing, Peripheral Arterial Testing, Peripheral Venous Testing, Visceral Vascular Testing, Screening",,,,,,,,,,,,,,
29,30,Iowa Heart Center Carroll,42.055681,-94.867425,multigranted,405 S. Clark St,,Carroll,IA,51401,USA,,,,"echo, vascular",www.google.com/search?q=Iowa+Heart+Center+Carroll,Iowa Heart Center Carroll Carroll,,,"May 31, 2024",Adult Transthoracic,,,,,"Jul 31, 2024","Extracranial Cerebrovascular Testing, Peripheral Arterial Testing, Peripheral Venous Testing, Visceral Vascular Testing, Screening",,,,,,,,,,,,,,
30,31,Iowa Heart Center Iowa City,41.663,-91.52795,multigranted,540 E Jefferson,#400,Iowa City,IA,52245,USA,,www. iowaheart.com,,"echo, vascular",,Iowa Heart Center Iowa City Iowa City,,,"May 31, 2024",Adult Transthoracic,,,,,"Jul 31, 2024","Extracranial Cerebrovascular Testing, Peripheral Arterial Testing, Peripheral Venous Testing, Visceral Vascular Testing, Screening",,,,,,,,,,,,,,
31,32,Iowa Heart Center Iowa City,41.663,-91.52795,granted,540 E Jefferson,#400,Iowa City,IA,52245,USA,,www.iowaheart.com,,nuclear,,Iowa Heart Center Iowa City Iowa City,,,,,,,"Mar 31, 2024",Myocardial Perfusion Imaging,,,,,,,,,,,,,,,,
32,33,Iowa Heart Center Marshalltown,42.049181,-92.906678,multigranted,312 East Main,,Marshalltown,IA,50158,USA,,,,"echo, vascular",www.google.com/search?q=Iowa+Heart+Center+Marshalltown,Iowa Heart Center Marshalltown Marshalltown,,,"May 31, 2024",Adult Transthoracic,,,,,"Jul 31, 2024","Extracranial Cerebrovascular Testing, Peripheral Arterial Testing, Peripheral Venous Testing, Visceral Vascular Testing, Screening",,,,,,,,,,,,,,
33,34,Iowa Heart Center Ottumwa,41.027492,-92.38924,multigranted,1005 Pennsylvania Ave,,Ottumwa,IA,52501,USA,,,,"echo, vascular",www.google.com/search?q=Iowa+Heart+Center+Ottumwa,Iowa Heart Center Ottumwa Ottumwa,,,"May 31, 2024","Adult Stress, Adult Transthoracic",,,,,"Jul 31, 2024","Extracranial Cerebrovascular Testing, Peripheral Arterial Testing, Peripheral Venous Testing, Visceral Vascular Testing, Screening",,,,,,,,,,,,,,
34,35,Iowa Lutheran Hospital,41.600393,-93.610756,multigranted,700 East University Avenue,,Des Moines,IA,50316,USA,,,,"echo, vascular",www.google.com/search?q=Iowa+Lutheran+Hospital,Iowa Lutheran Hospital Des Moines,,,"Mar 01, 2023",Adult Transthoracic,,,,,"Jan 31, 2024","Extracranial Cerebrovascular Testing, Peripheral Arterial Testing, Peripheral Venous Testing, Visceral Vascular Testing",,,,,,,,,,,,,,
35,36,Jennie Edmundson Hospital Cardiac Center,41.268309,-95.836128,granted,933 East Pierce Street,,Council Bluffs,IA,51503,USA,,,,echo,www.google.com/search?q=Jennie+Edmundson+Hospital+Cardiac+Center,Jennie Edmundson Hospital Cardiac Center Council Bluffs,,,"Jun 30, 2023","Adult Stress, Adult Transesophageal, Adult Transthoracic",,,,,,,,,,,,,,,,,,,,
36,37,Loring Hospital,42.41827,-94.978051,multigranted,211 Highland Ave,,Sac City,IA,50583,USA,,www.loringhospital.org,,"echo, vascular",,Loring Hospital Sac City,,,"Jul 31, 2023",Adult Transthoracic,,,,,"Aug 31, 2025","Extracranial Cerebrovascular Testing, Peripheral Arterial Testing, Peripheral Venous Testing",,,,,,,,,,,,,,
37,38,Lucas County Medical Center,41.027693,-93.303421,multigranted,1200 N. 7th Street,,Chariton,IA,50049,USA,,,,"echo, vascular",www.google.com/search?q=Lucas+County+Medical+Center,Lucas County Medical Center Chariton,,,"Mar 01, 2023",Adult Transthoracic,,,,,"Jan 31, 2024",Peripheral Arterial Testing,,,,,,,,,,,,,,
38,39,Mahaska County Hospital,41.298562,-92.630131,multigranted,1229 C Avenue East,,Oskaloosa,IA,52577,USA,,,,"echo, vascular",www.google.com/search?q=Mahaska+County+Hospital,Mahaska County Hospital Oskaloosa,,,"Mar 01, 2023",Adult Transthoracic,,,,,"Jan 31, 2024","Extracranial Cerebrovascular Testing, Peripheral Arterial Testing",,,,,,,,,,,,,,
39,40,Mary Greeley Medical Center,42.032048,-93.610616,granted,1111 Duff Avenue,,Ames,IA,50010,USA,,mgmc.org,,nuclear,,Mary Greeley Medical Center Ames,,,,,,,"Sep 30, 2023",Myocardial Perfusion Imaging,,,,,,,,,,,,,,,,
40,41,Mary Greeley Medical Center,42.032048,-93.610616,granted,1111 Duff Avenue,,Ames,IA,50010,USA,,,,echo,www.google.com/search?q=Mary+Greeley+Medical+Center,Mary Greeley Medical Center Ames,,,"Jul 31, 2024",Adult Transthoracic,,,,,,,,,,,,,,,,,,,,
41,42,Medical Associates Clinic,42.495932,-90.738419,granted,1500 Associates Drive,,Dubuque,IA,52002,USA,,mahealthcare.com,,nuclear,,Medical Associates Clinic Dubuque,,,,,,,"Dec 31, 2023",Myocardial Perfusion Imaging,,,,,,,,,,,,,,,,
42,43,Mercy Cardiology Clinic,41.976271,-91.656678,multigranted,"788 8th Ave SE, Ste 400",,Cedar Rapids,IA,52401,USA,,,,"vascular, echo, pediatric_echo",www.google.com/search?q=Mercy+Cardiology+Clinic,Mercy Cardiology Clinic Cedar Rapids,,,"Sep 30, 2023",Adult Transthoracic,,,,,"Apr 30, 2023","Extracranial Cerebrovascular Testing, Peripheral Arterial Testing, Peripheral Venous Testing","Feb 29, 2024",Pediatric Transthoracic,,,,,,,,,,,,
43,44,Mercy Cardiovascular Testing,41.600386,-93.788991,multigranted,5880 University Avenue,,West Des Moines,IA,50266,USA,,,,"nuclear, ct, echo, vascular",www.google.com/search?q=Mercy+Cardiovascular+Testing,Mercy Cardiovascular Testing West Des Moines,"May 31, 2024","Body CT, Coronary CTA, Vascular CTA | Coronary Calcium Scoring","May 31, 2024","Adult Stress, Adult Transesophageal, Adult Transthoracic",,,"Mar 31, 2024",Myocardial Perfusion Imaging,"Jul 31, 2024","Extracranial Cerebrovascular Testing, Peripheral Arterial Testing, Peripheral Venous Testing, Visceral Vascular Testing, Screening",,,,,,,,,,,,,,
44,45,Mercy Cardiovascular Testing -  Ankeny,41.731855,-93.587629,multigranted,800 E. 1st. Street Suite E 220,,Ankeny,IA,50021,USA,,,,"nuclear, echo, vascular",www.google.com/search?q=Mercy+Cardiovascular+Testing+-++Ankeny,Mercy Cardiovascular Testing -  Ankeny Ankeny,,,"May 31, 2024","Adult Stress, Adult Transthoracic",,,"Mar 31, 2024",Myocardial Perfusion Imaging,"Jul 31, 2024","Extracranial Cerebrovascular Testing, Peripheral Arterial Testing, Peripheral Venous Testing, Visceral Vascular Testing, Screening",,,,,,,,,,,,,,
45,46,Mercy Cardiovascular Testing- Laurel,41.597391,-93.62417,granted,411 Laurel Street,,Des Moines,IA,50314,USA,,,,echo,www.google.com/search?q=Mercy+Cardiovascular+Testing-+Laurel,Mercy Cardiovascular Testing- Laurel Des Moines,,,"May 31, 2024",Adult Transthoracic,,,,,,,,,,,,,,,,,,,,
46,47,Mercy Hospital Iowa City,41.663541,-91.528653,granted,500 E Market Street,,Iowa City,IA,52245,USA,,www.mercyic.org,,echo,,Mercy Hospital Iowa City Iowa City,,,"Aug 31, 2023","Adult Stress, Adult Transesophageal, Adult Transthoracic",,,,,,,,,,,,,,,,,,,,
47,48,Mercy Medical Center,41.978904,-91.654798,granted,701 10th Street,,Cedar Rapids,IA,52403,USA,,,,echo,www.google.com/search?q=Mercy+Medical+Center,Mercy Medical Center Cedar Rapids,,,"Sep 30, 2023",Adult Transthoracic,,,,,,,,,,,,,,,,,,,,
48,49,Mercy Medical Center,41.599577,-93.625702,granted,1111 6th Avenue,,Des Moines,IA,50314,USA,,www.mercydesmoines.org/,,echo,,Mercy Medical Center Des Moines,,,"May 31, 2024","Adult Stress, Adult Transesophageal, Adult Transthoracic",,,,,,,,,,,,,,,,,,,,
49,50,Mercy Medical Center,41.599577,-93.625702,granted,1111 6th Avenue,,Des Moines,IA,50314,USA,,,,cardiac_electrophysiology,www.google.com/search?q=Mercy+Medical+Center,Mercy Medical Center Des Moines,,,,,,,,,,,,,,,,,,,"Jul 31, 2023","Testing and Ablation, Device Implantation, Chronic Lead Extraction",,,,
50,51,Mercy Medical Center,42.495329,-96.400061,granted,801 5th St,,Sioux City,IA,51101,USA,,,,echo,www.google.com/search?q=Mercy+Medical+Center,Mercy Medical Center Sioux City,,,"Mar 31, 2023","Adult Stress, Adult Transesophageal, Adult Transthoracic",,,,,,,,,,,,,,,,,,,,
51,52,Mercy West Lakes,41.600461,-93.791757,granted,12495 University Ave.,,Clive,IA,50325,USA,,,,echo,www.google.com/search?q=Mercy+West+Lakes,Mercy West Lakes Clive,,,"May 31, 2024","Adult Stress, Adult Transthoracic",,,,,,,,,,,,,,,,,,,,
52,53,MercyOne Diagnostic Vascular Lab,41.599577,-93.625702,granted,1111 6th Ave,,Des Moines,IA,50314,USA,,,,vascular,www.google.com/search?q=MercyOne+Diagnostic+Vascular+Lab,MercyOne Diagnostic Vascular Lab Des Moines,,,,,,,,,"Jul 31, 2024","Extracranial Cerebrovascular Testing, Peripheral Arterial Testing, Peripheral Venous Testing, Visceral Vascular Testing",,,,,,,,,,,,,,
53,54,Methodist West Hospital,41.597691,-93.79326,multigranted,1660 60th St,,West Des Moines,IA,50266,USA,,,,"echo, vascular",www.google.com/search?q=Methodist+West+Hospital,Methodist West Hospital West Des Moines,,,"Mar 01, 2023",Adult Transthoracic,,,,,"Jan 31, 2024","Extracranial Cerebrovascular Testing, Peripheral Arterial Testing, Peripheral Venous Testing, Visceral Vascular Testing",,,,,,,,,,,,,,
54,55,"Miller Orthopaedic Affiliates, P.C.",41.25949,-95.849502,granted,One Edmundson Place,Suite 500,Council Bluffs,IA,51503,USA,,www.millerortho.com,,mr,,"Miller Orthopaedic Affiliates, P.C. Council Bluffs",,,,,"Nov 30, 2023",Musculoskeletal MRI,,,,,,,,,,,,,,,,,,
55,56,Northern Iowa Vascular Lab,42.525759,-92.339289,granted,1753 W Ridgeway Ave  Suite 111,,Waterloo,IA,50701,USA,,www.cedarvalleyveinclinic.com,,vascular,,Northern Iowa Vascular Lab Waterloo,,,,,,,,,"Sep 30, 2024","Extracranial Cerebrovascular Testing, Peripheral Arterial Testing, Peripheral Venous Testing",,,,,,,,,,,,,,
56,57,Northern Iowa Vascular Lab - ADI Branch,42.45648,-92.360647,granted,4006 Jonathan St.,,Waterloo,IA,50701,USA,,www.cedarvalleyveinclinic.com,,vascular,,Northern Iowa Vascular Lab - ADI Branch Waterloo,,,,,,,,,"Sep 30, 2024","Extracranial Cerebrovascular Testing, Peripheral Arterial Testing, Peripheral Venous Testing",,,,,,,,,,,,,,
57,58,Orange City Health Systems,42.995318,-96.044828,granted,1000 Lincoln Circle Southeast,,Orange City,IA,51041,USA,,,,echo,www.google.com/search?q=Orange+City+Health+Systems,Orange City Health Systems Orange City,,,"Jan 31, 2025","Adult Stress, Adult Transthoracic",,,,,,,,,,,,,,,,,,,,
58,59,PCI ENT Head and Neck Surgery,41.982928,-91.658861,granted,202 10th Street S.E.,,Cedar Rapids,IA,52401,USA,,www.pcofiowa.com,,ct,,PCI ENT Head and Neck Surgery Cedar Rapids,"Sep 30, 2024",Maxillofacial CT,,,,,,,,,,,,,,,,,,,,,,
59,60,"Pediatric Cardiology, P.C.",41.597394,-93.622189,granted,330 Laurel Street,Suite 2200,Des Moines,IA,50314,USA,,www.pedscard.com,,pediatric_echo,,"Pediatric Cardiology, P.C. Des Moines",,,,,,,,,,,"Mar 31, 2023","Pediatric Transthoracic, Fetal",,,,,,,,,,,,
60,61,"Physicians Clinic of Iowa, PC",41.982928,-91.658861,granted,275 10th Street SE,,Cedar Rapids,IA,52403,USA,,,,vascular,"www.google.com/search?q=Physicians+Clinic+of+Iowa,+PC","Physicians Clinic of Iowa, PC Cedar Rapids",,,,,,,,,"Jul 31, 2024","Extracranial Cerebrovascular Testing, Peripheral Arterial Testing, Peripheral Venous Testing",,,,,,,,,,,,,,
61,62,Physicians Vein Clinic,43.069685,-96.158219,granted,1101 9th St SE,,Sioux Center,IA,51250,USA,,,,vascular,www.google.com/search?q=Physicians+Vein+Clinic,Physicians Vein Clinic Sioux Center,,,,,,,,,"May 31, 2025",Peripheral Venous Testing,,,,,,,,,,,,,,
62,63,Physicians Vein Clinics,42.494289,-96.395355,granted,3015 Hamilton Blvd,,Sioux City,IA,51104,USA,,,,vascular,www.google.com/search?q=Physicians+Vein+Clinics,Physicians Vein Clinics Sioux City,,,,,,,,,"May 31, 2025",Peripheral Venous Testing,,,,,,,,,,,,,,
63,64,Pocahontas Community Hospital,42.740822,-94.678778,multigranted,606 NW 7th Street,,Pocahontas,IA,50535,USA,,www.pocahontashospital.org,,"echo, vascular",,Pocahontas Community Hospital Pocahontas,,,"Jul 31, 2023",Adult Transthoracic,,,,,"Aug 31, 2025","Extracranial Cerebrovascular Testing, Peripheral Arterial Testing, Peripheral Venous Testing",,,,,,,,,,,,,,
64,65,REBE,43.39121,-95.126116,granted,1008 East View Ave,suite 6  and  8,Okoboji,IA,51355,USA,,www.rebeyou.com,,vascular,,REBE Okoboji,,,,,,,,,"Dec 31, 2022",Peripheral Venous Testing,,,,,,,,,,,,,,
65,66,Southeast Iowa Regional Medical Center,40.810201,-91.170231,granted,1221 South Gear Avenue,,West Burlington,IA,52655,USA,,www.greatriverhealth.Org,,echo,,Southeast Iowa Regional Medical Center West Burlington,,,"Sep 29, 2022","Adult Stress, Adult Transesophageal, Adult Transthoracic",,,,,,,,,,,,,,,,,,,,
66,67,"Stewart Memorial Community Hospital, Lake City, Ia.",42.26577,-94.746474,multigranted,1200 West Monroe,,Lake City,IA,51449,USA,,www.stewartmemorial.org,,"echo, vascular",,"Stewart Memorial Community Hospital, Lake City, Ia. Lake City",,,"Jul 31, 2023",Adult Transthoracic,,,,,"Aug 31, 2025","Extracranial Cerebrovascular Testing, Peripheral Arterial Testing",,,,,,,,,,,,,,
67,68,The Iowa Clinic,41.600369,-93.792356,multigranted,5950 University Avenue,Suite 231,West Des Moines,IA,50266,USA,,,,"vascular, echo",www.google.com/search?q=The+Iowa+Clinic,The Iowa Clinic West Des Moines,,,"Jul 31, 2025","Adult Stress, Adult Transthoracic",,,,,"Apr 30, 2024","Extracranial Cerebrovascular Testing, Peripheral Arterial Testing, Peripheral Venous Testing, Visceral Vascular Testing",,,,,,,,,,,,,,
68,69,"The Iowa Clinic, PC Nuclear Medicine Department and PETCO, LLC",41.590193,-93.63568,multigranted,1221 Pleasant Street,Suite 150,Des Moines,IA,50309,USA,,,,"ct, nuclear","www.google.com/search?q=The+Iowa+Clinic,+PC+Nuclear+Medicine+Department+and+PETCO,+LLC","The Iowa Clinic, PC Nuclear Medicine Department and PETCO, LLC Des Moines","Dec 31, 2023",Body CT,,,,,"Mar 31, 2025","Equilibrium Radionuclide Angiography, General Nuclear Medicine, Positron Emission Tomography (PET)",,,,,,,,,,,,,,,,
69,70,"The Iowa Clinic,Cardiovascular Services",41.600369,-93.792356,granted,5950 University Ave,,West Des Moines,IA,50266,USA,,,,nuclear,"www.google.com/search?q=The+Iowa+Clinic,Cardiovascular+Services","The Iowa Clinic,Cardiovascular Services West Des Moines",,,,,,,"Mar 31, 2024",Myocardial Perfusion Imaging,,,,,,,,,,,,,,,,
70,71,The Iowa Clinic-Ankeny,41.7017426,-93.6240351,multigranted,1410 SW Tradition Drive,Suite #235,Ankeny,IA,50023,USA,,iowaclinic.com,,"vascular, echo",,The Iowa Clinic-Ankeny Ankeny,,,"Jul 31, 2025",Adult Transthoracic,,,,,"Apr 30, 2024","Extracranial Cerebrovascular Testing, Peripheral Arterial Testing, Peripheral Venous Testing, Visceral Vascular Testing",,,,,,,,,,,,,,
71,72,The Iowa Clinic-Methodist,41.590061,-93.635709,multigranted,1215 Pleasant Street,Suite 618,Des Moines,IA,50309,USA,,,,"vascular, echo",www.google.com/search?q=The+Iowa+Clinic-Methodist,The Iowa Clinic-Methodist Des Moines,,,"Jul 31, 2025",Adult Transthoracic,,,,,"Apr 30, 2024","Extracranial Cerebrovascular Testing, Peripheral Arterial Testing, Peripheral Venous Testing, Visceral Vascular Testing",,,,,,,,,,,,,,
72,73,The Iowa Clinic-Ottumwa,41.027492,-92.38924,multigranted,1005 Pennsylvania Avenue,Suite 102A,Ottumwa,IA,52501,USA,,,,"vascular, echo",www.google.com/search?q=The+Iowa+Clinic-Ottumwa,The Iowa Clinic-Ottumwa Ottumwa,,,"Jul 31, 2025","Adult Stress, Adult Transthoracic",,,,,"Apr 30, 2024","Extracranial Cerebrovascular Testing, Peripheral Arterial Testing, Peripheral Venous Testing, Visceral Vascular Testing",,,,,,,,,,,,,,
73,74,Trinity Regional Medical Center,42.490278,-94.191337,multigranted,802 Kenyon Road,,Fort Dodge,IA,50501,USA,,www.trmc.org,,"vascular, echo",,Trinity Regional Medical Center Fort Dodge,,,"Jul 31, 2023","Adult Transesophageal, Adult Transthoracic",,,,,"Oct 30, 2022 | Aug 31, 2025","Visceral Vascular Testing | Extracranial Cerebrovascular Testing, Peripheral Arterial Testing, Peripheral Venous Testing",,,,,,,,,,,,,,
74,75,Unity Point Health Allen Hospital Cardiovascular Center,42.527579,-92.333827,granted,419 East Donald Street,,Waterloo,IA,50703,USA,,,,echo,www.google.com/search?q=Unity+Point+Health+Allen+Hospital+Cardiovascular+Center,Unity Point Health Allen Hospital Cardiovascular Center Waterloo,,,"Sep 29, 2022",Adult Transthoracic,,,,,,,,,,,,,,,,,,,,
75,76,"Unity Point Health- St. Luke’s Cardiovascular Associates, PC",42.445223,-96.328828,granted,5885 Sunnybrook Drive L200,,Sioux City,IA,51106,USA,,www.cvassoc.com,,echo,,"Unity Point Health- St. Luke’s Cardiovascular Associates, PC Sioux City",,,"Jan 31, 2025","Adult Stress, Adult Transthoracic",,,,,,,,,,,,,,,,,,,,
76,77,"Unity Point Health- St. Luke’s Cardiovascular Associates, PC",42.5186,-96.406029,granted,"2720 Stone Park Boulevard, Suite 110",PO Box 3128,Sioux City,IA,51104,USA,,,,echo,"www.google.com/search?q=Unity+Point+Health-+St.+Luke’s+Cardiovascular+Associates,+PC","Unity Point Health- St. Luke’s Cardiovascular Associates, PC Sioux City",,,"Jan 31, 2025","Adult Stress, Adult Transthoracic",,,,,,,,,,,,,,,,,,,,
77,78,Unity Point Health-St Lukes Cardiovascular Associates,42.445223,-96.328828,granted,5885 Sunnybrook Drive,Suite L200,Sioux City,IA,51106,USA,,,,nuclear,www.google.com/search?q=Unity+Point+Health-St+Lukes+Cardiovascular+Associates,Unity Point Health-St Lukes Cardiovascular Associates Sioux City,,,,,,,"Dec 31, 2022",Myocardial Perfusion Imaging,,,,,,,,,,,,,,,,
78,79,UnityPoint Cardiology,41.590061,-93.635709,granted,1215 Pleasant St. Ste. 414,,Des Moines,IA,50309,USA,,,,nuclear,www.google.com/search?q=UnityPoint+Cardiology,UnityPoint Cardiology Des Moines,,,,,,,"Oct 31, 2023",Myocardial Perfusion Imaging,,,,,,,,,,,,,,,,
79,80,UnityPoint Cardiology,41.602545,-93.608448,granted,1301 Pennsylvania Avenue,Suite 100,Des Moines,IA,50316,USA,,www.unitypoint.org/cardiology,,nuclear,,UnityPoint Cardiology Des Moines,,,,,,,"Oct 31, 2023",Myocardial Perfusion Imaging,,,,,,,,,,,,,,,,
80,81,UnityPoint Cardiology,41.600398,-93.794321,granted,6000 University Ave.,Ste. A20,West Des Moines,IA,50266,USA,,,,nuclear,www.google.com/search?q=UnityPoint+Cardiology,UnityPoint Cardiology West Des Moines,,,,,,,"Oct 31, 2023",Myocardial Perfusion Imaging,,,,,,,,,,,,,,,,
81,82,UnityPoint Cardiology Clinic Penn,41.602545,-93.608448,granted,1301 Penn Ave,Suite 100,Des Moines,IA,50316,USA,,,,echo,www.google.com/search?q=UnityPoint+Cardiology+Clinic+Penn,UnityPoint Cardiology Clinic Penn Des Moines,,,"Feb 29, 2024","Adult Stress, Adult Transthoracic",,,,,,,,,,,,,,,,,,,,
82,83,UnityPoint Clinic Cardiology Lakeview,41.600387,-93.719082,granted,6000 University Ave,A20,West Des Moines,IA,50266,USA,,,,echo,www.google.com/search?q=UnityPoint+Clinic+Cardiology+Lakeview,UnityPoint Clinic Cardiology Lakeview West Des Moines,,,"Feb 29, 2024","Adult Stress, Adult Transthoracic",,,,,,,,,,,,,,,,,,,,
83,84,UnityPoint Clinic Cardiology Methodist Plaza,41.590061,-93.635709,granted,1215 Pleasant St,Suite 414,Des Moines,IA,50309,USA,,,,echo,www.google.com/search?q=UnityPoint+Clinic+Cardiology+Methodist+Plaza,UnityPoint Clinic Cardiology Methodist Plaza Des Moines,,,"Feb 29, 2024","Adult Stress, Adult Transthoracic",,,,,,,,,,,,,,,,,,,,
84,85,UnityPoint Health Anamosa - Cardiology Clinic,42.102231,-91.261919,granted,1795 Highway 64 East,,Anamosa,IA,52205,USA,,,,echo,www.google.com/search?q=UnityPoint+Health+Anamosa+-+Cardiology+Clinic,UnityPoint Health Anamosa - Cardiology Clinic Anamosa,,,"Jan 31, 2025",Adult Transthoracic,,,,,,,,,,,,,,,,,,,,
85,86,UnityPoint Health Cedar Rapids - Cardiology Clinic,41.982928,-91.658861,granted,202 10th Street SE Suite 225,,Cedar Rapids,IA,52403,USA,,www.cardiologists.com,,echo,,UnityPoint Health Cedar Rapids - Cardiology Clinic Cedar Rapids,,,"Jan 31, 2025",Adult Transthoracic,,,,,,,,,,,,,,,,,,,,
86,87,UnityPoint Health Des Moines-Methodist,41.590777,-93.633131,multigranted,1200 Pleasant Street,Suite 307,Des Moines,IA,50309,USA,,,,"echo, vascular",www.google.com/search?q=UnityPoint+Health+Des+Moines-Methodist,UnityPoint Health Des Moines-Methodist Des Moines,,,"Mar 01, 2023",Adult Transthoracic,,,,,"Jan 31, 2024","Extracranial Cerebrovascular Testing, Peripheral Arterial Testing, Peripheral Venous Testing, Visceral Vascular Testing",,,,,,,,,,,,,,
87,88,UnityPoint Health Manchester - Cardiology Clinic,42.483903,-91.466644,granted,709 West Main Street,Suite 100,Manchester,IA,52057,USA,,,,echo,www.google.com/search?q=UnityPoint+Health+Manchester+-+Cardiology+Clinic,UnityPoint Health Manchester - Cardiology Clinic Manchester,,,"Jan 31, 2025",Adult Transthoracic,,,,,,,,,,,,,,,,,,,,
88,89,UnityPoint Health St. Lukes Hospital,41.985632,-91.659013,granted,1026 A Ave NE,,Cedar Rapids,IA,52402,USA,,,,echo,www.google.com/search?q=UnityPoint+Health+St.+Lukes+Hospital,UnityPoint Health St. Lukes Hospital Cedar Rapids,,,"Feb 28, 2025",Adult Transthoracic,,,,,,,,,,,,,,,,,,,,
89,90,"UnityPoint Health, Cedar Rapids-Cardiology Clinic",41.982928,-91.658861,granted,202 10th St SE,Suite 225,Cedar Rapids,IA,52403,USA,,,,vascular,"www.google.com/search?q=UnityPoint+Health,+Cedar+Rapids-Cardiology+Clinic","UnityPoint Health, Cedar Rapids-Cardiology Clinic Cedar Rapids",,,,,,,,,"Mar 31, 2023","Extracranial Cerebrovascular Testing, Peripheral Arterial Testing, Peripheral Venous Testing, Visceral Vascular Testing",,,,,,,,,,,,,,
90,91,"UnityPoint Health, Cedar Rapids-Cardiology Clinic",41.982928,-91.658861,granted,"202 10th Street SE, Suite 225",,Cedar Rapids,IA,52403,USA,,,,nuclear,"www.google.com/search?q=UnityPoint+Health,+Cedar+Rapids-Cardiology+Clinic","UnityPoint Health, Cedar Rapids-Cardiology Clinic Cedar Rapids",,,,,,,"Jan 31, 2025","Equilibrium Radionuclide Angiography, Myocardial Perfusion Imaging",,,,,,,,,,,,,,,,
91,92,"UnityPoint Health, Manchester-Cardiology Clinic",42.483903,-91.466644,granted,709 W. Main Street,Suite 100,Manchester,IA,52057,USA,,,,vascular,"www.google.com/search?q=UnityPoint+Health,+Manchester-Cardiology+Clinic","UnityPoint Health, Manchester-Cardiology Clinic Manchester",,,,,,,,,"Mar 31, 2023","Extracranial Cerebrovascular Testing, Peripheral Arterial Testing, Peripheral Venous Testing, Visceral Vascular Testing",,,,,,,,,,,,,,
92,93,"UnityPoint Health, Manchester-Cardiology Clinic",42.483903,-91.466644,granted,"709 West Main Street, Suite 100",,Manchester,IA,52057,USA,,,,nuclear,"www.google.com/search?q=UnityPoint+Health,+Manchester-Cardiology+Clinic","UnityPoint Health, Manchester-Cardiology Clinic Manchester",,,,,,,"Jan 31, 2025","Equilibrium Radionuclide Angiography, Myocardial Perfusion Imaging",,,,,,,,,,,,,,,,
93,94,University of Iowa Health Care IRL - Peripheral Vascular Laboratory,41.681693,-91.563897,granted,105 East 9th Street,,Coralville,IA,52241,USA,,,,vascular,www.google.com/search?q=University+of+Iowa+Health+Care+IRL+-+Peripheral+Vascular+Laboratory,University of Iowa Health Care IRL - Peripheral Vascular Laboratory Coralville,,,,,,,,,"Nov 30, 2022","Extracranial Cerebrovascular Testing, Peripheral Arterial Testing, Peripheral Venous Testing",,,,,,,,,,,,,,
94,95,University of Iowa Heart and Vascular Center - Peripheral Vascular Laboratory,41.661342,-91.550828,granted,200 Hawkins Drive,,Iowa City,IA,52242,USA,,,,vascular,www.google.com/search?q=University+of+Iowa+Heart+and+Vascular+Center+-+Peripheral+Vascular+Laboratory,University of Iowa Heart and Vascular Center - Peripheral Vascular Laboratory Iowa City,,,,,,,,,"Nov 30, 2022","Extracranial Cerebrovascular Testing, Peripheral Arterial Testing, Peripheral Venous Testing",,,,,,,,,,,,,,
95,96,University of Iowa Hospitals and Clinics,41.661203,-91.550759,granted,200 Hawkins Drive,4820-A JCP,Iowa City,IA,52242,USA,,,,echo,www.google.com/search?q=University+of+Iowa+Hospitals+and+Clinics,University of Iowa Hospitals and Clinics Iowa City,,,"Sep 30, 2023","Adult Stress, Adult Transesophageal, Adult Transthoracic",,,,,,,,,,,,,,,,,,,,
96,97,University of Iowa Stead Family Children’s Hospital,41.659446,-91.5499,granted,200 Hawkins Drive,2831-D JPP,Iowa City,IA,52242,USA,,www.uihealthcare.com,,pediatric_echo,,University of Iowa Stead Family Children’s Hospital Iowa City,,,,,,,,,,,"Oct 31, 2024","Pediatric Transesophageal, Pediatric Transthoracic, Fetal",,,,,,,,,,,,
97,98,Waverly Health Center-Cardiovascular Services,42.723677,-92.481803,multigranted,312 Ninth Street Southwest,,Waverly,IA,50677,USA,,,,"echo, vascular",www.google.com/search?q=Waverly+Health+Center-Cardiovascular+Services,Waverly Health Center-Cardiovascular Services Waverly,,,"Dec 31, 2023",Adult Transthoracic,,,,,"Nov 30, 2024",Extracranial Cerebrovascular Testing,,,,,,,,,,,,,,
98,99,Wheaton Franciscan Healthcare,42.674914,-91.902622,granted,201 8th Avenue Southeast,,Oelwein,IA,50662,USA,,,,echo,www.google.com/search?q=Wheaton+Franciscan+Healthcare,Wheaton Franciscan Healthcare Oelwein,,,"Jan 31, 2025",Adult Transthoracic,,,,,,,,,,,,,,,,,,,,
99,100,"Wheaton Franciscan Healthcare-Iowa, Inc.",42.463316,-92.346529,multigranted,3421 West 9th,,Waterloo,IA,50702,USA,,,,"echo, pediatric_echo","www.google.com/search?q=Wheaton+Franciscan+Healthcare-Iowa,+Inc.","Wheaton Franciscan Healthcare-Iowa, Inc. Waterloo",,,"Jan 31, 2025",Adult Transthoracic,,,,,,,"May 31, 2025",Pediatric Transthoracic,,,,,,,,,,,,
100,101,Wheaton Franciscan Helathcare,42.533922,-92.455969,granted,515 College,,Cedar Falls,IA,50613,USA,,,,echo,www.google.com/search?q=Wheaton+Franciscan+Helathcare,Wheaton Franciscan Helathcare Cedar Falls,,,"Jan 31, 2025",Adult Transthoracic,,,,,,,,,,,,,,,,,,,,
