,id,name,lat,lng,category,address,address2,city,state,postal,country,phone,web,features,modalities,searchGoogle,search,ct,ct_areas,echo,echo_areas,mr,mr_areas,nuclear,nuclear_areas,vascular,vascular_areas,pediatric_echo,pediatric_echo_areas,ct-dental,ct-dental_areas,stenting,stenting_areas,vein_center,vein_center_areas,cardiac_electrophysiology,cardiac_electrophysiology_areas,cardiovascular_catheterization,cardiovascular_catheterization_areas,jrcdms,jrcdms_areas
0,1,Accelerated Open Mri and Imaging Ltd,41.515931,-87.851482,granted,9645 Lincoln Way Lane,,Frankfort,IL,60423,USA,,,,mr,www.google.com/search?q=Accelerated+Open+Mri+and+Imaging+Ltd,Accelerated Open Mri and Imaging Ltd Frankfort,,,,,"Dec 31, 2024","Body MRI, Musculoskeletal MRI, Neurological MRI, MRA",,,,,,,,,,,,,,,,,,
1,2,Advanced Foot and Ankle of Joliet,41.515043,-88.169331,granted,350 Houbolt Rd,104,Joliet,IL,60431,USA,,,,mr,www.google.com/search?q=Advanced+Foot+and+Ankle+of+Joliet,Advanced Foot and Ankle of Joliet Joliet,,,,,"Dec 31, 2023",Musculoskeletal MRI,,,,,,,,,,,,,,,,,,
2,3,Advanced Heart Care,38.576057,-89.984808,granted,5020 N. Illinois,,Fairview Heights,IL,62208,USA,,www.advancedheartcare.com,,nuclear,,Advanced Heart Care Fairview Heights,,,,,,,"May 31, 2023",Myocardial Perfusion Imaging,,,,,,,,,,,,,,,,
3,4,"Advanced Heart Care, LLC",38.576057,-89.984808,granted,5020 N Illinois,,Fairview Heights,IL,62208,USA,,,,echo,"www.google.com/search?q=Advanced+Heart+Care,+LLC","Advanced Heart Care, LLC Fairview Heights",,,"Sep 30, 2022","Adult Stress, Adult Transthoracic",,,,,,,,,,,,,,,,,,,,
4,5,"Advanced Heart Care, LLC",38.550325,-90.023213,granted,4600 Memorial Drive,Suite B220,Belleville,IL,62226,USA,,"ADVANCED HEART CARE,LLC",,echo,,"Advanced Heart Care, LLC Belleville",,,"Sep 30, 2022","Adult Stress, Adult Transthoracic",,,,,,,,,,,,,,,,,,,,
5,6,"Advanced Heart Group, SC",41.606277,-87.660078,multigranted,71 West 156th Street,Suite 305,Harvey,IL,60426,USA,,,,"echo, nuclear","www.google.com/search?q=Advanced+Heart+Group,+SC","Advanced Heart Group, SC Harvey",,,"Jan 31, 2023",Adult Transthoracic,,,"Dec 31, 2023",Myocardial Perfusion Imaging,,,,,,,,,,,,,,,,
6,7,"Advanced Heart Group, SC",41.614242,-87.79447,multigranted,15255 S. Harlem Ave. Building B,,Orland Park,IL,60462,USA,,,,"echo, nuclear","www.google.com/search?q=Advanced+Heart+Group,+SC","Advanced Heart Group, SC Orland Park",,,"Jan 31, 2023",Adult Transthoracic,,,"Dec 31, 2023",Myocardial Perfusion Imaging,,,,,,,,,,,,,,,,
7,8,Advanced Mobile Diagnostics at the Cottage Hospital Peripheral Vascular Laboratory,40.946143,-90.306887,granted,Cardiac Rehab Services 4th Floor,695 Kellogg Street,Galesburg,IL,61401,USA,,,,vascular,www.google.com/search?q=Advanced+Mobile+Diagnostics+at+the+Cottage+Hospital+Peripheral+Vascular+Laboratory,Advanced Mobile Diagnostics at the Cottage Hospital Peripheral Vascular Laboratory Galesburg,,,,,,,,,"Jul 31, 2024","Extracranial Cerebrovascular Testing, Peripheral Arterial Testing, Peripheral Venous Testing",,,,,,,,,,,,,,
8,9,Advanced Mobile Diagnostics Peripheral Vascular Laboratory,40.781605,-89.602581,granted,7725 N Knoxville Ave,,Peoria,IL,61614,USA,,,,vascular,www.google.com/search?q=Advanced+Mobile+Diagnostics+Peripheral+Vascular+Laboratory,Advanced Mobile Diagnostics Peripheral Vascular Laboratory Peoria,,,,,,,,,"Jul 31, 2024","Extracranial Cerebrovascular Testing, Peripheral Arterial Testing, Peripheral Venous Testing",,,,,,,,,,,,,,
9,10,Advanced Sinus and Allergy SC,41.987018,-87.840421,granted,1030 W. Higgins Rd,Suite 325,Park Ridge,IL,60068,USA,,www.advancedsinusandallergy.com,,ct,,Advanced Sinus and Allergy SC Park Ridge,"Sep 29, 2022",Maxillofacial CT,,,,,,,,,,,,,,,,,,,,,,
10,11,Advantage MRI-Logan Square,41.91763,-87.726566,granted,2008 N. Pulaski Avenue,,Chicago,IL,60639,USA,,robertcadvantagemri.org,,mr,,Advantage MRI-Logan Square Chicago,,,,,"Jul 31, 2024","Musculoskeletal MRI, Neurological MRI",,,,,,,,,,,,,,,,,,
11,12,ADVENT,41.878151,-87.631213,granted,111 W Jackson Blvd,Suite 106,Chicago,IL,60604,United States,,adventknows.com,,ct,,ADVENT Chicago,"Nov 30, 2023",Maxillofacial CT,,,,,,,,,,,,,,,,,,,,,,
12,13,ADVENT,42.105528,-87.802979,granted,984 Willow Rd Suite H,,Northbrook,IL,60062,USA,,www.adventknows.com,,ct,,ADVENT Northbrook,"Nov 30, 2023",Maxillofacial CT,,,,,,,,,,,,,,,,,,,,,,
13,14,ADVENT,42.293223,-87.95544,granted,925 N Milwaukee Ave,,Vernon Hills,IL,60061,USA,,www.adventknows.com,,ct,,ADVENT Vernon Hills,"Nov 30, 2023",Maxillofacial CT,,,,,,,,,,,,,,,,,,,,,,
14,15,ADVENT,41.886715,-87.804189,granted,1125 South Boulevard,Suite 3,Oak Park,IL,60302,United States,,adventknows.com,,ct,,ADVENT Oak Park,"Nov 30, 2023",Maxillofacial CT,,,,,,,,,,,,,,,,,,,,,,
15,16,Adventist Bolingbrook Hospital,41.680529,-88.082741,granted,500 Remington Blvd,,Bolingbrook,IL,60440,USA,,,,echo,www.google.com/search?q=Adventist+Bolingbrook+Hospital,Adventist Bolingbrook Hospital Bolingbrook,,,"Jan 31, 2025","Adult Stress, Adult Transesophageal, Adult Transthoracic",,,,,,,,,,,,,,,,,,,,
16,17,Adventist Heart and Vascular Institute,41.820241,-87.921477,granted,908 N. Elm St. Suite 402,,Hinsdale,IL,60521,USA,,,,nuclear,www.google.com/search?q=Adventist+Heart+and+Vascular+Institute,Adventist Heart and Vascular Institute Hinsdale,,,,,,,"Sep 30, 2023",Myocardial Perfusion Imaging,,,,,,,,,,,,,,,,
17,18,Adventist Hinsdale Hospital,41.772227,-88.039594,granted,2363 63rd Street,,Woodridge,IL,60517,USA,,AMITAHealth.org,,echo,,Adventist Hinsdale Hospital Woodridge,,,"Sep 30, 2024","Adult Stress, Adult Transthoracic",,,,,,,,,,,,,,,,,,,,
18,19,Adventist Hinsdale Hospital,41.805329,-87.920062,granted,120 N. Oak. Street,,Hinsdale,IL,60521,USA,,,,echo,www.google.com/search?q=Adventist+Hinsdale+Hospital,Adventist Hinsdale Hospital Hinsdale,,,"Jul 31, 2024","Adult Stress, Adult Transesophageal, Adult Transthoracic",,,,,,,,,,,,,,,,,,,,
19,20,Adventist Hinsdale Hospital,41.820241,-87.921477,granted,908 N. Elm Street,,Hinsdale,IL,60521,USA,,,,echo,www.google.com/search?q=Adventist+Hinsdale+Hospital,Adventist Hinsdale Hospital Hinsdale,,,"Sep 30, 2024","Adult Stress, Adult Transthoracic",,,,,,,,,,,,,,,,,,,,
20,21,Adventist LaGrange Memorial Hospital,41.797382,-87.888407,granted,5101 S. Willow Springs Road,,LaGrange,IL,60525,USA,,,,echo,www.google.com/search?q=Adventist+LaGrange+Memorial+Hospital,Adventist LaGrange Memorial Hospital LaGrange,,,"Nov 30, 2024","Adult Stress, Adult Transesophageal, Adult Transthoracic",,,,,,,,,,,,,,,,,,,,
21,22,Advocate Aurora Medical Group,42.274222,-87.951579,granted,825 S. Milwaukee Ave,,Libertyville,IL,60048,USA,,,,echo,www.google.com/search?q=Advocate+Aurora+Medical+Group,Advocate Aurora Medical Group Libertyville,,,"Aug 31, 2024","Adult Stress, Adult Transthoracic",,,,,,,,,,,,,,,,,,,,
22,23,Advocate Children’s Hospital,41.720316,-87.732364,granted,4440 W 95th St,,Oak Lawn,IL,60453,USA,,,,pediatric_echo,www.google.com/search?q=Advocate+Children’s+Hospital,Advocate Children’s Hospital Oak Lawn,,,,,,,,,,,"Jan 31, 2023","Pediatric Transesophageal, Pediatric Transthoracic, Fetal",,,,,,,,,,,,
23,24,Advocate Children’s Hospital Park Ridge Campus,42.039748,-87.848146,granted,1775 Dempster,,Park Ridge,IL,60068,USA,,,,pediatric_echo,www.google.com/search?q=Advocate+Children’s+Hospital+Park+Ridge+Campus,Advocate Children’s Hospital Park Ridge Campus Park Ridge,,,,,,,,,,,"Jan 31, 2023","Pediatric Transthoracic, Fetal",,,,,,,,,,,,
24,25,Advocate Childrens Hospital,41.720316,-87.732364,granted,4440 W. 95th St.,,Oak Lawn,IL,60453,USA,,,,cardiac_electrophysiology,www.google.com/search?q=Advocate+Childrens+Hospital,Advocate Childrens Hospital Oak Lawn,,,,,,,,,,,,,,,,,,,"Jul 31, 2023","Testing and Ablation, Device Implantation",,,,
25,26,Advocate Christ Medical Center,41.720316,-87.732364,granted,4440 W. 95th Street,,Oak Lawn,IL,60453,USA,,www.advocatehealth.com,,echo,,Advocate Christ Medical Center Oak Lawn,,,"Feb 29, 2024",Adult Transthoracic,,,,,,,,,,,,,,,,,,,,
26,27,Advocate Condell Medical Center,42.274563,-87.95165,granted,801 South Milwaukee Avenue,,Libertyville,IL,60048,USA,,,,echo,www.google.com/search?q=Advocate+Condell+Medical+Center,Advocate Condell Medical Center Libertyville,,,"Jun 30, 2023","Adult Stress, Adult Transthoracic",,,,,,,,,,,,,,,,,,,,
27,28,Advocate Dreyer,41.807211,-88.352262,granted,82 Miller Dr,,North Aurora,IL,60542,USA,,,,echo,www.google.com/search?q=Advocate+Dreyer,Advocate Dreyer North Aurora,,,"Dec 31, 2022",Adult Transthoracic,,,,,,,,,,,,,,,,,,,,
28,29,Advocate Dreyer,41.728134,-88.267794,granted,1508 Aurora Ave,,Naperville,IL,60540,USA,,www.advocatedreyer.com,,echo,,Advocate Dreyer Naperville,,,"Dec 31, 2022",Adult Transthoracic,,,,,,,,,,,,,,,,,,,,
29,30,Advocate Dreyer,41.782944,-88.328856,granted,1221 North Highland Avenue,,Aurora,IL,60506,USA,,www.advocatedreyer.com,,echo,,Advocate Dreyer Aurora,,,"Dec 31, 2022",Adult Transthoracic,,,,,,,,,,,,,,,,,,,,
30,31,Advocate Good Shepherd Hospital,42.193415,-88.177959,granted,450 West Highway 22,,Barrington,IL,60010,USA,,,,echo,www.google.com/search?q=Advocate+Good+Shepherd+Hospital,Advocate Good Shepherd Hospital Barrington,,,"Mar 31, 2023",Adult Transthoracic,,,,,,,,,,,,,,,,,,,,
31,32,Advocate Heart Institute,42.23237,-88.300097,granted,525 Congress Parkway Suite 120,,Crystal Lake,IL,60014,USA,,,,echo,www.google.com/search?q=Advocate+Heart+Institute,Advocate Heart Institute Crystal Lake,,,"Jan 31, 2025",Adult Transthoracic,,,,,,,,,,,,,,,,,,,,
32,33,Advocate Heart Institute Advocate Medical Group,41.714565,-87.681816,granted,9831 South Western Avenue,,Chicago,IL,60643,USA,,,,echo,www.google.com/search?q=Advocate+Heart+Institute+Advocate+Medical+Group,Advocate Heart Institute Advocate Medical Group Chicago,,,"May 31, 2023","Adult Stress, Adult Transthoracic",,,,,,,,,,,,,,,,,,,,
33,34,Advocate Illinois Masonic Medical Center,41.936315,-87.651554,granted,836 West Wellington,,Chicago,IL,60657,USA,,,,echo,www.google.com/search?q=Advocate+Illinois+Masonic+Medical+Center,Advocate Illinois Masonic Medical Center Chicago,,,"Aug 31, 2023","Adult Stress, Adult Transesophageal, Adult Transthoracic",,,,,,,,,,,,,,,,,,,,
34,35,Advocate Lutheran General Hospital and Advocate Childrens Hospital,42.039748,-87.848146,granted,1775 Dempster,,Park Ridge,IL,60068,USA,,,,echo,www.google.com/search?q=Advocate+Lutheran+General+Hospital+and+Advocate+Childrens+Hospital,Advocate Lutheran General Hospital and Advocate Childrens Hospital Park Ridge,,,"Feb 28, 2023","Adult Stress, Adult Transesophageal, Adult Transthoracic",,,,,,,,,,,,,,,,,,,,
35,36,Advocate Medical Group,42.043385,-87.849246,granted,1775 Ballard Road,,Park Ridge,IL,60068,USA,,,,echo,www.google.com/search?q=Advocate+Medical+Group,Advocate Medical Group Park Ridge,,,"Jun 30, 2024",Adult Transthoracic,,,,,,,,,,,,,,,,,,,,
36,37,Advocate Medical Group,42.039703,-87.847667,granted,1875 Dempster,Suite 525,Park Ridge,IL,60068,USA,,,,echo,www.google.com/search?q=Advocate+Medical+Group,Advocate Medical Group Park Ridge,,,"Jun 30, 2024",Adult Transthoracic,,,,,,,,,,,,,,,,,,,,
37,38,Advocate Medical Group - Midwest Heart Specialists,41.818854,-88.010201,granted,3825 Highland Avenue,"Tower 2, Suite 400",Downers Grove,IL,60515,USA,,,,echo,www.google.com/search?q=Advocate+Medical+Group+-+Midwest+Heart+Specialists,Advocate Medical Group - Midwest Heart Specialists Downers Grove,,,"Aug 31, 2024","Adult Stress, Adult Transthoracic",,,,,,,,,,,,,,,,,,,,
38,39,Advocate Medical Group Cardiology-Barrington Fitness,42.275516,-88.398937,granted,1301 S. Barrington Rd.,,Barrington,IL,60010,USA,,,,nuclear,www.google.com/search?q=Advocate+Medical+Group+Cardiology-Barrington+Fitness,Advocate Medical Group Cardiology-Barrington Fitness Barrington,,,,,,,"Jan 31, 2023",Myocardial Perfusion Imaging,,,,,,,,,,,,,,,,
39,40,Advocate Medical Group Clark Street Chicago,41.939037,-87.668692,granted,3134 North Clark Street,,Chicago,IL,60657,USA,,,,echo,www.google.com/search?q=Advocate+Medical+Group+Clark+Street+Chicago,Advocate Medical Group Clark Street Chicago Chicago,,,"Apr 30, 2024","Adult Stress, Adult Transthoracic",,,,,,,,,,,,,,,,,,,,
40,41,Advocate Medical Group Heart Institute,41.81857,-88.010181,granted,3825 Highland Ave,"TWR 2, Suite 400",Downers Grove,IL,60515,USA,,,,vascular,www.google.com/search?q=Advocate+Medical+Group+Heart+Institute,Advocate Medical Group Heart Institute Downers Grove,,,,,,,,,"May 31, 2024","Extracranial Cerebrovascular Testing, Peripheral Arterial Testing, Visceral Vascular Testing",,,,,,,,,,,,,,
41,42,Advocate Medical Group Oak Lawn-Cicero Cardiology,41.695709,-87.739911,granted,10837 South Cicero,Suite #200,Oak Lawn,IL,60453,USA,,midamerica.com,,nuclear,,Advocate Medical Group Oak Lawn-Cicero Cardiology Oak Lawn,,,,,,,"Jan 31, 2023",Myocardial Perfusion Imaging,,,,,,,,,,,,,,,,
42,43,Advocate Medical Group Oak Lawn-Cicero Cardiology,41.695709,-87.739911,granted,10837 South Cicero Avenue,Suite #200,Oak Lawn,IL,60453,USA,,,,echo,www.google.com/search?q=Advocate+Medical+Group+Oak+Lawn-Cicero+Cardiology,Advocate Medical Group Oak Lawn-Cicero Cardiology Oak Lawn,,,"Feb 29, 2024","Adult Stress, Adult Transthoracic",,,,,,,,,,,,,,,,,,,,
43,44,Advocate Medical Group-Crystal Lake,42.232388,-88.300144,granted,"525 E. Congress Parkway, Suite 120",,Crystal Lake,IL,60010,USA,,,,nuclear,www.google.com/search?q=Advocate+Medical+Group-Crystal+Lake,Advocate Medical Group-Crystal Lake Crystal Lake,,,,,,,"Jan 31, 2023",Myocardial Perfusion Imaging,,,,,,,,,,,,,,,,
44,45,Advocate Medical Group-Lakeview,41.938736,-87.649666,granted,3134 N. Clark St,,Chicago,IL,60657,USA,,,,nuclear,www.google.com/search?q=Advocate+Medical+Group-Lakeview,Advocate Medical Group-Lakeview Chicago,,,,,,,"Jan 31, 2023",Myocardial Perfusion Imaging,,,,,,,,,,,,,,,,
45,46,Advocate Medical Group-Midwest Heart Specialists,41.818854,-88.010201,granted,3825 Highland Avenue,"Tower 2, Suite 400",Downers Grove,IL,60515,USA,,stephen.rowleyadvocatehealth.com,,nuclear,,Advocate Medical Group-Midwest Heart Specialists Downers Grove,,,,,,,"Jan 31, 2023",Myocardial Perfusion Imaging,,,,,,,,,,,,,,,,
46,47,Advocate Medical Group-Parkside Cardiology,42.039703,-87.847667,granted,"1875 Dempster St., Suite 555",,Park Ridge,IL,60068,USA,,,,nuclear,www.google.com/search?q=Advocate+Medical+Group-Parkside+Cardiology,Advocate Medical Group-Parkside Cardiology Park Ridge,,,,,,,"Jan 31, 2023",Myocardial Perfusion Imaging,,,,,,,,,,,,,,,,
47,48,Advocate Sherman Hospital,42.070221,-88.331468,granted,1425 N. Randall Road,,Elgin,IL,60123,USA,,,,echo,www.google.com/search?q=Advocate+Sherman+Hospital,Advocate Sherman Hospital Elgin,,,"Jan 31, 2025",Adult Transthoracic,,,,,,,,,,,,,,,,,,,,
48,49,Advocate South Suburban Hospital,41.566922,-87.694399,granted,17800 S. Kedzie Ave.,,Hazel Crest,IL,60429,USA,,advocatehealth.com,,echo,,Advocate South Suburban Hospital Hazel Crest,,,"Feb 28, 2025","Adult Stress, Adult Transesophageal, Adult Transthoracic",,,,,,,,,,,,,,,,,,,,
49,50,Advocate Trinity Hospital,41.726211,-87.56725,granted,2320 E. 93rd Street,,Chicago,IL,60617,USA,,,,echo,www.google.com/search?q=Advocate+Trinity+Hospital,Advocate Trinity Hospital Chicago,,,"Jun 30, 2025","Adult Stress, Adult Transthoracic",,,,,,,,,,,,,,,,,,,,
50,51,Affiliated Ear Nose and Throat Physicians,42.281277,-88.409247,granted,2441 Lakeshore Drive,,Woodstock,IL,60098,USA,,www.Affentphysicians.com,,ct,,Affiliated Ear Nose and Throat Physicians Woodstock,"Dec 31, 2023",Maxillofacial CT,,,,,,,,,,,,,,,,,,,,,,
51,52,Alexian Brothers Medical Center,42.003474,-88.01526,granted,800 Biesterfield Road,,Elk Grove Village,IL,60007,USA,,alexianbrothershealth.org,,echo,,Alexian Brothers Medical Center Elk Grove Village,,,"Jun 30, 2023","Adult Stress, Adult Transesophageal, Adult Transthoracic",,,,,,,,,,,,,,,,,,,,
52,53,Almi Inc Mobile Imaging,41.966164,-87.951724,granted,822 Eagle Drive,,Bensenville,IL,60106,USA,,www.almmedical.com,,nuclear,,Almi Inc Mobile Imaging Bensenville,,,,,,,"May 31, 2024",Myocardial Perfusion Imaging,,,,,,,,,,,,,,,,
53,54,"American MRI, Inc.",41.865442,-87.949855,granted,"360 W. Butterfield Road, Suite 130",,Elmhurst,IL,60126,USA,,www.americanmriinc.com,,mr,,"American MRI, Inc. Elmhurst",,,,,"Sep 30, 2023","Musculoskeletal MRI, Neurological MRI",,,,,,,,,,,,,,,,,,
54,55,"American MRI, Inc.",41.814575,-87.70352,granted,4338 S. Archer Avenue,,Chicago,IL,60632,,,,,mr,"www.google.com/search?q=American+MRI,+Inc.","American MRI, Inc. Chicago",,,,,"Sep 30, 2023","Musculoskeletal MRI, Neurological MRI",,,,,,,,,,,,,,,,,,
55,56,"American MRI, Inc.",41.814283,-87.704013,granted,4365 S. Archer Ave,,Chicago,IL,60632,USA,,,,mr,"www.google.com/search?q=American+MRI,+Inc.","American MRI, Inc. Chicago",,,,,"Sep 30, 2023","Musculoskeletal MRI, Neurological MRI",,,,,,,,,,,,,,,,,,
56,57,"American MRI, Inc.",41.850581,-87.792159,granted,6728 W. Cermak Road,,Berwyn,IL,60402,USA,,www.americanmriinc.com,,mr,,"American MRI, Inc. Berwyn",,,,,"Sep 30, 2023","Musculoskeletal MRI, Neurological MRI",,,,,,,,,,,,,,,,,,
57,58,AMITA Health Heart and Vascular,42.175662,-88.343698,granted,2971 W Algonquin Rd,Suite 106,Algonquin,IL,60102,USA,,,,echo,www.google.com/search?q=AMITA+Health+Heart+and+Vascular,AMITA Health Heart and Vascular Algonquin,,,"Apr 30, 2024",Adult Transthoracic,,,,,,,,,,,,,,,,,,,,
58,59,AMITA Health Heart and Vascular Medical Imaging,41.995019,-87.813371,granted,7447 West Talcott,#122,Chicago,IL,60631,USA,,,,echo,www.google.com/search?q=AMITA+Health+Heart+and+Vascular+Medical+Imaging,AMITA Health Heart and Vascular Medical Imaging Chicago,,,"Oct 31, 2022",Adult Transthoracic,,,,,,,,,,,,,,,,,,,,
59,60,Amita Health Saint Joseph Hospital,42.036242,-88.327934,multigranted,77 North Airlite,,Elgin,IL,60123,USA,,,,"vascular, echo",www.google.com/search?q=Amita+Health+Saint+Joseph+Hospital,Amita Health Saint Joseph Hospital Elgin,,,"Apr 30, 2024",Adult Transthoracic,,,,,"Dec 31, 2022","Extracranial Cerebrovascular Testing, Peripheral Venous Testing",,,,,,,,,,,,,,
60,61,Amita Health St Francis Hospital,42.023956,-87.685159,granted,355 Ridge Avenue,,Evanston,IL,60202,USA,,www.amitahealth.org/our-locations/hospitals/amita-health-saint-francis-hospital-evanston/,,vascular,,Amita Health St Francis Hospital Evanston,,,,,,,,,"Mar 31, 2025","Extracranial Cerebrovascular Testing, Peripheral Arterial Testing, Peripheral Venous Testing",,,,,,,,,,,,,,
61,62,Amita Health St. Mary’s Hospital Kankakee,41.121113,-87.871768,granted,500 W. Court St.,,Kankakee,IL,60901,USA,,www.presencehealth.org/presence-st-marys-hospital-kankakee,,echo,,Amita Health St. Mary’s Hospital Kankakee Kankakee,,,"May 31, 2023",Adult Transthoracic,,,,,,,,,,,,,,,,,,,,
62,63,Amita Resurrection Medical Center Chicago,41.988458,-87.81257,granted,7435 West Talcott Ave.,,Chicago,IL,60631,USA,,www.amitahealth.org/our-locations/hospitals/amita-health-resurrection-medical-center-chicago,,echo,,Amita Resurrection Medical Center Chicago Chicago,,,"Apr 30, 2024",Adult Transthoracic,,,,,,,,,,,,,,,,,,,,
63,64,Ann and Robert H. Lurie Children’s Hospital - Chicago Institute of Fetal Health,41.896746,-87.621906,granted,225 E. Chicago Ave,,Chicago,IL,60611,USA,,,,pediatric_echo,www.google.com/search?q=Ann+and+Robert+H.+Lurie+Children’s+Hospital+-+Chicago+Institute+of+Fetal+Health,Ann and Robert H. Lurie Children’s Hospital - Chicago Institute of Fetal Health Chicago,,,,,,,,,,,"Jun 30, 2025",Fetal,,,,,,,,,,,,
64,65,Ann and Robert H. Lurie Children’s Hospital of Chicago in New Lenox,41.543623,-87.985994,granted,1870 N Silver Cross Boulevard,Suite 100,New Lenox,IL,60451,USA,,,,pediatric_echo,www.google.com/search?q=Ann+and+Robert+H.+Lurie+Children’s+Hospital+of+Chicago+in+New+Lenox,Ann and Robert H. Lurie Children’s Hospital of Chicago in New Lenox New Lenox,,,,,,,,,,,"Jun 30, 2025","Pediatric Transthoracic, Fetal",,,,,,,,,,,,
65,66,Ann and Robert H. Lurie Children’s Hospital of Chicago Outpatient Center in Grayslake,42.338685,-88.011354,granted,1475 E Belvidere Road,Pavilion C Suite 285,Grayslake,IL,60030,USA,,,,pediatric_echo,www.google.com/search?q=Ann+and+Robert+H.+Lurie+Children’s+Hospital+of+Chicago+Outpatient+Center+in+Grayslake,Ann and Robert H. Lurie Children’s Hospital of Chicago Outpatient Center in Grayslake Grayslake,,,,,,,,,,,"Jun 30, 2025",Pediatric Transthoracic,,,,,,,,,,,,
66,67,Ann and Robert H. Lurie Children’s Hospital of Chicago Outpatient Center in Lincoln Park,41.928094,-87.641957,granted,2515 North Clark Street,,Chicago,IL,60614,USA,,,,pediatric_echo,www.google.com/search?q=Ann+and+Robert+H.+Lurie+Children’s+Hospital+of+Chicago+Outpatient+Center+in+Lincoln+Park,Ann and Robert H. Lurie Children’s Hospital of Chicago Outpatient Center in Lincoln Park Chicago,,,,,,,,,,,"Jun 30, 2025",Pediatric Transthoracic,,,,,,,,,,,,
67,68,Ann and Robert H. Lurie Children’s Hospital of Chicago Outpatient Center in Northbrook,42.114913,-87.809485,granted,1131 Techny Rd.,,Northbrook,IL,60062,USA,,,,pediatric_echo,www.google.com/search?q=Ann+and+Robert+H.+Lurie+Children’s+Hospital+of+Chicago+Outpatient+Center+in+Northbrook,Ann and Robert H. Lurie Children’s Hospital of Chicago Outpatient Center in Northbrook Northbrook,,,,,,,,,,,"Jun 30, 2025",Pediatric Transthoracic,,,,,,,,,,,,
68,69,Ann and Robert H. Lurie Children’s Hospital of Chicago Willis J. Potts Heart Center,41.896755,-87.62139,granted,255 East Chicago Avenue,Box #21,Chicago,IL,60611,USA,,,,pediatric_echo,www.google.com/search?q=Ann+and+Robert+H.+Lurie+Children’s+Hospital+of+Chicago+Willis+J.+Potts+Heart+Center,Ann and Robert H. Lurie Children’s Hospital of Chicago Willis J. Potts Heart Center Chicago,,,,,,,,,,,"Jun 30, 2025","Pediatric Transesophageal, Pediatric Transthoracic, Fetal",,,,,,,,,,,,
69,70,Ann and Robert H. Lurie Children’s Hospital Outpatient Center in Arlington Heights,42.066609,-87.993567,granted,880 West Central,Suite 6400,Arlington Heights,IL,60005,USA,,,,pediatric_echo,www.google.com/search?q=Ann+and+Robert+H.+Lurie+Children’s+Hospital+Outpatient+Center+in+Arlington+Heights,Ann and Robert H. Lurie Children’s Hospital Outpatient Center in Arlington Heights Arlington Heights,,,,,,,,,,,"Jun 30, 2025",Pediatric Transthoracic,,,,,,,,,,,,
70,71,Ann and Robert H. Lurie Children’s Hospital Outpatient Center in Huntley,42.178039,-88.403022,granted,10350 Haligus Road,Suite 110,Huntley,IL,60142,USA,,,,pediatric_echo,www.google.com/search?q=Ann+and+Robert+H.+Lurie+Children’s+Hospital+Outpatient+Center+in+Huntley,Ann and Robert H. Lurie Children’s Hospital Outpatient Center in Huntley Huntley,,,,,,,,,,,"Jun 30, 2025","Pediatric Transthoracic, Fetal",,,,,,,,,,,,
71,72,Ann and Robert H. Lurie Children’s Hospital Outpatient Center in Lake Forest,42.256311,-87.862916,granted,900 N Westmoreland Road,Suite 110,Lake Forest,IL,60045,USA,,,,pediatric_echo,www.google.com/search?q=Ann+and+Robert+H.+Lurie+Children’s+Hospital+Outpatient+Center+in+Lake+Forest,Ann and Robert H. Lurie Children’s Hospital Outpatient Center in Lake Forest Lake Forest,,,,,,,,,,,"Jun 30, 2025","Pediatric Transthoracic, Fetal",,,,,,,,,,,,
72,73,Ann and Robert H. Lurie Children’s Hospital Outpatient Center in Westchester,41.845871,-87.908743,granted,2302 Enterprise Dr,,Westchester,IL,60154,USA,,www.luriechildrens.org,,pediatric_echo,,Ann and Robert H. Lurie Children’s Hospital Outpatient Center in Westchester Westchester,,,,,,,,,,,"Jun 30, 2025",Pediatric Transthoracic,,,,,,,,,,,,
73,74,Ascension Saint Joseph- Joliet Vascular Laboratory,41.528248,-88.134645,granted,333 North Madison Street,,Joliet,IL,60435,USA,,www.amitahealth.org,,vascular,,Ascension Saint Joseph- Joliet Vascular Laboratory Joliet,,,,,,,,,"Nov 30, 2023","Peripheral Arterial Testing, Peripheral Venous Testing",,,,,,,,,,,,,,
74,75,Associated Physicians of Libertyville,42.295865,-87.994185,granted,1850 West Winchester Road,Suite 220,Libertyville,IL,60048,USA,,,,nuclear,www.google.com/search?q=Associated+Physicians+of+Libertyville,Associated Physicians of Libertyville Libertyville,,,,,,,"Oct 31, 2023",Myocardial Perfusion Imaging,,,,,,,,,,,,,,,,
75,76,BJC Medical Group Cardiology,38.73811,-89.945836,multigranted,6810 State Rt 162,Suite 102,Maryville,IL,62062,USA,,,,"nuclear, echo",www.google.com/search?q=BJC+Medical+Group+Cardiology,BJC Medical Group Cardiology Maryville,,,"Aug 31, 2023","Adult Stress, Adult Transthoracic",,,"Jul 31, 2023",Myocardial Perfusion Imaging,,,,,,,,,,,,,,,,
76,77,Blessing Hospital,39.935037,-91.337969,granted,11th and Brodaway,,Quincy,IL,62301,USA,,,,echo,www.google.com/search?q=Blessing+Hospital,Blessing Hospital Quincy,,,"Nov 30, 2023","Adult Stress, Adult Transesophageal, Adult Transthoracic",,,,,,,,,,,,,,,,,,,,
77,78,Bright Light Medical Imaging,42.027101,-87.987665,granted,31 South Arlington Heights Road,,Elk Grove Village,IL,60007-1405,,,,,nuclear,www.google.com/search?q=Bright+Light+Medical+Imaging,Bright Light Medical Imaging Elk Grove Village,,,,,,,"Oct 31, 2023",Myocardial Perfusion Imaging,,,,,,,,,,,,,,,,
78,79,BRIGHT LIGHT MEDICAL IMAGING,41.757426,-87.744803,granted,7456 S State Rd,,Bedford Park,IL,60638,,,www.brightlightimaging.com,,nuclear,,BRIGHT LIGHT MEDICAL IMAGING Bedford Park,,,,,,,"Oct 31, 2023",Myocardial Perfusion Imaging,,,,,,,,,,,,,,,,
79,80,Cardiovascular Imaging,42.003474,-88.01526,granted,800 Biesterfield Road,,Elk Grove,IL,60007,USA,,,,ct,www.google.com/search?q=Cardiovascular+Imaging,Cardiovascular Imaging Elk Grove,"Aug 31, 2023","Coronary CTA, Vascular CTA, Coronary Calcium Scoring",,,,,,,,,,,,,,,,,,,,,,
80,81,Cardiovascular Imaging,42.003969,-88.017692,granted,800 Biesterfield Road,Wimmer Building-Ground Floor,Elk Grove Village,IL,60007,USA,,www.amitahealth.org/medical-group/specialty-care/heart-and-vascular,,echo,,Cardiovascular Imaging Elk Grove Village,,,"Jun 30, 2023","Adult Stress, Adult Transthoracic",,,,,,,,,,,,,,,,,,,,
81,82,Cardiovascular Imaging,42.0527038,-88.1443766,granted,1555 Barrington Road,"Doctors Building 3, Suite 4250",Hoffman Estates,IL,60169,USA,,www.amitahealth.org/medical-group/specialty-care/heart-and-vascular,,echo,,Cardiovascular Imaging Hoffman Estates,,,"Jun 30, 2023","Adult Stress, Adult Transthoracic",,,,,,,,,,,,,,,,,,,,
82,83,Cardiovascular Imaging,42.003474,-88.01526,granted,800 Biesterfield Road,,Elk Grove Village,IL,60007,USA,,,,nuclear,www.google.com/search?q=Cardiovascular+Imaging,Cardiovascular Imaging Elk Grove Village,,,,,,,"May 31, 2024","Equilibrium Radionuclide Angiography, Myocardial Perfusion Imaging",,,,,,,,,,,,,,,,
83,84,Cardiovascular Imaging,42.052409,-88.144445,granted,1555 Barrington Road,Suite 4250,Hoffman Estates,IL,60195,USA,,,,nuclear,www.google.com/search?q=Cardiovascular+Imaging,Cardiovascular Imaging Hoffman Estates,,,,,,,"May 31, 2024",Myocardial Perfusion Imaging,,,,,,,,,,,,,,,,
84,85,Cardiovascular Imaging Center,42.007661,-87.998142,granted,"800 Biesterfield, Suite G01 Wimmer",,Elk Grove Village,IL,60007,USA,,,,vascular,www.google.com/search?q=Cardiovascular+Imaging+Center,Cardiovascular Imaging Center Elk Grove Village,,,,,,,,,"Oct 31, 2023","Extracranial Cerebrovascular Testing, Peripheral Arterial Testing, Peripheral Venous Testing, Visceral Vascular Testing",,,,,,,,,,,,,,
85,86,Cardiovascular Imaging Center,42.052409,-88.144445,granted,1555 Barrington Road,Suite 4250,Hoffman Estates,IL,60169,USA,,,,vascular,www.google.com/search?q=Cardiovascular+Imaging+Center,Cardiovascular Imaging Center Hoffman Estates,,,,,,,,,"Oct 31, 2023","Extracranial Cerebrovascular Testing, Peripheral Arterial Testing, Peripheral Venous Testing, Visceral Vascular Testing",,,,,,,,,,,,,,
86,87,"Cardiovascular Medicine, PC",41.469836,-90.533651,multigranted,1100 36th Avenue,,Moline,IL,61265,USA,,,,"echo, vascular, nuclear","www.google.com/search?q=Cardiovascular+Medicine,+PC","Cardiovascular Medicine, PC Moline",,,"Sep 30, 2023",Adult Transthoracic,,,"May 31, 2025","Equilibrium Radionuclide Angiography, Myocardial Perfusion Imaging, Positron Emission Tomography (PET)","Mar 31, 2024",Extracranial Cerebrovascular Testing,,,,,,,,,,,,,,
87,88,"Cardiovascular Medicine, PC",41.472529,-90.522787,granted,1100 36th Avenue,,Moline,IL,61265,USA,,,,ct,"www.google.com/search?q=Cardiovascular+Medicine,+PC","Cardiovascular Medicine, PC Moline","May 31, 2024","Body CT, Coronary CTA, Vascular CTA, Coronary Calcium Scoring",,,,,,,,,,,,,,,,,,,,,,
88,89,Carle BroMenn Medical Center,40.496332,-88.99096,granted,1304 Franklin Avenue,,Normal,IL,61761,USA,,,,echo,www.google.com/search?q=Carle+BroMenn+Medical+Center,Carle BroMenn Medical Center Normal,,,"May 31, 2023",Adult Transthoracic,,,,,,,,,,,,,,,,,,,,
89,90,Carle BroMenn Medical Center,40.496392,-88.990985,granted,1304 Franklin Avenue,,Normal,IL,61761,United States,,,,pediatric_echo,www.google.com/search?q=Carle+BroMenn+Medical+Center,Carle BroMenn Medical Center Normal,,,,,,,,,,,"Aug 31, 2024",Pediatric Transthoracic,,,,,,,,,,,,
90,91,Carle Eureka Community Hospital,40.721405,-89.271661,granted,101 South Major Street,,Eureka,IL,61530,USA,,,,echo,www.google.com/search?q=Carle+Eureka+Community+Hospital,Carle Eureka Community Hospital Eureka,,,"May 31, 2023",Adult Transthoracic,,,,,,,,,,,,,,,,,,,,
91,92,Carle Foundation Hospital,40.117423,-88.213888,multigranted,611 West Park,,Urbana,IL,61801,USA,,,,"echo, pediatric_echo",www.google.com/search?q=Carle+Foundation+Hospital,Carle Foundation Hospital Urbana,,,"Feb 29, 2024","Adult Stress, Adult Transesophageal, Adult Transthoracic",,,,,,,"Aug 31, 2024",Pediatric Transthoracic,,,,,,,,,,,,
92,93,Carle Foundation Hospital,39.915296,-87.936504,granted,2300 North Vermillion Avenue,,Danville,IL,61832,USA,,,,echo,www.google.com/search?q=Carle+Foundation+Hospital,Carle Foundation Hospital Danville,,,"Feb 29, 2024","Adult Stress, Adult Transesophageal, Adult Transthoracic",,,,,,,,,,,,,,,,,,,,
93,94,Carle Foundation Hospital,39.481946,-88.308393,granted,200 Lerna Road South,,Charleston,IL,61938,USA,,,,vascular,www.google.com/search?q=Carle+Foundation+Hospital,Carle Foundation Hospital Charleston,,,,,,,,,"Dec 30, 2022","Extracranial Cerebrovascular Testing, Peripheral Arterial Testing, Peripheral Venous Testing",,,,,,,,,,,,,,
94,95,Carle Foundation Hospital,40.117423,-88.213888,granted,611 W. Park St.,,Urbana,IL,61801,USA,,,,vascular,www.google.com/search?q=Carle+Foundation+Hospital,Carle Foundation Hospital Urbana,,,,,,,,,"Dec 30, 2022","Extracranial Cerebrovascular Testing, Peripheral Arterial Testing, Peripheral Venous Testing, Visceral Vascular Testing",,,,,,,,,,,,,,
95,96,Carle Foundation Hospital,39.915296,-87.936504,granted,2300 North Vermillion Avenue,,Danville,IL,61832,USA,,,,vascular,www.google.com/search?q=Carle+Foundation+Hospital,Carle Foundation Hospital Danville,,,,,,,,,"Dec 30, 2022","Extracranial Cerebrovascular Testing, Peripheral Arterial Testing, Peripheral Venous Testing",,,,,,,,,,,,,,
96,97,Carle Foundation Hospital,39.481946,-88.308393,granted,200 Lerna Rd. South,,Mattoon,IL,61938,USA,,,,echo,www.google.com/search?q=Carle+Foundation+Hospital,Carle Foundation Hospital Mattoon,,,"Feb 29, 2024",Adult Transthoracic,,,,,,,,,,,,,,,,,,,,
97,98,Carle Hoopeston Regional Health Center,40.459188,-87.660086,granted,701 E. Orange Street,,Hoopeston,IL,60942,USA,,,,echo,www.google.com/search?q=Carle+Hoopeston+Regional+Health+Center,Carle Hoopeston Regional Health Center Hoopeston,,,"Feb 29, 2024","Adult Stress, Adult Transthoracic",,,,,,,,,,,,,,,,,,,,
98,99,Carle West Physician Group,40.496374,-88.990973,granted,1302 Franklin Avenue,Suite 3400,Normal,IL,61761,USA,,,,pediatric_echo,www.google.com/search?q=Carle+West+Physician+Group,Carle West Physician Group Normal,,,,,,,,,,,"Aug 31, 2024",Pediatric Transthoracic,,,,,,,,,,,,
99,100,Carle West Physician Group,40.873544,-88.656143,granted,1508 Reynolds,Suite A,Pontiac,IL,61764,USA,,,,echo,www.google.com/search?q=Carle+West+Physician+Group,Carle West Physician Group Pontiac,,,"May 31, 2023",Adult Transthoracic,,,,,,,,,,,,,,,,,,,,
100,101,Carle West Physician Group,40.496332,-88.99096,granted,1302 Franklin Avenue,Suite 4500,Normal,IL,61761,USA,,,,echo,www.google.com/search?q=Carle+West+Physician+Group,Carle West Physician Group Normal,,,"May 31, 2023",Adult Transthoracic,,,,,,,,,,,,,,,,,,,,
101,102,Carlos F Smith DPM PC,41.841267,-87.623532,granted,1301 E. 47th Street,,Chicago,IL,60653,USA,,www.chicagocfac.com,,mr,,Carlos F Smith DPM PC Chicago,,,,,"Apr 30, 2024",Musculoskeletal MRI,,,,,,,,,,,,,,,,,,
102,103,Carlson Orthopedic Clinic,42.248466,-88.981327,granted,1848 Daimler Road,,Rockford,IL,61112,USA,,,,mr,www.google.com/search?q=Carlson+Orthopedic+Clinic,Carlson Orthopedic Clinic Rockford,,,,,"Dec 31, 2022",Musculoskeletal MRI,,,,,,,,,,,,,,,,,,
103,104,Cedar Court Imaging Ltd,37.740006,-89.253102,multigranted,1200 Cedar Court,,Carbondale,IL,62901,USA,,cedarcourtimaging.com,,"mr, ct",,Cedar Court Imaging Ltd Carbondale,"Apr 30, 2025","Body CT, Neurological CT",,,"Sep 30, 2023","Musculoskeletal MRI, Neurological MRI",,,,,,,,,,,,,,,,,,
104,105,"Center for Gastrointestinal Health, SC",38.576322,-89.98481,granted,5023 North Illinois Street,,Fairview Heights,IL,62208,USA,,,,ct,"www.google.com/search?q=Center+for+Gastrointestinal+Health,+SC","Center for Gastrointestinal Health, SC Fairview Heights","Jun 30, 2023",Body CT,,,,,,,,,,,,,,,,,,,,,,
105,106,Central DuPage Hospital,41.872844,-88.157057,granted,25 North Winfield Road,,Winfield,IL,60190,USA,,,,echo,www.google.com/search?q=Central+DuPage+Hospital,Central DuPage Hospital Winfield,,,"Jan 31, 2023","Adult Stress, Adult Transesophageal, Adult Transthoracic",,,,,,,,,,,,,,,,,,,,
106,107,Century Ear Nose and Throat Orland,41.598404,-87.881731,granted,16001 S 108th Ave,,Orland Park,IL,60467,USA,,www.centhns.com,,ct,,Century Ear Nose and Throat Orland Orland Park,"Sep 30, 2024",Maxillofacial CT,,,,,,,,,,,,,,,,,,,,,,
107,108,CHCI Carle Heart and Vascular Institute,39.483846,-88.308375,granted,100 Lerna Road South,,Mattoon,IL,61938,USA,,,,nuclear,www.google.com/search?q=CHCI+Carle+Heart+and+Vascular+Institute,CHCI Carle Heart and Vascular Institute Mattoon,,,,,,,"Nov 30, 2023",Myocardial Perfusion Imaging,,,,,,,,,,,,,,,,
108,109,Chicago Cardiology Institute,42.042931,-88.058354,granted,804 E. Woodfield Road,Suite 300,Schaumburg,IL,60173,USA,,,,nuclear,www.google.com/search?q=Chicago+Cardiology+Institute,Chicago Cardiology Institute Schaumburg,,,,,,,"Aug 31, 2023",Myocardial Perfusion Imaging,,,,,,,,,,,,,,,,
109,110,Chicago Cardiology Institute,41.90889,-87.802697,granted,7035 W. North Ave,,Oak Park,IL,60302,USA,,,,nuclear,www.google.com/search?q=Chicago+Cardiology+Institute,Chicago Cardiology Institute Oak Park,,,,,,,"Aug 31, 2023",Myocardial Perfusion Imaging,,,,,,,,,,,,,,,,
110,111,"Chicago Nasal and Sinus Center, SC",41.88323,-87.631382,granted,111 West  Washington,Suite 903,Chicago,IL,60602,USA,,www.chicagonasalsinuscenter.com,,ct,,"Chicago Nasal and Sinus Center, SC Chicago","Apr 01, 2023",Maxillofacial CT,,,,,,,,,,,,,,,,,,,,,,
111,112,Chicagoland Community Pediatric Cardiology,41.896235,-87.624191,granted,737 N Michigan Ave,Suite 900,Chicago,IL,60611,USA,,Chicagoland Community Pediatric Cardiology,,pediatric_echo,,Chicagoland Community Pediatric Cardiology Chicago,,,,,,,,,,,"Jun 30, 2023",Pediatric Transthoracic,,,,,,,,,,,,
112,113,Christie Clinic,40.116317,-88.244335,granted,101 West University Avenue,,Champaign,IL,61820,USA,,,,echo,www.google.com/search?q=Christie+Clinic,Christie Clinic Champaign,,,"Nov 30, 2024","Adult Stress, Adult Transthoracic",,,,,,,,,,,,,,,,,,,,
113,114,Christie Clinic,40.116317,-88.244335,multigranted,101 W. University Ave,,Champaign,IL,61820,USA,,www.christieclinic.com,,"nuclear, vascular, ct, mr",,Christie Clinic Champaign,"Jan 31, 2025","Body CT, Coronary CTA, Neurological CT, Vascular CTA | Coronary Calcium Scoring, Maxillofacial CT",,,"Jan 31, 2025","Body MRI, Musculoskeletal MRI, Neurological MRI | Breast MRI, MRA","Nov 30, 2023","Equilibrium Radionuclide Angiography, General Nuclear Medicine, Myocardial Perfusion Imaging, Positron Emission Tomography (PET)","Dec 31, 2024","Extracranial Cerebrovascular Testing, Peripheral Arterial Testing, Peripheral Venous Testing, Screening",,,,,,,,,,,,,,
114,115,Christie Clinic at the Fields,40.082282,-88.310125,multigranted,3101 Fields South Drive,,Champaign,IL,61822,USA,,,,"nuclear, ct, mr",www.google.com/search?q=Christie+Clinic+at+the+Fields,Christie Clinic at the Fields Champaign,"Jan 31, 2025","Body CT, Neurological CT, Vascular CTA | Maxillofacial CT",,,"Jan 31, 2025","Body MRI, Musculoskeletal MRI, Neurological MRI | Breast MRI, MRA","Nov 30, 2023",Positron Emission Tomography (PET),,,,,,,,,,,,,,,,
115,116,Christie Clinic at the Fields,40.082282,-88.310125,granted,3101 Fields South Drive,,Champaign,IL,61822,USA,,,,vascular,www.google.com/search?q=Christie+Clinic+at+the+Fields,Christie Clinic at the Fields Champaign,,,,,,,,,"Dec 31, 2024","Extracranial Cerebrovascular Testing, Peripheral Arterial Testing, Peripheral Venous Testing",,,,,,,,,,,,,,
116,117,Christie Clinic in Urbana,40.08382,-88.18592,granted,1710 East Windsor Road,,Urbana,IL,61802,USA,,,,mr,www.google.com/search?q=Christie+Clinic+in+Urbana,Christie Clinic in Urbana Urbana,,,,,"Jan 31, 2025","Body MRI, Musculoskeletal MRI, Neurological MRI, Breast MRI, MRA",,,,,,,,,,,,,,,,,,
117,118,Christie Clinic on Danville-Logan,40.135887,-87.644905,granted,800 North Logan Ave,,Danville,IL,61832,USA,,veinvascular.christieclinic.com/,,vascular,,Christie Clinic on Danville-Logan Danville,,,,,,,,,"Dec 31, 2024","Extracranial Cerebrovascular Testing, Peripheral Arterial Testing, Peripheral Venous Testing",,,,,,,,,,,,,,
118,119,Christie Clinic on Windsor,40.083713,-88.276899,granted,1801 West Windsor Rd.,,Champaign,IL,61822,USA,,www.christieclinic.com,,vascular,,Christie Clinic on Windsor Champaign,,,,,,,,,"Dec 31, 2024","Extracranial Cerebrovascular Testing, Peripheral Venous Testing",,,,,,,,,,,,,,
119,120,"Clinical Cardiology Consultants, SC",41.908306,-87.84327,granted,675 W. North Avenue,Suite 216,Melrose Park,IL,60160,USA,,,,nuclear,"www.google.com/search?q=Clinical+Cardiology+Consultants,+SC","Clinical Cardiology Consultants, SC Melrose Park",,,,,,,"Oct 31, 2023",Myocardial Perfusion Imaging,,,,,,,,,,,,,,,,
120,121,"Comer Children’s Hospital, University of Chicago Medicine",41.787956,-87.604925,granted,5721 S. Maryland Avenue,,Chicago,IL,60637,USA,,,,pediatric_echo,"www.google.com/search?q=Comer+Children’s+Hospital,+University+of+Chicago+Medicine","Comer Children’s Hospital, University of Chicago Medicine Chicago",,,,,,,,,,,"Nov 30, 2023","Pediatric Transesophageal, Pediatric Transthoracic, Fetal",,,,,,,,,,,,
121,122,Community First Medical Center,41.945878,-87.767782,granted,5645 W. Addison,,Chicago,IL,60634,USA,,reshealthcare.org,,echo,,Community First Medical Center Chicago,,,"May 31, 2024",Adult Transthoracic,,,,,,,,,,,,,,,,,,,,
122,123,"Comprehensive Urologic Care, SC",42.188029,-88.184772,granted,22285 Pepper Road - Suite 201,,Lake Barrington,IL,60010,USA,,www.compurocare.com,,ct,,"Comprehensive Urologic Care, SC Lake Barrington","Jun 30, 2024",Body CT,,,,,,,,,,,,,,,,,,,,,,
123,124,"Congress Vein Clinic, LLC",41.875569,-87.628954,granted,41 West Congress Parkway,,Chicago,IL,60606,USA,,,,vascular,"www.google.com/search?q=Congress+Vein+Clinic,+LLC","Congress Vein Clinic, LLC Chicago",,,,,,,,,"Dec 30, 2022",Peripheral Venous Testing,,,,,,,,,,,,,,
124,125,Consultants in Cardiology and Electrophysiology Llc,41.72061,-87.711335,granted,3545 W 95th St,,Evergreen Park,IL,60805,USA,,,,nuclear,www.google.com/search?q=Consultants+in+Cardiology+and+Electrophysiology+Llc,Consultants in Cardiology and Electrophysiology Llc Evergreen Park,,,,,,,"Jan 31, 2024","Myocardial Perfusion Imaging, Positron Emission Tomography (PET)",,,,,,,,,,,,,,,,
125,126,Cook County Health,41.871546,-87.674437,granted,"1950 W. Polk Street, 6th Floor",,Chicago,IL,60612,USA,,,,pediatric_echo,www.google.com/search?q=Cook+County+Health,Cook County Health Chicago,,,,,,,,,,,"Aug 31, 2023",Pediatric Transthoracic,,,,,,,,,,,,
126,127,Copley Memorial Hospital,41.659111,-88.464291,granted,1100 West Veterans Parkway,Suite 330,Yorkville,IL,60560,USA,,,,echo,www.google.com/search?q=Copley+Memorial+Hospital,Copley Memorial Hospital Yorkville,,,"May 31, 2025",Adult Transthoracic,,,,,,,,,,,,,,,,,,,,
127,128,Copley Memorial Hospital,41.727722,-88.268415,granted,2000 Ogden Avenue,,Aurora,IL,60504,USA,,www.rushcopley.com,,echo,,Copley Memorial Hospital Aurora,,,"May 31, 2025",Adult Transthoracic,,,,,,,,,,,,,,,,,,,,
128,129,Copley Memorial Hospital,41.729637,-88.265585,granted,2088 Ogden Avenue,Suite 150,Aurora,IL,60504,USA,,,,nuclear,www.google.com/search?q=Copley+Memorial+Hospital,Copley Memorial Hospital Aurora,,,,,,,"Sep 30, 2023","Equilibrium Radionuclide Angiography, Myocardial Perfusion Imaging",,,,,,,,,,,,,,,,
129,130,Copley Memorial Hospital: 1320 North Highland,41.786671,-88.328905,granted,1320 North Highland Avenue,,Aurora,IL,60506,USA,,,,echo,www.google.com/search?q=Copley+Memorial+Hospital:+1320+North+Highland,Copley Memorial Hospital: 1320 North Highland Aurora,,,"May 31, 2025",Adult Transthoracic,,,,,,,,,,,,,,,,,,,,
130,131,Copley Memorial Hospital: Rush-Copley Heart Institute,41.729637,-88.265585,granted,2088 Ogden Avenue,,Aurora,IL,60504,USA,,,,echo,www.google.com/search?q=Copley+Memorial+Hospital:+Rush-Copley+Heart+Institute,Copley Memorial Hospital: Rush-Copley Heart Institute Aurora,,,"May 31, 2025",Adult Transthoracic,,,,,,,,,,,,,,,,,,,,
131,132,CWPG-Cardiology Normal,40.496332,-88.99096,granted,1302 Franklin Avenue,Suite 4500,Normal,IL,61761,USA,,CARLE.ORG,,nuclear,,CWPG-Cardiology Normal Normal,,,,,,,"Feb 28, 2023","Equilibrium Radionuclide Angiography, Myocardial Perfusion Imaging",,,,,,,,,,,,,,,,
132,133,Darius Bliznikas MD SC,41.660794,-87.794542,granted,7110 W 127th St Ste 210,,Palos Heights,IL,60463,USA,,www.palosent.com,,ct,,Darius Bliznikas MD SC Palos Heights,"Oct 30, 2022",Maxillofacial CT,,,,,,,,,,,,,,,,,,,,,,
133,134,Decatur Memorial Hospital Heart and Lung Institute,39.866492,-88.960912,granted,2300 North Edward Street,,Decatur,IL,62526,USA,,,,echo,www.google.com/search?q=Decatur+Memorial+Hospital+Heart+and+Lung+Institute,Decatur Memorial Hospital Heart and Lung Institute Decatur,,,"Apr 30, 2023",Adult Transthoracic,,,,,,,,,,,,,,,,,,,,
134,135,"Decatur Open MRI, Inc.",39.874984,-88.956693,granted,"2905 N. Main St., Ste. F",,Decatur,IL,62526,USA,,www.OpenMRIDecatur.com,,mr,,"Decatur Open MRI, Inc. Decatur",,,,,"Apr 30, 2023",Musculoskeletal MRI,,,,,,,,,,,,,,,,,,
135,136,Delnor Community Hospital,41.886345,-88.340414,granted,300 Randall Road,,Geneva,IL,60134,USA,,,,echo,www.google.com/search?q=Delnor+Community+Hospital,Delnor Community Hospital Geneva,,,"Nov 30, 2023","Adult Stress, Adult Transthoracic",,,,,,,,,,,,,,,,,,,,
136,137,Delnor Hospital,41.888654,-88.344568,granted,300 Randall Road,,Geneva,IL,60134,USA,,,,vascular,www.google.com/search?q=Delnor+Hospital,Delnor Hospital Geneva,,,,,,,,,"Jun 30, 2025","Extracranial Cerebrovascular Testing, Peripheral Venous Testing",,,,,,,,,,,,,,
137,138,"Dental Sleep Center, Richard A. Craig, DDS, LTD",41.598834,-87.979715,granted,14831 W 159th St. Suite 1,,Lockport,IL,60491,,,,,ct-dental,"www.google.com/search?q=Dental+Sleep+Center,+Richard+A.+Craig,+DDS,+LTD","Dental Sleep Center, Richard A. Craig, DDS, LTD Lockport",,,,,,,,,,,,,"Jul 31, 2024",Dental/Maxillofacial,,,,,,,,,,
138,139,"Dental Sleep Center, Richard A. Craig, DDS, LTD",41.894969,-87.623051,granted,150 E Huron Street Suite 1103,,Chicago,IL,60611,USA,,,,ct-dental,"www.google.com/search?q=Dental+Sleep+Center,+Richard+A.+Craig,+DDS,+LTD","Dental Sleep Center, Richard A. Craig, DDS, LTD Chicago",,,,,,,,,,,,,"Jul 31, 2024",Dental/Maxillofacial,,,,,,,,,,
139,140,"Dental Sleep Center, Richard A. Craig, DDS, LTD",41.847643,-87.951751,granted,120 Oakbrook Center Suite 318,,Oak Brook,IL,60523,USA,,,,ct-dental,"www.google.com/search?q=Dental+Sleep+Center,+Richard+A.+Craig,+DDS,+LTD","Dental Sleep Center, Richard A. Craig, DDS, LTD Oak Brook",,,,,,,,,,,,,"Jul 31, 2024",Dental/Maxillofacial,,,,,,,,,,
140,141,"Dental Sleep Center, Richard A. Craig, DDS, LTD",42.055177,-87.743625,granted,4711 Golf Rd  413,,Skokie,IL,60076,USA,,,,ct-dental,"www.google.com/search?q=Dental+Sleep+Center,+Richard+A.+Craig,+DDS,+LTD","Dental Sleep Center, Richard A. Craig, DDS, LTD Skokie",,,,,,,,,,,,,"Jul 31, 2024",Dental/Maxillofacial,,,,,,,,,,
141,142,Dr. Lalmalani,41.775688,-87.722633,granted,6449 South Pulaski,,Chicago,IL,60629,USA,,,,nuclear,www.google.com/search?q=Dr.+Lalmalani,Dr. Lalmalani Chicago,,,,,,,"Oct 31, 2023",Myocardial Perfusion Imaging,,,,,,,,,,,,,,,,
142,143,Dr. Sukenik and Dr. Sawlani,41.988665,-87.812974,granted,7447 Talcott Avenue Suite 304,,Chicago,IL,60631,USA,,,,nuclear,www.google.com/search?q=Dr.+Sukenik+and+Dr.+Sawlani,Dr. Sukenik and Dr. Sawlani Chicago,,,,,,,"Oct 31, 2023",Myocardial Perfusion Imaging,,,,,,,,,,,,,,,,
143,144,Dr. Wajahat Mirza,42.338754,-88.016654,granted,1170 East Belvidere Road,Suite 212,Grayslake,IL,60030,USA,,,,echo,www.google.com/search?q=Dr.+Wajahat+Mirza,Dr. Wajahat Mirza Grayslake,,,"Dec 31, 2024",Adult Transthoracic,,,,,,,,,,,,,,,,,,,,
144,145,DuPage Medical Group,41.876817,-88.071154,granted,430 Pennsylvania Avenue,Suite 350,Glen Ellyn,IL,60137,USA,,www.Dupagemedicalgroup.com,,vascular,,DuPage Medical Group Glen Ellyn,,,,,,,,,"Sep 28, 2022","Extracranial Cerebrovascular Testing, Peripheral Arterial Testing, Peripheral Venous Testing, Visceral Vascular Testing",,,,,,,,,,,,,,
145,146,DuPage Medical Group,41.861564,-87.938282,granted,133 E. Brush Hill Rd,Suite 110,Elmhurst,IL,60126,USA,,,,vascular,www.google.com/search?q=DuPage+Medical+Group,DuPage Medical Group Elmhurst,,,,,,,,,"Sep 28, 2022","Extracranial Cerebrovascular Testing, Peripheral Arterial Testing, Peripheral Venous Testing, Visceral Vascular Testing",,,,,,,,,,,,,,
146,147,DuPage Medical Group,41.791347,-88.129877,granted,1020 E. Ogden Ave,Suite 301,Naperville,IL,60563,USA,,,,vascular,www.google.com/search?q=DuPage+Medical+Group,DuPage Medical Group Naperville,,,,,,,,,"Sep 28, 2022","Extracranial Cerebrovascular Testing, Peripheral Arterial Testing, Peripheral Venous Testing, Visceral Vascular Testing",,,,,,,,,,,,,,
147,148,DuPage Medical Group,41.850172,-88.01176,granted,1801 Highland Avenue,,Lombard,IL,60148,USA,,,,vascular,www.google.com/search?q=DuPage+Medical+Group,DuPage Medical Group Lombard,,,,,,,,,"Sep 28, 2022","Extracranial Cerebrovascular Testing, Peripheral Arterial Testing, Peripheral Venous Testing, Visceral Vascular Testing",,,,,,,,,,,,,,
148,149,DuPage Medical Group - Cardiovascular Specialists,41.527892,-88.134632,granted,301 N. Madison Street,Suite 207,Joliet,IL,60435,USA,,,,nuclear,www.google.com/search?q=DuPage+Medical+Group+-+Cardiovascular+Specialists,DuPage Medical Group - Cardiovascular Specialists Joliet,,,,,,,"Apr 30, 2024",Myocardial Perfusion Imaging,,,,,,,,,,,,,,,,
149,150,DuPage Medical Group - Cardiovascular Specialists Downers Grove,41.818854,-88.010201,granted,3825 Highland Avenue,Suite 210 Tower 2,Downers Grove,IL,60515,USA,,,,nuclear,www.google.com/search?q=DuPage+Medical+Group+-+Cardiovascular+Specialists+Downers+Grove,DuPage Medical Group - Cardiovascular Specialists Downers Grove Downers Grove,,,,,,,"Apr 30, 2024",Myocardial Perfusion Imaging,,,,,,,,,,,,,,,,
150,151,DuPage Medical Group - Cardiovascular Specialists Naperville,41.762122,-88.152475,granted,100 Spalding Drive,Suite 400,Naperville,IL,60540,USA,,,,nuclear,www.google.com/search?q=DuPage+Medical+Group+-+Cardiovascular+Specialists+Naperville,DuPage Medical Group - Cardiovascular Specialists Naperville Naperville,,,,,,,"Apr 30, 2024",Myocardial Perfusion Imaging,,,,,,,,,,,,,,,,
151,152,DuPage Medical Group - Cardiovascular Specialists Winfield,41.873765,-88.158095,granted,25 N. Winfield Rd,ASP Building Suite 300,Winfield,IL,60190,USA,,,,nuclear,www.google.com/search?q=DuPage+Medical+Group+-+Cardiovascular+Specialists+Winfield,DuPage Medical Group - Cardiovascular Specialists Winfield Winfield,,,,,,,"Apr 30, 2024","Equilibrium Radionuclide Angiography, Myocardial Perfusion Imaging",,,,,,,,,,,,,,,,
152,153,DuPage Medical Group Cardiovascular Specialists Hoffman Estates,42.061544,-88.138175,granted,2359 Hassell rd,,Hoffman Estates,IL,60169,USA,,,,nuclear,www.google.com/search?q=DuPage+Medical+Group+Cardiovascular+Specialists+Hoffman+Estates,DuPage Medical Group Cardiovascular Specialists Hoffman Estates Hoffman Estates,,,,,,,"Apr 30, 2024",Myocardial Perfusion Imaging,,,,,,,,,,,,,,,,
153,154,"DuPage Medical Group, Ltd",42.052409,-88.144445,granted,2359 Hassell Rd.,,Hoffman Estates,IL,60169,USA,,www.heartandwellnesscenter.net,,echo,,"DuPage Medical Group, Ltd Hoffman Estates",,,"Aug 31, 2024","Adult Stress, Adult Transthoracic",,,,,,,,,,,,,,,,,,,,
154,155,"DuPage Medical Group, Ltd",41.861564,-87.938282,granted,133 East Brush Hill Road,,Elmhurst,IL,60126,USA,,,,echo,"www.google.com/search?q=DuPage+Medical+Group,+Ltd","DuPage Medical Group, Ltd Elmhurst",,,"Aug 31, 2024","Adult Stress, Adult Transthoracic",,,,,,,,,,,,,,,,,,,,
155,156,"Dupage Medical Group, Ltd",41.565775,-87.832668,granted,17495 South Lagrange Road,,Tinley Park,IL,60487,USA,,www.dupagemd.com,,echo,,"Dupage Medical Group, Ltd Tinley Park",,,"Aug 31, 2024","Adult Stress, Adult Transthoracic",,,,,,,,,,,,,,,,,,,,
156,157,"Dupage Medical Group, Ltd",41.658018,-87.678993,granted,2320 High Street,,Blue Island,IL,60406,USA,,www.dupagemd.com,,echo,,"Dupage Medical Group, Ltd Blue Island",,,"Aug 31, 2024",Adult Transthoracic,,,,,,,,,,,,,,,,,,,,
157,158,"DuPage Medical Group, Ltd",41.873765,-88.158095,granted,25 North Winfield Road,,Winfield,IL,60190,USA,,,,echo,"www.google.com/search?q=DuPage+Medical+Group,+Ltd","DuPage Medical Group, Ltd Winfield",,,"Aug 31, 2024","Adult Stress, Adult Transthoracic",,,,,,,,,,,,,,,,,,,,
158,159,"DuPage Medical Group, Ltd",41.762122,-88.152475,granted,100 Spadling Drive,Suite 300,Naperville,IL,60540,USA,,,,echo,"www.google.com/search?q=DuPage+Medical+Group,+Ltd","DuPage Medical Group, Ltd Naperville",,,"Aug 31, 2024","Adult Stress, Adult Transthoracic",,,,,,,,,,,,,,,,,,,,
159,160,"DuPage Medical Group, Ltd",41.81857,-88.010181,granted,303 West Ogden Ave,3rd Floor,Westmont,IL,60559,USA,,,,echo,"www.google.com/search?q=DuPage+Medical+Group,+Ltd","DuPage Medical Group, Ltd Westmont",,,"Aug 31, 2024","Adult Stress, Adult Transthoracic",,,,,,,,,,,,,,,,,,,,
160,161,DuPage Medical Group-Cardiovascular Specialists-Elmhurst,41.861564,-87.938282,granted,133 E. Brush Hill Road,Suite 110,Elmhurst,IL,60126,USA,,,,nuclear,www.google.com/search?q=DuPage+Medical+Group-Cardiovascular+Specialists-Elmhurst,DuPage Medical Group-Cardiovascular Specialists-Elmhurst Elmhurst,,,,,,,"Apr 30, 2024",Myocardial Perfusion Imaging,,,,,,,,,,,,,,,,
161,162,Ear Nose and Throat Specialist of Illinois (LV),42.249141,-87.944396,granted,1900 Hollister Dr.,Suite 220-A,Libertyviile,IL,60048,USA,,,,ct,www.google.com/search?q=Ear+Nose+and+Throat+Specialist+of+Illinois+(LV),Ear Nose and Throat Specialist of Illinois (LV) Libertyviile,"Oct 31, 2024",Maxillofacial CT,,,,,,,,,,,,,,,,,,,,,,
162,163,"Ear, Nose and Throat Specialists of Illinois, Ltd",42.054514,-87.844263,granted,8780 West Golf Road,Suite 200,Niles,IL,60714,USA,,,,ct,"www.google.com/search?q=Ear,+Nose+and+Throat+Specialists+of+Illinois,+Ltd","Ear, Nose and Throat Specialists of Illinois, Ltd Niles","Oct 31, 2024",Maxillofacial CT,,,,,,,,,,,,,,,,,,,,,,
163,164,"Ear, Nose, and Throat Care Center",42.193395,-88.178183,granted,27790 West Highway 22,Medical Office Center 1 Suite 27,Barrington,IL,60010,USA,,theentcc.com,,ct,,"Ear, Nose, and Throat Care Center Barrington","Jan 31, 2023",Maxillofacial CT,,,,,,,,,,,,,,,,,,,,,,
164,165,"Edward Healthcare Center, Bolingbrook, IL, Cardiac Diagnostics",41.697922,-88.123349,granted,130 North Weber Road,,Bolingbrook,IL,60440,USA,,,,echo,"www.google.com/search?q=Edward+Healthcare+Center,+Bolingbrook,+IL,+Cardiac+Diagnostics","Edward Healthcare Center, Bolingbrook, IL, Cardiac Diagnostics Bolingbrook",,,"May 31, 2025",Adult Transthoracic,,,,,,,,,,,,,,,,,,,,
165,166,"Edward Healthcare Center, Plainfield, IL, Cardiac Diagnostics",41.651435,-88.218112,granted,24600 West 127th Street,,Plainfield,IL,60585,USA,,,,echo,"www.google.com/search?q=Edward+Healthcare+Center,+Plainfield,+IL,+Cardiac+Diagnostics","Edward Healthcare Center, Plainfield, IL, Cardiac Diagnostics Plainfield",,,"May 31, 2025","Adult Stress, Adult Transthoracic",,,,,,,,,,,,,,,,,,,,
166,167,"Edward Healthcare Center, Yorkville Professional Building, Cardiac Diagnostics",41.661971,-88.441508,granted,106 East Countryside Parkway,,Yorkville,IL,60560,USA,,,,echo,"www.google.com/search?q=Edward+Healthcare+Center,+Yorkville+Professional+Building,+Cardiac+Diagnostics","Edward Healthcare Center, Yorkville Professional Building, Cardiac Diagnostics Yorkville",,,"May 31, 2025","Adult Stress, Adult Transthoracic",,,,,,,,,,,,,,,,,,,,
167,168,Edward Heart Hospital,41.761426,-88.149239,granted,Edward Heart Hospital Cardiac Diagnostics,801 South Washington Street,Naperville,IL,60540,USA,,,,echo,www.google.com/search?q=Edward+Heart+Hospital,Edward Heart Hospital Naperville,,,"May 31, 2025","Adult Stress, Adult Transthoracic",,,,,,,,,,,,,,,,,,,,
168,169,Edward Heart Hospital,41.761426,-88.149239,granted,801 South Washington,,Naperville,IL,60540,USA,,,,nuclear,www.google.com/search?q=Edward+Heart+Hospital,Edward Heart Hospital Naperville,,,,,,,"Jul 31, 2024",Myocardial Perfusion Imaging,,,,,,,,,,,,,,,,
169,170,Edward Plainfield Outpatient Center,41.651435,-88.218112,granted,24600 W. 127th Street,Suite 215,Plainfield,IL,60585,USA,,,,nuclear,www.google.com/search?q=Edward+Plainfield+Outpatient+Center,Edward Plainfield Outpatient Center Plainfield,,,,,,,"Jul 31, 2024",Myocardial Perfusion Imaging,,,,,,,,,,,,,,,,
170,171,Elmhurst Memorial Hospital,41.861666,-87.934848,granted,155 E. Brush Hill Road,,Elmhurst,IL,60126,USA,,www.emhc.org,,echo,,Elmhurst Memorial Hospital Elmhurst,,,"Oct 31, 2024","Adult Stress, Adult Transthoracic",,,,,,,,,,,,,,,,,,,,
171,172,ENT Family Clinic of WI,42.080669,-87.907495,granted,"250 Kensington Rd, Suite 3B",,Mt Prospect,IL,60056,USA,,,,ct,www.google.com/search?q=ENT+Family+Clinic+of+WI,ENT Family Clinic of WI Mt Prospect,"Sep 30, 2024",Maxillofacial CT,,,,,,,,,,,,,,,,,,,,,,
172,173,Evanston Hospital,42.065359,-87.683283,granted,2650 North Ridge Avenue,,Evanston,IL,60201,USA,,www.northshore.org,,vascular,,Evanston Hospital Evanston,,,,,,,,,"Nov 29, 2022","Extracranial Cerebrovascular Testing, Peripheral Arterial Testing, Peripheral Venous Testing",,,,,,,,,,,,,,
173,174,Exhale Sinus and Facial Pain Center,42.042932,-88.058296,granted,814 E Woodfield Rd.,,Schaumburg,IL,60173,USA,,www.exhalesinus.com,,ct,,Exhale Sinus and Facial Pain Center Schaumburg,"Jul 31, 2023",Maxillofacial CT,,,,,,,,,,,,,,,,,,,,,,
174,175,First Step Foot Care,42.115682,-87.985066,granted,149 W. Rand Rd,,Arlington Heights,IL,60004,USA,,www.firststepfootcare.com,,mr,,First Step Foot Care Arlington Heights,,,,,"Dec 31, 2022",Musculoskeletal MRI,,,,,,,,,,,,,,,,,,
175,176,"Foot and Ankle Clinic of Illinois, P.C.",39.767522,-89.692215,multigranted,2921 Montvale Drive,,Springfield,IL,62704,USA,,,,"mr, ct","www.google.com/search?q=Foot+and+Ankle+Clinic+of+Illinois,+P.C.","Foot and Ankle Clinic of Illinois, P.C. Springfield","Aug 31, 2024",Body CT,,,"Dec 30, 2022",Musculoskeletal MRI,,,,,,,,,,,,,,,,,,
176,177,Fox Valley Vein Center,41.659197,-88.611467,multigranted,831 East Sandhurst Drive,,Sandwich,IL,60548,USA,,,,"vein_center, vascular",www.google.com/search?q=Fox+Valley+Vein+Center,Fox Valley Vein Center Sandwich,,,,,,,,,"Apr 30, 2025",Peripheral Venous Testing,,,,,,,"Jun 30, 2023",Superficial Venous Evaluation and Management,,,,,,
177,178,Franciscan Health Olympia Fields,41.50514,-87.64085,granted,20201 Crawford Ave,,Olympia Fields,IL,60461,USA,,,,vascular,www.google.com/search?q=Franciscan+Health+Olympia+Fields,Franciscan Health Olympia Fields Olympia Fields,,,,,,,,,"Feb 28, 2023","Extracranial Cerebrovascular Testing, Peripheral Arterial Testing, Peripheral Venous Testing",,,,,,,,,,,,,,
178,179,Fullerton MRI,41.924628,-87.712281,granted,3405 West Fullerton Avenue,,Chicago,IL,60647,USA,,www.fullertonmricenter.com,,mr,,Fullerton MRI Chicago,,,,,"Aug 31, 2024","Body MRI, Musculoskeletal MRI, Neurological MRI, MRA",,,,,,,,,,,,,,,,,,
179,180,"Geetha M. Reddy, M.D., F.A.C.C.",42.296047,-87.995323,granted,1880 West Winchester Road,Suite 207,Libertyville,IL,60048,USA,,,,nuclear,"www.google.com/search?q=Geetha+M.+Reddy,+M.D.,+F.A.C.C.","Geetha M. Reddy, M.D., F.A.C.C. Libertyville",,,,,,,"Dec 31, 2023",Myocardial Perfusion Imaging,,,,,,,,,,,,,,,,
180,181,Genesis Orthopedics and Sports Medicine LLC,41.873821,-87.692518,granted,2641 W Harrison Street,,Chicago,IL,60612,United States ,,genesisortho.com,,mr,,Genesis Orthopedics and Sports Medicine LLC Chicago,,,,,"Jul 31, 2023",Musculoskeletal MRI,,,,,,,,,,,,,,,,,,
181,182,"Genesis Orthopedics and Sports Medicine, LLC",41.924201,-88.279819,granted,2900 Foxfield Road,Suite 102,Saint Charles,IL,60174,USA,,www.genesisortho.com,,mr,,"Genesis Orthopedics and Sports Medicine, LLC Saint Charles",,,,,"Jul 31, 2023",Musculoskeletal MRI,,,,,,,,,,,,,,,,,,
182,183,Gilvydis Vein Clinic,41.890411,-88.345711,granted,2631 Williamsburg Ave,Suite 202,Geneva,IL,60134,USA,,gilvydisvein.com,,vascular,,Gilvydis Vein Clinic Geneva,,,,,,,,,"Jul 31, 2024",Peripheral Venous Testing,,,,,,,,,,,,,,
183,184,Gilvydis Vein Clinic,41.967072,-88.709812,granted,1815 Mediterranean Drive,Unit 103,Sycamore,IL,60178,USA,,,,vein_center,www.google.com/search?q=Gilvydis+Vein+Clinic,Gilvydis Vein Clinic Sycamore,,,,,,,,,,,,,,,,,"Dec 31, 2023",Superficial Venous Evaluation and Management,,,,,,
184,185,Gilvydis Vein Clinic,41.890411,-88.345711,granted,2631 Williamsburg Ave,Suite 202,Geneva,IL,60134,USA,,www.gilvydisvein.com,,vein_center,,Gilvydis Vein Clinic Geneva,,,,,,,,,,,,,,,,,"Dec 31, 2023",Superficial Venous Evaluation and Management,,,,,,
185,186,Gilvydis Vein Clinic,41.999648,-88.683065,granted,1815 Mediterranean Dr,#103,Sycamore,IL,60178,USA,,gilvydisvein.com,,vascular,,Gilvydis Vein Clinic Sycamore,,,,,,,,,"Jul 31, 2024",Peripheral Venous Testing,,,,,,,,,,,,,,
186,187,Glenbrook Hospital,42.092474,-87.853804,granted,2100 Pfingsten Road,,Glenview,IL,60626,USA,,www.northshore.org,,vascular,,Glenbrook Hospital Glenview,,,,,,,,,"Nov 29, 2022","Extracranial Cerebrovascular Testing, Peripheral Arterial Testing, Peripheral Venous Testing",,,,,,,,,,,,,,
187,188,Good Samaritan Hospital-SSM Health,38.297773,-88.939484,granted,1 Good Samaritan Way,,Mt. Vernon,IL,62830,USA,,,,echo,www.google.com/search?q=Good+Samaritan+Hospital-SSM+Health,Good Samaritan Hospital-SSM Health Mt. Vernon,,,"Dec 30, 2022",Adult Transthoracic,,,,,,,,,,,,,,,,,,,,
188,189,Heart and Vascular Center of Lake County,42.358047,-87.900945,granted,3915 W. Oglesby Ave.,,Gurnee,IL,60031,USA,,,,echo,www.google.com/search?q=Heart+and+Vascular+Center+of+Lake+County,Heart and Vascular Center of Lake County Gurnee,,,"Feb 28, 2023","Adult Stress, Adult Transthoracic",,,,,,,,,,,,,,,,,,,,
189,190,Heart and Vascular Center of Lake County,42.357899,-87.900907,granted,3915 Oglseby Ave,,Gurnee,IL,60031,USA,,www.heartandvasc.com,,nuclear,,Heart and Vascular Center of Lake County Gurnee,,,,,,,"Oct 31, 2023",Myocardial Perfusion Imaging,,,,,,,,,,,,,,,,
190,191,Heart Care Centers of Illinois,41.652896,-87.873555,multigranted,13011 South 104th Avenue,Suite 100,Palos Park,IL,60464,USA,,,,"echo, vascular",www.google.com/search?q=Heart+Care+Centers+of+Illinois,Heart Care Centers of Illinois Palos Park,,,"Oct 31, 2023","Adult Stress, Adult Transthoracic",,,,,"Dec 31, 2023","Extracranial Cerebrovascular Testing, Peripheral Arterial Testing, Peripheral Venous Testing",,,,,,,,,,,,,,
191,192,Heart Care Centers of Illinois,41.652896,-87.873555,granted,13011 South 104th Avenue,Suite 100,Palos Park,IL,60464,USA,,,,ct,www.google.com/search?q=Heart+Care+Centers+of+Illinois,Heart Care Centers of Illinois Palos Park,"Sep 30, 2023","Body CT, Coronary CTA, Neurological CT, Vascular CTA, Coronary Calcium Scoring",,,,,,,,,,,,,,,,,,,,,,
192,193,Heart Care Centers of Illinois-Berwyn,41.832955,-87.791564,granted,"3231 S. Euclid Avenue, Suite 201",,Berwyn,IL,60402,USA,,,,nuclear,www.google.com/search?q=Heart+Care+Centers+of+Illinois-Berwyn,Heart Care Centers of Illinois-Berwyn Berwyn,,,,,,,"Mar 31, 2023","Equilibrium Radionuclide Angiography, Myocardial Perfusion Imaging",,,,,,,,,,,,,,,,
193,194,Heart Care Centers of Illinois-Berwyn,41.832955,-87.791564,multigranted,3231 South Euclid Avenue,Suite 201,Berwyn,IL,60402,USA,,,,"echo, vascular",www.google.com/search?q=Heart+Care+Centers+of+Illinois-Berwyn,Heart Care Centers of Illinois-Berwyn Berwyn,,,"Oct 31, 2023",Adult Transthoracic,,,,,"Dec 31, 2023","Extracranial Cerebrovascular Testing, Peripheral Arterial Testing, Peripheral Venous Testing",,,,,,,,,,,,,,
194,195,Heart Care Centers of Illinois-Joliet,41.525546,-88.137599,multigranted,195 Springfield Ave,,Joliet,IL,60435,USA,,,,"echo, vascular",www.google.com/search?q=Heart+Care+Centers+of+Illinois-Joliet,Heart Care Centers of Illinois-Joliet Joliet,,,"Oct 31, 2023","Adult Stress, Adult Transthoracic",,,,,"Dec 31, 2023","Extracranial Cerebrovascular Testing, Peripheral Arterial Testing, Peripheral Venous Testing",,,,,,,,,,,,,,
195,196,Heart Care Centers of Illinois-Joliet,41.525546,-88.137599,granted,2121 Oneida Street,Suite 202,Joliet,IL,60435,USA,,,,nuclear,www.google.com/search?q=Heart+Care+Centers+of+Illinois-Joliet,Heart Care Centers of Illinois-Joliet Joliet,,,,,,,"Mar 31, 2023","Equilibrium Radionuclide Angiography, Myocardial Perfusion Imaging",,,,,,,,,,,,,,,,
196,197,Heart Care Centers of Illinois-Merrionette Park,41.656351,-87.678913,multigranted,11560 Kedzie Ave Suite 100,,Merrionette Park,IL,60803,USA,,,,"echo, vascular",www.google.com/search?q=Heart+Care+Centers+of+Illinois-Merrionette+Park,Heart Care Centers of Illinois-Merrionette Park Merrionette Park,,,"Oct 31, 2023",Adult Transthoracic,,,,,"Dec 31, 2023","Extracranial Cerebrovascular Testing, Peripheral Arterial Testing, Peripheral Venous Testing",,,,,,,,,,,,,,
197,198,Heart Care Centers of Illinois-Merrionette Park,41.656351,-87.678913,granted,11560 S Kedzie Ave.,Suite 100,Merrionette Park,IL,60803,USA,,,,nuclear,www.google.com/search?q=Heart+Care+Centers+of+Illinois-Merrionette+Park,Heart Care Centers of Illinois-Merrionette Park Merrionette Park,,,,,,,"Mar 31, 2023","Equilibrium Radionuclide Angiography, Myocardial Perfusion Imaging",,,,,,,,,,,,,,,,
198,199,Heart Care Centers of Illinois-Mokena,41.543168,-87.849667,granted,10260 W 191st St,Suite 102,Mokena,IL,60448,USA,,,,nuclear,www.google.com/search?q=Heart+Care+Centers+of+Illinois-Mokena,Heart Care Centers of Illinois-Mokena Mokena,,,,,,,"Mar 31, 2023","Equilibrium Radionuclide Angiography, Myocardial Perfusion Imaging, Positron Emission Tomography (PET)",,,,,,,,,,,,,,,,
199,200,Heart Care Centers of Illinois-Mokena,41.543168,-87.849667,multigranted,10260 West 191st,Suite 102,Mokena,IL,60448,USA,,,,"echo, vascular",www.google.com/search?q=Heart+Care+Centers+of+Illinois-Mokena,Heart Care Centers of Illinois-Mokena Mokena,,,"Oct 31, 2023","Adult Stress, Adult Transthoracic",,,,,"Dec 31, 2023","Extracranial Cerebrovascular Testing, Peripheral Arterial Testing, Peripheral Venous Testing",,,,,,,,,,,,,,
200,201,Heart Care Centers of Illinois-Palos,41.652896,-87.873555,granted,13011 South 104th Avenue,Suite 100,Palos Park,IL,60464,USA,,,,nuclear,www.google.com/search?q=Heart+Care+Centers+of+Illinois-Palos,Heart Care Centers of Illinois-Palos Palos Park,,,,,,,"Mar 31, 2023","Equilibrium Radionuclide Angiography, Myocardial Perfusion Imaging",,,,,,,,,,,,,,,,
201,202,Heart Care Centers of South Chicago,41.731637,-87.551305,granted,9011 South Commercial Ave,,Chicago,IL,60617,USA,,,,nuclear,www.google.com/search?q=Heart+Care+Centers+of+South+Chicago,Heart Care Centers of South Chicago Chicago,,,,,,,"Apr 30, 2025",Myocardial Perfusion Imaging,,,,,,,,,,,,,,,,
202,203,Heartland Cardiovascular Center a member of DuPage Medical Group,41.544235,-87.986012,granted,1890 Silver Cross Boulevard,"Pavilion A, Suite 240",New Lenox,IL,60451,USA,,,,echo,www.google.com/search?q=Heartland+Cardiovascular+Center+a+member+of+DuPage+Medical+Group,Heartland Cardiovascular Center a member of DuPage Medical Group New Lenox,,,"Aug 31, 2024","Adult Stress, Adult Transthoracic",,,,,,,,,,,,,,,,,,,,
203,204,Heartland Cardiovascular Center a member of DuPage Medical Group,41.527892,-88.134632,granted,301 North Madison Street,Suite 275,Joliet,IL,60435,USA,,,,echo,www.google.com/search?q=Heartland+Cardiovascular+Center+a+member+of+DuPage+Medical+Group,Heartland Cardiovascular Center a member of DuPage Medical Group Joliet,,,"Aug 31, 2024","Adult Stress, Adult Transthoracic",,,,,,,,,,,,,,,,,,,,
204,205,Heartland Cardiovascular Center a member of DuPage Medical Group,41.377037,-88.422008,granted,1802 North Division Street,Suite 701,Morris,IL,60450,USA,,,,echo,www.google.com/search?q=Heartland+Cardiovascular+Center+a+member+of+DuPage+Medical+Group,Heartland Cardiovascular Center a member of DuPage Medical Group Morris,,,"Aug 31, 2024",Adult Transthoracic,,,,,,,,,,,,,,,,,,,,
205,206,Heartland Cardiovascular Center L.L.C. a member of DuPage Medical Group - New Lenox,41.544235,-87.986012,granted,1890 Silver Cross Blvd,"Pavillion A, Suite 240",New Lenox,IL,60451,USA,,heartlandcardio.com,,nuclear,,Heartland Cardiovascular Center L.L.C. a member of DuPage Medical Group - New Lenox New Lenox,,,,,,,"Apr 30, 2024",Myocardial Perfusion Imaging,,,,,,,,,,,,,,,,
206,207,"Heartland Cardiovascular Center, L.L.C. a member of DuPage Medical Group -Morris",41.376389,-88.422043,granted,"1802 N Division Street, Suite 701",,Morris,IL,60450,USA,,www.heartlandcardio.com,,nuclear,,"Heartland Cardiovascular Center, L.L.C. a member of DuPage Medical Group -Morris Morris",,,,,,,"Apr 30, 2024",Myocardial Perfusion Imaging,,,,,,,,,,,,,,,,
207,208,"Heartland Cardiovascular Center, L.L.C. a member of DuPage Medidcal Group - Madison",41.527892,-88.134632,granted,"301 N Madison Street, Suite 207",,Joliet,IL,60435,USA,,,,nuclear,"www.google.com/search?q=Heartland+Cardiovascular+Center,+L.L.C.+a+member+of+DuPage+Medidcal+Group+-+Madison","Heartland Cardiovascular Center, L.L.C. a member of DuPage Medidcal Group - Madison Joliet",,,,,,,"Apr 30, 2024","Equilibrium Radionuclide Angiography, Myocardial Perfusion Imaging",,,,,,,,,,,,,,,,
208,209,Highland Park Hospital,42.182578,-87.808789,granted,719 Glenview Avenue,,Highlane Park,IL,60035,USA,,www.northshore.org,,vascular,,Highland Park Hospital Highlane Park,,,,,,,,,"Nov 29, 2022","Extracranial Cerebrovascular Testing, Peripheral Arterial Testing, Peripheral Venous Testing",,,,,,,,,,,,,,
209,210,Homer Glen Open MRI and Imaging LLC,41.618436,-87.932166,multigranted,14833 S Founders Crossing,,Homer Glen,IL,60491,USA,,,,"mr, ct",www.google.com/search?q=Homer+Glen+Open+MRI+and+Imaging+LLC,Homer Glen Open MRI and Imaging LLC Homer Glen,"Sep 30, 2024","Body CT, Neurological CT, Maxillofacial CT",,,"Aug 31, 2024","Body MRI, Musculoskeletal MRI, Neurological MRI, MRA",,,,,,,,,,,,,,,,,,
210,211,Hospital Plaza Foot and Ankle S.C.,41.809797,-87.986177,granted,1228 West Ogden Ave,,Downers Grove,IL,60515,USA,,,,mr,www.google.com/search?q=Hospital+Plaza+Foot+and+Ankle+S.C.,Hospital Plaza Foot and Ankle S.C. Downers Grove,,,,,"Dec 31, 2022",Musculoskeletal MRI,,,,,,,,,,,,,,,,,,
211,212,IBJI MRI and CT Services,42.098302,-87.812227,granted,2350 Ravine Way,,Glenview,IL,60025,USA,,,,ct,www.google.com/search?q=IBJI+MRI+and+CT+Services,IBJI MRI and CT Services Glenview,"Nov 30, 2024",Body CT,,,,,,,,,,,,,,,,,,,,,,
212,213,Illinois CancerCare,40.567789,-89.62708,granted,1641 Broadway Street,,Pekin,IL,61554,USA,,,,ct,www.google.com/search?q=Illinois+CancerCare,Illinois CancerCare Pekin,"Feb 28, 2025",Body CT,,,,,,,,,,,,,,,,,,,,,,
213,214,Illinois CancerCare,40.973962,-90.378339,granted,336 Home Boulevard,,Galesburg,IL,61401,USA,,,,ct,www.google.com/search?q=Illinois+CancerCare,Illinois CancerCare Galesburg,"Feb 28, 2025",Body CT,,,,,,,,,,,,,,,,,,,,,,
214,215,Illinois CancerCare,40.477367,-88.944615,granted,3105 Magory Drive,,Bloomington,IL,61704,USA,,,,ct,www.google.com/search?q=Illinois+CancerCare,Illinois CancerCare Bloomington,"Feb 28, 2025",Body CT,,,,,,,,,,,,,,,,,,,,,,
215,216,Illinois CancerCare,40.796464,-89.666326,granted,8940 N Wood Sage Rd,,Peoria,IL,61615,USA,,,,ct,www.google.com/search?q=Illinois+CancerCare,Illinois CancerCare Peoria,"Feb 28, 2025",Body CT,,,,,,,,,,,,,,,,,,,,,,
216,217,"Illinois Sinus Center ENT Associates, SC",42.045408,-88.085688,granted,1375 E. Woodfield Road Suite 120,,Schaumburg,IL,60173,USA,,,,ct,"www.google.com/search?q=Illinois+Sinus+Center+ENT+Associates,+SC","Illinois Sinus Center ENT Associates, SC Schaumburg","Apr 30, 2024",Maxillofacial CT,,,,,,,,,,,,,,,,,,,,,,
217,218,Imaging Centers Of America INC,41.758857,-88.24955,granted,2720 E New York St Ste 100-104,,Aurora,IL,60502,USA,,,,mr,www.google.com/search?q=Imaging+Centers+Of+America+INC,Imaging Centers Of America INC Aurora,,,,,"Nov 30, 2024","Body MRI, Musculoskeletal MRI, Neurological MRI",,,,,,,,,,,,,,,,,,
218,219,"Infinity Imaging, LLC",42.066631,-88.000745,granted,"2010 South Arlington Heights Rd, Suite 209 B",,Arlington Heights,IL,60005,USA,,,,echo,"www.google.com/search?q=Infinity+Imaging,+LLC","Infinity Imaging, LLC Arlington Heights",,,"Mar 31, 2025",Adult Transthoracic,,,,,,,,,,,,,,,,,,,,
219,220,Javon Bea Hospital,42.319193,-88.957855,granted,8201 E. Riverside Boulevard,,Rockford,IL,61114,USA,,,,echo,www.google.com/search?q=Javon+Bea+Hospital,Javon Bea Hospital Rockford,,,"May 31, 2025",Adult Transthoracic,,,,,,,,,,,,,,,,,,,,
220,221,"John H. Stroger, Jr, Hospital of Cook County",41.874041,-87.674311,granted,1901 W. Harrison Street,,Chicago,IL,60612,USA,,www.cookcountyhhs.org/locations/john-h-stroger-jr-hospital/,,echo,,"John H. Stroger, Jr, Hospital of Cook County Chicago",,,"Nov 29, 2022","Adult Stress, Adult Transesophageal, Adult Transthoracic",,,,,,,,,,,,,,,,,,,,
221,222,Keni ENT,41.673247,-87.782115,granted,6420 W 127th St,Ste 106,Palos Heights,IL,60463,USA,,,,ct,www.google.com/search?q=Keni+ENT,Keni ENT Palos Heights,"May 31, 2024",Maxillofacial CT,,,,,,,,,,,,,,,,,,,,,,
222,223,King City Physician Company,38.305142,-88.942067,granted,"4117 S. Water Tower Place, Suite C",,Mt. Vernon,IL,62864,USA,,,,ct,www.google.com/search?q=King+City+Physician+Company,King City Physician Company Mt. Vernon,"Sep 30, 2024",Maxillofacial CT,,,,,,,,,,,,,,,,,,,,,,
223,224,Kishwaukee Hospital,41.96188,-88.72226,granted,1 Kish Hospital Drive,PO Box 707,Dekalb,IL,60115,USA,,,,echo,www.google.com/search?q=Kishwaukee+Hospital,Kishwaukee Hospital Dekalb,,,"Jan 31, 2025","Adult Stress, Adult Transthoracic",,,,,,,,,,,,,,,,,,,,
224,225,Lake Heart Specialists,42.295899,-87.994409,granted,731 S. IL-21,Suite 110,Gurnee,IL,60031,USA,,,,nuclear,www.google.com/search?q=Lake+Heart+Specialists,Lake Heart Specialists Gurnee,,,,,,,"Aug 31, 2023","Equilibrium Radionuclide Angiography, Myocardial Perfusion Imaging",,,,,,,,,,,,,,,,
225,226,Life Medical S.C.,42.035476,-87.865557,granted,1550 Northwest Highway Suite 200,,Park Ridge,IL,60068,USA,,,,nuclear,www.google.com/search?q=Life+Medical+S.C.,Life Medical S.C. Park Ridge,,,,,,,"Oct 31, 2023",Myocardial Perfusion Imaging,,,,,,,,,,,,,,,,
226,227,Lincoln Memorial Hospital,40.152373,-89.388698,granted,200 Stahlhut Drive,,Lincoln,IL,62656,USA,,,,echo,www.google.com/search?q=Lincoln+Memorial+Hospital,Lincoln Memorial Hospital Lincoln,,,"Jan 31, 2023",Adult Transthoracic,,,,,,,,,,,,,,,,,,,,
227,228,Louis A. Weiss Memorial Hospital,41.966521,-87.648898,granted,4646 North Marine Drive,,Chicago,IL,60640,USA,,,,vascular,www.google.com/search?q=Louis+A.+Weiss+Memorial+Hospital,Louis A. Weiss Memorial Hospital Chicago,,,,,,,,,"Jun 30, 2024","Extracranial Cerebrovascular Testing, Peripheral Arterial Testing, Peripheral Venous Testing",,,,,,,,,,,,,,
228,229,Loyola Center for Health at Burr Ridge,41.758743,-87.914231,granted,6800 N. Frontage Road,,Burr Ridge,IL,60521,USA,,,,vascular,www.google.com/search?q=Loyola+Center+for+Health+at+Burr+Ridge,Loyola Center for Health at Burr Ridge Burr Ridge,,,,,,,,,"Aug 31, 2023","Extracranial Cerebrovascular Testing, Peripheral Arterial Testing, Peripheral Venous Testing",,,,,,,,,,,,,,
229,230,Loyola Center for Health at Gottlieb,41.908343,-87.841039,granted,675 W. North Avenue,,Melrose Park,IL,60160,USA,,,,vascular,www.google.com/search?q=Loyola+Center+for+Health+at+Gottlieb,Loyola Center for Health at Gottlieb Melrose Park,,,,,,,,,"Aug 31, 2023","Extracranial Cerebrovascular Testing, Peripheral Arterial Testing, Peripheral Venous Testing, Visceral Vascular Testing",,,,,,,,,,,,,,
230,231,Loyola Center for Heart and Vascular Medicine at Park Ridge,41.987018,-87.840421,granted,1030 W. Higgins Road,,Park Ridge,IL,60068,USA,,,,vascular,www.google.com/search?q=Loyola+Center+for+Heart+and+Vascular+Medicine+at+Park+Ridge,Loyola Center for Heart and Vascular Medicine at Park Ridge Park Ridge,,,,,,,,,"Aug 31, 2023","Extracranial Cerebrovascular Testing, Peripheral Arterial Testing, Peripheral Venous Testing",,,,,,,,,,,,,,
231,232,Loyola University  Medical  Center at Burr Ridge,41.758743,-87.914231,granted,6800 N. Frontage Road,,Burr Ridge,IL,60527,USA,,,,echo,www.google.com/search?q=Loyola+University++Medical++Center+at+Burr+Ridge,Loyola University  Medical  Center at Burr Ridge Burr Ridge,,,"Sep 30, 2023","Adult Stress, Adult Transthoracic",,,,,,,,,,,,,,,,,,,,
232,233,Loyola University Medical  Center at Oakbrook Terrace,41.889925,-87.973777,granted,1 South 260 Summit Avenue,,Oakbrook Terrace,IL,60181,USA,,,,pediatric_echo,www.google.com/search?q=Loyola+University+Medical++Center+at+Oakbrook+Terrace,Loyola University Medical  Center at Oakbrook Terrace Oakbrook Terrace,,,,,,,,,,,"Aug 31, 2023",Pediatric Transthoracic,,,,,,,,,,,,
233,234,Loyola University Medical Center,41.858732,-87.83321,granted,2160 South 1st Avenue,,Maywood,IL,60153,USA,,,,pediatric_echo,www.google.com/search?q=Loyola+University+Medical+Center,Loyola University Medical Center Maywood,,,"Sep 30, 2023","Adult Stress, Adult Transesophageal, Adult Transthoracic",,,,,,,"Aug 31, 2023",Pediatric Transthoracic,,,,,,,,,,,,
234,235,Loyola University Medical Center,41.858732,-87.83321,granted,2160 South First Street Avenue,,Maywood,IL,60153,USA,,,,vascular,www.google.com/search?q=Loyola+University+Medical+Center,Loyola University Medical Center Maywood,,,,,,,,,"Aug 31, 2023","Extracranial Cerebrovascular Testing, Peripheral Arterial Testing, Peripheral Venous Testing, Visceral Vascular Testing",,,,,,,,,,,,,,
235,236,Loyola University Medical Center at Homer Glen,41.604361,-87.956646,granted,15750 Marion Drive,,Homer Glen,IL,60491,USA,,,,echo,www.google.com/search?q=Loyola+University+Medical+Center+at+Homer+Glen,Loyola University Medical Center at Homer Glen Homer Glen,,,"Sep 30, 2023",Adult Transthoracic,,,,,,,,,,,,,,,,,,,,
236,237,Loyola University Medical Center at Park Ridge,41.987018,-87.840421,granted,1030 W Higgins Road,,Park Ridge,IL,60068,USA,,,,echo,www.google.com/search?q=Loyola+University+Medical+Center+at+Park+Ridge,Loyola University Medical Center at Park Ridge Park Ridge,,,"Sep 30, 2023","Adult Stress, Adult Transthoracic",,,,,,,,,,,,,,,,,,,,
237,238,Lumen Cardiovascular Specialists,41.902785,-87.941591,granted,183 North Addison Street Suite 170,,Elmhurst,IL,60126,USA,,,,nuclear,www.google.com/search?q=Lumen+Cardiovascular+Specialists,Lumen Cardiovascular Specialists Elmhurst,,,,,,,"Oct 31, 2023",Myocardial Perfusion Imaging,,,,,,,,,,,,,,,,
238,239,Lurie Children’s Primary Care Town and Country Pediatrics Skokie,42.011762,-87.72173,granted,3722 W. Touhy Ave,,Skokie,IL,60076,USA,,,,pediatric_echo,www.google.com/search?q=Lurie+Children’s+Primary+Care+Town+and+Country+Pediatrics+Skokie,Lurie Children’s Primary Care Town and Country Pediatrics Skokie Skokie,,,,,,,,,,,"Jun 30, 2025",Pediatric Transthoracic,,,,,,,,,,,,
239,240,MacNeal Hospital,41.836151,-87.790908,granted,3249 South Oak Park,,Berwyn,IL,60402,USA,,,,echo,www.google.com/search?q=MacNeal+Hospital,MacNeal Hospital Berwyn,,,"Dec 30, 2022","Adult Stress, Adult Transesophageal, Adult Transthoracic",,,,,,,,,,,,,,,,,,,,
240,241,McDonough District Hospital,40.44791,-90.664859,multigranted,525 East Grant Street,,Macomb,IL,61455,USA,,,,"echo, vascular",www.google.com/search?q=McDonough+District+Hospital,McDonough District Hospital Macomb,,,"Jul 31, 2024",Adult Transthoracic,,,,,"Nov 30, 2024","Extracranial Cerebrovascular Testing, Peripheral Venous Testing",,,,,,,,,,,,,,
241,242,"Medical Arts Unlimited, Corp.",42.278145,-87.95332,granted,114 W. Rockland Road,,Libertyville,IL,60048,USA,,www.apexsinus.com,,ct,,"Medical Arts Unlimited, Corp. Libertyville","Aug 31, 2023",Maxillofacial CT,,,,,,,,,,,,,,,,,,,,,,
242,243,MEDPOL SC,41.980114,-87.771916,granted,5428 North Milwaukee Ave,,Chicago,IL,60630,,,,,nuclear,www.google.com/search?q=MEDPOL+SC,MEDPOL SC Chicago,,,,,,,"Oct 31, 2023",Myocardial Perfusion Imaging,,,,,,,,,,,,,,,,
243,244,Memorial Heart and Vascular Services,39.808778,-89.654586,granted,701 N First St,,Springfield,IL,62781,USA,,,,echo,www.google.com/search?q=Memorial+Heart+and+Vascular+Services,Memorial Heart and Vascular Services Springfield,,,"Dec 30, 2022","Adult Stress, Adult Transesophageal, Adult Transthoracic",,,,,,,,,,,,,,,,,,,,
244,245,"Memorial Heart and Vascular Services, Memorial Medical Center",39.808778,-89.654586,granted,701 North First Street,,Springfield,IL,62781,USA,,www.memorialmedicalcenter.com,,vascular,,"Memorial Heart and Vascular Services, Memorial Medical Center Springfield",,,,,,,,,"Jan 29, 2023","Extracranial Cerebrovascular Testing, Peripheral Arterial Testing, Peripheral Venous Testing, Visceral Vascular Testing",,,,,,,,,,,,,,
245,246,Memorial Hospital East,38.574364,-89.908825,granted,1404 Cross Street,,shiloh,IL,62269,USA,,www.memhospeast.com,,vascular,,Memorial Hospital East shiloh,,,,,,,,,"Jan 31, 2024","Extracranial Cerebrovascular Testing, Peripheral Arterial Testing, Peripheral Venous Testing",,,,,,,,,,,,,,
246,247,Memorial Hospital East,38.574364,-89.908825,granted,1404 Cross Street,,Shiloh,IL,62269,USA,,,,echo,www.google.com/search?q=Memorial+Hospital+East,Memorial Hospital East Shiloh,,,"Nov 30, 2023","Adult Transesophageal, Adult Transthoracic",,,,,,,,,,,,,,,,,,,,
247,248,Memorial Hospital Vascular Testing at MOB Suite 100,38.550326,-90.023193,granted,4600 Memorial Drive,,Belleville,IL,62226,USA,,,,vascular,www.google.com/search?q=Memorial+Hospital+Vascular+Testing+at+MOB+Suite+100,Memorial Hospital Vascular Testing at MOB Suite 100 Belleville,,,,,,,,,"Jan 31, 2024","Extracranial Cerebrovascular Testing, Peripheral Arterial Testing, Peripheral Venous Testing",,,,,,,,,,,,,,
248,249,Methodist Medical Center,40.700311,-89.59436,granted,221 North East Glen Oak Avenue,,Peoria,IL,61636,USA,,,,vascular,www.google.com/search?q=Methodist+Medical+Center,Methodist Medical Center Peoria,,,,,,,,,"Oct 31, 2023","Extracranial Cerebrovascular Testing, Peripheral Arterial Testing, Peripheral Venous Testing",,,,,,,,,,,,,,
249,250,Metro Heart and Vascular Institute,42.155533,-88.33435,granted,1479 Commerce Dr.,,Algonquin,IL,60102,United States,,,,nuclear,www.google.com/search?q=Metro+Heart+and+Vascular+Institute,Metro Heart and Vascular Institute Algonquin,,,,,,,"Oct 31, 2023",Myocardial Perfusion Imaging,,,,,,,,,,,,,,,,
250,251,Michigan Avenue Primary Care,41.885151,-87.624569,granted,180 N Michigan Ave,Suite 1605,Chicago,IL,60601,USA,,,,ct,www.google.com/search?q=Michigan+Avenue+Primary+Care,Michigan Avenue Primary Care Chicago,"Sep 30, 2024",Maxillofacial CT,,,,,,,,,,,,,,,,,,,,,,
251,252,Mid Central Illinois Gastroenterology,40.519964,-88.94195,granted,2200 Jacobssen Drive,,Normal,IL,61761,USA,,ilgastro.com,,ct,,Mid Central Illinois Gastroenterology Normal,"Nov 30, 2024",Body CT,,,,,,,,,,,,,,,,,,,,,,
252,253,Midwest Cardiovascular Institute,41.761547,-88.149267,granted,801 S. Washington Street,4th Floor,Naperville,IL,60540,USA,,midwestcardio.com,,nuclear,,Midwest Cardiovascular Institute Naperville,,,,,,,"Dec 31, 2024","Myocardial Perfusion Imaging, Positron Emission Tomography (PET)",,,,,,,,,,,,,,,,
253,254,Midwest Cardiovascular Institute,41.861607,-87.936773,granted,133 East Brush Hill Road,Suite 202,Elmhurst,IL,60126,USA,,midwestcardio.com,,nuclear,,Midwest Cardiovascular Institute Elmhurst,,,,,,,"Dec 31, 2024","Myocardial Perfusion Imaging, Positron Emission Tomography (PET)",,,,,,,,,,,,,,,,
254,255,Midwest Ear Nose Throat LTD,41.894879,-87.628008,granted,"3 E. Huron St, 1st Floor",,Chicago,IL,60611,USA,,,,ct,www.google.com/search?q=Midwest+Ear+Nose+Throat+LTD,Midwest Ear Nose Throat LTD Chicago,"Oct 31, 2022",Maxillofacial CT,,,,,,,,,,,,,,,,,,,,,,
255,256,"Midwest Imaging and Diagnostic Center, Inc.",41.719778,-87.762908,granted,5702 W 95th Street,Suite A,Oaklawn,IL,60453,USA,,,,mr,"www.google.com/search?q=Midwest+Imaging+and+Diagnostic+Center,+Inc.","Midwest Imaging and Diagnostic Center, Inc. Oaklawn",,,,,"Nov 30, 2023","Body MRI, Musculoskeletal MRI, Neurological MRI",,,,,,,,,,,,,,,,,,
256,257,"Midwest Orthopaedics at RUSH, LLC",41.874165,-87.666818,granted,1611 W Harrison St,Suite 400,Chicago,IL,60612,USA,,,,ct,"www.google.com/search?q=Midwest+Orthopaedics+at+RUSH,+LLC","Midwest Orthopaedics at RUSH, LLC Chicago","Feb 28, 2025",Body CT,,,,,,,,,,,,,,,,,,,,,,
257,258,Midwest Sports Medicine and Orthopaedic Surgical Specialists Ltd,42.009508,-88.052414,granted,901 W. Biesterfield Rd Suite 300,,Elk Grove Village,IL,60007,USA,,www.midwestsportsmed.com,,mr,,Midwest Sports Medicine and Orthopaedic Surgical Specialists Ltd Elk Grove Village,,,,,"Dec 31, 2023",Musculoskeletal MRI,,,,,,,,,,,,,,,,,,
258,259,Midwest Vascular Institute - Hopedale Medical Complex,40.418383,-89.417729,granted,107 Tremont,,Hopedale,IL,61747,USA,,,,vascular,www.google.com/search?q=Midwest+Vascular+Institute+-+Hopedale+Medical+Complex,Midwest Vascular Institute - Hopedale Medical Complex Hopedale,,,,,,,,,"Jul 31, 2023","Extracranial Cerebrovascular Testing, Peripheral Arterial Testing, Peripheral Venous Testing, Visceral Vascular Testing",,,,,,,,,,,,,,
259,260,Molecular Imaging Chicago,41.6838,-88.074882,granted,215 Remington Blvd,Suite J,Bolingbrook,IL,60440,USA,,www.molecularscans.com,,mr,,Molecular Imaging Chicago Bolingbrook,,,,,"Jan 31, 2023","Body MRI, Musculoskeletal MRI, Neurological MRI",,,,,,,,,,,,,,,,,,
260,261,Molecular Imaging Chicago,41.897467,-88.101237,granted,640 East Saint Charles Road,Suite 106,Carol Stream,IL,60188,USA,,www.molecularscans.com,,mr,,Molecular Imaging Chicago Carol Stream,,,,,"Jan 31, 2023","Body MRI, Musculoskeletal MRI, Neurological MRI",,,,,,,,,,,,,,,,,,
261,262,Molecular Imaging Chicago,41.62873,-87.882665,granted,"14315 S. 108th Ave, Suite 122",,Orland Park,IL,60467,USA,,,,mr,www.google.com/search?q=Molecular+Imaging+Chicago,Molecular Imaging Chicago Orland Park,,,,,"Jan 31, 2023","Body MRI, Musculoskeletal MRI, Neurological MRI",,,,,,,,,,,,,,,,,,
262,263,Molecular Imaging Chicago,41.960285,-87.747462,granted,4351 N. Cicero Ave,,Chicago,IL,60641,USA,,www.molecularimagingchicago.com,,mr,,Molecular Imaging Chicago Chicago,,,,,"Jan 31, 2023","Body MRI, Musculoskeletal MRI, Neurological MRI",,,,,,,,,,,,,,,,,,
263,264,Molecular Imaging Chicago,41.602088,-87.619544,granted,16137 LaSalle Street,,South Holland,IL,60473,,,www.molecularscans.com,,mr,,Molecular Imaging Chicago South Holland,,,,,"Jan 31, 2023","Body MRI, Musculoskeletal MRI, Neurological MRI",,,,,,,,,,,,,,,,,,
264,265,Molecular Imaging Chicago,42.05796,-88.005209,granted,1732 W Algonquin Road,,Arlington Heights,IL,60005,USA,,www.molecularscans.com,,mr,,Molecular Imaging Chicago Arlington Heights,,,,,"Jan 31, 2023","Body MRI, Musculoskeletal MRI, Neurological MRI",,,,,,,,,,,,,,,,,,
265,266,Molecular Imaging Chicago,41.816912,-87.923917,granted,230 East Ogden Ave,Suite 100,Hinsdale,IL,60521,USA,,www.molecularscans.com,,mr,,Molecular Imaging Chicago Hinsdale,,,,,"Jan 31, 2023","Body MRI, Musculoskeletal MRI, Neurological MRI",,,,,,,,,,,,,,,,,,
266,267,Molecular Imaging Chicago,41.94508,-87.988679,granted,199 Addison Road,,Wood Dale,IL,60191,USA,,www.molecularscans.com,,mr,,Molecular Imaging Chicago Wood Dale,,,,,"Jan 31, 2023","Body MRI, Musculoskeletal MRI, Neurological MRI",,,,,,,,,,,,,,,,,,
267,268,Morris Hospital and Healthcare Centers,41.368899,-88.426845,granted,150 West High Street,,Morris,IL,60450,USA,,www.morrishospital.org,,echo,,Morris Hospital and Healthcare Centers Morris,,,"Apr 30, 2023","Adult Stress, Adult Transthoracic",,,,,,,,,,,,,,,,,,,,
268,269,Mt. Vernon Heart Institute,38.306107,-88.943162,granted,4204 Williamson Place,,Mt. Vernon,IL,62864,USA,,,,nuclear,www.google.com/search?q=Mt.+Vernon+Heart+Institute,Mt. Vernon Heart Institute Mt. Vernon,,,,,,,"May 31, 2024",Myocardial Perfusion Imaging,,,,,,,,,,,,,,,,
269,270,"Naeem A. Khan, MD",38.521263,-89.133128,granted,1050 Martin Luther King Drive,Suite 108,Centralia,IL,62801,USA,,,,nuclear,"www.google.com/search?q=Naeem+A.+Khan,+MD","Naeem A. Khan, MD Centralia",,,,,,,"Jan 31, 2023",Myocardial Perfusion Imaging,,,,,,,,,,,,,,,,
270,271,"Naeem A. Khan, MD, PC",38.528931,-89.117641,granted,1050 ML King Drive,Suite 108,Centralia,IL,62801,USA,,,,echo,"www.google.com/search?q=Naeem+A.+Khan,+MD,+PC","Naeem A. Khan, MD, PC Centralia",,,"Nov 30, 2023",Adult Transthoracic,,,,,,,,,,,,,,,,,,,,
271,272,Naperville Ear Nose and Throat,41.763046,-88.150328,granted,10 West Martin Ave Ste 260,,Naperville,IL,60540,USA,,,,ct,www.google.com/search?q=Naperville+Ear+Nose+and+Throat,Naperville Ear Nose and Throat Naperville,"Feb 28, 2023",Maxillofacial CT,,,,,,,,,,,,,,,,,,,,,,
272,273,NCH Cardiac Diagnostics,42.066679,-88.001892,granted,1632 West Central Road,,Arlington Heights,IL,60005,USA,,,,echo,www.google.com/search?q=NCH+Cardiac+Diagnostics,NCH Cardiac Diagnostics Arlington Heights,,,"Aug 31, 2025","Adult Stress, Adult Transthoracic",,,,,,,,,,,,,,,,,,,,
273,274,North Lake Cardiovascular Center,42.356152,-87.902182,granted,310 S Greenleaf Ste 212,,Gurnee,IL,60031,USA,,,,nuclear,www.google.com/search?q=North+Lake+Cardiovascular+Center,North Lake Cardiovascular Center Gurnee,,,,,,,"Nov 30, 2023",Myocardial Perfusion Imaging,,,,,,,,,,,,,,,,
274,275,"North Shore Ear, Nose and Throat Associates",42.187829,-87.819136,granted,1160 Park Ave West,Suite 4 North,Highland Park,IL,60035,USA,,,,ct,"www.google.com/search?q=North+Shore+Ear,+Nose+and+Throat+Associates","North Shore Ear, Nose and Throat Associates Highland Park","Dec 31, 2024",Maxillofacial CT,,,,,,,,,,,,,,,,,,,,,,
275,276,North Shore Foot and Ankle,42.097341,-87.819082,granted,"2501 Compass Road, Suite 120",,Glenview,IL,60026,USA,,nsfootankle.com,,mr,,North Shore Foot and Ankle Glenview,,,,,"Nov 29, 2022",Musculoskeletal MRI,,,,,,,,,,,,,,,,,,
276,277,"North Shore Vein Clinic, LLC",42.272599,-88.004021,granted,550 N Lake Street,,Mundelein,IL,60060,USA,,,,vascular,"www.google.com/search?q=North+Shore+Vein+Clinic,+LLC","North Shore Vein Clinic, LLC Mundelein",,,,,,,,,"Dec 30, 2022",Peripheral Venous Testing,,,,,,,,,,,,,,
277,278,Northern Illinois Foot and Ankle Specialists,42.248625,-88.293048,granted,750 E Terra Cotta Ave Suite C,,Crystal Lake,IL,60014,USA,,www.illinoisfoot.com,,mr,,Northern Illinois Foot and Ankle Specialists Crystal Lake,,,,,"Mar 01, 2023",Musculoskeletal MRI,,,,,,,,,,,,,,,,,,
278,279,Northern Illinois Vein Clinic,42.300791,-88.979764,multigranted,2990 N Perryville Rd,Suite 3400,Rockford,IL,61107,USA,,niveinclinic.com,,"vein_center, vascular",,Northern Illinois Vein Clinic Rockford,,,,,,,,,"Jul 31, 2024",Peripheral Venous Testing,,,,,,,"Aug 31, 2022",Superficial Venous Evaluation and Management,,,,,,
279,280,NorthShore University HealthSystem - Cardiovascular Institute,42.056337,-87.738671,granted,"9650 Gross Point Road, Suite 4900",,Skokie,IL,60076,USA,,,,vascular,www.google.com/search?q=NorthShore+University+HealthSystem+-+Cardiovascular+Institute,NorthShore University HealthSystem - Cardiovascular Institute Skokie,,,,,,,,,"Nov 29, 2022","Extracranial Cerebrovascular Testing, Peripheral Arterial Testing, Peripheral Venous Testing",,,,,,,,,,,,,,
280,281,NorthShore University HealthSystem - Skokie Hospital,42.055276,-87.739965,granted,9600 Gross Point Road,,Skokie,IL,60076,USA,,www.northshore.org,,vascular,,NorthShore University HealthSystem - Skokie Hospital Skokie,,,,,,,,,"Nov 29, 2022","Extracranial Cerebrovascular Testing, Peripheral Arterial Testing, Peripheral Venous Testing",,,,,,,,,,,,,,
281,282,"NorthShore University HealthSystem, Bannockburn",42.169562,-87.869777,granted,"2151 Waukegan, Ste100",,Bannockburn,IL,60015,USA,,,,echo,"www.google.com/search?q=NorthShore+University+HealthSystem,+Bannockburn","NorthShore University HealthSystem, Bannockburn Bannockburn",,,"Apr 30, 2024","Adult Stress, Adult Transthoracic",,,,,,,,,,,,,,,,,,,,
282,283,"NorthShore University HealthSystem, Evanston Hospital",42.065359,-87.683283,granted,2650 North Ridge Avenue,Room G234,Evanston,IL,60201,USA,,,,echo,"www.google.com/search?q=NorthShore+University+HealthSystem,+Evanston+Hospital","NorthShore University HealthSystem, Evanston Hospital Evanston",,,"Apr 30, 2024","Adult Stress, Adult Transesophageal, Adult Transthoracic",,,,,,,,,,,,,,,,,,,,
283,284,"Northshore University HealthSystem, Glenbrook CVI",42.095721,-87.849166,granted,2180 Pfingsten Road,,Glenview,IL,60025,USA,,,,echo,"www.google.com/search?q=Northshore+University+HealthSystem,+Glenbrook+CVI","Northshore University HealthSystem, Glenbrook CVI Glenview",,,"Apr 30, 2024","Adult Stress, Adult Transthoracic",,,,,,,,,,,,,,,,,,,,
284,285,"NorthShore University HealthSystem, Glenbrook Hospital",42.092623,-87.849179,granted,2050 Pfingsten Road,,Glenview,IL,60025,USA,,,,echo,"www.google.com/search?q=NorthShore+University+HealthSystem,+Glenbrook+Hospital","NorthShore University HealthSystem, Glenbrook Hospital Glenview",,,"Apr 30, 2024","Adult Stress, Adult Transesophageal, Adult Transthoracic",,,,,,,,,,,,,,,,,,,,
285,286,"NorthShore University HealthSystem, Gurnee Cardiac Imaging",42.373981,-87.941252,granted,7900 Rollins Road,,Gurnee,IL,60031,USA,,,,echo,"www.google.com/search?q=NorthShore+University+HealthSystem,+Gurnee+Cardiac+Imaging","NorthShore University HealthSystem, Gurnee Cardiac Imaging Gurnee",,,"Apr 30, 2024","Adult Stress, Adult Transthoracic",,,,,,,,,,,,,,,,,,,,
286,287,"NorthShore University HealthSystem, Highland Park Hospital",42.191035,-87.806364,granted,718 Glenview Avenue,,Highland Park,IL,60035,USA,,,,echo,"www.google.com/search?q=NorthShore+University+HealthSystem,+Highland+Park+Hospital","NorthShore University HealthSystem, Highland Park Hospital Highland Park",,,"Apr 30, 2024","Adult Stress, Adult Transesophageal, Adult Transthoracic",,,,,,,,,,,,,,,,,,,,
287,288,"NorthShore University HealthSystem, Skokie ACC",42.057162,-87.740202,granted,9650 Gross Point Rd,4th Floor,Skokie,IL,60076,USA,,,,echo,"www.google.com/search?q=NorthShore+University+HealthSystem,+Skokie+ACC","NorthShore University HealthSystem, Skokie ACC Skokie",,,"Apr 30, 2024","Adult Stress, Adult Transthoracic",,,,,,,,,,,,,,,,,,,,
288,289,"NorthShore University HealthSystem, Skokie Hospital",42.055276,-87.739965,granted,9600 Gross Point Road,,Skokie,IL,60076,USA,,,,echo,"www.google.com/search?q=NorthShore+University+HealthSystem,+Skokie+Hospital","NorthShore University HealthSystem, Skokie Hospital Skokie",,,"Apr 30, 2024","Adult Stress, Adult Transesophageal, Adult Transthoracic",,,,,,,,,,,,,,,,,,,,
289,290,"NorthShore University HealthSystem, Vernon Hills Specialty Care",42.230012,-87.942177,granted,225 North Milwaukee Avenue,,Vernon Hills,IL,60061,USA,,,,echo,"www.google.com/search?q=NorthShore+University+HealthSystem,+Vernon+Hills+Specialty+Care","NorthShore University HealthSystem, Vernon Hills Specialty Care Vernon Hills",,,"Apr 30, 2024","Adult Stress, Adult Transthoracic",,,,,,,,,,,,,,,,,,,,
290,291,"Northshore Vein Clinics, LLC",42.138422,-87.883427,granted,4141 Dundee Road,,Northbrook,IL,60064,USA,,,,vascular,"www.google.com/search?q=Northshore+Vein+Clinics,+LLC","Northshore Vein Clinics, LLC Northbrook",,,,,,,,,"Dec 30, 2022",Peripheral Venous Testing,,,,,,,,,,,,,,
291,292,Northwest Community Hospital,42.066604,-87.992951,granted,800 West Central Road,,Arlington Heights,IL,60005,USA,,,,echo,www.google.com/search?q=Northwest+Community+Hospital,Northwest Community Hospital Arlington Heights,,,"Aug 31, 2025","Adult Stress, Adult Transesophageal, Adult Transthoracic",,,,,,,,,,,,,,,,,,,,
292,293,Northwest Community Hospital Healthcenter,42.082267,-87.93821,granted,199 West Rand Road,,Mount Prospect,IL,60056,USA,,www.nch.org,,echo,,Northwest Community Hospital Healthcenter Mount Prospect,,,"Aug 31, 2025","Adult Stress, Adult Transthoracic",,,,,,,,,,,,,,,,,,,,
293,294,Northwest ENT Associates,42.003475,-88.015049,granted,"800 Biesterfield Rd Wimmer Bldg., Suite 401",,Elk Grove,IL,60007,USA,,,,ct,www.google.com/search?q=Northwest+ENT+Associates,Northwest ENT Associates Elk Grove,"Sep 30, 2022",Maxillofacial CT,,,,,,,,,,,,,,,,,,,,,,
294,295,"Northwest Vein Clinics, LLC",42.003474,-88.01526,granted,800 Biesterfield Road,Suite 201,Elk Grove Village,IL,60007,USA,,,,vascular,"www.google.com/search?q=Northwest+Vein+Clinics,+LLC","Northwest Vein Clinics, LLC Elk Grove Village",,,,,,,,,"Dec 30, 2022",Peripheral Venous Testing,,,,,,,,,,,,,,
295,296,Northwestern Glenview Outpatient Center,42.104312,-87.823401,granted,2701 Patriot Boulevard,,Glenview,IL,60026,USA,,,,echo,www.google.com/search?q=Northwestern+Glenview+Outpatient+Center,Northwestern Glenview Outpatient Center Glenview,,,"Dec 31, 2022","Adult Stress, Adult Transthoracic",,,,,,,,,,,,,,,,,,,,
296,297,Northwestern Lake Forest Hospital,42.252748,-87.862974,granted,1000 North Westmoreland Road,,Lake Forest,IL,60045,USA,,ww.nm.org,,echo,,Northwestern Lake Forest Hospital Lake Forest,,,"Dec 31, 2022","Adult Stress, Adult Transesophageal, Adult Transthoracic",,,,,,,,,,,,,,,,,,,,
297,298,Northwestern Lake Forest Hospital Echocardiography Laboratory,42.338685,-88.011354,granted,1475 East Belvidere Road,,Grayslake,IL,60030,USA,,,,echo,www.google.com/search?q=Northwestern+Lake+Forest+Hospital+Echocardiography+Laboratory,Northwestern Lake Forest Hospital Echocardiography Laboratory Grayslake,,,"Dec 31, 2022","Adult Stress, Adult Transthoracic",,,,,,,,,,,,,,,,,,,,
298,299,"Northwestern Medical Faculty Foundation, Inc. Department of Otolaryngology -",41.894734,-87.620291,granted,675 North St. Clair,Galter 15-200,Chicago,IL,60611,USA,,,,ct,"www.google.com/search?q=Northwestern+Medical+Faculty+Foundation,+Inc.+Department+of+Otolaryngology+-","Northwestern Medical Faculty Foundation, Inc. Department of Otolaryngology - Chicago","Mar 31, 2024",Maxillofacial CT,,,,,,,,,,,,,,,,,,,,,,
299,300,Northwestern Medical Group,42.104312,-87.823401,granted,2701 Patriot Blvd,,Glenview,IL,60026,,,,,nuclear,www.google.com/search?q=Northwestern+Medical+Group,Northwestern Medical Group Glenview,,,,,,,"Oct 31, 2023",Myocardial Perfusion Imaging,,,,,,,,,,,,,,,,
300,301,Northwestern Medical Group - Northwestern Vein and Vascular Outpatient Clinic,42.259134,-87.866327,granted,1000 N. Westmoreland Road,,Lake Forest,IL,60045,USA,,,,vascular,www.google.com/search?q=Northwestern+Medical+Group+-+Northwestern+Vein+and+Vascular+Outpatient+Clinic,Northwestern Medical Group - Northwestern Vein and Vascular Outpatient Clinic Lake Forest,,,,,,,,,"Apr 30, 2024","Extracranial Cerebrovascular Testing, Peripheral Arterial Testing, Peripheral Venous Testing, Visceral Vascular Testing",,,,,,,,,,,,,,
301,302,Northwestern Medical Group-Glenview Vein and Vascular Outpatient Clinic,42.104481,-87.770775,granted,2701 Patriot Blvd,,Glenview,IL,60026,USA,,,,vascular,www.google.com/search?q=Northwestern+Medical+Group-Glenview+Vein+and+Vascular+Outpatient+Clinic,Northwestern Medical Group-Glenview Vein and Vascular Outpatient Clinic Glenview,,,,,,,,,"Apr 30, 2024","Extracranial Cerebrovascular Testing, Peripheral Arterial Testing, Peripheral Venous Testing",,,,,,,,,,,,,,
302,303,Northwestern Medicine,41.894212,-87.620648,granted,"259 E Erie, Suite 1300",,Chicago,IL,60611,USA,,,,ct,www.google.com/search?q=Northwestern+Medicine,Northwestern Medicine Chicago,"Nov 30, 2022",Body CT,,,,,,,,,,,,,,,,,,,,,,
303,304,Northwestern Medicine Huntley,42.176459,-88.403021,granted,10400 Haligus Road,,Huntley,IL,60142,USA,,,,echo,www.google.com/search?q=Northwestern+Medicine+Huntley,Northwestern Medicine Huntley Huntley,,,"May 31, 2023",Adult Transthoracic,,,,,,,,,,,,,,,,,,,,
304,305,Northwestern Medicine McHenry,42.318902,-88.279228,granted,4201 Medical Center Drive,,McHenry,IL,60050,USA,,,,echo,www.google.com/search?q=Northwestern+Medicine+McHenry,Northwestern Medicine McHenry McHenry,,,"May 31, 2023",Adult Transthoracic,,,,,,,,,,,,,,,,,,,,
305,306,Northwestern Memorial Hospital,41.894734,-87.620291,granted,251 East Huron,Galter Pavilion 8th Floor,Chicago,IL,60611,USA,,,,echo,www.google.com/search?q=Northwestern+Memorial+Hospital,Northwestern Memorial Hospital Chicago,,,"Oct 31, 2023","Adult Stress, Adult Transesophageal, Adult Transthoracic",,,,,,,,,,,,,,,,,,,,
306,307,Northwestern Memorial Hospital,41.894995,-87.621364,granted,"251 East Huron Street, Feinberg 8-305",,Chicago,IL,60611,USA,,,,vascular,www.google.com/search?q=Northwestern+Memorial+Hospital,Northwestern Memorial Hospital Chicago,,,,,,,,,"Feb 29, 2024","Extracranial Cerebrovascular Testing, Peripheral Arterial Testing, Peripheral Venous Testing, Visceral Vascular Testing",,,,,,,,,,,,,,
307,308,Northwestern Memorial Hospital,41.792423,-87.607301,granted,251 E. Huron Street,"Feinberg Pavilion, Surgical Services Administration Office Room 5-702",Chicago,IL,60611,USA,,www.nm.org,,stenting,,Northwestern Memorial Hospital Chicago,,,,,,,,,,,,,,,"Mar 31, 2024",Carotid Stenting,,,,,,,,
308,309,Northwestern Memorial Hospital,41.894514,-87.622734,granted,259 East Erie,,Chicago,IL,60611,USA,,,,echo,www.google.com/search?q=Northwestern+Memorial+Hospital,Northwestern Memorial Hospital Chicago,,,"Oct 31, 2023","Adult Stress, Adult Transthoracic",,,,,,,,,,,,,,,,,,,,
309,310,Northwestern Vein Center,41.894357,-87.622731,granted,675 N. St. Clair Street,Suite 19,Chicago,IL,60611,USA,,,,vascular,www.google.com/search?q=Northwestern+Vein+Center,Northwestern Vein Center Chicago,,,,,,,,,"Apr 30, 2024",Peripheral Venous Testing,,,,,,,,,,,,,,
310,311,Nuclear Cardiology Laboratory,39.866492,-88.960912,granted,2300 North Edward Street,,Decatur,IL,62526,USA,,,,nuclear,www.google.com/search?q=Nuclear+Cardiology+Laboratory,Nuclear Cardiology Laboratory Decatur,,,,,,,"Sep 30, 2023",Myocardial Perfusion Imaging,,,,,,,,,,,,,,,,
311,312,OAK Orthopedics-Bradley,41.139141,-87.876951,granted,400 South Kennedy Drive,Suite 100,Bradley,IL,60915,USA,,,,mr,www.google.com/search?q=OAK+Orthopedics-Bradley,OAK Orthopedics-Bradley Bradley,,,,,"Mar 31, 2024",Musculoskeletal MRI,,,,,,,,,,,,,,,,,,
312,313,"Orthopaedic and Rehabilitation Centers, SC",41.983589,-87.689514,granted,5616 N. Western Ave.,,Chicago,IL,60659,USA,,orcchicago.com,,mr,,"Orthopaedic and Rehabilitation Centers, SC Chicago",,,,,"Feb 29, 2024",Musculoskeletal MRI,,,,,,,,,,,,,,,,,,
313,314,Orthopedic and Sports Medicine Clinic,38.921593,-90.179706,granted,4411 Alby Street,,Alton,IL,62002,USA,,,,mr,www.google.com/search?q=Orthopedic+and+Sports+Medicine+Clinic,Orthopedic and Sports Medicine Clinic Alton,,,,,"Mar 31, 2024",Musculoskeletal MRI,,,,,,,,,,,,,,,,,,
314,315,OSF Cardiovascular Institute,40.752489,-89.593254,granted,5405 North Knoxville Center,,Peoria,IL,61614,USA,,,,echo,www.google.com/search?q=OSF+Cardiovascular+Institute,OSF Cardiovascular Institute Peoria,,,"Jul 31, 2024","Adult Stress, Adult Transthoracic",,,,,,,,,,,,,,,,,,,,
315,316,OSF Center for Health - Pekin,40.56212,-89.643949,granted,3422a Court St,,Pekin,IL,61554,USA,,,,echo,www.google.com/search?q=OSF+Center+for+Health+-+Pekin,OSF Center for Health - Pekin Pekin,,,"Jul 31, 2024",Adult Transthoracic,,,,,,,,,,,,,,,,,,,,
316,317,OSF Healthcare Children’s Hospital of Illinois,40.702526,-89.590445,granted,530 North East Glen Oak,,Peoria,IL,61637,USA,,,,pediatric_echo,www.google.com/search?q=OSF+Healthcare+Children’s+Hospital+of+Illinois,OSF Healthcare Children’s Hospital of Illinois Peoria,,,,,,,,,,,"Dec 31, 2022","Pediatric Transesophageal, Pediatric Transthoracic, Fetal",,,,,,,,,,,,
317,318,OSF Healthcare Saint Francis Medical Center at the Cardiovascular Institute,40.7762,-89.67391,granted,8600 Illinois 91,,Peoria,IL,61615,USA,,osfhealthcare.org,,vascular,,OSF Healthcare Saint Francis Medical Center at the Cardiovascular Institute Peoria,,,,,,,,,"Jul 31, 2024","Extracranial Cerebrovascular Testing, Peripheral Arterial Testing, Peripheral Venous Testing, Visceral Vascular Testing",,,,,,,,,,,,,,
318,319,OSF Healthcare Saint Francis Medical Center at the Cardiovascular Institute,40.5617,-89.64394,granted,3422A Court Street Pekin,,Pekin,IL,61554,USA,,osfhealthcare.org,,vascular,,OSF Healthcare Saint Francis Medical Center at the Cardiovascular Institute Pekin,,,,,,,,,"Jul 31, 2024","Extracranial Cerebrovascular Testing, Peripheral Arterial Testing, Peripheral Venous Testing, Visceral Vascular Testing",,,,,,,,,,,,,,
319,320,OSF Healthcare Saint Francis Medical Center at the Cardiovascular Institute,40.752489,-89.593254,granted,5405 N. Knoxville Ave.,,Peoria,IL,61615,USA,,osfhealthcare.org,,vascular,,OSF Healthcare Saint Francis Medical Center at the Cardiovascular Institute Peoria,,,,,,,,,"Jul 31, 2024","Extracranial Cerebrovascular Testing, Peripheral Arterial Testing, Peripheral Venous Testing, Visceral Vascular Testing",,,,,,,,,,,,,,
320,321,OSF Saint Anthony Medical Center,42.265778,-89.0073,multigranted,5666 East State Street,,Rockford,IL,61108,USA,,www.osfsaintanthony.org,,"cardiac_electrophysiology, echo",,OSF Saint Anthony Medical Center Rockford,,,"Aug 31, 2025",Adult Transthoracic,,,,,,,,,,,,,,,"May 31, 2023","Testing and Ablation, Device Implantation, Chronic Lead Extraction, Left Atrial Appendage Occlusion",,,,
321,322,OSF Saint Anthony Medical Center,42.26949,-89.011121,granted,444 Roxbury Road,,Rockford,IL,61107,USA,,www.osfsaintanthony.org,,echo,,OSF Saint Anthony Medical Center Rockford,,,"Aug 31, 2025",Adult Transthoracic,,,,,,,,,,,,,,,,,,,,
322,323,OSF Saint Elizabeth Medical Center,41.356179,-88.82423,granted,1100 E. Norris Drive,,Ottawa,IL,61350,USA,,,,echo,www.google.com/search?q=OSF+Saint+Elizabeth+Medical+Center,OSF Saint Elizabeth Medical Center Ottawa,,,"Jul 31, 2024",Adult Transthoracic,,,,,,,,,,,,,,,,,,,,
323,324,OSF St. Francis Medical Center Heart Hospital,40.702526,-89.590445,granted,530 Northeast Glen Oak Avenue,,Peoria,IL,61637,USA,,,,echo,www.google.com/search?q=OSF+St.+Francis+Medical+Center+Heart+Hospital,OSF St. Francis Medical Center Heart Hospital Peoria,,,"Jul 31, 2024","Adult Stress, Adult Transthoracic",,,,,,,,,,,,,,,,,,,,
324,325,OSF St. Joseph Medical Center,40.480118,-88.955385,granted,2200 East Washington,,Bloomington,IL,61701,USA,,,,echo,www.google.com/search?q=OSF+St.+Joseph+Medical+Center,OSF St. Joseph Medical Center Bloomington,,,"Sep 30, 2023",Adult Transthoracic,,,,,,,,,,,,,,,,,,,,
325,326,OSF St. Joseph Medical Center,40.873388,-88.680466,granted,2500 W. Reynolds St.,,Pontiac,IL,61108,USA,,,,echo,www.google.com/search?q=OSF+St.+Joseph+Medical+Center,OSF St. Joseph Medical Center Pontiac,,,"Sep 30, 2023",Adult Transthoracic,,,,,,,,,,,,,,,,,,,,
326,327,OSF St. Mary Medical Center,40.98702,-90.363609,granted,3333 North Seminary Street,,Galesburg,IL,61401,USA,,,,echo,www.google.com/search?q=OSF+St.+Mary+Medical+Center,OSF St. Mary Medical Center Galesburg,,,"Dec 31, 2023",Adult Transthoracic,,,,,,,,,,,,,,,,,,,,
327,328,Palatine Heart Center,42.230756,-88.302387,granted,350 Congress Parkway,Suite E,Crystal Lake,IL,60014,USA,,www.palatineheartcenter.com,,nuclear,,Palatine Heart Center Crystal Lake,,,,,,,"Jan 31, 2024",Myocardial Perfusion Imaging,,,,,,,,,,,,,,,,
328,329,Palos Community Hospital,41.668955,-87.815976,granted,12251 S. 80th Ave,,Palos Heights,IL,60463,USA,,www.paloscommunityhospital.org,,nuclear,,Palos Community Hospital Palos Heights,,,,,,,"Aug 31, 2023","Equilibrium Radionuclide Angiography, General Nuclear Medicine, Myocardial Perfusion Imaging",,,,,,,,,,,,,,,,
329,330,Palos Community Hospital,41.668955,-87.815976,granted,12251 South 80th Avenue,,Palos Heights,IL,60463,USA,,www.paloscommunityhospital.org,,echo,,Palos Community Hospital Palos Heights,,,"Jun 30, 2024","Adult Stress, Adult Transesophageal, Adult Transthoracic",,,,,,,,,,,,,,,,,,,,
330,331,"Peoria Ear, Nose and Throat Group, S.C.",40.776491,-89.602603,granted,7301 N Knoxville Ave,,Peoria,IL,61614,USA,,,,ct,"www.google.com/search?q=Peoria+Ear,+Nose+and+Throat+Group,+S.C.","Peoria Ear, Nose and Throat Group, S.C. Peoria","Jul 31, 2024",Maxillofacial CT,,,,,,,,,,,,,,,,,,,,,,
331,332,Peoria Vein Center,40.781605,-89.602581,granted,7725 N Knoxville Ave,,Peoria,IL,61614,USA,,,,vein_center,www.google.com/search?q=Peoria+Vein+Center,Peoria Vein Center Peoria,,,,,,,,,,,,,,,,,"Aug 31, 2023",Superficial Venous Evaluation and Management,,,,,,
332,333,PMI Diagnostic Imaging,41.675138,-87.807494,granted,7600 W College Drive,,Palos Heights,IL,60477,USA,,,,mr,www.google.com/search?q=PMI+Diagnostic+Imaging,PMI Diagnostic Imaging Palos Heights,,,,,"Mar 31, 2024",Musculoskeletal MRI,,,,,,,,,,,,,,,,,,
333,334,Prairie Heart Institute at HSHS St. Anthony’s Memorial Hospital,39.124494,-88.549274,granted,503 North Maple,,Effingham,IL,62401,USA,,,,vascular,www.google.com/search?q=Prairie+Heart+Institute+at+HSHS+St.+Anthony’s+Memorial+Hospital,Prairie Heart Institute at HSHS St. Anthony’s Memorial Hospital Effingham,,,,,,,,,"Dec 31, 2022","Extracranial Cerebrovascular Testing, Peripheral Arterial Testing, Peripheral Venous Testing, Visceral Vascular Testing",,,,,,,,,,,,,,
334,335,Prairie Heart Institute at HSHS St. John’s Hospital,39.807289,-89.644833,granted,800 East Carpenter,,Springfield,IL,62769,USA,,,,vascular,www.google.com/search?q=Prairie+Heart+Institute+at+HSHS+St.+John’s+Hospital,Prairie Heart Institute at HSHS St. John’s Hospital Springfield,,,,,,,,,"Dec 31, 2022","Extracranial Cerebrovascular Testing, Peripheral Arterial Testing, Peripheral Venous Testing, Visceral Vascular Testing",,,,,,,,,,,,,,
335,336,Prairie Heart Institute at HSHS St. John’s Hospital,39.807289,-89.644833,granted,800 East Carpenter Street,,Springfield,IL,62769,USA,,st-johns.org,,pediatric_echo,,Prairie Heart Institute at HSHS St. John’s Hospital Springfield,,,"Sep 30, 2023","Adult Stress, Adult Transesophageal, Adult Transthoracic",,,,,,,"Nov 29, 2022",Pediatric Transthoracic,,,,,,,,,,,,
336,337,Prairie Heart Institute at St. John’s Hospital,39.805059,-89.647497,granted,619 East Mason,,Springfield,IL,62701,USA,,,,nuclear,www.google.com/search?q=Prairie+Heart+Institute+at+St.+John’s+Hospital,Prairie Heart Institute at St. John’s Hospital Springfield,,,,,,,"Feb 28, 2025","Equilibrium Radionuclide Angiography, Myocardial Perfusion Imaging",,,,,,,,,,,,,,,,
337,338,Presence St. Joseph Medical Center,41.528248,-88.134645,granted,333 North Madison Street,,Joliet,IL,60435,USA,,www.provenahealth.org,,echo,,Presence St. Joseph Medical Center Joliet,,,"Jun 30, 2024","Adult Stress, Adult Transesophageal, Adult Transthoracic",,,,,,,,,,,,,,,,,,,,
338,339,Protestant Memorial Hospital Cardiology West,38.550326,-90.023193,granted,4600 Memorial Drive Suite W2,,Belleville,IL,62226,USA,,,,echo,www.google.com/search?q=Protestant+Memorial+Hospital+Cardiology+West,Protestant Memorial Hospital Cardiology West Belleville,,,"Nov 30, 2023",Adult Transthoracic,,,,,,,,,,,,,,,,,,,,
339,340,Protestant Memorial Medical Center,38.550533,-90.021168,granted,4500 Memorial Drive,,Belleville,IL,62226,USA,,,,echo,www.google.com/search?q=Protestant+Memorial+Medical+Center,Protestant Memorial Medical Center Belleville,,,"Nov 30, 2023","Adult Transesophageal, Adult Transthoracic",,,,,,,,,,,,,,,,,,,,
340,341,Protestant Memorial Medical Center Inc.,38.550533,-90.021168,granted,4500 Memorial Drive,,Belleville,IL,62226,USA,,,,vascular,www.google.com/search?q=Protestant+Memorial+Medical+Center+Inc.,Protestant Memorial Medical Center Inc. Belleville,,,,,,,,,"Jan 31, 2024","Extracranial Cerebrovascular Testing, Peripheral Arterial Testing, Peripheral Venous Testing",,,,,,,,,,,,,,
341,342,Quincy Medical Group,39.933164,-91.397472,granted,1118 Hampshire Street,,Quincy,IL,62301,USA,,,,echo,www.google.com/search?q=Quincy+Medical+Group,Quincy Medical Group Quincy,,,"Oct 31, 2023","Adult Stress, Adult Transthoracic",,,,,,,,,,,,,,,,,,,,
342,343,Resolve Healthcare,41.94048,-87.669179,granted,3228 N Lincoln Ave,,Chicago,IL,60657,USA,,www.resolveent.com,,ct,,Resolve Healthcare Chicago,"May 31, 2025",Maxillofacial CT,,,,,,,,,,,,,,,,,,,,,,
343,344,Rheumatic Disease Center Physicians Service Center,42.05698,-87.888941,granted,150 N River Rd. Suite 270,,Des Plaines,IL,60016,USA,,,,mr,www.google.com/search?q=Rheumatic+Disease+Center+Physicians+Service+Center,Rheumatic Disease Center Physicians Service Center Des Plaines,,,,,"Aug 31, 2024",Musculoskeletal MRI,,,,,,,,,,,,,,,,,,
344,345,Riverside Medical Center,41.125153,-87.883236,granted,500 North Wall Street,,Kankakee,IL,60901,USA,,,,echo,www.google.com/search?q=Riverside+Medical+Center,Riverside Medical Center Kankakee,,,"Nov 29, 2022",Adult Transthoracic,,,,,,,,,,,,,,,,,,,,
345,346,Rockford Orthopedic Associates Ltd,42.268682,-89.010773,granted,324 Roxbury Road,,Rockford,IL,61107,USA,,rockfordortho.com,,ct,,Rockford Orthopedic Associates Ltd Rockford,"May 31, 2024",Body CT,,,,,,,,,,,,,,,,,,,,,,
346,347,Rockford Vascular Surgery,42.296151,-89.096752,granted,1340 Charles St.,Suite 200,Rockford,IL,61104,USA,,,,vascular,www.google.com/search?q=Rockford+Vascular+Surgery,Rockford Vascular Surgery Rockford,,,,,,,,,"Apr 30, 2024","Extracranial Cerebrovascular Testing, Peripheral Arterial Testing, Peripheral Venous Testing, Visceral Vascular Testing",,,,,,,,,,,,,,
347,348,Round Lake Medical Imaging Inc,42.379323,-88.064475,granted,720 E. Rollins Road,,Round Lake Beach,IL,60073,USA,,,,mr,www.google.com/search?q=Round+Lake+Medical+Imaging+Inc,Round Lake Medical Imaging Inc Round Lake Beach,,,,,"Dec 31, 2024","Musculoskeletal MRI, Neurological MRI, MRA",,,,,,,,,,,,,,,,,,
348,349,Rush Oak Brook,41.84957,-87.929255,granted,2011 York Rd,,Oak Brook,IL,60523,USA,,www.rush.edu/rush-oak-brook-0,,echo,,Rush Oak Brook Oak Brook,,,"Aug 31, 2023",Adult Transthoracic,,,,,,,,,,,,,,,,,,,,
349,350,Rush Oak Park Hospital,41.879026,-87.803818,granted,520 S. Maple Ave,,Oak Park,IL,60304,USA,,www.roph.org/,,echo,,Rush Oak Park Hospital Oak Park,,,"Aug 31, 2023","Adult Stress, Adult Transesophageal, Adult Transthoracic",,,,,,,,,,,,,,,,,,,,
350,351,Rush South Loop,41.863725,-87.624019,granted,1411 S Michigan Ave,,Chicago,IL,60605,USA,,www.rush.edu/rush-south-loop-1,,echo,,Rush South Loop Chicago,,,"Aug 31, 2023","Adult Stress, Adult Transthoracic",,,,,,,,,,,,,,,,,,,,
351,352,Rush University Medical Center,41.874197,-87.669268,granted,1620 West Harrison,,Chicago,IL,60612,USA,,www.rush.edu,,echo,,Rush University Medical Center Chicago,,,"Aug 31, 2023","Adult Stress, Adult Transesophageal, Adult Transthoracic",,,,,,,,,,,,,,,,,,,,
352,353,Rush University Medical Center Cerebrovascular Doppler Laboratory,41.874116,-87.670057,granted,1725 W. Harrison St.,Suite 1121,Chicago,IL,60612,USA,,,,vascular,www.google.com/search?q=Rush+University+Medical+Center+Cerebrovascular+Doppler+Laboratory,Rush University Medical Center Cerebrovascular Doppler Laboratory Chicago,,,,,,,,,"Feb 29, 2024","Extracranial Cerebrovascular Testing, Intracranial Cerebrovascular Testing",,,,,,,,,,,,,,
353,354,Saint Mary’s Health Center,39.875469,-88.956734,granted,2965 N Main St,Suite C,Decatur,IL,62526,USA,,,,echo,www.google.com/search?q=Saint+Mary’s+Health+Center,Saint Mary’s Health Center Decatur,,,"Jan 31, 2024",Adult Transthoracic,,,,,,,,,,,,,,,,,,,,
354,355,Saint Mary’s Hospital,39.82635,-88.93191,granted,1800 East Lake Shore Drive,,Decatur,IL,62521,USA,,www.stmarysdecatur.com/,,echo,,Saint Mary’s Hospital Decatur,,,"Jan 31, 2024","Adult Transesophageal, Adult Transthoracic",,,,,,,,,,,,,,,,,,,,
355,356,Sarah Bush Lincoln Health Center,39.488543,-88.275793,granted,1000 Health Center Drive,,Mattoon,IL,61938,USA,,,,echo,www.google.com/search?q=Sarah+Bush+Lincoln+Health+Center,Sarah Bush Lincoln Health Center Mattoon,,,"Aug 31, 2023","Adult Stress, Adult Transthoracic",,,,,,,,,,,,,,,,,,,,
356,357,"Southern Illinois G.I. Specialists, LLC",37.737933,-89.251349,multigranted,1100 West Diann Lane,,Carbondale,IL,62901,USA,,www.sigis-carbondale.com,,"mr, ct",,"Southern Illinois G.I. Specialists, LLC Carbondale","Nov 30, 2023",Body CT,,,"Apr 30, 2023","Body MRI, Neurological MRI",,,,,,,,,,,,,,,,,,
357,358,Springfield Clinic 1st,39.809791,-89.654581,granted,800 North 1st Street,,Springfield,IL,62702,USA,,,,echo,www.google.com/search?q=Springfield+Clinic+1st,Springfield Clinic 1st Springfield,,,"Feb 28, 2023","Adult Stress, Adult Transthoracic",,,,,,,,,,,,,,,,,,,,
358,359,Springfield Clinic Effingham,39.124551,-88.549275,granted,300 North Maple,,Effingham,IL,62401,USA,,springfieldclinic.com,,vascular,,Springfield Clinic Effingham Effingham,,,,,,,,,"Oct 31, 2023","Extracranial Cerebrovascular Testing, Peripheral Venous Testing",,,,,,,,,,,,,,
359,360,Springfield Clinic Main Campus,39.791374,-89.648111,granted,1025 S. 6th Street,,Springfield,IL,62703,USA,,,,vascular,www.google.com/search?q=Springfield+Clinic+Main+Campus,Springfield Clinic Main Campus Springfield,,,,,,,,,"Oct 31, 2023","Extracranial Cerebrovascular Testing, Peripheral Venous Testing",,,,,,,,,,,,,,
360,361,Springfield Clinic Vascular Laboratory,39.809791,-89.654581,granted,800 North 1st Street,,Springfield,IL,62702,USA,,,,vascular,www.google.com/search?q=Springfield+Clinic+Vascular+Laboratory,Springfield Clinic Vascular Laboratory Springfield,,,,,,,,,"Oct 31, 2023","Extracranial Cerebrovascular Testing, Peripheral Arterial Testing, Peripheral Venous Testing, Visceral Vascular Testing",,,,,,,,,,,,,,
361,362,"Springfield Clinic, LLP",39.809791,-89.654581,granted,800 N 1st Street,PO Box 19248,Springfield,IL,62794,USA,,www.springfieldclinic.com,,nuclear,,"Springfield Clinic, LLP Springfield",,,,,,,"May 31, 2024","Equilibrium Radionuclide Angiography, Myocardial Perfusion Imaging",,,,,,,,,,,,,,,,
362,363,St Elizabeths Hospital,38.594557,-89.913693,multigranted,One St. Elizabeth’s Boulevard,,O’Fallon,IL,62269,USA,,www.steliz.org,,"nuclear, echo",,St Elizabeths Hospital O’Fallon,,,"Dec 31, 2023","Adult Stress, Adult Transthoracic",,,"Jul 31, 2023",Myocardial Perfusion Imaging,,,,,,,,,,,,,,,,
363,364,St Louis Heart and Vascular PC,38.701157,-90.144609,granted,2120 Madison Ave Suite 101,,Granite City,IL,62040,USA,,,,vascular,www.google.com/search?q=St+Louis+Heart+and+Vascular+PC,St Louis Heart and Vascular PC Granite City,,,,,,,,,"Sep 30, 2023","Extracranial Cerebrovascular Testing, Peripheral Arterial Testing, Peripheral Venous Testing",,,,,,,,,,,,,,
364,365,"St Louis Heart and Vascular, PC",38.700186,-90.142607,granted,2120 Madison Avenue,Suite 101,Granite City,IL,62040,USA,,,,echo,"www.google.com/search?q=St+Louis+Heart+and+Vascular,+PC","St Louis Heart and Vascular, PC Granite City",,,"Oct 31, 2023","Adult Stress, Adult Transthoracic",,,,,,,,,,,,,,,,,,,,
365,366,St. Alexius Medical Center,42.052409,-88.144445,granted,1555 Barrington Road,,Hoffman Estates,IL,60169,USA,,alexianbrothershealth.org,,echo,,St. Alexius Medical Center Hoffman Estates,,,"Jun 30, 2023","Adult Stress, Adult Transesophageal, Adult Transthoracic",,,,,,,,,,,,,,,,,,,,
366,367,St. Louis Cardiovascular Center,38.343818,-90.135659,granted,509 Hamacher,Suite 202,Waterloo,IL,62298,USA,,,,nuclear,www.google.com/search?q=St.+Louis+Cardiovascular+Center,St. Louis Cardiovascular Center Waterloo,,,,,,,"Oct 31, 2023",Myocardial Perfusion Imaging,,,,,,,,,,,,,,,,
367,368,"St. Louis Heart and Vascular, PC",38.700891,-90.144958,granted,"2120 Madison Ave, Suite 101",,Granite City,IL,62040,USA,,stlouisheartandvascular.com,,nuclear,,"St. Louis Heart and Vascular, PC Granite City",,,,,,,"Jan 31, 2024",Myocardial Perfusion Imaging,,,,,,,,,,,,,,,,
368,369,St. Margaret’s Health - Spring Valley,41.328409,-89.192633,granted,600 E 1st St,,Spring Valley,IL,61362,USA,,,,echo,www.google.com/search?q=St.+Margaret’s+Health+-+Spring+Valley,St. Margaret’s Health - Spring Valley Spring Valley,,,"Jul 31, 2024",Adult Transthoracic,,,,,,,,,,,,,,,,,,,,
369,370,St. Margaret’s Health- Peru,41.329234,-89.125191,granted,925 West Street,,Peru,IL,61345,USA,,,,echo,www.google.com/search?q=St.+Margaret’s+Health-+Peru,St. Margaret’s Health- Peru Peru,,,"Jul 31, 2024",Adult Transthoracic,,,,,,,,,,,,,,,,,,,,
370,371,St. Mary’s Hospital,38.530809,-89.115999,granted,400 North Pleasant,,Centralia,IL,62801,USA,,,,echo,www.google.com/search?q=St.+Mary’s+Hospital,St. Mary’s Hospital Centralia,,,"Mar 31, 2024",Adult Transthoracic,,,,,,,,,,,,,,,,,,,,
371,372,St. Mary’s Hospital,38.530809,-89.115999,granted,400 N. Pleasant,,Centralia,IL,62801,USA,,,,vascular,www.google.com/search?q=St.+Mary’s+Hospital,St. Mary’s Hospital Centralia,,,,,,,,,"Mar 31, 2024","Extracranial Cerebrovascular Testing, Peripheral Venous Testing",,,,,,,,,,,,,,
372,373,St. Marys Hospital,39.826336,-88.932228,granted,1800 East Lakeshore Drive,,Decatur,IL,62521,USA,,www.stmarysdecatur.com,,nuclear,,St. Marys Hospital Decatur,,,,,,,"Nov 30, 2024","Equilibrium Radionuclide Angiography, Myocardial Perfusion Imaging",,,,,,,,,,,,,,,,
373,374,Suburban Ear Nose and Throat Associates Ltd,42.050968,-88.00308,granted,5999 New Wilke Rd Building 1,,Rolling Meadows,IL,60008,USA,,,,ct,www.google.com/search?q=Suburban+Ear+Nose+and+Throat+Associates+Ltd,Suburban Ear Nose and Throat Associates Ltd Rolling Meadows,"Jun 30, 2025",Maxillofacial CT,,,,,,,,,,,,,,,,,,,,,,
374,375,Suburban Otolaryngology S.C.,41.829115,-87.792645,granted,3340 S. Oak Park Avenue,Suite 204,Berwyn,IL,60402,USA,,suboto.com,,ct,,Suburban Otolaryngology S.C. Berwyn,"Jan 31, 2024",Maxillofacial CT,,,,,,,,,,,,,,,,,,,,,,
375,376,Sukhjit Gill,41.923379,-87.645825,granted,2266 N Lincoln Ave,,Chicago,IL,60614,USA,,,,nuclear,www.google.com/search?q=Sukhjit+Gill,Sukhjit Gill Chicago,,,,,,,"Apr 30, 2024",Myocardial Perfusion Imaging,,,,,,,,,,,,,,,,
376,377,Swedish American Heart Institute,42.26383,-89.074818,granted,1340 Charles St. Suite 300,Renaissance Pavilion,Rockford,IL,61104,USA,,,,echo,www.google.com/search?q=Swedish+American+Heart+Institute,Swedish American Heart Institute Rockford,,,"May 31, 2024",Adult Transthoracic,,,,,,,,,,,,,,,,,,,,
377,378,Swedish American Hospital,42.266943,-89.07355,granted,1401 E State St.,,Rockford,IL,61104,USA,,Swedishamerican.org,,echo,,Swedish American Hospital Rockford,,,"May 31, 2024",Adult Transthoracic,,,,,,,,,,,,,,,,,,,,
378,379,Swedish Covenant Hospital,41.975243,-87.698917,granted,5145 North California Avenue,,Chicago,IL,60625,USA,,,,echo,www.google.com/search?q=Swedish+Covenant+Hospital,Swedish Covenant Hospital Chicago,,,"Jun 30, 2024","Adult Stress, Adult Transesophageal, Adult Transthoracic",,,,,,,,,,,,,,,,,,,,
379,380,The Carle Foundation Hospital,40.117423,-88.213888,granted,611 W. Park Street,,Urbana,IL,61801,USA,,,,nuclear,www.google.com/search?q=The+Carle+Foundation+Hospital,The Carle Foundation Hospital Urbana,,,,,,,"Nov 30, 2023","Equilibrium Radionuclide Angiography, General Nuclear Medicine, Myocardial Perfusion Imaging, Positron Emission Tomography (PET)",,,,,,,,,,,,,,,,
380,381,The Carle Foundation Hospital,40.163808,-87.630594,granted,2300 North Vermillion Street,,Danville,IL,61833,USA,,,,nuclear,www.google.com/search?q=The+Carle+Foundation+Hospital,The Carle Foundation Hospital Danville,,,,,,,"Nov 30, 2023","General Nuclear Medicine, Myocardial Perfusion Imaging",,,,,,,,,,,,,,,,
381,382,The Carle Foundation Hospital,40.116482,-88.214077,granted,509 W University Avenue,,Urbana,IL,61801,USA,,,,nuclear,www.google.com/search?q=The+Carle+Foundation+Hospital,The Carle Foundation Hospital Urbana,,,,,,,"Nov 30, 2023",Positron Emission Tomography (PET),,,,,,,,,,,,,,,,
382,383,The Ear Nose and Throat Center,42.039703,-87.847667,granted,1875 Dempster Street,Suite 301,Park Ridge,IL,60068,USA,,,,ct,www.google.com/search?q=The+Ear+Nose+and+Throat+Center,The Ear Nose and Throat Center Park Ridge,"Jun 30, 2023",Maxillofacial CT,,,,,,,,,,,,,,,,,,,,,,
383,384,"The Office of Dr. Mariusz Milejczyk, MD",42.27518,-87.951787,granted,1880 W. Winchester,Suite 106,Libertyville,IL,60048,USA,,,,nuclear,"www.google.com/search?q=The+Office+of+Dr.+Mariusz+Milejczyk,+MD","The Office of Dr. Mariusz Milejczyk, MD Libertyville",,,,,,,"Oct 31, 2023",Myocardial Perfusion Imaging,,,,,,,,,,,,,,,,
384,385,Tinley Park Open MRI and Imaging Center,41.552148,-87.805629,multigranted,"18660 Graphics Drive, Suite 101",,Tinley Park,IL,60477,USA,,,,"ct, mr",www.google.com/search?q=Tinley+Park+Open+MRI+and+Imaging+Center,Tinley Park Open MRI and Imaging Center Tinley Park,"Aug 31, 2022","Body CT, Neurological CT, Maxillofacial CT",,,"Jun 30, 2024","Body MRI, Musculoskeletal MRI, Neurological MRI, MRA",,,,,,,,,,,,,,,,,,
385,386,UChicago Medicine Ingalls Memorial,41.602516,-87.775028,granted,6701 West 159th Street,,Tinley Park,IL,60477,USA,,www.ingalls.org/locations-tinleypark,,echo,,UChicago Medicine Ingalls Memorial Tinley Park,,,"Mar 31, 2025",Adult Transthoracic,,,,,,,,,,,,,,,,,,,,
386,387,UChicago Medicine Ingalls Memorial,41.606661,-87.659478,granted,One Ingalls Drive,,Harvey,IL,60426,USA,,,,echo,www.google.com/search?q=UChicago+Medicine+Ingalls+Memorial,UChicago Medicine Ingalls Memorial Harvey,,,"Mar 31, 2025",Adult Transthoracic,,,,,,,,,,,,,,,,,,,,
387,388,UChicago Medicine Ingalls Memorial,41.528168,-87.699003,granted,19950 Governors Highway,,Flossmoor,IL,60422,USA,,www.ingalls.org/locations-flossmoor,,echo,,UChicago Medicine Ingalls Memorial Flossmoor,,,"Mar 31, 2025",Adult Transthoracic,,,,,,,,,,,,,,,,,,,,
388,389,UChicago Medicine Ingalls Memorial,41.587954,-87.55895,granted,1600 Torrence Ave,,Calumet City,IL,60409,USA,,www.ingalls.org/locations-calumetcity,,echo,,UChicago Medicine Ingalls Memorial Calumet City,,,"Mar 31, 2025",Adult Transthoracic,,,,,,,,,,,,,,,,,,,,
389,390,United Vein Centers,41.887088,-87.81107,granted,"7420 Central Avenue,",Suite 2030,River Forest,IL,60305,US,,unitedveincenters.com,,vascular,,United Vein Centers River Forest,,,,,,,,,"Jan 31, 2024",Peripheral Venous Testing,,,,,,,,,,,,,,
390,391,United Vein Centers,41.831065,-88.013103,granted,1101 W. 31st Street,Ste 170,Downers Grove,IL,60515,US,,unitedveincenters.com,,vascular,,United Vein Centers Downers Grove,,,,,,,,,"Jan 31, 2024",Peripheral Venous Testing,,,,,,,,,,,,,,
391,392,United Vein Centers,41.720137,-87.738049,granted,4700 West 95th Street,Suite 303,Oak Lawn,IL,60453,US,,unitedveincenters.com,,vascular,,United Vein Centers Oak Lawn,,,,,,,,,"Jan 31, 2024",Peripheral Venous Testing,,,,,,,,,,,,,,
392,393,United Vein Centers,41.749624,-88.170753,granted,1259 Rickert Dr,Suite 208,Naperville,IL,60540,US,,unitedveincenters.com,,vascular,,United Vein Centers Naperville,,,,,,,,,"Jan 31, 2024",Peripheral Venous Testing,,,,,,,,,,,,,,
393,394,United Vein Centers,42.106642,-87.980487,granted,1640 N Arlington Heights Rd,Ste 201,Arlington Heights,IL,60004,US,,unitedveincenters.com,,vascular,,United Vein Centers Arlington Heights,,,,,,,,,"Jan 31, 2024",Peripheral Venous Testing,,,,,,,,,,,,,,
394,395,United Vein Centers,42.357754,-87.902174,granted,200 S. Greenleaf,Suite E,Gurnee,IL,60031,US,,unitedveincenters.com,,vascular,,United Vein Centers Gurnee,,,,,,,,,"Jan 31, 2024",Peripheral Venous Testing,,,,,,,,,,,,,,
395,396,United Vein Centers,42.101419,-87.764306,granted,1622 Willow Road,Suite 102,Northfield,IL,60093,US,,unitedveincenters.com,,vascular,,United Vein Centers Northfield,,,,,,,,,"Jan 31, 2024",Peripheral Venous Testing,,,,,,,,,,,,,,
396,397,United Vein Centers,41.912601,-87.64832,granted,1460 N Halsted Street,Suite 503,Chicago,IL,60642,US,,unitedveincenters.com,,vascular,,United Vein Centers Chicago,,,,,,,,,"Jan 31, 2024",Peripheral Venous Testing,,,,,,,,,,,,,,
397,398,United Vein Centers,41.864828,-88.351311,granted,2554 W Fabyan Pkwy,,Batavia,IL,60510-1572,US,,unitedveincenters.com,,vascular,,United Vein Centers Batavia,,,,,,,,,"Jan 31, 2024",Peripheral Venous Testing,,,,,,,,,,,,,,
398,399,UnityPoint Health- Cardiology,40.699879,-89.597266,granted,112 N. E. Crescent Avenue,,Peoria,IL,61604,USA,,www.methodistmedicalgroup.org,,echo,,UnityPoint Health- Cardiology Peoria,,,"Sep 30, 2023",Adult Transthoracic,,,,,,,,,,,,,,,,,,,,
399,400,UnityPoint Health- Methodist,40.700311,-89.59436,granted,221 North East Glen Oak Avenue,,Peoria,IL,61636,USA,,www.mymethodist.net,,echo,,UnityPoint Health- Methodist Peoria,,,"Sep 30, 2023",Adult Transthoracic,,,,,,,,,,,,,,,,,,,,
400,401,UnityPoint Health- Proctor,40.752496,-89.593254,granted,5409 N Knoxville Ave,,Peoria,IL,61614,USA,,,,echo,www.google.com/search?q=UnityPoint+Health-+Proctor,UnityPoint Health- Proctor Peoria,,,"Sep 30, 2023",Adult Transthoracic,,,,,,,,,,,,,,,,,,,,
401,402,University Head And Neck Associates - Downers Grove,41.818197,-88.0103,granted,3800 Highland Avenue Ste. 105,,Downers Grove,IL,60515,USA,,midwestsinuscenter.com,,ct,,University Head And Neck Associates - Downers Grove Downers Grove,"Dec 30, 2022",Maxillofacial CT,,,,,,,,,,,,,,,,,,,,,,
402,403,University Head And Neck Associates - Tinley Park,41.6024106,-87.78275,granted,18210 S. LaGrange Rd. Suite 206,,Tinley Park,IL,60487,USA,,midwestsinuscenter.com,,ct,,University Head And Neck Associates - Tinley Park Tinley Park,"Dec 30, 2022",Maxillofacial CT,,,,,,,,,,,,,,,,,,,,,,
403,404,University of Chicago Medical Center,41.787942,-87.604925,granted,5841 South Maryland Avenue,MC 5084,Chicago,IL,60637,USA,,,,echo,www.google.com/search?q=University+of+Chicago+Medical+Center,University of Chicago Medical Center Chicago,,,"Apr 30, 2024","Adult Stress, Adult Transesophageal, Adult Transthoracic",,,,,,,,,,,,,,,,,,,,
404,405,University of Chicago Medical Center Vascular Laboratory,41.63073,-87.853953,granted,14290 S La Grange Rd. Room 2525,,Orland Park,IL,60462,USA,,,,vascular,www.google.com/search?q=University+of+Chicago+Medical+Center+Vascular+Laboratory,University of Chicago Medical Center Vascular Laboratory Orland Park,,,,,,,,,"Oct 30, 2022","Extracranial Cerebrovascular Testing, Peripheral Arterial Testing, Peripheral Venous Testing, Visceral Vascular Testing",,,,,,,,,,,,,,
405,406,University of Chicago Medical Center Vascular Laboratory,41.787956,-87.604925,granted,5841 South Maryland Avenue,DCAM Module 5H MC 9022,Chicago,IL,60637,USA,,,,vascular,www.google.com/search?q=University+of+Chicago+Medical+Center+Vascular+Laboratory,University of Chicago Medical Center Vascular Laboratory Chicago,,,,,,,,,"Oct 30, 2022","Extracranial Cerebrovascular Testing, Peripheral Arterial Testing, Peripheral Venous Testing, Visceral Vascular Testing",,,,,,,,,,,,,,
406,407,University of Chicago Medicine,41.63073,-87.853953,granted,14290 South La Grange Road,,Orland Park,IL,60462,,,,,nuclear,www.google.com/search?q=University+of+Chicago+Medicine,University of Chicago Medicine Orland Park,,,,,,,"Oct 31, 2023",Myocardial Perfusion Imaging,,,,,,,,,,,,,,,,
407,408,University of Chicago Medicine Center for Advanced Care at Orland Park,41.63073,-87.853953,granted,14290 South LaGrange Road,,Orland Park,IL,60462,USA,,,,echo,www.google.com/search?q=University+of+Chicago+Medicine+Center+for+Advanced+Care+at+Orland+Park,University of Chicago Medicine Center for Advanced Care at Orland Park Orland Park,,,"Apr 30, 2024","Adult Stress, Adult Transthoracic",,,,,,,,,,,,,,,,,,,,
408,409,University of Illinois Hospital and Health Sciences System,41.869224,-87.670529,granted,1740 West Taylor Street,,Chicago,IL,60612,USA,,,,vascular,www.google.com/search?q=University+of+Illinois+Hospital+and+Health+Sciences+System,University of Illinois Hospital and Health Sciences System Chicago,,,,,,,,,"Oct 30, 2022","Extracranial Cerebrovascular Testing, Intracranial Cerebrovascular Testing, Peripheral Arterial Testing, Peripheral Venous Testing",,,,,,,,,,,,,,
409,410,University of Illinois Hospital and Health Sciences System,41.86943,-87.67052,multigranted,1740 West Taylor St,"Room 2600, MC 931",Chicago,IL,60612,USA,,,,"echo, pediatric_echo",www.google.com/search?q=University+of+Illinois+Hospital+and+Health+Sciences+System,University of Illinois Hospital and Health Sciences System Chicago,,,"Jun 30, 2023","Adult Stress, Adult Transesophageal, Adult Transthoracic",,,,,,,"Dec 31, 2023",Pediatric Transthoracic,,,,,,,,,,,,
410,411,Valley West Hospital,41.657134,-88.62192,granted,1302 N. Main St,,Sandwich,IL,60548,USA,,nm.org,,echo,,Valley West Hospital Sandwich,,,"Jan 31, 2025",Adult Transthoracic,,,,,,,,,,,,,,,,,,,,
411,412,Vascular Specialists,41.557349,-87.825188,granted,8505 183rd St,Suite A,Tinley Park,IL,60487,USA,,vascspecialists.org,,vascular,,Vascular Specialists Tinley Park,,,,,,,,,"Aug 31, 2024","Extracranial Cerebrovascular Testing, Peripheral Arterial Testing, Peripheral Venous Testing",,,,,,,,,,,,,,
412,413,Vascular Surgery and Interventional Radiology,41.883532,-88.342932,granted,351 Delnor Drive,Suite 200,Geneva,IL,60134,USA,,NM.org,,vascular,,Vascular Surgery and Interventional Radiology Geneva,,,,,,,,,"Jan 31, 2024","Extracranial Cerebrovascular Testing, Peripheral Arterial Testing, Peripheral Venous Testing",,,,,,,,,,,,,,
413,414,Vascular Surgery and Interventional Radiology,41.871948,-88.158338,granted,25 North Winfield Road,Suite 103,Winfield,IL,60190,USA,,NM.org,,vascular,,Vascular Surgery and Interventional Radiology Winfield,,,,,,,,,"Jan 31, 2024","Extracranial Cerebrovascular Testing, Peripheral Arterial Testing, Peripheral Venous Testing",,,,,,,,,,,,,,
414,415,Vein Clinics of America,42.010414,-87.761736,granted,7100 Carpenter Road,,Skokie,IL,60077,USA,,www.veinclinics.com/clinic/village-crossing-illinois/,,vascular,,Vein Clinics of America Skokie,,,,,,,,,"Nov 30, 2023",Peripheral Venous Testing,,,,,,,,,,,,,,
415,416,Vein Clinics of America,41.80337,-88.148046,granted,184 Shuman Blvd.,Suite 560,Naperville,IL,60563,USA,,www.veinclinics.com,,vascular,,Vein Clinics of America Naperville,,,,,,,,,"Nov 30, 2023",Peripheral Venous Testing,,,,,,,,,,,,,,
416,417,Vein Clinics of America,41.849595,-87.958783,granted,2 Mid America Plaza,Suite 720,Oak Brook Terrace,IL,60181,USA,,www.veinclinics.com/clinic/oakbrook-terrace-illinois/,,vascular,,Vein Clinics of America Oak Brook Terrace,,,,,,,,,"Nov 30, 2023",Peripheral Venous Testing,,,,,,,,,,,,,,
417,418,Vein Clinics of America,42.048409,-88.032935,granted,1101 Perimeter Drive,Suite 620,Schaumburg,IL,60173,USA,,www.veinclinics.com/clinic/schaumburg-illinois/,,vascular,,Vein Clinics of America Schaumburg,,,,,,,,,"Nov 30, 2023",Peripheral Venous Testing,,,,,,,,,,,,,,
418,419,Vein Clinics of America,41.631859,-87.851192,granted,14225 95th Avenue,Suite 455,Orland Park,IL,60462,USA,,www.veinclinics.com/clinic/orland-park-illinois/,,vascular,,Vein Clinics of America Orland Park,,,,,,,,,"Nov 30, 2023",Peripheral Venous Testing,,,,,,,,,,,,,,
419,420,Vein Clinics of America,41.868421,-88.340515,granted,1792 S. Randall Rd,,Geneva,IL,60134,USA,,www.veinclinics.com/clinic/geneva-illinois/,,vascular,,Vein Clinics of America Geneva,,,,,,,,,"Nov 30, 2023",Peripheral Venous Testing,,,,,,,,,,,,,,
420,421,Vein Clinics of America,42.35756,-87.898434,granted,15 Tower Court,Suite 200,Gurnee,IL,60031,USA,,www.veinclinics.com/clinic/gurnee-illinois/,,vascular,,Vein Clinics of America Gurnee,,,,,,,,,"Nov 30, 2023",Peripheral Venous Testing,,,,,,,,,,,,,,
421,422,Vein Clinics of America,41.594302,-88.201602,granted,127860 S. Rt 59,,Plainfield,IL,60544,USA,,www.veinclinics.com/clinic/plainfield-illinois/,,vascular,,Vein Clinics of America Plainfield,,,,,,,,,"Nov 30, 2023",Peripheral Venous Testing,,,,,,,,,,,,,,
422,423,Vein Clinics of America,41.503577,-87.852751,granted,21182 S. LaGrange Rd,,Frankfort,IL,60423,USA,,www.veinclinics.com/clinic/frankfort-illinois/,,vascular,,Vein Clinics of America Frankfort,,,,,,,,,"Nov 30, 2023",Peripheral Venous Testing,,,,,,,,,,,,,,
423,424,Vein Clinics of America,42.165446,-88.155351,granted,700 West Northwest Highway,,Barrington,IL,60010,USA,,www.veinclinics.com/clinic/barrington-illinois/,,vascular,,Vein Clinics of America Barrington,,,,,,,,,"Nov 30, 2023",Peripheral Venous Testing,,,,,,,,,,,,,,
424,425,"Vein Clinics of Chicago, LLC",41.908907,-87.807349,granted,7230 W. North Ave,,Elmwood Park,IL,60707,USA,,,,vascular,"www.google.com/search?q=Vein+Clinics+of+Chicago,+LLC","Vein Clinics of Chicago, LLC Elmwood Park",,,,,,,,,"Dec 30, 2022",Peripheral Venous Testing,,,,,,,,,,,,,,
425,426,"Vein Clinics of Chicago, LLC",41.939137,-87.725207,granted,3927 W. Belmont Avenue,Suite 103,Chicago,IL,60618,USA,,,,vascular,"www.google.com/search?q=Vein+Clinics+of+Chicago,+LLC","Vein Clinics of Chicago, LLC Chicago",,,,,,,,,"Dec 30, 2022",Peripheral Venous Testing,,,,,,,,,,,,,,
426,427,"Vein Clinics of Chicago, LLC",41.792284,-87.782427,granted,6415 W. Archer Avenue,,Chicago,IL,60638,USA,,,,vascular,"www.google.com/search?q=Vein+Clinics+of+Chicago,+LLC","Vein Clinics of Chicago, LLC Chicago",,,,,,,,,"Dec 30, 2022",Peripheral Venous Testing,,,,,,,,,,,,,,
427,428,Villa Park Medical Imaging,41.902361,-87.988499,granted,646 N Addison Rd,,Villa Park,IL,60181,USA,,,,mr,www.google.com/search?q=Villa+Park+Medical+Imaging,Villa Park Medical Imaging Villa Park,,,,,"Jan 31, 2024","Musculoskeletal MRI, Neurological MRI",,,,,,,,,,,,,,,,,,
428,429,"Wajahat Mirza, MD, SC",42.338754,-88.016652,granted,1170 East Belvidere,,Grayslake,IL,60560,USA,,,,nuclear,"www.google.com/search?q=Wajahat+Mirza,+MD,+SC","Wajahat Mirza, MD, SC Grayslake",,,,,,,"Oct 31, 2023",Myocardial Perfusion Imaging,,,,,,,,,,,,,,,,
429,430,"Washington University Physicians in Illinois, Inc.",38.550921,-89.985732,granted,19 Wolf Creek Drive,,Swansea,IL,62226,USA,,,,ct,"www.google.com/search?q=Washington+University+Physicians+in+Illinois,+Inc.","Washington University Physicians in Illinois, Inc. Swansea","Dec 30, 2022",Maxillofacial CT,,,,,,,,,,,,,,,,,,,,,,
430,431,Weil Foot and Ankle Institute,42.054313,-87.889429,granted,"1660 Feehanville Dr, Ste. 100",,Mount Prospect,IL,60056,USA,,www.weil4feet.com,,mr,,Weil Foot and Ankle Institute Mount Prospect,,,,,"Oct 31, 2023",Musculoskeletal MRI,,,,,,,,,,,,,,,,,,
431,432,Weil Foot and Ankle Institute,41.877949,-87.803775,granted,"610 S Maple Avenue, Suite 2550",,Oak Park,IL,60303,USA,,www.weil4feet.com,,mr,,Weil Foot and Ankle Institute Oak Park,,,,,"Oct 31, 2023",Musculoskeletal MRI,,,,,,,,,,,,,,,,,,
432,433,Weil Foot and Ankle Institute,42.24921,-87.944378,granted,"1900 Hollister Drive, Suite 160",,Libertyville,IL,60048,USA,,,,mr,www.google.com/search?q=Weil+Foot+and+Ankle+Institute,Weil Foot and Ankle Institute Libertyville,,,,,"Oct 31, 2023",Musculoskeletal MRI,,,,,,,,,,,,,,,,,,
433,434,Weil Foot and Ankle Institute,41.705672,-87.785682,granted,10255 Southwest Highway,,Chicago Ridge,IL,60415,,,,,mr,www.google.com/search?q=Weil+Foot+and+Ankle+Institute,Weil Foot and Ankle Institute Chicago Ridge,,,,,"Oct 31, 2023",Musculoskeletal MRI,,,,,,,,,,,,,,,,,,
434,435,Weil Foot- Ankle & Orthopedic Institute,41.910431,-87.63306,granted,1565 N Lasalle Street,,Chicago,IL,60610,USA,,www.weil4feet.com,,mr,,Weil Foot- Ankle & Orthopedic Institute Chicago,,,,,"Oct 31, 2023",Musculoskeletal MRI,,,,,,,,,,,,,,,,,,
435,436,Weiss Memorial Hospital,41.966521,-87.648898,granted,4646 North Marine Drive,,Chicago,IL,60640,USA,,,,echo,www.google.com/search?q=Weiss+Memorial+Hospital,Weiss Memorial Hospital Chicago,,,"Apr 30, 2024","Adult Stress, Adult Transesophageal, Adult Transthoracic",,,,,,,,,,,,,,,,,,,,
436,437,Woodridge Clinic,41.749364,-88.031099,granted,7530 Woodward Avenue Suite A,,Woodridge,IL,60517,USA,,,,nuclear,www.google.com/search?q=Woodridge+Clinic,Woodridge Clinic Woodridge,,,,,,,"Oct 31, 2023",Myocardial Perfusion Imaging,,,,,,,,,,,,,,,,
437,438,Yorkville Professional Center,41.661971,-88.441508,granted,106 East Countryside Parkway,,Yorkville,IL,60560,USA,,,,nuclear,www.google.com/search?q=Yorkville+Professional+Center,Yorkville Professional Center Yorkville,,,,,,,"Jul 31, 2024",Myocardial Perfusion Imaging,,,,,,,,,,,,,,,,
