,id,name,lat,lng,category,address,address2,city,state,postal,country,phone,web,features,modalities,searchGoogle,search,ct,ct_areas,echo,echo_areas,mr,mr_areas,nuclear,nuclear_areas,vascular,vascular_areas,pediatric_echo,pediatric_echo_areas,ct-dental,ct-dental_areas,stenting,stenting_areas,vein_center,vein_center_areas,cardiac_electrophysiology,cardiac_electrophysiology_areas,cardiovascular_catheterization,cardiovascular_catheterization_areas,jrcdms,jrcdms_areas
0,1,Advanced ENT and Allergy,38.404849,-86.112688,granted,108 W Daisy Lane,,New Albany,IN,47150,USA,,www.advancedentandallergy.com,,ct,,Advanced ENT and Allergy New Albany,"Oct 31, 2023",Maxillofacial CT,,,,,,,,,,,,,,,,,,,,,,
1,2,ADVENT South Bend,41.713039,-86.203446,granted,53760 Generations Drive,,South Bend,IN,46635,,,www.adventknows.com,,ct,,ADVENT South Bend South Bend,"Nov 30, 2023",Maxillofacial CT,,,,,,,,,,,,,,,,,,,,,,
2,3,AffordableMRI.com,39.887383,-86.046125,granted,7301 North Shadeland Ave,Ste 1D,Indianapolis,IN,46250,USA,,AffordableMRI.com,,mr,,AffordableMRI.com Indianapolis,,,,,"Nov 29, 2022","Musculoskeletal MRI, Neurological MRI",,,,,,,,,,,,,,,,,,
3,4,"Allen County Cardiology, LLC",41.078036,-85.147583,multigranted,604 W. Berry St.,,Fort Wayne,IN,46802,USA,,www.allencountycardiology.com,,"nuclear, echo",,"Allen County Cardiology, LLC Fort Wayne",,,"Mar 31, 2025",Adult Transthoracic,,,"Dec 31, 2023",Myocardial Perfusion Imaging,,,,,,,,,,,,,,,,
4,5,"Allen County Cardiology, LLC",41.638868,-84.994601,granted,424 North Williams Street,,Angola,IN,46703,USA,,www.allencountycardiology.com,,echo,,"Allen County Cardiology, LLC Angola",,,"Mar 31, 2025",Adult Transthoracic,,,,,,,,,,,,,,,,,,,,
5,6,"Allied Physicians of Michiana, LLC",41.718319,-86.195103,granted,"6301 University Commons, Suite 360",,South Bend,IN,46635,USA,,,,ct,"www.google.com/search?q=Allied+Physicians+of+Michiana,+LLC","Allied Physicians of Michiana, LLC South Bend","Dec 30, 2022",Maxillofacial CT,,,,,,,,,,,,,,,,,,,,,,
6,7,Ascension Medical Group,39.909505,-86.193879,granted,8433 Harcourt Road,Suite 100,Indianapolis,IN,46260,USA,,,,vascular,www.google.com/search?q=Ascension+Medical+Group,Ascension Medical Group Indianapolis,,,,,,,,,"Apr 30, 2025","Extracranial Cerebrovascular Testing, Peripheral Arterial Testing, Peripheral Venous Testing, Visceral Vascular Testing",,,,,,,,,,,,,,
7,8,Ascension Medical Group,39.983083,-86.147094,granted,13450 North Meridian Street,Suite 160,Carmel,IN,46032,USA,,,,vascular,www.google.com/search?q=Ascension+Medical+Group,Ascension Medical Group Carmel,,,,,,,,,"Apr 30, 2025",Peripheral Venous Testing,,,,,,,,,,,,,,
8,9,Ascension Medical Group,39.934328,-86.160292,granted,10590 North Meridian Street,Suite 105,Indianapolis,IN,46290,USA,,,,vascular,www.google.com/search?q=Ascension+Medical+Group,Ascension Medical Group Indianapolis,,,,,,,,,"Apr 30, 2025","Extracranial Cerebrovascular Testing, Peripheral Arterial Testing, Peripheral Venous Testing, Visceral Vascular Testing",,,,,,,,,,,,,,
9,10,Ascension Medical Group - Avon,39.759436,-86.433399,granted,9166 E. US Hwy. 36,,Avon,IN,46123,USA,,,,echo,www.google.com/search?q=Ascension+Medical+Group+-+Avon,Ascension Medical Group - Avon Avon,,,"Jun 30, 2024","Adult Stress, Adult Transthoracic",,,,,,,,,,,,,,,,,,,,
10,11,Ascension Medical Group - Crawfordsville,30.37627,-97.65552,granted,1700 Bush Lane,,Crawfordsville,IN,47933,USA,,,,echo,www.google.com/search?q=Ascension+Medical+Group+-+Crawfordsville,Ascension Medical Group - Crawfordsville Crawfordsville,,,"Jun 30, 2024","Adult Stress, Adult Transthoracic",,,,,,,,,,,,,,,,,,,,
11,12,Ascension Medical Group - Frankfort,40.270233,-86.511824,granted,2485 Wabash St.,,Frankfort,IN,46041,USA,,,,echo,www.google.com/search?q=Ascension+Medical+Group+-+Frankfort,Ascension Medical Group - Frankfort Frankfort,,,"Jun 30, 2024","Adult Stress, Adult Transthoracic",,,,,,,,,,,,,,,,,,,,
12,13,Ascension Medical Group - Greenfield,39.793722,-85.766606,granted,300 E. Boyd Ave. Suite 201,,Greenfield,IN,46140,USA,,,,echo,www.google.com/search?q=Ascension+Medical+Group+-+Greenfield,Ascension Medical Group - Greenfield Greenfield,,,"Jun 30, 2024","Adult Stress, Adult Transthoracic",,,,,,,,,,,,,,,,,,,,
13,14,Ascension Medical Group - Hamilton Heart,40.043098,-86.028793,granted,17525 River Rd,,Noblesville,IN,46062,USA,,,,echo,www.google.com/search?q=Ascension+Medical+Group+-+Hamilton+Heart,Ascension Medical Group - Hamilton Heart Noblesville,,,"Jun 30, 2024","Adult Stress, Adult Transthoracic",,,,,,,,,,,,,,,,,,,,
14,15,Ascension Medical Group - Lafayette Cardiology,40.428331,-86.880037,granted,3900 Saint Francis Way,Suite 205,Lafayette,IN,47905,USA,,,,echo,www.google.com/search?q=Ascension+Medical+Group+-+Lafayette+Cardiology,Ascension Medical Group - Lafayette Cardiology Lafayette,,,"Jun 30, 2024","Adult Stress, Adult Transthoracic",,,,,,,,,,,,,,,,,,,,
15,16,Ascension Medical Group - Lebanon,40.076665,-86.475153,granted,2505 N. Lebanon St.,Suite 130,Lebanon,IN,46052,USA,,,,echo,www.google.com/search?q=Ascension+Medical+Group+-+Lebanon,Ascension Medical Group - Lebanon Lebanon,,,"Jun 30, 2024",Adult Transthoracic,,,,,,,,,,,,,,,,,,,,
16,17,Ascension Medical Group - Logansport,40.768508,-86.352057,granted,12 Chase Park,,Logansport,IN,46947,USA,,,,echo,www.google.com/search?q=Ascension+Medical+Group+-+Logansport,Ascension Medical Group - Logansport Logansport,,,"Jun 30, 2024","Adult Stress, Adult Transthoracic",,,,,,,,,,,,,,,,,,,,
17,18,Ascension Medical Group - Peru,40.773658,-86.080643,granted,West Old Key Drive,Suite 170,Peru,IN,46970,USA,,,,echo,www.google.com/search?q=Ascension+Medical+Group+-+Peru,Ascension Medical Group - Peru Peru,,,"Jun 30, 2024","Adult Stress, Adult Transthoracic",,,,,,,,,,,,,,,,,,,,
18,19,Ascension Medical Group - Seymour,38.955389,-85.893271,granted,225 South Pine St,Suite 310,Seymour,IN,47274,USA,,,,echo,www.google.com/search?q=Ascension+Medical+Group+-+Seymour,Ascension Medical Group - Seymour Seymour,,,"Jun 30, 2024","Adult Stress, Adult Transthoracic",,,,,,,,,,,,,,,,,,,,
19,20,Ascension Medical Group St Vincent - Avon Heart Care,39.761177,-86.503043,granted,9166 E US Highway 36,,Avon,IN,46123,USA,,www.stvincent.org/medicalgroup/,,nuclear,,Ascension Medical Group St Vincent - Avon Heart Care Avon,,,,,,,"Jan 31, 2025",Myocardial Perfusion Imaging,,,,,,,,,,,,,,,,
20,21,Ascension Medical Group St. Vincent - Hamilton Heart Care,40.043098,-86.028793,granted,17525 River Road,,Noblesville,IN,46062,USA,,www.stvincent.org/medicalgroup/,,nuclear,,Ascension Medical Group St. Vincent - Hamilton Heart Care Noblesville,,,,,,,"Jan 31, 2025",Myocardial Perfusion Imaging,,,,,,,,,,,,,,,,
21,22,Ascension Medical Group St. Vincent - Hancock Heart Care,39.793774,-85.765241,granted,300 East Boyd Avenue,Suite201,Greenfield,IN,46140,USA,,www.stvincent.org/medicalgroup/,,nuclear,,Ascension Medical Group St. Vincent - Hancock Heart Care Greenfield,,,,,,,"Jan 31, 2025",Myocardial Perfusion Imaging,,,,,,,,,,,,,,,,
22,23,Ascension Medical Group St. Vincent - Lafayette Heart Care,40.392408,-86.834318,granted,"3900 St. Francis Way, Suite 205",,Lafayette,IN,47905,USA,,www.stvincent.org/medicalgroup/,,nuclear,,Ascension Medical Group St. Vincent - Lafayette Heart Care Lafayette,,,,,,,"Jan 31, 2025",Myocardial Perfusion Imaging,,,,,,,,,,,,,,,,
23,24,Ascension Medical Group St. Vincent - Marion Heart Care,40.563129,-85.664453,granted,"330 North Wabash, Suite 110",,Marion,IN,46952,USA,,www.stvincent.org/medicalgroup/,,nuclear,,Ascension Medical Group St. Vincent - Marion Heart Care Marion,,,,,,,"Jan 31, 2025",Myocardial Perfusion Imaging,,,,,,,,,,,,,,,,
24,25,Ascension Medical Group St. Vincent Cardiology,37.964167,-87.50211,granted,901 Saint Mary Drive,Suite 300,Evansville,IN,47714,USA,,www.ascension.org,,vascular,,Ascension Medical Group St. Vincent Cardiology Evansville,,,,,,,,,"Apr 30, 2023","Extracranial Cerebrovascular Testing, Peripheral Arterial Testing, Peripheral Venous Testing",,,,,,,,,,,,,,
25,26,Ascension Medical Group- Anderson,40.094403,-85.682451,granted,141 W. 22nd Street,Suite 214,Anderson,IN,46016,USA,,,,vascular,www.google.com/search?q=Ascension+Medical+Group-+Anderson,Ascension Medical Group- Anderson Anderson,,,,,,,,,"Apr 30, 2025","Extracranial Cerebrovascular Testing, Peripheral Arterial Testing, Peripheral Venous Testing, Visceral Vascular Testing",,,,,,,,,,,,,,
26,27,Ascension Medical Group- Hendricks,39.76118,-86.50269,granted,9166 E US Highway 36,,Avon,IN,46123,USA,,,,vascular,www.google.com/search?q=Ascension+Medical+Group-+Hendricks,Ascension Medical Group- Hendricks Avon,,,,,,,,,"Apr 30, 2025","Extracranial Cerebrovascular Testing, Peripheral Arterial Testing, Peripheral Venous Testing, Visceral Vascular Testing",,,,,,,,,,,,,,
27,28,Ascension Medical Group- Kokomo,40.48429,-86.155423,granted,313 S. Berkley Road,Suite 120,Kokomo,IN,46901,USA,,,,vascular,www.google.com/search?q=Ascension+Medical+Group-+Kokomo,Ascension Medical Group- Kokomo Kokomo,,,,,,,,,"Apr 30, 2025","Extracranial Cerebrovascular Testing, Peripheral Arterial Testing, Peripheral Venous Testing, Visceral Vascular Testing",,,,,,,,,,,,,,
28,29,Ascension Medical Group- Lafayette,40.392408,-86.834318,granted,3900 St. Francis Way,Suite 201,Lafayette,IN,47905,USA,,,,vascular,www.google.com/search?q=Ascension+Medical+Group-+Lafayette,Ascension Medical Group- Lafayette Lafayette,,,,,,,,,"Apr 30, 2025","Extracranial Cerebrovascular Testing, Peripheral Arterial Testing, Peripheral Venous Testing, Visceral Vascular Testing",,,,,,,,,,,,,,
29,30,Ascension Medical Group- Lebanon,40.078607,-86.475612,granted,2505 N. Lebanon Street,Suite 130,Lebanon,IN,46052,USA,,,,vascular,www.google.com/search?q=Ascension+Medical+Group-+Lebanon,Ascension Medical Group- Lebanon Lebanon,,,,,,,,,"Apr 30, 2025","Extracranial Cerebrovascular Testing, Peripheral Arterial Testing, Peripheral Venous Testing, Visceral Vascular Testing",,,,,,,,,,,,,,
30,31,Ascension St Vincent Heart Center of Indiana,39.938311,-86.158722,granted,10580 N Meridian St,,Indianapolis,IN,46290,USA,,,,vascular,www.google.com/search?q=Ascension+St+Vincent+Heart+Center+of+Indiana,Ascension St Vincent Heart Center of Indiana Indianapolis,,,,,,,,,"Apr 30, 2025","Extracranial Cerebrovascular Testing, Peripheral Venous Testing",,,,,,,,,,,,,,
31,32,Ascension St. Vincent Randolph Co.,40.167807,-84.970293,granted,473 East Greenville,,Winchester,IN,47394,USA,,,,echo,www.google.com/search?q=Ascension+St.+Vincent+Randolph+Co.,Ascension St. Vincent Randolph Co. Winchester,,,"Jun 30, 2024","Adult Stress, Adult Transthoracic",,,,,,,,,,,,,,,,,,,,
32,33,Ascension St. Vincent Williamsport,40.29047,-87.295819,granted,412 N. Monroe St,,Williamsport,IN,47993,USA,,,,echo,www.google.com/search?q=Ascension+St.+Vincent+Williamsport,Ascension St. Vincent Williamsport Williamsport,,,"Jun 30, 2024","Adult Stress, Adult Transthoracic",,,,,,,,,,,,,,,,,,,,
33,34,Baptist Health Floyd,38.300506,-85.83508,multigranted,1850 State Street,,New Albany,IN,47150,USA,,baptistheallthfloyd.com,,"vascular, echo",,Baptist Health Floyd New Albany,,,"Jan 31, 2024",Adult Transthoracic,,,,,"Jan 29, 2023","Extracranial Cerebrovascular Testing, Peripheral Arterial Testing, Peripheral Venous Testing",,,,,,,,,,,,,,
34,35,Baptist Health Floyd Cardiac Diagnostics,38.282688,-85.740199,granted,31 Quartermaster Court,,Jeffersonville,IN,47130,USA,,,,echo,www.google.com/search?q=Baptist+Health+Floyd+Cardiac+Diagnostics,Baptist Health Floyd Cardiac Diagnostics Jeffersonville,,,"Jan 31, 2024",Adult Transthoracic,,,,,,,,,,,,,,,,,,,,
35,36,Baptist Health Floyd Cardiac Diagnostics,38.304087,-85.836472,granted,2109 Green Valley Road,,New Albany,IN,40165,USA,,,,echo,www.google.com/search?q=Baptist+Health+Floyd+Cardiac+Diagnostics,Baptist Health Floyd Cardiac Diagnostics New Albany,,,"Jan 31, 2024",Adult Transthoracic,,,,,,,,,,,,,,,,,,,,
36,37,Bone and Joint Specialist,41.455099,-87.335434,granted,9001 Broadway,,Merrillville,IN,46410,USA,,,,mr,www.google.com/search?q=Bone+and+Joint+Specialist,Bone and Joint Specialist Merrillville,,,,,"Feb 28, 2025",Musculoskeletal MRI,,,,,,,,,,,,,,,,,,
37,38,Cardiovascular Consultants PC,41.530618,-87.510609,multigranted,10010 Donald Powers Drive,,Munster,IN,46321,USA,,,,"vascular, echo",www.google.com/search?q=Cardiovascular+Consultants+PC,Cardiovascular Consultants PC Munster,,,"Jul 31, 2023",Adult Transthoracic,,,,,"Apr 30, 2023",Peripheral Venous Testing,,,,,,,,,,,,,,
38,39,"Cardiovascular Consultants, P.C.",41.530618,-87.510609,granted,10010 Donald Powers Drive,,Munster,IN,46321,USA,,,,nuclear,"www.google.com/search?q=Cardiovascular+Consultants,+P.C.","Cardiovascular Consultants, P.C. Munster",,,,,,,"Jun 30, 2023",Myocardial Perfusion Imaging,,,,,,,,,,,,,,,,
39,40,CarePointe PC,41.46192,-87.333744,granted,99 East 86th Avenue,Suite A,Merrillville,IN,46410,USA,,www.carepointe.net,,ct,,CarePointe PC Merrillville,"Jun 30, 2025",Maxillofacial CT,,,,,,,,,,,,,,,,,,,,,,
40,41,Children’s Heart Center at St. Vincent,39.907578,-86.198302,granted,8333 Naab Road,Suite 320,Indianapolis,IN,46260,USA,,,,pediatric_echo,www.google.com/search?q=Children’s+Heart+Center+at+St.+Vincent,Children’s Heart Center at St. Vincent Indianapolis,,,,,,,,,,,"Jan 31, 2024",Pediatric Transthoracic,,,,,,,,,,,,
41,42,Clark Memorial Hospital,38.319484,-85.710592,granted,Diagnostic Imaging,1220 Missouri Avenue,Jeffersonville,IN,47130,USA,,,,vascular,www.google.com/search?q=Clark+Memorial+Hospital,Clark Memorial Hospital Jeffersonville,,,,,,,,,"Feb 28, 2023","Extracranial Cerebrovascular Testing, Peripheral Arterial Testing, Peripheral Venous Testing",,,,,,,,,,,,,,
42,43,Columbus Regional Hospital,39.215882,-85.896217,granted,2400 East 17th Street,,Columbus,IN,47201,USA,,www.crh.org,,echo,,Columbus Regional Hospital Columbus,,,"Aug 31, 2025","Adult Stress, Adult Transthoracic",,,,,,,,,,,,,,,,,,,,
43,44,Community Heart and Vascular Hospital,39.90151,-86.046091,granted,8075 North Shadeland Avenue,Suite 140,Indianapolis,IN,46250,USA,,,,echo,www.google.com/search?q=Community+Heart+and+Vascular+Hospital,Community Heart and Vascular Hospital Indianapolis,,,"Mar 31, 2024","Adult Stress, Adult Transesophageal, Adult Transthoracic",,,,,,,,,,,,,,,,,,,,
44,45,Community Heart and Vascular Hospital - Vascular Testing,39.90151,-86.046091,granted,"8075 North Shadeland Avenue, Suite 330",,Indianapolis,IN,46250,USA,,,,vascular,www.google.com/search?q=Community+Heart+and+Vascular+Hospital+-+Vascular+Testing,Community Heart and Vascular Hospital - Vascular Testing Indianapolis,,,,,,,,,"Dec 31, 2022","Extracranial Cerebrovascular Testing, Peripheral Arterial Testing, Peripheral Venous Testing",,,,,,,,,,,,,,
45,46,Community Heart and Vascular Physicians Vascular Testing - Anderson,40.129929,-85.692512,granted,1210A Medical Arts Blvd. Suite 105,,Anderson,IN,46011,USA,,,,vascular,www.google.com/search?q=Community+Heart+and+Vascular+Physicians+Vascular+Testing+-+Anderson,Community Heart and Vascular Physicians Vascular Testing - Anderson Anderson,,,,,,,,,"Dec 31, 2022","Extracranial Cerebrovascular Testing, Peripheral Arterial Testing, Peripheral Venous Testing",,,,,,,,,,,,,,
46,47,Community Heart and Vascular Physicians Vascular Testing - Community East,39.786537,-86.073789,granted,1400 North Ritter Ave. Suite 500,,Indianapolis,IN,46219,USA,,,,vascular,www.google.com/search?q=Community+Heart+and+Vascular+Physicians+Vascular+Testing+-+Community+East,Community Heart and Vascular Physicians Vascular Testing - Community East Indianapolis,,,,,,,,,"Dec 31, 2022","Extracranial Cerebrovascular Testing, Peripheral Arterial Testing, Peripheral Venous Testing",,,,,,,,,,,,,,
47,48,Community Heart and Vascular Physicians Vascular Testing - Community South,39.635538,-86.133908,granted,"1402 East County Line Road, Suite 2400",,Indianapolis,IN,46227,USA,,,,vascular,www.google.com/search?q=Community+Heart+and+Vascular+Physicians+Vascular+Testing+-+Community+South,Community Heart and Vascular Physicians Vascular Testing - Community South Indianapolis,,,,,,,,,"Dec 31, 2022","Extracranial Cerebrovascular Testing, Peripheral Arterial Testing, Peripheral Venous Testing",,,,,,,,,,,,,,
48,49,Community Heart and Vascular Physicians Vascular Testing - Noblesville Office,40.047037,-86.022407,granted,"325 Westfield Road, Suite A",,Noblesville,IN,46060,USA,,,,vascular,www.google.com/search?q=Community+Heart+and+Vascular+Physicians+Vascular+Testing+-+Noblesville+Office,Community Heart and Vascular Physicians Vascular Testing - Noblesville Office Noblesville,,,,,,,,,"Dec 31, 2022","Extracranial Cerebrovascular Testing, Peripheral Arterial Testing, Peripheral Venous Testing",,,,,,,,,,,,,,
49,50,Community Hospital East,39.786537,-86.073789,granted,"1400 North Ritter, Suite 500",,Indianapolis,IN,46219,USA,,,,nuclear,www.google.com/search?q=Community+Hospital+East,Community Hospital East Indianapolis,,,,,,,"Feb 29, 2024",Myocardial Perfusion Imaging,,,,,,,,,,,,,,,,
50,51,Community Hospital East,39.786537,-86.073789,granted,1400 North Ritter Avenue,Suite 500,Indianapolis,IN,46219,USA,,,,echo,www.google.com/search?q=Community+Hospital+East,Community Hospital East Indianapolis,,,"Mar 31, 2024","Adult Stress, Adult Transesophageal, Adult Transthoracic",,,,,,,,,,,,,,,,,,,,
51,52,Community Hospital South,39.635538,-86.133908,granted,1402 East County Line Road,Suite 2400,Indianapolis,IN,46227,USA,,,,echo,www.google.com/search?q=Community+Hospital+South,Community Hospital South Indianapolis,,,"Mar 31, 2024","Adult Stress, Adult Transesophageal, Adult Transthoracic",,,,,,,,,,,,,,,,,,,,
52,53,Community Hospital South,39.635538,-86.133908,granted,"1402 E. County Line Rd., Ste 2400",,Indianapolis,IN,46227,USA,,,,nuclear,www.google.com/search?q=Community+Hospital+South,Community Hospital South Indianapolis,,,,,,,"Feb 29, 2024",Myocardial Perfusion Imaging,,,,,,,,,,,,,,,,
53,54,"Crown Point Vein Clinic, LLC",41.457775,-87.339121,granted,333 West 89th Ave,,Merriville,IN,46410,USA,,,,vascular,"www.google.com/search?q=Crown+Point+Vein+Clinic,+LLC","Crown Point Vein Clinic, LLC Merriville",,,,,,,,,"Dec 30, 2022",Peripheral Venous Testing,,,,,,,,,,,,,,
54,55,Deaconess Gateway Hospital,37.975196,-87.44227,granted,4007 Gateway Blvd,,Newburgh,IN,47630,USA,,deaconess.com,,echo,,Deaconess Gateway Hospital Newburgh,,,"Jun 30, 2024",Adult Transthoracic,,,,,,,,,,,,,,,,,,,,
55,56,Deaconess Health Systems,37.983147,-87.570729,granted,600 Mary St,,Evansville,IN,47747,USA,,deaconess.com,,echo,,Deaconess Health Systems Evansville,,,"Jun 30, 2024",Adult Transthoracic,,,,,,,,,,,,,,,,,,,,
56,57,Dukes Memorial Hospital,40.757669,-86.082415,granted,275 W. 12th St.,,Peru,IN,46970,USA,,www.dukesmemorialhosp.com,,echo,,Dukes Memorial Hospital Peru,,,"Jan 31, 2023",Adult Transthoracic,,,,,,,,,,,,,,,,,,,,
57,58,"Ear, Nose, and Throat Associates, PC",41.174857,-85.112527,granted,10021 Dupont Circle Court,,Fort Wayne,IN,46825,USA,,,,ct,"www.google.com/search?q=Ear,+Nose,+and+Throat+Associates,+PC","Ear, Nose, and Throat Associates, PC Fort Wayne","Apr 30, 2024",Maxillofacial CT,,,,,,,,,,,,,,,,,,,,,,
58,59,Elkhart General Cardiac Diagnostics - Elkhart Clinic,41.682272,-86.003363,granted,303 S. Nappanee St.,,Elkhart,IN,46514,USA,,,,echo,www.google.com/search?q=Elkhart+General+Cardiac+Diagnostics+-+Elkhart+Clinic,Elkhart General Cardiac Diagnostics - Elkhart Clinic Elkhart,,,"Oct 31, 2024",Adult Transthoracic,,,,,,,,,,,,,,,,,,,,
59,60,Elkhart General Cardiac Diagnostics - Riverpointe,41.680159,-85.993631,granted,500 Arcade Ave Suite 400,,Elkhart,IN,46514,USA,,,,echo,www.google.com/search?q=Elkhart+General+Cardiac+Diagnostics+-+Riverpointe,Elkhart General Cardiac Diagnostics - Riverpointe Elkhart,,,"Oct 31, 2024",Adult Transthoracic,,,,,,,,,,,,,,,,,,,,
60,61,Elkhart General Hospital Cardiac Diagnostics,41.678761,-85.991833,granted,600 East Boulevard,PO Box 1329,Elkhart,IN,46514,USA,,www.egh.org,,echo,,Elkhart General Hospital Cardiac Diagnostics Elkhart,,,"Oct 31, 2024",Adult Transthoracic,,,,,,,,,,,,,,,,,,,,
61,62,Eskenazi Health,39.78053,-86.17345,granted,720 Eskenazi Ave,,Indianapolis,IN,46202,USA,,www.eskenazihealth.edu,,echo,,Eskenazi Health Indianapolis,,,"Mar 31, 2024","Adult Stress, Adult Transesophageal, Adult Transthoracic",,,,,,,,,,,,,,,,,,,,
62,63,Eskenazi Health - Vascular Laboratory,39.78053,-86.17345,granted,720 Eskenazi Ave,,Indianapolis,IN,46202,USA,,,,vascular,www.google.com/search?q=Eskenazi+Health+-+Vascular+Laboratory,Eskenazi Health - Vascular Laboratory Indianapolis,,,,,,,,,"Apr 30, 2024","Extracranial Cerebrovascular Testing, Peripheral Arterial Testing, Peripheral Venous Testing",,,,,,,,,,,,,,
63,64,Franciscan Health - Indiana Heart Physicians,39.651273,-86.075806,granted,5330 E. Stop 11 Road,,Indianapolis,IN,46237,USA,,,,vascular,www.google.com/search?q=Franciscan+Health+-+Indiana+Heart+Physicians,Franciscan Health - Indiana Heart Physicians Indianapolis,,,,,,,,,"Aug 31, 2023",Extracranial Cerebrovascular Testing,,,,,,,,,,,,,,
64,65,"Franciscan Health Cardiac Care Center, Mooresville",39.609322,-86.356098,granted,1201 Hadley Road,,Mooresville,IN,46518,USA,,,,nuclear,"www.google.com/search?q=Franciscan+Health+Cardiac+Care+Center,+Mooresville","Franciscan Health Cardiac Care Center, Mooresville Mooresville",,,,,,,"Nov 29, 2022",Myocardial Perfusion Imaging,,,,,,,,,,,,,,,,
65,66,Franciscan Health Crown Point,41.396497,-87.364436,granted,1201 South Main Street,,Crown Point,IN,46307,USA,,,,echo,www.google.com/search?q=Franciscan+Health+Crown+Point,Franciscan Health Crown Point Crown Point,,,"Oct 31, 2023",Adult Transthoracic,,,,,,,,,,,,,,,,,,,,
66,67,Franciscan Health Indianapolis,39.651239,-86.078567,granted,5255 E. Stop 11 Road,Suite 210,Indianapolis,IN,46237,USA,,franciscanhealth.org,,vascular,,Franciscan Health Indianapolis Indianapolis,,,,,,,,,"Aug 31, 2023",Extracranial Cerebrovascular Testing,,,,,,,,,,,,,,
67,68,Franciscan Health Indianapolis,39.648365,-86.082674,granted,8111 South Emerson Avenue,,Indianapolis,IN,46237,USA,,,,vascular,www.google.com/search?q=Franciscan+Health+Indianapolis,Franciscan Health Indianapolis Indianapolis,,,,,,,,,"Aug 31, 2023",Extracranial Cerebrovascular Testing,,,,,,,,,,,,,,
68,69,Franciscan Health Michigan City,41.394704,-87.36916,granted,3500 Franciscan Way,,Michigan City,IN,46360,USA,,,,echo,www.google.com/search?q=Franciscan+Health+Michigan+City,Franciscan Health Michigan City Michigan City,,,"Oct 31, 2023",Adult Transthoracic,,,,,,,,,,,,,,,,,,,,
69,70,Franciscan Health Munster,41.537258,-87.512328,granted,701 Superior Avenue,,Munster,IN,46321,USA,,,,echo,www.google.com/search?q=Franciscan+Health+Munster,Franciscan Health Munster Munster,,,"Oct 31, 2023",Adult Transthoracic,,,,,,,,,,,,,,,,,,,,
70,71,Franciscan Health Nuclear Cardiac Diagnostic Services,39.651239,-86.078567,granted,5255 East Stop 11 Road,Suite 240,Indianapolis,IN,46237,USA,,franciscanalliance.org,,nuclear,,Franciscan Health Nuclear Cardiac Diagnostic Services Indianapolis,,,,,,,"Nov 29, 2022",Myocardial Perfusion Imaging,,,,,,,,,,,,,,,,
71,72,Franciscan St. Elizabeth Health Lafayette,40.393845,-86.838378,multigranted,1701 S Creasy Ln,,Lafayette,IN,47905,USA,,,,"echo, vascular",www.google.com/search?q=Franciscan+St.+Elizabeth+Health+Lafayette,Franciscan St. Elizabeth Health Lafayette Lafayette,,,"Oct 31, 2022",Adult Transthoracic,,,,,"Oct 31, 2023",Extracranial Cerebrovascular Testing,,,,,,,,,,,,,,
72,73,Franciscan St. Francis Cardiovascular Diagnostic Services,39.648365,-86.082674,granted,8111 Emerson Avenue,,Indianapolis,IN,46237,USA,,St Francis/Franciscan Health,,echo,,Franciscan St. Francis Cardiovascular Diagnostic Services Indianapolis,,,"Oct 31, 2024",Adult Transthoracic,,,,,,,,,,,,,,,,,,,,
73,74,Goshen Health System,41.564326,-85.829995,granted,200 High Park,,Goshen,IN,46526,USA,,,,echo,www.google.com/search?q=Goshen+Health+System,Goshen Health System Goshen,,,"Oct 31, 2024",Adult Transthoracic,,,,,,,,,,,,,,,,,,,,
74,75,Henry County Hospital,39.942474,-85.36501,granted,1000 North 16th Street,,New Castle,IN,47362,USA,,,,echo,www.google.com/search?q=Henry+County+Hospital,Henry County Hospital New Castle,,,"Dec 31, 2023",Adult Transthoracic,,,,,,,,,,,,,,,,,,,,
75,76,Howard Regional Health System,40.446835,-86.127103,granted,3500 South LaFountain Street,,Kokomo,IN,46902,USA,,,,vascular,www.google.com/search?q=Howard+Regional+Health+System,Howard Regional Health System Kokomo,,,,,,,,,"Jul 31, 2024","Extracranial Cerebrovascular Testing, Peripheral Arterial Testing, Peripheral Venous Testing",,,,,,,,,,,,,,
76,77,I U Health Cardiovascular Center,39.78795,-86.16303,granted,1701 North Senate Avenue,,Indianapolis,IN,46202,USA,,,,echo,www.google.com/search?q=I+U+Health+Cardiovascular+Center,I U Health Cardiovascular Center Indianapolis,,,"Sep 30, 2024","Adult Stress, Adult Transthoracic",,,,,,,,,,,,,,,,,,,,
77,78,Indiana University Health Ball Memorial Hospital Nuclear Cardiology Laboratory,40.197622,-85.414363,granted,2401 West University Avenue,,Muncie,IN,47303,USA,,,,nuclear,www.google.com/search?q=Indiana+University+Health+Ball+Memorial+Hospital+Nuclear+Cardiology+Laboratory,Indiana University Health Ball Memorial Hospital Nuclear Cardiology Laboratory Muncie,,,,,,,"Mar 31, 2025","Equilibrium Radionuclide Angiography, Myocardial Perfusion Imaging",,,,,,,,,,,,,,,,
78,79,Indiana University Health dba Cardiovascular Diagnostic Services,39.987887,-85.928664,multigranted,13100 East 136th Street,Suite 3000,Fishers,IN,46037,USA,,,,"echo, vascular, nuclear",www.google.com/search?q=Indiana+University+Health+dba+Cardiovascular+Diagnostic+Services,Indiana University Health dba Cardiovascular Diagnostic Services Fishers,,,"Jan 31, 2023","Adult Stress, Adult Transthoracic",,,"Feb 28, 2025",Myocardial Perfusion Imaging,"Jul 31, 2023","Extracranial Cerebrovascular Testing, Peripheral Arterial Testing",,,,,,,,,,,,,,
79,80,Indiana University Health dba Cardiovascular Diagnostic Services,39.637968,-86.158434,granted,"8820 South Meridian Street, Suite 230",,Indianapolis,IN,46217,USA,,,,echo,www.google.com/search?q=Indiana+University+Health+dba+Cardiovascular+Diagnostic+Services,Indiana University Health dba Cardiovascular Diagnostic Services Indianapolis,,,"Jan 31, 2023","Adult Stress, Adult Transthoracic",,,,,,,,,,,,,,,,,,,,
80,81,Indiana University Health dba Cardiovascular Diagnostic Services,39.774733,-85.994473,granted,9650 East Washington Street,Suite 100,Indianapolis,IN,46229,USA,,,,echo,www.google.com/search?q=Indiana+University+Health+dba+Cardiovascular+Diagnostic+Services,Indiana University Health dba Cardiovascular Diagnostic Services Indianapolis,,,"Jan 31, 2023",Adult Transthoracic,,,,,,,,,,,,,,,,,,,,
81,82,Indiana University Health DBA Cardiovascular Diagnostics,39.959275,-86.162356,granted,11700 North Meridian Street,,Carmel,IN,46032,USA,,,,echo,www.google.com/search?q=Indiana+University+Health+DBA+Cardiovascular+Diagnostics,Indiana University Health DBA Cardiovascular Diagnostics Carmel,,,"Jan 31, 2023","Adult Stress, Adult Transthoracic",,,,,,,,,,,,,,,,,,,,
82,83,Indiana University Health Echo Lab,39.775311,-86.17548,granted,550 North University Boulevard,Room 5435,Indianapolis,IN,46202,USA,,,,echo,www.google.com/search?q=Indiana+University+Health+Echo+Lab,Indiana University Health Echo Lab Indianapolis,,,"Sep 30, 2024","Adult Stress, Adult Transthoracic",,,,,,,,,,,,,,,,,,,,
83,84,Indiana University Health Tipton Hospital,40.272124,-86.041101,granted,1000 South Main,,Tipton,IN,46072,USA,,www.iuhealth.org/tipton/,,echo,,Indiana University Health Tipton Hospital Tipton,,,"Feb 28, 2023","Adult Stress, Adult Transthoracic",,,,,,,,,,,,,,,,,,,,
84,85,Indiana University Health Vascular Diagnostic Center Methodist Hospital,39.791142,-86.164949,granted,1801 North Senate Blvd,"Methodist Professional Building 2,  Suite D3100",Indianapolis,IN,46202,USA,,,,vascular,www.google.com/search?q=Indiana+University+Health+Vascular+Diagnostic+Center+Methodist+Hospital,Indiana University Health Vascular Diagnostic Center Methodist Hospital Indianapolis,,,,,,,,,"Jan 31, 2023","Extracranial Cerebrovascular Testing, Peripheral Arterial Testing, Peripheral Venous Testing, Visceral Vascular Testing",,,,,,,,,,,,,,
85,86,Indiana University Health Vascular Diagnostic Center North Hospital,39.959275,-86.162356,granted,11700 North Meridian Street,,Carmel,IN,46032,USA,,,,vascular,www.google.com/search?q=Indiana+University+Health+Vascular+Diagnostic+Center+North+Hospital,Indiana University Health Vascular Diagnostic Center North Hospital Carmel,,,,,,,,,"Jan 31, 2023","Extracranial Cerebrovascular Testing, Peripheral Arterial Testing, Peripheral Venous Testing, Visceral Vascular Testing",,,,,,,,,,,,,,
86,87,Indiana University Health Vascular Diagnostic Center University Hospital,39.775311,-86.17548,granted,"550 North University Boulevard, Room 1616A",,Indianapolis,IN,46202,USA,,,,vascular,www.google.com/search?q=Indiana+University+Health+Vascular+Diagnostic+Center+University+Hospital,Indiana University Health Vascular Diagnostic Center University Hospital Indianapolis,,,,,,,,,"Jan 31, 2023","Extracranial Cerebrovascular Testing, Peripheral Arterial Testing, Peripheral Venous Testing",,,,,,,,,,,,,,
87,88,Indiana University Health Vascular Diagnostic Center West Hospital,39.782568,-86.343731,granted,1111 Ronald Reagan Pkwy,,Avon,IN,46123,USA,,,,vascular,www.google.com/search?q=Indiana+University+Health+Vascular+Diagnostic+Center+West+Hospital,Indiana University Health Vascular Diagnostic Center West Hospital Avon,,,,,,,,,"Jan 31, 2023","Extracranial Cerebrovascular Testing, Peripheral Arterial Testing",,,,,,,,,,,,,,
88,89,Indiana University Health West Hospital,39.782568,-86.343731,granted,1111 North Ronald Reagan Parkway,,Avon,IN,46123,USA,,west.clarian.org,,echo,,Indiana University Health West Hospital Avon,,,"Nov 30, 2022","Adult Stress, Adult Transesophageal, Adult Transthoracic",,,,,,,,,,,,,,,,,,,,
89,90,Indiana Vein Specialists East,39.96214,-85.918622,granted,11876 Olio Road,Suite 700,Fishers,IN,46037,USA,,www.indyveins.com,,vascular,,Indiana Vein Specialists East Fishers,,,,,,,,,"Jul 31, 2024",Peripheral Venous Testing,,,,,,,,,,,,,,
90,91,Indiana Vein Specialists Lafayette,40.392424,-86.832553,granted,3920 St. Francis Way,Suite 105,Lafayette,IN,49705,United States,,www.lafayetteveins.com,,vascular,,Indiana Vein Specialists Lafayette Lafayette,,,,,,,,,"Jul 31, 2024",Peripheral Venous Testing,,,,,,,,,,,,,,
91,92,Indiana Vein Specialists West,39.939042,-86.233242,granted,10485 Commerce Drive,Suite 100,Carmel,IN,46032,USA,,www.indyveins.com,,vascular,,Indiana Vein Specialists West Carmel,,,,,,,,,"Jul 31, 2024",Peripheral Venous Testing,,,,,,,,,,,,,,
92,93,Indianapolis Sinus Center,39.636168,-86.0911,granted,701 E. County Line Rd,Suite 209,Greenwood,IN,46143,USA,,www.sient-llc.com,,ct,,Indianapolis Sinus Center Greenwood,"Apr 30, 2024",Maxillofacial CT,,,,,,,,,,,,,,,,,,,,,,
93,94,IU Health Ball Memorial Hospital-Echocardiography Laboratory,40.197622,-85.414363,granted,2401 West University Avenue,,Muncie,IN,47303,USA,,cardiacservicesatbmh.org,,echo,,IU Health Ball Memorial Hospital-Echocardiography Laboratory Muncie,,,"Aug 31, 2025",Adult Transthoracic,,,,,,,,,,,,,,,,,,,,
94,95,IU Health Bedford,38.860988,-86.512167,granted,2900 W 16th St,,Bedford,IN,47421,USA,,,,echo,www.google.com/search?q=IU+Health+Bedford,IU Health Bedford Bedford,,,"Dec 31, 2024",Adult Transthoracic,,,,,,,,,,,,,,,,,,,,
95,96,IU Health Bloomington Hospital,39.158668,-86.556225,granted,2651 E Discovery Pkwy,,Bloomington,IN,47408,United States,,www.iuhealth.org,,echo,,IU Health Bloomington Hospital Bloomington,,,"Jan 31, 2023","Adult Stress, Adult Transthoracic",,,,,,,,,,,,,,,,,,,,
96,97,IU Health Bloomington Hospital,39.161403,-86.540765,granted,2651 E Discovery Pkwy,,Bloomington,IN,47408,United States,,www.iuhealth.org,,vascular,,IU Health Bloomington Hospital Bloomington,,,,,,,,,"Dec 31, 2023","Extracranial Cerebrovascular Testing, Peripheral Arterial Testing, Peripheral Venous Testing, Visceral Vascular Testing",,,,,,,,,,,,,,
97,98,IU Health SIP Cardiology Landmark,39.161516,-86.554557,granted,550 Landmark Avenue,,Bloomington,IN,47402,USA,,,,echo,www.google.com/search?q=IU+Health+SIP+Cardiology+Landmark,IU Health SIP Cardiology Landmark Bloomington,,,"Jan 31, 2023","Adult Stress, Adult Transthoracic",,,,,,,,,,,,,,,,,,,,
98,99,IU Health Southern Indiana Physicians  ENT Associates,39.134264,-86.56994,granted,2920 McIntire Drive,Suite 350,Bloomington,IN,47403,USA,,,,ct,www.google.com/search?q=IU+Health+Southern+Indiana+Physicians++ENT+Associates,IU Health Southern Indiana Physicians  ENT Associates Bloomington,"Dec 31, 2023",Maxillofacial CT,,,,,,,,,,,,,,,,,,,,,,
99,100,Johnson Memorial Health,39.481046,-86.078139,granted,1155 West Jefferson St. Suite 203,,Franklin,IN,46131,USA,,,,echo,www.google.com/search?q=Johnson+Memorial+Health,Johnson Memorial Health Franklin,,,"Feb 28, 2023","Adult Stress, Adult Transthoracic",,,,,,,,,,,,,,,,,,,,
100,101,Kleinert Kutz,38.333984,-85.816786,granted,3605 Northgate Court,Suite 202,New Albany,IN,47150,USA,,www.kleinertkutz.com,,mr,,Kleinert Kutz New Albany,,,,,"Jul 31, 2023",Musculoskeletal MRI,,,,,,,,,,,,,,,,,,
101,102,"Lafayette Otolaryngology Assoc, Inc.",40.392514,-86.857382,granted,2320 Concord Road,,Lafayette,IN,47909,USA,,,,ct,"www.google.com/search?q=Lafayette+Otolaryngology+Assoc,+Inc.","Lafayette Otolaryngology Assoc, Inc. Lafayette","Nov 29, 2022",Maxillofacial CT,,,,,,,,,,,,,,,,,,,,,,
102,103,Legacy Vein Clinic - Mishawaka,41.709472,-86.174767,multigranted,611 E Douglas Rd Suite 200,,Mishawaka,IN,46545,USA,,www.legacyclinic.com,,"vein_center, vascular",,Legacy Vein Clinic - Mishawaka Mishawaka,,,,,,,,,"Jan 31, 2025",Peripheral Venous Testing,,,,,,,"Mar 31, 2023",Superficial Venous Evaluation and Management,,,,,,
103,104,Lutheran Hospital of Indiana,41.037374,-85.245885,granted,7950 West Jefferson Boulevard,,Fort Wayne,IN,46804,USA,,,,echo,www.google.com/search?q=Lutheran+Hospital+of+Indiana,Lutheran Hospital of Indiana Fort Wayne,,,"Dec 31, 2024","Adult Transesophageal, Adult Transthoracic",,,,,,,,,,,,,,,,,,,,
104,105,Major Hospital Cardiac Diagnostics,39.524449,-85.780548,granted,2451 Intelliplex Dr.,,Shelbyville,IN,46176,USA,,,,echo,www.google.com/search?q=Major+Hospital+Cardiac+Diagnostics,Major Hospital Cardiac Diagnostics Shelbyville,,,"Oct 31, 2024",Adult Transthoracic,,,,,,,,,,,,,,,,,,,,
105,106,Margaret Mary Community Hospital,39.305882,-85.223092,granted,321 Mitchell Avenue,,Batesville,IN,47006,USA,,,,echo,www.google.com/search?q=Margaret+Mary+Community+Hospital,Margaret Mary Community Hospital Batesville,,,"Aug 31, 2025","Adult Stress, Adult Transthoracic",,,,,,,,,,,,,,,,,,,,
106,107,Memorial Hospital and Health Care Center,38.393743,-86.941281,granted,800 West 9th Street,,Jasper,IN,47546,USA,,www.mhhcc.org,,echo,,Memorial Hospital and Health Care Center Jasper,,,"Jul 31, 2025","Adult Transesophageal, Adult Transthoracic",,,,,,,,,,,,,,,,,,,,
107,108,Memorial Hospital and Health Care Center,38.393743,-86.941281,granted,800 West 9th Street,,Jasper,IN,47546,USA,,,,vascular,www.google.com/search?q=Memorial+Hospital+and+Health+Care+Center,Memorial Hospital and Health Care Center Jasper,,,,,,,,,"Jul 31, 2024","Extracranial Cerebrovascular Testing, Peripheral Arterial Testing, Peripheral Venous Testing",,,,,,,,,,,,,,
108,109,Memorial Hospital South Bend,41.684832,-86.250586,granted,615 North Michigan Street,,South Bend,IN,46601,USA,,qualityoflife.org,,echo,,Memorial Hospital South Bend South Bend,,,"Jun 30, 2024",Adult Transthoracic,,,,,,,,,,,,,,,,,,,,
109,110,Midwest Neurology Associates,41.491826,-87.496827,granted,2107 Northwinds Dr,,Dyer,IN,46311,USA,,mnaimagingservices.com,,mr,,Midwest Neurology Associates Dyer,,,,,"May 31, 2023","Musculoskeletal MRI, Neurological MRI",,,,,,,,,,,,,,,,,,
110,111,"Munster Medical Imaging, Inc.",41.561796,-87.512743,granted,625 Ridge Rd.,Suite A,Munster,IN,46321,USA,,,,mr,"www.google.com/search?q=Munster+Medical+Imaging,+Inc.","Munster Medical Imaging, Inc. Munster",,,,,"Mar 31, 2023","Musculoskeletal MRI, Neurological MRI, MRA",,,,,,,,,,,,,,,,,,
111,112,Munster Open MRI and Imaging Inc,41.552864,-87.509,multigranted,8840 Calumet Ave Suite 102,,Munster,IN,46321,USA,,,,"ct, mr",www.google.com/search?q=Munster+Open+MRI+and+Imaging+Inc,Munster Open MRI and Imaging Inc Munster,"Aug 31, 2024","Body CT, Neurological CT | Maxillofacial CT",,,"Aug 31, 2024","Body MRI, Musculoskeletal MRI, Neurological MRI | MRA",,,,,,,,,,,,,,,,,,
112,113,Neurology and Pain Management,40.937591,-87.148388,granted,123 S McKinley Ave,,Rensselaer,IN,47978,USA,,,,ct,www.google.com/search?q=Neurology+and+Pain+Management,Neurology and Pain Management Rensselaer,"May 31, 2024","Body CT, Neurological CT, Maxillofacial CT",,,,,,,,,,,,,,,,,,,,,,
113,114,"Norris, Blessinger and Woebkenberg Orthopaedics and Spine",38.404231,-86.951929,granted,1900 Saint Charles Street,,Jasper,IN,47546,USA,,www.norrisblessinger.com,,mr,,"Norris, Blessinger and Woebkenberg Orthopaedics and Spine Jasper",,,,,"Feb 29, 2024",Musculoskeletal MRI,,,,,,,,,,,,,,,,,,
114,115,"North Clark Medical Group, LLC",38.304367,-85.722847,multigranted,1802 East 10th Street,,Jeffersonville,IN,47130,USA,,,,"mr, ct","www.google.com/search?q=North+Clark+Medical+Group,+LLC","North Clark Medical Group, LLC Jeffersonville","May 31, 2025","Body CT, Neurological CT, Maxillofacial CT",,,"Apr 30, 2025","Body MRI, Musculoskeletal MRI, Neurological MRI, MRA",,,,,,,,,,,,,,,,,,
115,116,Northeast Internal Medicine,41.679776,-85.425505,granted,2500 N. Detroit Street,,Lagrange,IN,46761,USA,,,,nuclear,www.google.com/search?q=Northeast+Internal+Medicine,Northeast Internal Medicine Lagrange,,,,,,,"Oct 31, 2023",Myocardial Perfusion Imaging,,,,,,,,,,,,,,,,
116,117,Northeast Internal Medicine,41.448494,-85.294088,granted,410 Sawyer Road,#245,Kendallville,IN,46755,USA,,,,nuclear,www.google.com/search?q=Northeast+Internal+Medicine,Northeast Internal Medicine Kendallville,,,,,,,"Oct 31, 2023",Myocardial Perfusion Imaging,,,,,,,,,,,,,,,,
117,118,Northside ENT,39.966778,-86.156209,granted,"12065 Old Meridian, Suite 205",,Carmel,IN,46032,USA,,www.northsideent.com,,ct,,Northside ENT Carmel,"Nov 30, 2023",Maxillofacial CT,,,,,,,,,,,,,,,,,,,,,,
118,119,Northwest Health La Porte,41.608967,-86.72774,granted,1331 State Street,,LaPorte,IN,46350,USA,,nwhealthlaporte.com,,echo,,Northwest Health La Porte LaPorte,,,"Sep 30, 2023","Adult Stress, Adult Transthoracic",,,,,,,,,,,,,,,,,,,,
119,120,Northwest Health Lifeworks,41.66424,-86.892672,granted,3777 Frontage Rd.,,Michigan City,IN,46360,USA,,,,echo,www.google.com/search?q=Northwest+Health+Lifeworks,Northwest Health Lifeworks Michigan City,,,"Sep 30, 2023",Adult Transthoracic,,,,,,,,,,,,,,,,,,,,
120,121,Northwest Health Starke,37.14374,-89.123427,granted,102 E. Culver Rd.,,Knox,IN,46534,USA,,iuhealth.org/starke/,,echo,,Northwest Health Starke Knox,,,"Sep 30, 2023","Adult Stress, Adult Transthoracic",,,,,,,,,,,,,,,,,,,,
121,122,"Norton-King’s Daughters’ Health, Inc.",38.847299,-85.348727,granted,1373 East State Road 62,,Madison,IN,47250,USA,,,,vascular,"www.google.com/search?q=Norton-King’s+Daughters’+Health,+Inc.","Norton-King’s Daughters’ Health, Inc. Madison",,,,,,,,,"May 31, 2023","Extracranial Cerebrovascular Testing, Peripheral Arterial Testing, Peripheral Venous Testing",,,,,,,,,,,,,,
122,123,"Nuclear Cardiology Associates, P.C.",41.462715,-87.336143,granted,8564 Broadway,,Merrillville,IN,46410,USA,,,,nuclear,"www.google.com/search?q=Nuclear+Cardiology+Associates,+P.C.","Nuclear Cardiology Associates, P.C. Merrillville",,,,,,,"Sep 30, 2023",Myocardial Perfusion Imaging,,,,,,,,,,,,,,,,
123,124,OpenSided MRI and CT of Louisville,38.336912,-85.708696,granted,2027 Jeffersonville Common Drive,,Jeffersonville,IN,47130,USA,,osmr.com,,ct,,OpenSided MRI and CT of Louisville Jeffersonville,"Nov 30, 2024","Body CT, Neurological CT, Maxillofacial CT",,,,,,,,,,,,,,,,,,,,,,
124,125,OpenSided MRI of Louisville,38.319484,-85.710592,granted,2027 Jeffersonville Commons Drive,,Jeffersonville,IN,47130,usa,,osmri.com,,mr,,OpenSided MRI of Louisville Jeffersonville,,,,,"Sep 30, 2023","Body MRI, Musculoskeletal MRI, Neurological MRI, MRA",,,,,,,,,,,,,,,,,,
125,126,"Orthopaedics Northeast, PC",41.189459,-85.10333,granted,11136 Parkview Circle Dr,,Ft. Wayne,IN,46845,USA,,,,ct,"www.google.com/search?q=Orthopaedics+Northeast,+PC","Orthopaedics Northeast, PC Ft. Wayne","Oct 31, 2023",Body CT,,,,,,,,,,,,,,,,,,,,,,
126,127,Otolaryngology Associates Noblesville Office,40.050004,-86.028158,granted,18051 River Ave,Suite 104,Noblesville,IN,46062,USA,,,,ct,www.google.com/search?q=Otolaryngology+Associates+Noblesville+Office,Otolaryngology Associates Noblesville Office Noblesville,"Jan 31, 2024",Maxillofacial CT,,,,,,,,,,,,,,,,,,,,,,
127,128,PHI Cardiovascular Imaging,41.096435,-85.108173,granted,2231 Carew Street Entrance 4,,Fort Wayne,IN,46805,USA,,,,echo,www.google.com/search?q=PHI+Cardiovascular+Imaging,PHI Cardiovascular Imaging Fort Wayne,,,"Nov 30, 2023",Adult Transthoracic,,,,,,,,,,,,,,,,,,,,
128,129,PHI Cardiovascular Imaging,41.186894,-85.103237,multigranted,11108 Parkview Circle Drive,,Fort Wayne,IN,46845,USA,,,,"echo, vascular, nuclear",www.google.com/search?q=PHI+Cardiovascular+Imaging,PHI Cardiovascular Imaging Fort Wayne,,,"Nov 30, 2023",Adult Transthoracic,,,"Sep 30, 2024",Myocardial Perfusion Imaging,"Apr 30, 2024","Extracranial Cerebrovascular Testing, Peripheral Arterial Testing, Visceral Vascular Testing",,,,,,,,,,,,,,
129,130,"Pinnacle Heart Specialists, LLC",39.79287,-86.161497,granted,1935 North Capitol Avenue,Suite 200,Indianapolis,IN,46202,USA,,,,echo,"www.google.com/search?q=Pinnacle+Heart+Specialists,+LLC","Pinnacle Heart Specialists, LLC Indianapolis",,,"Mar 31, 2025",Adult Transthoracic,,,,,,,,,,,,,,,,,,,,
130,131,Porter Regional Hospital Center for Cardiovascular Medicine,41.55007,-87.051316,granted,85 E. US Hwy 6,,Valparaiso,IN,46383,USA,,porterhealth.com,,echo,,Porter Regional Hospital Center for Cardiovascular Medicine Valparaiso,,,"Feb 29, 2024",Adult Transthoracic,,,,,,,,,,,,,,,,,,,,
131,132,RAYUS Radiology,39.414747,-87.406848,multigranted,4313 South 7th Street,,Terre Haute,IN,47802,United States,,,,"ct, mr",www.google.com/search?q=RAYUS+Radiology,RAYUS Radiology Terre Haute,"Nov 30, 2024","Body CT, Neurological CT, Vascular CTA | Maxillofacial CT",,,"Nov 30, 2024","Body MRI, Musculoskeletal MRI, Neurological MRI | MRA",,,,,,,,,,,,,,,,,,
132,133,RAYUS Radiology,39.143714,-86.580481,multigranted,3802 Industrial Blvd.,Suite 4,Bloomington,IN,47403,USA,,,,"ct, mr",www.google.com/search?q=RAYUS+Radiology,RAYUS Radiology Bloomington,"Nov 30, 2024","Body CT, Neurological CT, Vascular CTA | Maxillofacial CT",,,"Nov 30, 2024","Body MRI, Musculoskeletal MRI, Neurological MRI | MRA",,,,,,,,,,,,,,,,,,
133,134,Reid Health,39.86303,-84.887765,granted,1100 Reid Parkway,,Richmond,IN,47374,USA,,,,vascular,www.google.com/search?q=Reid+Health,Reid Health Richmond,,,,,,,,,"Jul 31, 2024","Extracranial Cerebrovascular Testing, Peripheral Arterial Testing, Peripheral Venous Testing",,,,,,,,,,,,,,
134,135,Riley Hospital for Children at Indiana University Health,39.77726,-86.18139,granted,705 Riley Hospital Dr.,,Indianapolis,IN,46202,USA,,,,pediatric_echo,www.google.com/search?q=Riley+Hospital+for+Children+at+Indiana+University+Health,Riley Hospital for Children at Indiana University Health Indianapolis,,,,,,,,,,,"Mar 01, 2023","Pediatric Transesophageal, Pediatric Transthoracic, Fetal",,,,,,,,,,,,
135,136,Riley Outpatient Center,39.782249,-86.159617,multigranted,575 Riley Hospital Drive,,Indianapolis,IN,46202,USA,,www.rileychildrens.org/departments/riley-heart-center,,"cardiac_electrophysiology, cardiovascular_catheterization, pediatric_echo",,Riley Outpatient Center Indianapolis,,,,,,,,,,,"Mar 01, 2023","Pediatric Transesophageal, Pediatric Transthoracic, Fetal",,,,,,,"Jan 31, 2023","Testing and Ablation, Device Implantation","Jan 31, 2023","Valve Interventions, Complex Adult Congenital Heart Disease, Pediatric Cardiovascular Catheterization",,
136,137,"Robert A. Ehrhard, MD PC",38.384597,-86.951258,granted,251 S. Truman Road,,Jasper,IN,47546,USA,,,,ct,"www.google.com/search?q=Robert+A.+Ehrhard,+MD+PC","Robert A. Ehrhard, MD PC Jasper","Dec 31, 2022",Maxillofacial CT,,,,,,,,,,,,,,,,,,,,,,
137,138,Rushville Memorial Hospital,39.62175,-85.44406,granted,1300 N. Main St.,,Rushville,IN,46173,USA,,,,echo,www.google.com/search?q=Rushville+Memorial+Hospital,Rushville Memorial Hospital Rushville,,,"Jun 30, 2024","Adult Stress, Adult Transthoracic",,,,,,,,,,,,,,,,,,,,
138,139,Saint Joseph Health System,41.675032,-86.251962,granted,5215 Holy Cross Parkway,,Mishawaka,IN,46545,USA,,,,echo,www.google.com/search?q=Saint+Joseph+Health+System,Saint Joseph Health System Mishawaka,,,"Nov 30, 2024",Adult Transthoracic,,,,,,,,,,,,,,,,,,,,
139,140,Saint Joseph Physician Network Midwest Cardiology,41.709472,-86.174767,granted,611 E. Douglas,Suite 208,Mishawaka,IN,46545,USA,,sjmed.com,,echo,,Saint Joseph Physician Network Midwest Cardiology Mishawaka,,,"Nov 30, 2024",Adult Transthoracic,,,,,,,,,,,,,,,,,,,,
140,141,"South Bend Orthopaedic Associates, Inc.",41.711553,-86.206374,granted,53880 Carmichael Drive,,South Bend,IN,46635,USA,,www.sbortho.com,,ct,,"South Bend Orthopaedic Associates, Inc. South Bend","Jun 30, 2024",Body CT,,,,,,,,,,,,,,,,,,,,,,
141,142,"Southern Indiana ENT, LLC",39.215211,-85.89457,granted,1655 N Gladstone Ave,Suite E,Columbus,IN,47201,USA,,,,ct,"www.google.com/search?q=Southern+Indiana+ENT,+LLC","Southern Indiana ENT, LLC Columbus","Apr 30, 2024",Maxillofacial CT,,,,,,,,,,,,,,,,,,,,,,
142,143,"Southern Indiana Surgery, Inc.",39.216829,-85.898512,granted,2109 Doctors Park Drive,,Columbus,IN,47203,USA,,sisurgery.com,,vascular,,"Southern Indiana Surgery, Inc. Columbus",,,,,,,,,"Sep 30, 2024",Extracranial Cerebrovascular Testing,,,,,,,,,,,,,,
143,144,"St Francis Cardiac Care Center, Mooresville, IN",39.609322,-86.356098,granted,1201 Hadley Road,,Mooresville,IN,46158,USA,,Franciscan St Francis Hospitals,,echo,,"St Francis Cardiac Care Center, Mooresville, IN Mooresville",,,"Oct 31, 2024",Adult Transthoracic,,,,,,,,,,,,,,,,,,,,
144,145,St Vincent Medical Group Cardiology Marion,40.563129,-85.664453,granted,330 North Wabash Avenue,Suite 110,Marion,IN,46952,USA,,,,echo,www.google.com/search?q=St+Vincent+Medical+Group+Cardiology+Marion,St Vincent Medical Group Cardiology Marion Marion,,,"Jul 31, 2025","Adult Stress, Adult Transthoracic",,,,,,,,,,,,,,,,,,,,
145,146,St. Joseph Hospital and Health Center,40.487218,-86.155487,granted,1907 West Sycamore Street,,Kokomo,IN,46901,USA,,,,echo,www.google.com/search?q=St.+Joseph+Hospital+and+Health+Center,St. Joseph Hospital and Health Center Kokomo,,,"Jul 31, 2024","Adult Stress, Adult Transthoracic",,,,,,,,,,,,,,,,,,,,
146,147,"St. Mary’s Health, Inc.",37.962408,-87.50554,granted,3700 Washington Avenue,,Evansville,IN,47750,USA,,,,echo,"www.google.com/search?q=St.+Mary’s+Health,+Inc.","St. Mary’s Health, Inc. Evansville",,,"Feb 29, 2024",Adult Transthoracic,,,,,,,,,,,,,,,,,,,,
147,148,St. Vincent Heart Center of Indiana,39.907578,-86.198302,granted,8333 Naab Road Suite 400,Echocardiology,Indianapolis,IN,46260,USA,,,,echo,www.google.com/search?q=St.+Vincent+Heart+Center+of+Indiana,St. Vincent Heart Center of Indiana Indianapolis,,,"Jul 31, 2025","Adult Stress, Adult Transthoracic",,,,,,,,,,,,,,,,,,,,
148,149,St. Vincent Heart Center of Indiana,39.911994,-86.196193,granted,2001 W. 86th Street,,Indianapolis,IN,46260,USA,,,,echo,www.google.com/search?q=St.+Vincent+Heart+Center+of+Indiana,St. Vincent Heart Center of Indiana Indianapolis,,,"Jul 31, 2025","Adult Stress, Adult Transthoracic",,,,,,,,,,,,,,,,,,,,
149,150,St. Vincent Heart Center of Indiana,39.938408,-86.158771,granted,10590 N. Meridian,Suite 300,Indianapolis,IN,46290,USA,,,,echo,www.google.com/search?q=St.+Vincent+Heart+Center+of+Indiana,St. Vincent Heart Center of Indiana Indianapolis,,,"Jul 31, 2025","Adult Stress, Adult Transthoracic",,,,,,,,,,,,,,,,,,,,
150,151,St. Vincent Heart Center of Indiana,39.938311,-86.158722,granted,10580 N Meridian St,,Indianapolis,IN,46290,USA,,,,echo,www.google.com/search?q=St.+Vincent+Heart+Center+of+Indiana,St. Vincent Heart Center of Indiana Indianapolis,,,"Jul 31, 2025",Adult Transthoracic,,,,,,,,,,,,,,,,,,,,
151,152,St. Vincent Hospital Pediatric Echocardiograpy,39.911994,-86.196193,granted,2001 West 86th St.,,Indinapolis,IN,46260,USA,,,,pediatric_echo,www.google.com/search?q=St.+Vincent+Hospital+Pediatric+Echocardiograpy,St. Vincent Hospital Pediatric Echocardiograpy Indinapolis,,,,,,,,,,,"Jan 31, 2024",Pediatric Transthoracic,,,,,,,,,,,,
152,153,"Summit Medical Associates, LLC",41.066869,-85.200472,granted,4656 West Jefferson Blvd,Suite 125,Fort Wayne,IN,46804,USA,,,,nuclear,"www.google.com/search?q=Summit+Medical+Associates,+LLC","Summit Medical Associates, LLC Fort Wayne",,,,,,,"Aug 31, 2024",Myocardial Perfusion Imaging,,,,,,,,,,,,,,,,
153,154,Terre Haute Heart Center,39.42022,-87.411314,granted,455 E. Hospital Lane,,Terre Haute,IN,47802,USA,,,,nuclear,www.google.com/search?q=Terre+Haute+Heart+Center,Terre Haute Heart Center Terre Haute,,,,,,,"Jul 31, 2023",Myocardial Perfusion Imaging,,,,,,,,,,,,,,,,
154,155,Terre Haute Regional Hospital,39.419624,-87.406837,granted,3901 South Seventh Street,,Terre Haute,IN,47802,USA,,regionalhospital.com/,,vascular,,Terre Haute Regional Hospital Terre Haute,,,,,,,,,"Apr 30, 2023","Extracranial Cerebrovascular Testing, Peripheral Arterial Testing, Peripheral Venous Testing",,,,,,,,,,,,,,
155,156,The Community Heart and Vascular Hospital,39.90151,-86.046091,granted,"8075 N. Shadeland Avenue, 140",,Indianapolis,IN,46250,USA,,,,nuclear,www.google.com/search?q=The+Community+Heart+and+Vascular+Hospital,The Community Heart and Vascular Hospital Indianapolis,,,,,,,"Feb 29, 2024",Myocardial Perfusion Imaging,,,,,,,,,,,,,,,,
156,157,The South Bend Clinic LLP,41.678554,-86.235241,granted,211 North Eddy Street,,South Bend,IN,46617,USA,,,,echo,www.google.com/search?q=The+South+Bend+Clinic+LLP,The South Bend Clinic LLP South Bend,,,"Sep 30, 2024","Adult Stress, Adult Transthoracic",,,,,,,,,,,,,,,,,,,,
157,158,Thomas A. Brady Sports Medicine Clinic P.C.,39.160113,-86.546063,granted,639 S. Walker Street,Suite E,Bloomington,IN,47403,USA,,methodistsports.com,,mr,,Thomas A. Brady Sports Medicine Clinic P.C. Bloomington,,,,,"Apr 30, 2023",Musculoskeletal MRI,,,,,,,,,,,,,,,,,,
158,159,"Union Hospital, Clinton",39.671308,-87.5232,granted,801 Main Street,,Clinton,IN,47842,USA,,,,vascular,"www.google.com/search?q=Union+Hospital,+Clinton","Union Hospital, Clinton Clinton",,,,,,,,,"Feb 28, 2023","Extracranial Cerebrovascular Testing, Peripheral Arterial Testing, Peripheral Venous Testing",,,,,,,,,,,,,,
159,160,"Union Hospital, Inc",39.484862,-87.407085,granted,1606 North Seventh Street,,Terre Haute,IN,47804,USA,,www.myunionhospital.org,,vascular,,"Union Hospital, Inc Terre Haute",,,,,,,,,"Feb 28, 2023","Extracranial Cerebrovascular Testing, Peripheral Arterial Testing, Peripheral Venous Testing",,,,,,,,,,,,,,
160,161,"Union Hospital, Inc.",39.483483,-87.410618,granted,1606 North 7th Street,,Terre Haute,IN,47804,USA,,,,nuclear,"www.google.com/search?q=Union+Hospital,+Inc.","Union Hospital, Inc. Terre Haute",,,,,,,"Jan 29, 2023","Equilibrium Radionuclide Angiography, Myocardial Perfusion Imaging",,,,,,,,,,,,,,,,
161,162,"Union Hospital, Inc.",39.483483,-87.410618,granted,1606 N 7th St,,Terre Haute,IN,47804,USA,,www.uhhg.org,,echo,,"Union Hospital, Inc. Terre Haute",,,"Feb 28, 2025",Adult Transthoracic,,,,,,,,,,,,,,,,,,,,
162,163,Valparaiso Medical Center,41.48602,-87.046539,granted,1900 Roosevelt Road,,Valparaiso,IN,46383,USA,,www.porterhealth.com,,echo,,Valparaiso Medical Center Valparaiso,,,"Feb 29, 2024",Adult Transthoracic,,,,,,,,,,,,,,,,,,,,
163,164,Vascular Center and Vein Clinic of Southern Indiana,39.161414,-86.542761,granted,815 West Second Street,,Bloomington,IN,47403,USA,,,,vascular,www.google.com/search?q=Vascular+Center+and+Vein+Clinic+of+Southern+Indiana,Vascular Center and Vein Clinic of Southern Indiana Bloomington,,,,,,,,,"Jun 30, 2025","Extracranial Cerebrovascular Testing, Peripheral Arterial Testing, Peripheral Venous Testing",,,,,,,,,,,,,,
164,165,Vascular Surgical Associates,37.983059,-87.570732,granted,520 Mary Street,Suite 520,Evansville,IN,47710,USA,,,,vascular,www.google.com/search?q=Vascular+Surgical+Associates,Vascular Surgical Associates Evansville,,,,,,,,,"Oct 30, 2022 | Aug 31, 2025","Peripheral Arterial Testing, Peripheral Venous Testing | Extracranial Cerebrovascular Testing",,,,,,,,,,,,,,
165,166,Vein Clinics of America,41.464902,-87.332539,granted,371 E. 84th Dr.,Suite 371,Merrillville,IN,46410,USA,,www.veinclinics.com/clinic/merrillville-indiana/,,vascular,,Vein Clinics of America Merrillville,,,,,,,,,"Nov 30, 2023",Peripheral Venous Testing,,,,,,,,,,,,,,
