,id,name,lat,lng,category,address,address2,city,state,postal,country,phone,web,features,modalities,searchGoogle,search,ct,ct_areas,echo,echo_areas,mr,mr_areas,nuclear,nuclear_areas,vascular,vascular_areas,pediatric_echo,pediatric_echo_areas,ct-dental,ct-dental_areas,stenting,stenting_areas,vein_center,vein_center_areas,cardiac_electrophysiology,cardiac_electrophysiology_areas,cardiovascular_catheterization,cardiovascular_catheterization_areas,jrcdms,jrcdms_areas
0,1,ACE Cardiovascular Associates,38.991636,-76.87801,granted,7525 Greenway Center Drive,Suite 313,Greenbelt,MD,20770,USA,,,,nuclear,www.google.com/search?q=ACE+Cardiovascular+Associates,ACE Cardiovascular Associates Greenbelt,,,,,,,"Jul 31, 2024",Myocardial Perfusion Imaging,,,,,,,,,,,,,,,,
1,2,Advanced Cardiology Care,39.033828,-77.106458,granted,11119 Rockville Pike,Suite 100,Rockville,MD,20852,USA,,,,nuclear,www.google.com/search?q=Advanced+Cardiology+Care,Advanced Cardiology Care Rockville,,,,,,,"Jun 30, 2023",Myocardial Perfusion Imaging,,,,,,,,,,,,,,,,
2,3,Advanced Diagnostic Radiology,39.650833,-78.798002,multigranted,952 Seton Drive,,Cumberland,MD,21502,USA,,,,"mr, nuclear, ct",www.google.com/search?q=Advanced+Diagnostic+Radiology,Advanced Diagnostic Radiology Cumberland,"Oct 31, 2024","Body CT, Coronary CTA, Neurological CT, Vascular CTA, Coronary Calcium Scoring, Maxillofacial CT",,,"Dec 30, 2022","Body MRI, Musculoskeletal MRI, Neurological MRI, Breast MRI, MRA","Aug 31, 2023","General Nuclear Medicine, Myocardial Perfusion Imaging, Positron Emission Tomography (PET)",,,,,,,,,,,,,,,,
3,4,Adventist Healthcare Outpatient Imaging,39.098851,-77.195408,granted,9711 Medical Center Drive,Suite 101,Rockville,MD,20850,USA,,adventisthealthcareimaging.com ,,vascular,,Adventist Healthcare Outpatient Imaging Rockville,,,,,,,,,"Mar 31, 2024","Extracranial Cerebrovascular Testing, Peripheral Arterial Testing, Peripheral Venous Testing",,,,,,,,,,,,,,
4,5,Affiliated PET Systems LLC,39.016165,-77.032497,granted,1400 Forest Glen Road,Suite 430,Silver Spring,MD,20910,USA,,www.affiliatedpet.com,,ct,,Affiliated PET Systems LLC Silver Spring,"Sep 30, 2024",Body CT,,,,,,,,,,,,,,,,,,,,,,
5,6,"Alfred C. Burris, MD, PC",38.92973,-77.01369,granted,11701 Livingston Road,Suite 207,Fort Washington,MD,20744,USA,,,,nuclear,"www.google.com/search?q=Alfred+C.+Burris,+MD,+PC","Alfred C. Burris, MD, PC Fort Washington",,,,,,,"May 31, 2024",Myocardial Perfusion Imaging,,,,,,,,,,,,,,,,
6,7,Allegany Cardiology Center,39.650833,-78.798002,granted,952 Seton Drive Suite 300,,Cumberland,MD,21502,USA,,,,nuclear,www.google.com/search?q=Allegany+Cardiology+Center,Allegany Cardiology Center Cumberland,,,,,,,"Feb 28, 2023",Myocardial Perfusion Imaging,,,,,,,,,,,,,,,,
7,8,American Cardiology and Nuclear Practice,39.339631,-76.48957,granted,17 Fontana Lane,Suite 101-103,Rosedale,MD,21237,USA,,,,nuclear,www.google.com/search?q=American+Cardiology+and+Nuclear+Practice,American Cardiology and Nuclear Practice Rosedale,,,,,,,"Oct 31, 2024",Myocardial Perfusion Imaging,,,,,,,,,,,,,,,,
8,9,American Cardiology and Nuclear Practice,39.339631,-76.48957,granted,17 Fontana Lane,Suite 101-103,Rosedale,MD,21237,USA,,,,echo,www.google.com/search?q=American+Cardiology+and+Nuclear+Practice,American Cardiology and Nuclear Practice Rosedale,,,"Jan 31, 2024",Adult Transthoracic,,,,,,,,,,,,,,,,,,,,
9,10,"American Cardiovascular Imaging, LLC",39.089235,-76.855068,granted,8675 Cherry Lane,,Laurel,MD,20707,USA,,www.americancardio.com,,nuclear,,"American Cardiovascular Imaging, LLC Laurel",,,,,,,"May 31, 2024",Myocardial Perfusion Imaging,,,,,,,,,,,,,,,,
10,11,AMG Cardiovascular Consultants,38.984547,-77.003968,multigranted,11886 Healing Way,Suite 402,Silver Spring,MD,20904,USA,,cvcheartcare.com,,"echo, nuclear",,AMG Cardiovascular Consultants Silver Spring,,,"Oct 30, 2022",Adult Transthoracic,,,"Sep 30, 2024",Myocardial Perfusion Imaging,,,,,,,,,,,,,,,,
11,12,AMG Cardiovascular Consultants,39.106365,-77.189962,multigranted,15215 Shady Grove Road,,Rockville,MD,20850,USA,,cvcheartcare.com,,"echo, nuclear",,AMG Cardiovascular Consultants Rockville,,,"Oct 30, 2022",Adult Transthoracic,,,"Sep 30, 2024",Myocardial Perfusion Imaging,,,,,,,,,,,,,,,,
12,13,"Amit Rajvanshi, MD, PC",39.063269,-77.127769,granted,"121 Congressional Lane, Suite 409",,Rockville,MD,20852,USA,,,,nuclear,"www.google.com/search?q=Amit+Rajvanshi,+MD,+PC","Amit Rajvanshi, MD, PC Rockville",,,,,,,"May 31, 2024",Myocardial Perfusion Imaging,,,,,,,,,,,,,,,,
13,14,"Anees Ahsan, M.D., F.A.C.C.",38.984054,-76.999681,multigranted,12520 Prosperity Drive,Suite #320,Silver Spring,MD,20904,USA,,,,"echo, nuclear","www.google.com/search?q=Anees+Ahsan,+M.D.,+F.A.C.C.","Anees Ahsan, M.D., F.A.C.C. Silver Spring",,,"Dec 31, 2023",Adult Transthoracic,,,"Dec 31, 2023",Myocardial Perfusion Imaging,,,,,,,,,,,,,,,,
14,15,Annapolis Regional Outpatient Center,38.979839,-76.521017,granted,"1730 West Street, Suite 100",,Annapolis,MD,21401,USA,,,,pediatric_echo,www.google.com/search?q=Annapolis+Regional+Outpatient+Center,Annapolis Regional Outpatient Center Annapolis,,,,,,,,,,,"Jul 31, 2023",Pediatric Transthoracic,,,,,,,,,,,,
15,16,"Anne Arundel Medical Center, Wayson Pavilion",38.989645,-76.536283,granted,820 Bestgate Road,Suite 2D,Annapolis,MD,21401,USA,,,,pediatric_echo,"www.google.com/search?q=Anne+Arundel+Medical+Center,+Wayson+Pavilion","Anne Arundel Medical Center, Wayson Pavilion Annapolis",,,,,,,,,,,"Sep 30, 2023",Pediatric Transthoracic,,,,,,,,,,,,
16,17,Anne Arundel Medical Group Cardiology Specialists,38.991064,-76.53696,granted,2000 Medical Parkway,Suite 510,Annapolis,MD,21401,USA,,,,echo,www.google.com/search?q=Anne+Arundel+Medical+Group+Cardiology+Specialists,Anne Arundel Medical Group Cardiology Specialists Annapolis,,,"Apr 30, 2024",Adult Transthoracic,,,,,,,,,,,,,,,,,,,,
17,18,Ascension Saint Agnes,39.28541,-76.761667,granted,6501 Baltimore National Pike,Suite D,Baltimore,MD,21228,USA,,,,vascular,www.google.com/search?q=Ascension+Saint+Agnes,Ascension Saint Agnes Baltimore,,,,,,,,,"Apr 30, 2023","Extracranial Cerebrovascular Testing, Peripheral Arterial Testing, Peripheral Venous Testing",,,,,,,,,,,,,,
18,19,Ascension Saint Agnes,39.272921,-76.673931,granted,3407 Wilkens Avenue,Suite 300,Baltimore,MD,21229,USA,,mdcardiovascular.com,,vascular,,Ascension Saint Agnes Baltimore,,,,,,,,,"Apr 30, 2023","Extracranial Cerebrovascular Testing, Peripheral Arterial Testing, Peripheral Venous Testing",,,,,,,,,,,,,,
19,20,Ascension Saint Agnes Hospital,39.272628,-76.670816,granted,"900 Caton Ave., MS234",,Baltimore,MD,21229,USA,,StAgnes.org,,vascular,,Ascension Saint Agnes Hospital Baltimore,,,,,,,,,"Apr 30, 2023","Extracranial Cerebrovascular Testing, Peripheral Arterial Testing, Peripheral Venous Testing",,,,,,,,,,,,,,
20,21,"Atlantic Cardiology and Associates, PA",38.366499,-75.619161,granted,1205 Pemberton Drive,,Salisbury,MD,21801,USA,,,,echo,"www.google.com/search?q=Atlantic+Cardiology+and+Associates,+PA","Atlantic Cardiology and Associates, PA Salisbury",,,"Nov 29, 2022",Adult Transthoracic,,,,,,,,,,,,,,,,,,,,
21,22,"Atlantic Cardiology Associates, P.A.",38.366499,-75.619161,granted,1205 Pemberton Drive,Suite 105,Salisbury,MD,21801,USA,,,,nuclear,"www.google.com/search?q=Atlantic+Cardiology+Associates,+P.A.","Atlantic Cardiology Associates, P.A. Salisbury",,,,,,,"Aug 31, 2023",Myocardial Perfusion Imaging,,,,,,,,,,,,,,,,
22,23,Atlantic General Hospital,38.338604,-75.210472,multigranted,9733 Healthway Drive,,Berlin,MD,21811,USA,,atlanticgeneral.org,,"echo, vascular",,Atlantic General Hospital Berlin,,,"Nov 30, 2023",Adult Transthoracic,,,,,"Dec 31, 2024","Extracranial Cerebrovascular Testing, Peripheral Arterial Testing, Peripheral Venous Testing",,,,,,,,,,,,,,
23,24,"Baltimore Heart Associates, PA",39.377138,-76.731578,multigranted,4000 Old Court Road,Suite 103,Pikesville,MD,21208,USA,,www.baltimoreheart.com,,"echo, nuclear",,"Baltimore Heart Associates, PA Pikesville",,,"Aug 31, 2024",Adult Transthoracic,,,"May 31, 2025",Myocardial Perfusion Imaging,,,,,,,,,,,,,,,,
24,25,"Baltimore Heart Associates, PA",39.562285,-76.979501,granted,412 Malcolm Drive,Suite 206,Westminster,MD,21157,USA,,www.baltimoreheart.com,,echo,,"Baltimore Heart Associates, PA Westminster",,,"Aug 31, 2024",Adult Transthoracic,,,,,,,,,,,,,,,,,,,,
25,26,BW Primary Care,39.404048,-76.944031,granted,6190 Georgetown Boulevard,,Eldersburg,MD,21784,USA,,www.bwprimarycare.com/,,vascular,,BW Primary Care Eldersburg,,,,,,,,,"Oct 31, 2023",Extracranial Cerebrovascular Testing,,,,,,,,,,,,,,
26,27,BW Primary Care,39.40408,-76.944022,granted,6190 Georgetown Boulevard,Suite 105,Eldersburg,MD,21784,USA,,,,echo,www.google.com/search?q=BW+Primary+Care,BW Primary Care Eldersburg,,,"May 31, 2024",Adult Transthoracic,,,,,,,,,,,,,,,,,,,,
27,28,Calvert Regional Outpatient Center,38.56158,-76.59766,granted,"100 Hospital Road, Suite 210",Calvert Medical Arts Building,Prince Frederick,MD,20678,USA,,,,pediatric_echo,www.google.com/search?q=Calvert+Regional+Outpatient+Center,Calvert Regional Outpatient Center Prince Frederick,,,,,,,,,,,"Jul 31, 2023",Pediatric Transthoracic,,,,,,,,,,,,
28,29,CalvertHealth Vascular Lab,38.558601,-76.597788,granted,100 Hospital Rd,,Prince Frederick,MD,20678,USA,,,,vascular,www.google.com/search?q=CalvertHealth+Vascular+Lab,CalvertHealth Vascular Lab Prince Frederick,,,,,,,,,"Aug 31, 2023","Extracranial Cerebrovascular Testing, Peripheral Arterial Testing, Peripheral Venous Testing, Visceral Vascular Testing",,,,,,,,,,,,,,
29,30,Capital Cardiology Consultants,38.964961,-76.842515,granted,"12200 Annapolis Road., Ste. 228",,Glenn Dale,MD,20769,USA,,www.capcardiology.com,,echo,,Capital Cardiology Consultants Glenn Dale,,,"Jul 31, 2024",Adult Transthoracic,,,,,,,,,,,,,,,,,,,,
30,31,Capitol Cardiology Associates,38.808487,-76.898172,granted,"5801 Allentown Rd., 406",,Camp Springs,MD,20746,USA,,,,nuclear,www.google.com/search?q=Capitol+Cardiology+Associates,Capitol Cardiology Associates Camp Springs,,,,,,,"Dec 31, 2023","Myocardial Perfusion Imaging, Positron Emission Tomography (PET)",,,,,,,,,,,,,,,,
31,32,Capitol Cardiology Associates,38.980429,-76.864652,granted,8116 Good Luck Rd.,Suite 305,Lanham,MD,20706,USA,,,,nuclear,www.google.com/search?q=Capitol+Cardiology+Associates,Capitol Cardiology Associates Lanham,,,,,,,"Dec 31, 2023","Myocardial Perfusion Imaging, Positron Emission Tomography (PET)",,,,,,,,,,,,,,,,
32,33,"Cardiac Associates, PC",39.10726,-77.18952,multigranted,15225 Shady Grove Road,Suite 201,Rockville,MD,20850,USA,,www.cardiacassociates.org/,,"nuclear, echo, vascular",,"Cardiac Associates, PC Rockville",,,"Oct 31, 2023","Adult Stress, Adult Transthoracic",,,"Nov 29, 2022","Equilibrium Radionuclide Angiography, Myocardial Perfusion Imaging","Feb 28, 2025","Extracranial Cerebrovascular Testing, Peripheral Arterial Testing, Peripheral Venous Testing",,,,,,,,,,,,,,
33,34,"Cardiac Associates, PC",39.060311,-76.963957,granted,12501 Prosperity Drive,Suite 300,Silver Spring,MD,20904,USA,,www.cardiacassociates.org/site/,,vascular,,"Cardiac Associates, PC Silver Spring",,,,,,,,,"Feb 28, 2025","Extracranial Cerebrovascular Testing, Peripheral Arterial Testing, Peripheral Venous Testing",,,,,,,,,,,,,,
34,35,"Cardiac Associates, PC",39.180123,-77.264429,granted,19735 Germantown Road,#190,Germantown,MD,20874,USA,,www.cardiacassociates.org/,,vascular,,"Cardiac Associates, PC Germantown",,,,,,,,,"Feb 28, 2025","Extracranial Cerebrovascular Testing, Peripheral Arterial Testing, Peripheral Venous Testing",,,,,,,,,,,,,,
35,36,CardioCare LLC,38.964983,-77.08786,granted,5530 Wisconsin Ave. Suite 700,,Chevy Chase,MD,20815,USA,,,,nuclear,www.google.com/search?q=CardioCare+LLC,CardioCare LLC Chevy Chase,,,,,,,"Sep 30, 2024",Myocardial Perfusion Imaging,,,,,,,,,,,,,,,,
36,37,"Cardiology and Internal Medicine, PA",38.964949,-77.087844,granted,5530 Wisconsin Avenue,Suite 1100,Chevy Chase,MD,20815,USA,,,,echo,"www.google.com/search?q=Cardiology+and+Internal+Medicine,+PA","Cardiology and Internal Medicine, PA Chevy Chase",,,"Apr 30, 2023","Adult Stress, Adult Transthoracic",,,,,,,,,,,,,,,,,,,,
37,38,"Cardiology and Internal Medicine, PA",38.962577,-77.08666,granted,5530 Wisconsin Avenue,Suite 1100,Chevy Chase,MD,20815,USA,,,,nuclear,"www.google.com/search?q=Cardiology+and+Internal+Medicine,+PA","Cardiology and Internal Medicine, PA Chevy Chase",,,,,,,"Jul 31, 2025",Myocardial Perfusion Imaging,,,,,,,,,,,,,,,,
38,39,"Cardiology Associates LLC, Bowie",38.946619,-76.720176,granted,4175 North Hanson Court,Suite 100,Bowie,MD,20716,USA,,,,echo,"www.google.com/search?q=Cardiology+Associates+LLC,+Bowie","Cardiology Associates LLC, Bowie Bowie",,,"Aug 31, 2024",Adult Transthoracic,,,,,,,,,,,,,,,,,,,,
39,40,"Cardiology Associates, LLC, Brandywine",38.637872,-76.898737,granted,13950 Brandywine Rd,Suite 100,Brandywine,MD,20613,USA,,,,echo,"www.google.com/search?q=Cardiology+Associates,+LLC,+Brandywine","Cardiology Associates, LLC, Brandywine Brandywine",,,"Aug 31, 2024",Adult Transthoracic,,,,,,,,,,,,,,,,,,,,
40,41,"Cardiology Associates, LLC, Leonardtown",38.299239,-76.640383,granted,23507 Hollywood Road,Suite 2,Leonardtown,MD,20650,USA,,,,echo,"www.google.com/search?q=Cardiology+Associates,+LLC,+Leonardtown","Cardiology Associates, LLC, Leonardtown Leonardtown",,,"Aug 31, 2024",Adult Transthoracic,,,,,,,,,,,,,,,,,,,,
41,42,Cardiology Center,39.426048,-77.410895,granted,310 West 9th Street,,Frederick,MD,21701,USA,,cardiologyctr.com,,echo,,Cardiology Center Frederick,,,"Mar 31, 2023",Adult Transthoracic,,,,,,,,,,,,,,,,,,,,
42,43,"Cardiovascular Associates of Maryland, LLC",39.525412,-76.346804,granted,"2021 B Emmorton Rd, Ste. 110",,Bel Air,MD,21015,USA,,www.lifebridgehealth.org/cardiovascularassociatesmaryland,,echo,,"Cardiovascular Associates of Maryland, LLC Bel Air",,,"Jun 30, 2024",Adult Transthoracic,,,,,,,,,,,,,,,,,,,,
43,44,"Cardiovascular Associates of MD, LLC",39.525184,-76.346588,granted,2021 B Emmorton Road,,Bel Air,MD,21015,USA,,,,nuclear,"www.google.com/search?q=Cardiovascular+Associates+of+MD,+LLC","Cardiovascular Associates of MD, LLC Bel Air",,,,,,,"Oct 31, 2023",Myocardial Perfusion Imaging,,,,,,,,,,,,,,,,
44,45,Cardiovascular Center of Hagerstown,39.624147,-77.696139,granted,1219 Mt Aetna Rd,Suite 201,Hagerstown,MD,21742,USA,,heart_center1verizon.net,,nuclear,,Cardiovascular Center of Hagerstown Hagerstown,,,,,,,"Sep 30, 2023",Myocardial Perfusion Imaging,,,,,,,,,,,,,,,,
45,46,Cardiovascular Diagnostic Center - PA,39.140213,-76.626407,granted,"325 Hospital Drive, Suite 108",,Glen Burnie,MD,21061,USA,,,,nuclear,www.google.com/search?q=Cardiovascular+Diagnostic+Center+-+PA,Cardiovascular Diagnostic Center - PA Glen Burnie,,,,,,,"Jul 31, 2024",Myocardial Perfusion Imaging,,,,,,,,,,,,,,,,
46,47,"Cardiovascular Diagnostic Center, PA",39.140213,-76.626407,granted,325 Hospital Drive,Suite 108,Glen Burnie,MD,21061,USA,,,,echo,"www.google.com/search?q=Cardiovascular+Diagnostic+Center,+PA","Cardiovascular Diagnostic Center, PA Glen Burnie",,,"Jul 31, 2024",Adult Transthoracic,,,,,,,,,,,,,,,,,,,,
47,48,Cardiovascular Specialists of Central Maryland,39.212171,-76.883223,multigranted,10710 Charter Dr,Suite 400,Columbia,MD,21044,USA,,,,"echo, nuclear, vascular",www.google.com/search?q=Cardiovascular+Specialists+of+Central+Maryland,Cardiovascular Specialists of Central Maryland Columbia,,,"Apr 30, 2023",Adult Transthoracic,,,"Jun 30, 2024","Equilibrium Radionuclide Angiography, Myocardial Perfusion Imaging","Jul 31, 2024","Extracranial Cerebrovascular Testing, Peripheral Arterial Testing",,,,,,,,,,,,,,
48,49,Cardiovascular Specialists of Frederick,39.443932,-77.407471,multigranted,184 Thomas Johnson Drive,Suite 204,Frederick,MD,21702,USA,,www.frederickhearetdocs.com,,"vascular, echo, nuclear",,Cardiovascular Specialists of Frederick Frederick,,,"Oct 31, 2023","Adult Stress, Adult Transthoracic",,,"Jul 31, 2025","Equilibrium Radionuclide Angiography, Myocardial Perfusion Imaging, Positron Emission Tomography (PET)","Apr 30, 2023","Extracranial Cerebrovascular Testing, Peripheral Arterial Testing",,,,,,,,,,,,,,
49,50,Cardiovascular Specialists of Germantown,39.177446,-77.26523,granted,"12800 Middlebrook Rd, Suite 114",,Germantown,MD,20874,USA,,,,nuclear,www.google.com/search?q=Cardiovascular+Specialists+of+Germantown,Cardiovascular Specialists of Germantown Germantown,,,,,,,"May 31, 2024",Myocardial Perfusion Imaging,,,,,,,,,,,,,,,,
50,51,"Cardiovascular Specialists of Germantown, LLC",39.424955,-77.414535,granted,"801 Toll House Ave, Unit F",,Frederick,MD,21701,USA,,,,nuclear,"www.google.com/search?q=Cardiovascular+Specialists+of+Germantown,+LLC","Cardiovascular Specialists of Germantown, LLC Frederick",,,,,,,"May 31, 2024",Myocardial Perfusion Imaging,,,,,,,,,,,,,,,,
51,52,Carroll Health Group Cardiology,39.562247,-76.989039,granted,193 Stoner Ave,Suite 340,Westminster,MD,21157,USA,,,,nuclear,www.google.com/search?q=Carroll+Health+Group+Cardiology,Carroll Health Group Cardiology Westminster,,,,,,,"Jan 31, 2023","Equilibrium Radionuclide Angiography, Myocardial Perfusion Imaging",,,,,,,,,,,,,,,,
52,53,Carroll Heart Center,39.554775,-76.98108,granted,700 Poole Road,Suite A,Westminster,MD,21157,USA,,carrollheartcenter.com,,nuclear,,Carroll Heart Center Westminster,,,,,,,"Apr 30, 2024","Myocardial Perfusion Imaging, Positron Emission Tomography (PET)",,,,,,,,,,,,,,,,
53,54,Carroll Precision Imaging Center,39.555152,-76.981239,granted,680 Poole Road,,Westminster,MD,21157,USA,,www.carrollheartcenter.com/precision_imaging.html,,nuclear,,Carroll Precision Imaging Center Westminster,,,,,,,"Apr 30, 2024",Positron Emission Tomography (PET),,,,,,,,,,,,,,,,
54,55,Center for Advanced Vascular Studies,39.55074,-76.990904,granted,826 Washington Road,Suite 209,Westminster,MD,21157,USA,,,,vascular,www.google.com/search?q=Center+for+Advanced+Vascular+Studies,Center for Advanced Vascular Studies Westminster,,,,,,,,,"Dec 31, 2024","Extracranial Cerebrovascular Testing, Peripheral Arterial Testing, Peripheral Venous Testing",,,,,,,,,,,,,,
55,56,Center for Vascular Medicine,38.989231,-76.879275,granted,7300 Hanover Drive,Suite 104,Greenbelt,MD,20770,USA,,www.cvmus.com,,vascular,,Center for Vascular Medicine Greenbelt,,,,,,,,,"Dec 31, 2023",Peripheral Arterial Testing,,,,,,,,,,,,,,
56,57,Center for Vascular Medicine,38.551351,-76.591207,granted,205 Steeple Chase Drive,Suite 302,Prince Fredrick,MD,20678,USA,,www.cvmus.com,,vascular,,Center for Vascular Medicine Prince Fredrick,,,,,,,,,"Dec 31, 2023",Peripheral Arterial Testing,,,,,,,,,,,,,,
57,58,Center for Vein Restoration,39.143873,-76.631785,granted,1600 Crain Highway South,Suite 408,Glen Burnie,MD,21061-5577,USA,,www.centerforvein.com,,vascular,,Center for Vein Restoration Glen Burnie,,,,,,,,,"Nov 30, 2022",Peripheral Venous Testing,,,,,,,,,,,,,,
58,59,Center for Vein Restoration,38.760099,-76.066399,granted,401 Purdy Street,Suite 204,Easton,MD,21601,USA,,www.centerforvein.com,,vascular,,Center for Vein Restoration Easton,,,,,,,,,"Nov 30, 2022",Peripheral Venous Testing,,,,,,,,,,,,,,
59,60,Center for Vein Restoration,39.383861,-76.607036,granted,1205 York Road,Suite 34,Lutherville,MD,21093,USA,,www.centerforvein.com,,vascular,,Center for Vein Restoration Lutherville,,,,,,,,,"Nov 30, 2022",Peripheral Venous Testing,,,,,,,,,,,,,,
60,61,Center for Vein Restoration,39.051376,-77.115373,granted,11921 Rockville Pike,Suite 401,Rockville,MD,20903,USA,,www.centerforvein.com,,vascular,,Center for Vein Restoration Rockville,,,,,,,,,"Nov 30, 2022",Peripheral Venous Testing,,,,,,,,,,,,,,
61,62,Center for Vein Restoration,39.520432,-76.347596,granted,"620 W. Macphail Road, Suite 104",,Bel Air,MD,21014,USA,,www.centerforvein.com,,vascular,,Center for Vein Restoration Bel Air,,,,,,,,,"Nov 30, 2022",Peripheral Venous Testing,,,,,,,,,,,,,,
62,63,Center for Vein Restoration,38.989231,-76.879275,granted,7300 Hanover Drive,Suite 303,Greenbelt,MD,20770,USA,,www.centerforvein.com/,,vascular,,Center for Vein Restoration Greenbelt,,,,,,,,,"Nov 30, 2022",Peripheral Venous Testing,,,,,,,,,,,,,,
63,64,Center for Vein Restoration,38.994221,-76.992723,granted,831 University Blvd. East,Suite 24-25,Silver Spring,MD,20903,USA,,www.centerforvein.com/,,vascular,,Center for Vein Restoration Silver Spring,,,,,,,,,"Nov 30, 2022",Peripheral Venous Testing,,,,,,,,,,,,,,
64,65,Center for Vein Restoration,38.988313,-76.504272,granted,108 Forbes Street,,Annapolis,MD,21401,USA,,www.centerforvein.com/,,vascular,,Center for Vein Restoration Annapolis,,,,,,,,,"Nov 30, 2022",Peripheral Venous Testing,,,,,,,,,,,,,,
65,66,Charles O. Fisher Medical Center,39.562247,-76.989039,granted,193 Stoner Avenue,Suite 130,Westminster,MD,21157,USA,,,,pediatric_echo,www.google.com/search?q=Charles+O.+Fisher+Medical+Center,Charles O. Fisher Medical Center Westminster,,,,,,,,,,,"Sep 30, 2023",Pediatric Transthoracic,,,,,,,,,,,,
66,67,"Chesapeake and Washington Heart Care, PC",38.6163496,-76.890706,granted,12070 Old Line Center,Suite 303,Waldorf,MD,20602,USA,,www.chesheart.com,,nuclear,,"Chesapeake and Washington Heart Care, PC Waldorf",,,,,,,"Dec 31, 2022",Myocardial Perfusion Imaging,,,,,,,,,,,,,,,,
67,68,"Chesapeake and Washington HeartCare, PC",38.615874,-76.89101,granted,41680 Miss Bessie Drive,Suite 202,Leonardtown,MD,20650,USA,,,,echo,"www.google.com/search?q=Chesapeake+and+Washington+HeartCare,+PC","Chesapeake and Washington HeartCare, PC Leonardtown",,,"Sep 29, 2022",Adult Transthoracic,,,,,,,,,,,,,,,,,,,,
68,69,"Chesapeake and Washington HeartCare, PC",38.302423,-76.635461,granted,12070 Old Line Center,Suite 303,Waldorf,MD,20602,USA,,,,echo,"www.google.com/search?q=Chesapeake+and+Washington+HeartCare,+PC","Chesapeake and Washington HeartCare, PC Waldorf",,,"Sep 29, 2022",Adult Transthoracic,,,,,,,,,,,,,,,,,,,,
69,70,"Chesapeake Cardiac Care, P.A.",38.992966,-76.542987,granted,888 Bestgate Rd. Suite 215,,Annapolis,MD,21401,USA,,,,nuclear,"www.google.com/search?q=Chesapeake+Cardiac+Care,+P.A.","Chesapeake Cardiac Care, P.A. Annapolis",,,,,,,"Apr 30, 2023",Myocardial Perfusion Imaging,,,,,,,,,,,,,,,,
70,71,Chesapeake Cardiovascular Associates- Franklin Square,39.3509508,-76.4775753,granted,9105 Franklin Square Drive,Suite 209,Baltimore,MD,21237,USA,,,,echo,www.google.com/search?q=Chesapeake+Cardiovascular+Associates-+Franklin+Square,Chesapeake Cardiovascular Associates- Franklin Square Baltimore,,,"Jun 30, 2023",Adult Transthoracic,,,,,,,,,,,,,,,,,,,,
71,72,Chesapeake Cardiovascular Associates- Union,39.391176,-76.735632,granted,3333 N. Calvert Street,Suite 500,Baltimore,MD,21218,USA,,,,echo,www.google.com/search?q=Chesapeake+Cardiovascular+Associates-+Union,Chesapeake Cardiovascular Associates- Union Baltimore,,,"Jun 30, 2023",Adult Transthoracic,,,,,,,,,,,,,,,,,,,,
72,73,Chesapeake Medical Imaging,38.985702,-76.551239,granted,122 Defense Highway,,Annapolis,MD,21401,USA,,www.cmirad.net,,mr,,Chesapeake Medical Imaging Annapolis,,,,,"Dec 31, 2023","Body MRI, Musculoskeletal MRI, Neurological MRI, Breast MRI, MRA",,,,,,,,,,,,,,,,,,
73,74,Chesapeake Medical Imaging Annapolis,38.985702,-76.551239,granted,122 Defense Highway,,Annapolis,MD,21401,,,www.cmirad.net/,,ct,,Chesapeake Medical Imaging Annapolis Annapolis,"Dec 31, 2024","Body CT, Neurological CT, Coronary Calcium Scoring, Maxillofacial CT",,,,,,,,,,,,,,,,,,,,,,
74,75,Chesapeake Medical Imaging Bestgate,38.994088,-76.537467,granted,810 Bestgate Road,Suite 100,Annapolis,MD,21401,,,www.cmirad.net/,,ct,,Chesapeake Medical Imaging Bestgate Annapolis,"Dec 31, 2024","Body CT, Neurological CT, Vascular CTA, Coronary Calcium Scoring, Maxillofacial CT",,,,,,,,,,,,,,,,,,,,,,
75,76,Chesapeake Medical Imaging Bestgate,38.994088,-76.537467,granted,810 Bestgate Road,,Annapolis,MD,21401,,,,,nuclear,www.google.com/search?q=Chesapeake+Medical+Imaging+Bestgate,Chesapeake Medical Imaging Bestgate Annapolis,,,,,,,"Jan 31, 2024",Positron Emission Tomography (PET),,,,,,,,,,,,,,,,
76,77,Chesapeake Medical Imaging Bowie,38.948338,-76.736574,granted,4201 Northview Drive,Suite 105,Bowie,MD,20716,USA,,,,nuclear,www.google.com/search?q=Chesapeake+Medical+Imaging+Bowie,Chesapeake Medical Imaging Bowie Bowie,,,,,,,"Jan 31, 2024",Positron Emission Tomography (PET),,,,,,,,,,,,,,,,
77,78,Chesapeake Medical Imaging Bowie,38.948338,-76.736574,granted,4201 Northview Drive,Suite 105,Bowie,MD,20716,,,www.cmirad.net,,mr,,Chesapeake Medical Imaging Bowie Bowie,,,,,"Dec 31, 2023","Musculoskeletal MRI, Neurological MRI, MRA",,,,,,,,,,,,,,,,,,
78,79,Chesapeake Medical Imaging Bowie,38.948338,-76.736574,granted,4201 Northview Drive,Suite 105,Bowie,MD,20716,USA,,cmirad.net,,ct,,Chesapeake Medical Imaging Bowie Bowie,"Dec 31, 2024","Body CT, Neurological CT, Vascular CTA, Coronary Calcium Scoring, Maxillofacial CT",,,,,,,,,,,,,,,,,,,,,,
79,80,Chesapeake Medical Imaging Catonsville,39.270963,-76.73627,granted,910 Frederick Road,,Catonsville,MD,21228,,,,,mr,www.google.com/search?q=Chesapeake+Medical+Imaging+Catonsville,Chesapeake Medical Imaging Catonsville Catonsville,,,,,"Dec 31, 2023","Musculoskeletal MRI, Neurological MRI",,,,,,,,,,,,,,,,,,
80,81,Chesapeake Medical Imaging Chestertown,39.197274,-76.036754,granted,6602 Church Hill Road,Suite 150,Chestertown,MD,21620,USA,,www.cmirad.net,,mr,,Chesapeake Medical Imaging Chestertown Chestertown,,,,,"Dec 31, 2023","Body MRI, Musculoskeletal MRI, Neurological MRI, Breast MRI, MRA",,,,,,,,,,,,,,,,,,
81,82,Chesapeake Medical Imaging Easton,38.763925,-76.062766,granted,401 Purdy Street Suite 104,,Easton,MD,21601,USA,,,,nuclear,www.google.com/search?q=Chesapeake+Medical+Imaging+Easton,Chesapeake Medical Imaging Easton Easton,,,,,,,"Jan 31, 2024",Positron Emission Tomography (PET),,,,,,,,,,,,,,,,
82,83,Chesapeake Medical Imaging Easton,38.765082,-76.062516,granted,401 Purdy Street,Suite 104,Easton,MD,21601,USA,,www.cmirad.net,,mr,,Chesapeake Medical Imaging Easton Easton,,,,,"Dec 31, 2023","Body MRI, Musculoskeletal MRI, Neurological MRI, Breast MRI, MRA",,,,,,,,,,,,,,,,,,
83,84,Chesapeake Medical Imaging Elvaton,39.139982,-76.627185,granted,7801 Elvaton Road,Suite 1,Glen Burnie,MD,21061,USA,,www.cmirad.net,,mr,,Chesapeake Medical Imaging Elvaton Glen Burnie,,,,,"Dec 31, 2023","Body MRI, Cardiovascular MRI, Musculoskeletal MRI, Neurological MRI, MRA",,,,,,,,,,,,,,,,,,
84,85,Chesapeake Medical Imaging Maple Lawn,39.149991,-76.909531,granted,11810 W Market Place,Suite 102,Fulton,MD,20759,,,cmirad.net,,mr,,Chesapeake Medical Imaging Maple Lawn Fulton,,,,,"Dec 31, 2023","Body MRI, Musculoskeletal MRI, Neurological MRI, MRA",,,,,,,,,,,,,,,,,,
85,86,Chesapeake Medical Imaging Towson,39.41808,-76.630391,granted,1312 Bellona Avenue,Suite 102,Lutherville,MD,21093,USA,,cmirad.net,,ct,,Chesapeake Medical Imaging Towson Lutherville,"Dec 31, 2024","Body CT, Neurological CT, Vascular CTA, Maxillofacial CT",,,,,,,,,,,,,,,,,,,,,,
86,87,Chesapeake Medical Imaging Towson,39.41852,-76.63017,granted,1312 Bellona Avenue,Suite 102,Lutherville,MD,21093,USA,,,,nuclear,www.google.com/search?q=Chesapeake+Medical+Imaging+Towson,Chesapeake Medical Imaging Towson Lutherville,,,,,,,"Jan 31, 2024",Positron Emission Tomography (PET),,,,,,,,,,,,,,,,
87,88,Chesapeake Medical Imaging Towson,39.418082,-76.630432,granted,1312 Bellona Ave,Suite 102,Lutherville,MD,21093,,,,,mr,www.google.com/search?q=Chesapeake+Medical+Imaging+Towson,Chesapeake Medical Imaging Towson Lutherville,,,,,"Dec 31, 2023","Body MRI, Cardiovascular MRI, Musculoskeletal MRI, Neurological MRI, MRA",,,,,,,,,,,,,,,,,,
88,89,Chesapeake Medical Imaging Weems,38.996704,-76.514304,granted,600 Ridgely Avenue,Suite 100,Annapolis,MD,21401,USA,,www.cmirad.net/,,ct,,Chesapeake Medical Imaging Weems Annapolis,"Dec 31, 2024","Body CT, Neurological CT, Coronary Calcium Scoring, Maxillofacial CT",,,,,,,,,,,,,,,,,,,,,,
89,90,Chesapeake Medical Imaging White Marsh,39.370948,-76.471517,granted,8114 Sandpiper Circle,Suite 106,Nottingham,MD,21236,,,cmirad.net,,mr,,Chesapeake Medical Imaging White Marsh Nottingham,,,,,"Dec 31, 2023","Musculoskeletal MRI, Neurological MRI",,,,,,,,,,,,,,,,,,
90,91,Clinical Associates,39.401207,-76.596339,granted,515 Fairmount Avenue,Suite 220,Towson,MD,21286,USA,,clinicalassociatesmd.com,,echo,,Clinical Associates Towson,,,"Apr 30, 2025",Adult Transthoracic,,,,,,,,,,,,,,,,,,,,
91,92,Clinical Associates,39.391222,-76.735402,granted,1838 Greene Tree Road,Suite 250,Pikesville,MD,21208,USA,,clinicalassociatesmd.com,,echo,,Clinical Associates Pikesville,,,"Apr 30, 2025",Adult Transthoracic,,,,,,,,,,,,,,,,,,,,
92,93,Clinical Associates-Towson,39.401207,-76.596339,granted,515 Fairmount Ave,Suite 220,Towson,MD,21286,USA,,,,nuclear,www.google.com/search?q=Clinical+Associates-Towson,Clinical Associates-Towson Towson,,,,,,,"Jul 31, 2023","Myocardial Perfusion Imaging, Positron Emission Tomography (PET)",,,,,,,,,,,,,,,,
93,94,Clinical Associates-Woodholme,39.391222,-76.735402,granted,1838 Greene Tree Road,suite 250,Pikesville,MD,21208,USA,,,,nuclear,www.google.com/search?q=Clinical+Associates-Woodholme,Clinical Associates-Woodholme Pikesville,,,,,,,"Jul 31, 2023",Positron Emission Tomography (PET),,,,,,,,,,,,,,,,
94,95,Delaware Cardiovascular Associates Elkton Office,39.609972,-75.83047,granted,"106 E. Main St., Suite 108",,Elkton,MD,21921,USA,,www.decardio.com,,vascular,,Delaware Cardiovascular Associates Elkton Office Elkton,,,,,,,,,"Nov 30, 2024","Extracranial Cerebrovascular Testing, Peripheral Arterial Testing",,,,,,,,,,,,,,
95,96,Delaware Cardiovascular Associates Elkton Office,39.609972,-75.83047,granted,106 E. Main Street,Suite 108,Elkton,MD,21921,USA,,www.decardio.com,,echo,,Delaware Cardiovascular Associates Elkton Office Elkton,,,"Jun 30, 2024",Adult Transthoracic,,,,,,,,,,,,,,,,,,,,
96,97,"Dinesh Kalaria, MD",39.562269,-76.987827,granted,217 Washingtons Heights,,Westminster,MD,21157,USA,,,,echo,"www.google.com/search?q=Dinesh+Kalaria,+MD","Dinesh Kalaria, MD Westminster",,,"Sep 30, 2023",Adult Transthoracic,,,,,,,,,,,,,,,,,,,,
97,98,"Dinesh S. Kalaria, M.D.,F.A.C.C.",39.562269,-76.987827,granted,217 Washington Heights Medical Center,,Westminster,MD,21157,USA,,,,nuclear,"www.google.com/search?q=Dinesh+S.+Kalaria,+M.D.,F.A.C.C.","Dinesh S. Kalaria, M.D.,F.A.C.C. Westminster",,,,,,,"Feb 29, 2024",Myocardial Perfusion Imaging,,,,,,,,,,,,,,,,
98,99,Doctor’s Vascular Laboratory,39.154398,-77.05704,granted,18111 Prince Philip Drive,Suite 226,Olney,MD,20832,USA,,,,vascular,www.google.com/search?q=Doctor’s+Vascular+Laboratory,Doctor’s Vascular Laboratory Olney,,,,,,,,,"Nov 30, 2023",Extracranial Cerebrovascular Testing,,,,,,,,,,,,,,
99,100,Doctor’s Vascular Laboratory,39.427212,-77.413144,granted,1003 West 7th Street,Suite A,Frederick,MD,21701,USA,,,,vascular,www.google.com/search?q=Doctor’s+Vascular+Laboratory,Doctor’s Vascular Laboratory Frederick,,,,,,,,,"Nov 30, 2023","Extracranial Cerebrovascular Testing, Peripheral Arterial Testing, Peripheral Venous Testing, Visceral Vascular Testing",,,,,,,,,,,,,,
100,101,Doctors Community Hospital,38.980428,-76.864641,multigranted,8118 Good Luck Road,,Lanham,MD,20706,USA,,,,"vascular, echo",www.google.com/search?q=Doctors+Community+Hospital,Doctors Community Hospital Lanham,,,"May 31, 2023",Adult Transthoracic,,,,,"Mar 31, 2023","Extracranial Cerebrovascular Testing, Peripheral Arterial Testing, Peripheral Venous Testing",,,,,,,,,,,,,,
101,102,Doctors Vascular Laboratory,39.098355,-77.195573,granted,9715 Medical Center Drive,Suite 105,Rockville,MD,20850,USA,,,,vascular,www.google.com/search?q=Doctors+Vascular+Laboratory,Doctors Vascular Laboratory Rockville,,,,,,,,,"Nov 30, 2023","Extracranial Cerebrovascular Testing, Peripheral Arterial Testing, Peripheral Venous Testing, Visceral Vascular Testing",,,,,,,,,,,,,,
102,103,Doctors Vascular Laboratory,39.193488,-77.248757,granted,20410 Observation Dr.,Suite 100,Germantown,MD,20876,USA,,,,vascular,www.google.com/search?q=Doctors+Vascular+Laboratory,Doctors Vascular Laboratory Germantown,,,,,,,,,"Nov 30, 2023","Extracranial Cerebrovascular Testing, Peripheral Arterial Testing, Peripheral Venous Testing, Visceral Vascular Testing",,,,,,,,,,,,,,
103,104,"Fayaz A. Shawl, MD, PA",38.983804,-76.999949,multigranted,11886 Healing Way,Suite 510,Silver Spring,MD,20904,USA,,www.shawltechnique.com/,,"nuclear, echo",,"Fayaz A. Shawl, MD, PA Silver Spring",,,"May 31, 2024",Adult Transthoracic,,,"Nov 30, 2023",Myocardial Perfusion Imaging,,,,,,,,,,,,,,,,
104,105,Frederick Health Hospital Echo Lab,39.423745,-77.41407,granted,400 West Seventh Street,,Frederick,MD,21701,USA,,,,echo,www.google.com/search?q=Frederick+Health+Hospital+Echo+Lab,Frederick Health Hospital Echo Lab Frederick,,,"Mar 31, 2024",Adult Transthoracic,,,,,,,,,,,,,,,,,,,,
105,106,Frederick Health Hospital Echo Lab,39.384541,-77.415287,granted,1562 Opossumtown Pike,,Frederick,MD,21702,USA,,,,echo,www.google.com/search?q=Frederick+Health+Hospital+Echo+Lab,Frederick Health Hospital Echo Lab Frederick,,,"Mar 31, 2024",Adult Transthoracic,,,,,,,,,,,,,,,,,,,,
106,107,Frederick Health Hospital Vascular Laboratory,39.423745,-77.41407,granted,400 West Seventh Street,,Frederick,MD,21701,USA,,,,vascular,www.google.com/search?q=Frederick+Health+Hospital+Vascular+Laboratory,Frederick Health Hospital Vascular Laboratory Frederick,,,,,,,,,"Nov 30, 2024","Extracranial Cerebrovascular Testing, Peripheral Arterial Testing, Peripheral Venous Testing",,,,,,,,,,,,,,
107,108,Frederick Regional Outpatient Center,39.381154,-77.414252,granted,"5285 Westview Drive, Suite 103",,Frederick,MD,21704,USA,,,,pediatric_echo,www.google.com/search?q=Frederick+Regional+Outpatient+Center,Frederick Regional Outpatient Center Frederick,,,,,,,,,,,"Jul 31, 2023",Pediatric Transthoracic,,,,,,,,,,,,
108,109,Good Samaritan Hospital,39.359417,-76.588628,granted,5601 Loch Raven Boulevard,Good Samaritan Hospital of Maryland,Baltimore,MD,21239,USA,,,,vascular,www.google.com/search?q=Good+Samaritan+Hospital,Good Samaritan Hospital Baltimore,,,,,,,,,"Feb 29, 2024","Extracranial Cerebrovascular Testing, Peripheral Arterial Testing, Peripheral Venous Testing",,,,,,,,,,,,,,
109,110,Greater Baltimore Medical Center,39.388428,-76.624836,granted,6565 N. Charles Street,Suite 313,Towson,MD,21204,USA,,,,pediatric_echo,www.google.com/search?q=Greater+Baltimore+Medical+Center,Greater Baltimore Medical Center Towson,,,,,,,,,,,"Sep 30, 2023",Pediatric Transthoracic,,,,,,,,,,,,
110,111,"Heart Care of Maryland, LLC",39.55074,-76.990904,granted,826 Washington Road,Suite 215,Westminster,MD,21157,USA,,,,nuclear,"www.google.com/search?q=Heart+Care+of+Maryland,+LLC","Heart Care of Maryland, LLC Westminster",,,,,,,"Sep 29, 2022",Myocardial Perfusion Imaging,,,,,,,,,,,,,,,,
111,112,Heart Center at Glen Burnie,39.143873,-76.631785,granted,7927 Ritchie Highway,,Glen Burnie,MD,21061,USA,,,,echo,www.google.com/search?q=Heart+Center+at+Glen+Burnie,Heart Center at Glen Burnie Glen Burnie,,,"Aug 31, 2025",Adult Transthoracic,,,,,,,,,,,,,,,,,,,,
112,113,"HEART CENTER OF SOUTHERN MARYLAND, LLP",38.764479,-76.903146,granted,9135 Piscataway Rd,Suite #210,Clinton,MD,20735,USA,,,,nuclear,"www.google.com/search?q=HEART+CENTER+OF+SOUTHERN+MARYLAND,+LLP","HEART CENTER OF SOUTHERN MARYLAND, LLP Clinton",,,,,,,"Oct 31, 2023",Myocardial Perfusion Imaging,,,,,,,,,,,,,,,,
113,114,"Heart Center of Southern Maryland, Llp",38.616802,-76.916343,granted,3510 Old Washington Road,Ste 100,Waldorf,MD,20602,USA,,,,nuclear,"www.google.com/search?q=Heart+Center+of+Southern+Maryland,+Llp","Heart Center of Southern Maryland, Llp Waldorf",,,,,,,"Nov 29, 2022","Equilibrium Radionuclide Angiography, Myocardial Perfusion Imaging, Positron Emission Tomography (PET)",,,,,,,,,,,,,,,,
114,115,"Heart Center of Southern Maryland, LLP",38.616802,-76.916343,granted,3510 Old Washington Road,Suite 100,Waldorf,MD,20602,USA,,theheartcentersouthernMD.com,,echo,,"Heart Center of Southern Maryland, LLP Waldorf",,,"May 31, 2024",Adult Transthoracic,,,,,,,,,,,,,,,,,,,,
115,116,"Heartmasters Medical Associates, PC",38.784452,-76.898053,multigranted,"7700 Old Branch Ave.,Suite B205",,Clinton,MD,20735,USA,,,,"echo, nuclear","www.google.com/search?q=Heartmasters+Medical+Associates,+PC","Heartmasters Medical Associates, PC Clinton",,,"Dec 31, 2022",Adult Transthoracic,,,"May 31, 2024",Myocardial Perfusion Imaging,,,,,,,,,,,,,,,,
116,117,Holy Cross Hospital,39.016055,-77.034198,granted,1500 Forest Glen Road,,Silver Spring,MD,20910,USA,,www.holycrosshealth.org,,echo,,Holy Cross Hospital Silver Spring,,,"Feb 28, 2025",Adult Transthoracic,,,,,,,,,,,,,,,,,,,,
117,118,Holy Cross Hospital Germantown Campus,39.198155,-77.240725,granted,19801 Observation Drive,,Germantown,MD,20876,USA,,www.holycrosshealth.org,,echo,,Holy Cross Hospital Germantown Campus Germantown,,,"Feb 28, 2025",Adult Transthoracic,,,,,,,,,,,,,,,,,,,,
118,119,Howard County General Hospital,39.214472,-76.887278,granted,5755 Cedar Lane,,Columbia,MD,21044,USA,,,,echo,www.google.com/search?q=Howard+County+General+Hospital,Howard County General Hospital Columbia,,,"Sep 30, 2024",Adult Transthoracic,,,,,,,,,,,,,,,,,,,,
119,120,Howard County Regional Outpatient Center,39.157349,-76.903952,granted,"7625 Maple Lawn Blvd, Suite 230",,Fulton,MD,20759,USA,,,,pediatric_echo,www.google.com/search?q=Howard+County+Regional+Outpatient+Center,Howard County Regional Outpatient Center Fulton,,,,,,,,,,,"Jul 31, 2023","Pediatric Transthoracic, Fetal",,,,,,,,,,,,
120,121,"I Plan Safe Diagnostic Imaging, LLC",38.99082,-76.834692,granted,"9821 Greenbelt Rd, Suite 207",,Lanham,MD,20706,United States,,www.americancardio.com,,nuclear,,"I Plan Safe Diagnostic Imaging, LLC Lanham",,,,,,,"May 31, 2024",Myocardial Perfusion Imaging,,,,,,,,,,,,,,,,
121,122,Inova Children’s Cardiology,39.642316,-77.69193,granted,1165 Imperial Drive,,Hagerstown,MD,21740,USA,,,,pediatric_echo,www.google.com/search?q=Inova+Children’s+Cardiology,Inova Children’s Cardiology Hagerstown,,,,,,,,,,,"Sep 30, 2023","Pediatric Transthoracic, Fetal",,,,,,,,,,,,
122,123,Inova Children’s Cardiology,39.099887,-77.192125,granted,14955 Shady Grove Road,Suite 150,Rockville,MD,20850,USA,,,,pediatric_echo,www.google.com/search?q=Inova+Children’s+Cardiology,Inova Children’s Cardiology Rockville,,,,,,,,,,,"Sep 30, 2023","Pediatric Transthoracic, Fetal",,,,,,,,,,,,
123,124,Inova Children’s Cardiology,39.439005,-77.412039,granted,1475 Taney Ave,101,Frederick,MD,21702,USA,,,,pediatric_echo,www.google.com/search?q=Inova+Children’s+Cardiology,Inova Children’s Cardiology Frederick,,,,,,,,,,,"Sep 30, 2023","Pediatric Transthoracic, Fetal",,,,,,,,,,,,
124,125,Inova Children’s Cardiology,39.040114,-76.989815,granted,11217 Lockwood Drive,,Silver Spring,MD,20901,USA,,,,pediatric_echo,www.google.com/search?q=Inova+Children’s+Cardiology,Inova Children’s Cardiology Silver Spring,,,,,,,,,,,"Sep 30, 2023","Pediatric Transthoracic, Fetal",,,,,,,,,,,,
125,126,JHCP-Heart Care Silver Spring,38.99817,-77.028215,granted,8630 Fenton St,Suite 1105,Silver Spring,MD,20910,USA,,,,echo,www.google.com/search?q=JHCP-Heart+Care+Silver+Spring,JHCP-Heart Care Silver Spring Silver Spring,,,"May 31, 2025",Adult Transthoracic,,,,,,,,,,,,,,,,,,,,
126,127,"Joann Urquhart, MD",39.104357,-77.19301,granted,9420 Key West Ave.,suite 340,Rockville,MD,20850,USA,,,,echo,"www.google.com/search?q=Joann+Urquhart,+MD","Joann Urquhart, MD Rockville",,,"May 31, 2025","Adult Stress, Adult Transthoracic",,,,,,,,,,,,,,,,,,,,
127,128,Johns Hopkins Bayview,39.404179,-76.62809,granted,4904 Eastern Ave,"Johns Hopkins Hospital, Bayview Medical Center",Baltimore,MD,21204,USA,,,,vascular,www.google.com/search?q=Johns+Hopkins+Bayview,Johns Hopkins Bayview Baltimore,,,,,,,,,"Feb 28, 2025",Intracranial Cerebrovascular Testing,,,,,,,,,,,,,,
128,129,Johns Hopkins Bayview Medical Center,39.288936,-76.527273,granted,4940 Eastern Avenue,BMO 3rd Floor,Baltimore,MD,21224-2780,USA,,www.hopkinsbayview.org/vascularlab/index.html,,vascular,,Johns Hopkins Bayview Medical Center Baltimore,,,,,,,,,"Dec 31, 2022","Extracranial Cerebrovascular Testing, Peripheral Arterial Testing, Peripheral Venous Testing",,,,,,,,,,,,,,
129,130,Johns Hopkins Bayview Medical Center,39.287285,-76.552134,granted,4940 Eastern Avenue,,Baltimore,MD,21224,USA,,,,echo,www.google.com/search?q=Johns+Hopkins+Bayview+Medical+Center,Johns Hopkins Bayview Medical Center Baltimore,,,"Dec 31, 2023","Adult Stress, Adult Transesophageal, Adult Transthoracic",,,,,,,,,,,,,,,,,,,,
130,131,Johns Hopkins Community Physicians,39.023917,-77.132661,granted,6410 Rockledge Drive,Suite 200,Bethesda,MD,20817,USA,,,,echo,www.google.com/search?q=Johns+Hopkins+Community+Physicians,Johns Hopkins Community Physicians Bethesda,,,"May 31, 2025",Adult Transthoracic,,,,,,,,,,,,,,,,,,,,
131,132,Johns Hopkins Community Physicians,39.102426,-77.190879,granted,15005 Shady Grove Road,Suite 340,Rockville,MD,20850,USA,,,,echo,www.google.com/search?q=Johns+Hopkins+Community+Physicians,Johns Hopkins Community Physicians Rockville,,,"May 31, 2025",Adult Transthoracic,,,,,,,,,,,,,,,,,,,,
132,133,Johns Hopkins Community Physicians,38.99346,-76.54047,granted,820 Bestgate Rd,Suite 2D,Annapolis,MD,21401,USA,,,,pediatric_echo,www.google.com/search?q=Johns+Hopkins+Community+Physicians,Johns Hopkins Community Physicians Annapolis,,,,,,,,,,,"Sep 30, 2023",Pediatric Transthoracic,,,,,,,,,,,,
133,134,Johns Hopkins Community Physicians,39.456201,-77.40261,granted,45 Thomas Johnson Drive,Suite 109,Frederick,MD,21702,USA,,,,pediatric_echo,www.google.com/search?q=Johns+Hopkins+Community+Physicians,Johns Hopkins Community Physicians Frederick,,,,,,,,,,,"Sep 30, 2023",Pediatric Transthoracic,,,,,,,,,,,,
134,135,Johns Hopkins Community Physicians,39.668465,-77.698322,granted,12916 Conamar Drive,Suite 204,Hagerstown,MD,21740,USA,,,,pediatric_echo,www.google.com/search?q=Johns+Hopkins+Community+Physicians,Johns Hopkins Community Physicians Hagerstown,,,,,,,,,,,"Sep 30, 2023",Pediatric Transthoracic,,,,,,,,,,,,
135,136,Johns Hopkins Community Physicians,39.212014,-76.88293,granted,10700 Charter Drive,Suite 140,Columbia,MD,21042,USA,,,,pediatric_echo,www.google.com/search?q=Johns+Hopkins+Community+Physicians,Johns Hopkins Community Physicians Columbia,,,,,,,,,,,"Sep 30, 2023",Pediatric Transthoracic,,,,,,,,,,,,
136,137,Johns Hopkins Community Physicians Chevy Chase,38.964983,-77.08786,granted,5530 Wisconsin Avenue,Suite 515,Chevy Chase,MD,20815,USA,,,,echo,www.google.com/search?q=Johns+Hopkins+Community+Physicians+Chevy+Chase,Johns Hopkins Community Physicians Chevy Chase Chevy Chase,,,"May 31, 2025",Adult Transthoracic,,,,,,,,,,,,,,,,,,,,
137,138,Johns Hopkins Community Physicians Heart Care,39.023917,-77.132661,granted,6410 Rockledge Drive,Suite 200,Bethesda,MD,20817,USA,,,,nuclear,www.google.com/search?q=Johns+Hopkins+Community+Physicians+Heart+Care,Johns Hopkins Community Physicians Heart Care Bethesda,,,,,,,"Jul 31, 2025",Myocardial Perfusion Imaging,,,,,,,,,,,,,,,,
138,139,Johns Hopkins Community Physicians Heart Care - Bethesda,39.024646,-77.13269,granted,6420 Rockledge Drive Suite 2300,,Bethesda,MD,20817,USA,,,,pediatric_echo,www.google.com/search?q=Johns+Hopkins+Community+Physicians+Heart+Care+-+Bethesda,Johns Hopkins Community Physicians Heart Care - Bethesda Bethesda,,,,,,,,,,,"Sep 30, 2023",Pediatric Transthoracic,,,,,,,,,,,,
139,140,Johns Hopkins Community Physicians Heart Care - Bethesda Office,39.023917,-77.132661,granted,6410 Rockledge Drive,Suite #200,Bethesda,MD,20817,USA,,,,vascular,www.google.com/search?q=Johns+Hopkins+Community+Physicians+Heart+Care+-+Bethesda+Office,Johns Hopkins Community Physicians Heart Care - Bethesda Office Bethesda,,,,,,,,,"Jun 30, 2025","Extracranial Cerebrovascular Testing, Peripheral Venous Testing",,,,,,,,,,,,,,
140,141,Johns Hopkins Noninvasive Vascular Laboratory,39.297502,-76.590807,granted,600 N Wolfe Street,Vascular Surgery,Baltimore,MD,21287,USA,,,,vascular,www.google.com/search?q=Johns+Hopkins+Noninvasive+Vascular+Laboratory,Johns Hopkins Noninvasive Vascular Laboratory Baltimore,,,,,,,,,"Nov 30, 2024","Extracranial Cerebrovascular Testing, Peripheral Arterial Testing, Peripheral Venous Testing, Visceral Vascular Testing",,,,,,,,,,,,,,
141,142,"Just Heart Cardiovascular Group, Inc.",39.299274,-76.620794,granted,300 Armory Place,Suite 3M,Baltimore,MD,21201,USA,,myjustheart.com,,echo,,"Just Heart Cardiovascular Group, Inc. Baltimore",,,"Apr 30, 2025",Adult Transthoracic,,,,,,,,,,,,,,,,,,,,
142,143,Just Heart Imaging,39.388422,-76.732735,granted,"2 Reservoir Circle, Suite 105",,Pikesville,MD,21208,USA,,myjustheart.com/,,nuclear,,Just Heart Imaging Pikesville,,,,,,,"Apr 30, 2024",Myocardial Perfusion Imaging,,,,,,,,,,,,,,,,
143,144,Just Heart Imaging,39.299462,-76.620738,granted,300 Armory Place Suite 3-J,,Baltimore,MD,21201,USA,,myjustheart.com,,nuclear,,Just Heart Imaging Baltimore,,,,,,,"Apr 30, 2024",Myocardial Perfusion Imaging,,,,,,,,,,,,,,,,
144,145,"Krishan K Singal, MD",39.123662,-76.524775,granted,415 Crain Highway S.,,Glen Burnie,MD,21061,USA,,,,echo,"www.google.com/search?q=Krishan+K+Singal,+MD","Krishan K Singal, MD Glen Burnie",,,"Mar 31, 2025",Adult Transthoracic,,,,,,,,,,,,,,,,,,,,
145,146,Lifebridge Health Cardiology of Westminster,39.556473,-76.961381,granted,1011 Baltimore Blvd,,Westminister,MD,21157,USA,,,,nuclear,www.google.com/search?q=Lifebridge+Health+Cardiology+of+Westminster,Lifebridge Health Cardiology of Westminster Westminister,,,,,,,"Sep 29, 2022",Myocardial Perfusion Imaging,,,,,,,,,,,,,,,,
146,147,Maryland General Hospital,39.298773,-76.620783,granted,827 Linden Avenue,,Baltimore,MD,21201,USA,,Marylandgeneral.org,,echo,,Maryland General Hospital Baltimore,,,"Jan 31, 2025","Adult Stress, Adult Transesophageal, Adult Transthoracic",,,,,,,,,,,,,,,,,,,,
147,148,"Maryland Heart Associates, Llc",39.1455865,-76.6314644,granted,1401 Madison Park Drive,,Glen Burnie,MD,21061,USA,,,,nuclear,"www.google.com/search?q=Maryland+Heart+Associates,+Llc","Maryland Heart Associates, Llc Glen Burnie",,,,,,,"May 31, 2023",Myocardial Perfusion Imaging,,,,,,,,,,,,,,,,
148,149,"Maryland Primary Care Physicians, LLC",39.21581,-76.88482,granted,11055 Little Patuxent Parkway,Suite 205,Columbia,MD,21044,USA,,www.mpcp.com,,echo,,"Maryland Primary Care Physicians, LLC Columbia",,,"Apr 30, 2025","Adult Stress, Adult Transthoracic",,,,,,,,,,,,,,,,,,,,
149,150,"Maryland Primary Care Physicians, LLC",39.21581,-76.88482,granted,11055 Little Patuxent Parkway,Suite 210,Columbia,MD,21044,USA,,www.MPCP.com,,vascular,,"Maryland Primary Care Physicians, LLC Columbia",,,,,,,,,"May 31, 2024",Extracranial Cerebrovascular Testing,,,,,,,,,,,,,,
150,151,"Maryland Surgical Care- Capitol Vein and Laser Center, Frederick, MD",39.4494525,-77.4045365,granted,"77 Thomas Johnson Drive, Suite E",,Frederick,MD,21702,USA,,mycvl.com,,vascular,,"Maryland Surgical Care- Capitol Vein and Laser Center, Frederick, MD Frederick",,,,,,,,,"Dec 30, 2022",Peripheral Venous Testing,,,,,,,,,,,,,,
151,152,Maryland Vascular Specialists,39.364172,-76.608469,granted,540 E. Belvedere Avenue,Suite 204,Baltimore,MD,21212,USA,,mvsdoctors.com,,vascular,,Maryland Vascular Specialists Baltimore,,,,,,,,,"Apr 30, 2025","Extracranial Cerebrovascular Testing, Peripheral Arterial Testing, Peripheral Venous Testing",,,,,,,,,,,,,,
152,153,Maryland Vascular Specialists-Belair,39.532343,-76.343502,granted,3401 Box Hill Corporate Center Drive,Suite 204,Abingdon,MD,21009,USA,,mvsdoctors.com,,vascular,,Maryland Vascular Specialists-Belair Abingdon,,,,,,,,,"Apr 30, 2025","Extracranial Cerebrovascular Testing, Peripheral Arterial Testing, Peripheral Venous Testing",,,,,,,,,,,,,,
153,154,Maryland Vascular Specialists-Columbia,39.212014,-76.88293,granted,10700 Charter Dr.,Suite 335,Columbia,MD,21044,USA,,mvsdoctors.com,,vascular,,Maryland Vascular Specialists-Columbia Columbia,,,,,,,,,"Apr 30, 2025","Extracranial Cerebrovascular Testing, Peripheral Arterial Testing, Peripheral Venous Testing",,,,,,,,,,,,,,
154,155,Maryland Vascular Specialists-Essex,39.325977,-76.470974,granted,1124 Mace Ave,,Baltimore,MD,21221,USA,,mvsdoctors.com,,vascular,,Maryland Vascular Specialists-Essex Baltimore,,,,,,,,,"Apr 30, 2025","Extracranial Cerebrovascular Testing, Peripheral Arterial Testing, Peripheral Venous Testing",,,,,,,,,,,,,,
155,156,Maryland Vascular Specialists-Glen Burnie,39.141348,-76.632187,granted,"1811 S. Crain Highway, Suite C",,Glen Burnie,MD,21061,USA,,mvsdoctors.com,,vascular,,Maryland Vascular Specialists-Glen Burnie Glen Burnie,,,,,,,,,"Apr 30, 2025","Extracranial Cerebrovascular Testing, Peripheral Arterial Testing, Peripheral Venous Testing",,,,,,,,,,,,,,
156,157,Maryland Vascular Specialists-Hagerstown,39.622981,-77.681445,granted,"11110 Medical Campus Road, Suite 127",,Hagerstown,MD,21742,USA,,mvsdoctors.com,,vascular,,Maryland Vascular Specialists-Hagerstown Hagerstown,,,,,,,,,"Apr 30, 2025","Extracranial Cerebrovascular Testing, Peripheral Arterial Testing, Peripheral Venous Testing",,,,,,,,,,,,,,
157,158,Maryland Vascular Specialists-Lutherville,39.417013,-76.61467,granted,1212 York Road,Suite B201,Lutherville,MD,21093,USA,,mvsdoctors.com,,vascular,,Maryland Vascular Specialists-Lutherville Lutherville,,,,,,,,,"Apr 30, 2025","Extracranial Cerebrovascular Testing, Peripheral Arterial Testing, Peripheral Venous Testing",,,,,,,,,,,,,,
158,159,Maryland Vascular Specialists-Pikesville,39.395276,-76.737048,granted,Woodholme Medical Center,1838 Greene Tree Rd Ste. 325,Baltimore,MD,21208,USA,,mvsdoctors.com,,vascular,,Maryland Vascular Specialists-Pikesville Baltimore,,,,,,,,,"Apr 30, 2025","Extracranial Cerebrovascular Testing, Peripheral Arterial Testing, Peripheral Venous Testing",,,,,,,,,,,,,,
159,160,Maryland Vascular Specialists-Rosedale,39.358242,-76.471451,granted,5233 King Ave,Suite 104,Rosedale,MD,21237,USA,,mvsdoctors.com,,vascular,,Maryland Vascular Specialists-Rosedale Rosedale,,,,,,,,,"Apr 30, 2025","Extracranial Cerebrovascular Testing, Peripheral Arterial Testing, Peripheral Venous Testing",,,,,,,,,,,,,,
160,161,Maryland Vascular Specialists-Westminster,39.55074,-76.990904,granted,826 Washington Road,Suite 203,Westminster,MD,21157,USA,,mvsdoctors.com,,vascular,,Maryland Vascular Specialists-Westminster Westminster,,,,,,,,,"Apr 30, 2025","Extracranial Cerebrovascular Testing, Peripheral Arterial Testing, Peripheral Venous Testing",,,,,,,,,,,,,,
161,162,"Medical Practices of Antietam, LLC dba Meritus Hagerstown Heart",39.61943,-77.697234,granted,1733 Howell Road,,Hagerstown,MD,21742,USA,,,,echo,"www.google.com/search?q=Medical+Practices+of+Antietam,+LLC+dba+Meritus+Hagerstown+Heart","Medical Practices of Antietam, LLC dba Meritus Hagerstown Heart Hagerstown",,,"Mar 31, 2024",Adult Transthoracic,,,,,,,,,,,,,,,,,,,,
162,163,"Medical Practices of Antietam, LLC dba Meritus Hagerstown Heart",39.61943,-77.697234,granted,1733 Howell Rd,,Hagerstown,MD,21740,USA,,,,nuclear,"www.google.com/search?q=Medical+Practices+of+Antietam,+LLC+dba+Meritus+Hagerstown+Heart","Medical Practices of Antietam, LLC dba Meritus Hagerstown Heart Hagerstown",,,,,,,"Jul 31, 2023","Myocardial Perfusion Imaging, Positron Emission Tomography (PET)",,,,,,,,,,,,,,,,
163,164,MedStar Cardiology Associates,39.154266,-77.056978,granted,18101 Prince Philip Drive,Suite 4100,Olney,MD,20832,USA,,www.heartcapc.com,,echo,,MedStar Cardiology Associates Olney,,,"Dec 30, 2022","Adult Stress, Adult Transthoracic",,,,,,,,,,,,,,,,,,,,
164,165,MedStar Chevy Chase,38.962577,-77.08666,granted,"5454 Wisconsin Ave, STE 1100",,ChevyChase,MD,20815,USA,,,,vascular,www.google.com/search?q=MedStar+Chevy+Chase,MedStar Chevy Chase ChevyChase,,,,,,,,,"Apr 30, 2023","Extracranial Cerebrovascular Testing, Peripheral Arterial Testing, Peripheral Venous Testing",,,,,,,,,,,,,,
165,166,MedStar Franklin Square Medical Center,39.216153,-76.610624,granted,9000 Franklin Square Hospital Center,,Baltimore,MD,21237,USA,,,,echo,www.google.com/search?q=MedStar+Franklin+Square+Medical+Center,MedStar Franklin Square Medical Center Baltimore,,,"May 31, 2025",Adult Transthoracic,,,,,,,,,,,,,,,,,,,,
166,167,Medstar Good Samaritan Hospital,39.359417,-76.588628,granted,5601 Loch Raven Boulevard,,Baltimore,MD,21239,USA,,www.goodsam-md.org,,echo,,Medstar Good Samaritan Hospital Baltimore,,,"Aug 29, 2022 | Jul 31, 2025","Adult Stress, Adult Transesophageal | Adult Transthoracic",,,,,,,,,,,,,,,,,,,,
167,168,MedStar Harbor Hospital,39.251349,-76.615048,granted,3001 South Hanover St,,Baltimore,MD,21225,USA,,,,echo,www.google.com/search?q=MedStar+Harbor+Hospital,MedStar Harbor Hospital Baltimore,,,"Dec 30, 2022",Adult Transthoracic,,,,,,,,,,,,,,,,,,,,
168,169,MedStar Health at Lesiure World Boulevard,39.107929,-77.072867,granted,3305 N. Leisure World Boulevard,,Silver Spring,MD,20906,USA,,www.heartcapc.com,,echo,,MedStar Health at Lesiure World Boulevard Silver Spring,,,"Dec 30, 2022",Adult Transthoracic,,,,,,,,,,,,,,,,,,,,
169,170,MedStar Health Cardiology Associates,39.107929,-77.072867,granted,3305 N Leisure World Blvd,,Silver Spring,MD,20906,USA,,,,vascular,www.google.com/search?q=MedStar+Health+Cardiology+Associates,MedStar Health Cardiology Associates Silver Spring,,,,,,,,,"Sep 30, 2024",Extracranial Cerebrovascular Testing,,,,,,,,,,,,,,
170,171,MedStar Health Cardiology Associates,39.154266,-77.056978,granted,18101 Prince Philip Drive,Suite 4100,Olney,MD,20832,USA,,,,vascular,www.google.com/search?q=MedStar+Health+Cardiology+Associates,MedStar Health Cardiology Associates Olney,,,,,,,,,"Sep 30, 2024","Extracranial Cerebrovascular Testing, Peripheral Arterial Testing",,,,,,,,,,,,,,
171,172,MedStar Health Cardiology Associates,39.154266,-77.056978,granted,18101 Prince Phillip Drive,Suite 4100,Olney,MD,20832,USA,,,,nuclear,www.google.com/search?q=MedStar+Health+Cardiology+Associates,MedStar Health Cardiology Associates Olney,,,,,,,"Oct 31, 2025",Myocardial Perfusion Imaging,,,,,,,,,,,,,,,,
172,173,"MedStar Health Cardiology Associates, Annapolis",38.991055,-76.536961,multigranted,2002 Medical Parkway,Suite 500,Annapolis,MD,21401,USA,,www.medstarhealth.org,,"nuclear, echo",,"MedStar Health Cardiology Associates, Annapolis Annapolis",,,"Aug 31, 2024",Adult Transthoracic,,,"Nov 30, 2022",Myocardial Perfusion Imaging,,,,,,,,,,,,,,,,
173,174,"MedStar Health Cardiology Associates, Bowie",38.946619,-76.720176,granted,4175 Hanson Court,Suite 100,Bowie,MD,20716,USA,,www.medstarhealth.org,,nuclear,,"MedStar Health Cardiology Associates, Bowie Bowie",,,,,,,"Nov 30, 2022",Myocardial Perfusion Imaging,,,,,,,,,,,,,,,,
174,175,"MedStar Health Cardiology Associates, Brandywine",38.637872,-76.898737,granted,13950 Brandywine Road,,Brandywine,MD,20613,USA,,www.medstarhealth.org,,nuclear,,"MedStar Health Cardiology Associates, Brandywine Brandywine",,,,,,,"Nov 30, 2022",Myocardial Perfusion Imaging,,,,,,,,,,,,,,,,
175,176,"MedStar Health Cardiology Associates, Kent Island",38.977283,-76.286045,multigranted,1630 Main Street,Suite 208,Chester,MD,21619,USA,,www.medstarhealth.org,,"nuclear, echo",,"MedStar Health Cardiology Associates, Kent Island Chester",,,"Aug 31, 2024",Adult Transthoracic,,,"Nov 30, 2022",Myocardial Perfusion Imaging,,,,,,,,,,,,,,,,
176,177,"MedStar Health Cardiology Associates, Leonardtown",38.313646,-76.630401,granted,23507 Hollywood Road,Suite #2,Leonardtown,MD,20650,USA,,www.medstarhealth.org,,nuclear,,"MedStar Health Cardiology Associates, Leonardtown Leonardtown",,,,,,,"Nov 30, 2022",Myocardial Perfusion Imaging,,,,,,,,,,,,,,,,
177,178,MedStar Medical Group Cardiology,39.328639,-76.614944,granted,3333 N. Calvert St. ste. 500,,Baltimore,MD,21218,USA,,,,nuclear,www.google.com/search?q=MedStar+Medical+Group+Cardiology,MedStar Medical Group Cardiology Baltimore,,,,,,,"Aug 31, 2023",Myocardial Perfusion Imaging,,,,,,,,,,,,,,,,
178,179,MedStar Medical Group Cardiology,39.350949,-76.477519,granted,9105 Franklin Square Drive,Suite 209,Baltimore,MD,21237,USA,,,,nuclear,www.google.com/search?q=MedStar+Medical+Group+Cardiology,MedStar Medical Group Cardiology Baltimore,,,,,,,"Aug 31, 2023",Myocardial Perfusion Imaging,,,,,,,,,,,,,,,,
179,180,MedStar Montgomery Hospital Center,39.154266,-77.056978,granted,18109 Prince Philip Drive,Suite B 100,Olney,MD,20832,USA,,,,vascular,www.google.com/search?q=MedStar+Montgomery+Hospital+Center,MedStar Montgomery Hospital Center Olney,,,,,,,,,"Apr 30, 2023","Extracranial Cerebrovascular Testing, Peripheral Arterial Testing, Peripheral Venous Testing",,,,,,,,,,,,,,
180,181,Medstar Montgomery Medical Center,39.153699,-77.05651,granted,18101 Prince Philip Drive,,Olney,MD,20832,USA,,www.medstarmontgomery.org,,echo,,Medstar Montgomery Medical Center Olney,,,"Mar 31, 2024","Adult Transesophageal, Adult Transthoracic",,,,,,,,,,,,,,,,,,,,
181,182,MedStar Shah Medical Group,38.744688,-76.877165,granted,7704 Matapeake Business Dr 325,,Brandywine,MD,20613,USA,,,,nuclear,www.google.com/search?q=MedStar+Shah+Medical+Group,MedStar Shah Medical Group Brandywine,,,,,,,"Jun 30, 2024","Equilibrium Radionuclide Angiography, Myocardial Perfusion Imaging",,,,,,,,,,,,,,,,
182,183,MedStar Shah Medical Group,38.327732,-76.552152,granted,24035 Three Notch Rd,,Hollywood,MD,20636,USA,,www.shah-associates.com,,nuclear,,MedStar Shah Medical Group Hollywood,,,,,,,"Feb 29, 2024",Myocardial Perfusion Imaging,,,,,,,,,,,,,,,,
183,184,MedStar Shah Medical Group,38.493693,-76.771738,granted,37767 Market Drive Second Floor,,Charlotte Hall,MD,20622,USA,,www.shah-associates.com,,nuclear,,MedStar Shah Medical Group Charlotte Hall,,,,,,,"Feb 29, 2024","Equilibrium Radionuclide Angiography, Myocardial Perfusion Imaging",,,,,,,,,,,,,,,,
184,185,Medstar Shah Medical Group,38.618583,-76.919637,granted,10 St. Patrick’s Drive,,Waldorf,MD,20603,USA,,www.shah-associates.com,,nuclear,,Medstar Shah Medical Group Waldorf,,,,,,,"Feb 29, 2024",Myocardial Perfusion Imaging,,,,,,,,,,,,,,,,
185,186,MedStar Southern Maryland Hospital,38.75025,-76.874997,granted,7503 Surratts Road,,Clinton,MD,20735,USA,,www.southernmarylandhospital.com,,echo,,MedStar Southern Maryland Hospital Clinton,,,"Jul 31, 2025",Adult Transthoracic,,,,,,,,,,,,,,,,,,,,
186,187,MedStar Southern Maryland Hospital Center,38.750462,-76.875416,granted,7501 Surrats Road,,Clinton,MD,20723,USA,,,,vascular,www.google.com/search?q=MedStar+Southern+Maryland+Hospital+Center,MedStar Southern Maryland Hospital Center Clinton,,,,,,,,,"Apr 30, 2023","Extracranial Cerebrovascular Testing, Peripheral Arterial Testing, Peripheral Venous Testing",,,,,,,,,,,,,,
187,188,MedStar St.Marys Hospital,38.299239,-76.640383,granted,"25500 Point Lookout Road, Suite 200",,Leonardtown,MD,20650,USA,,,,vascular,www.google.com/search?q=MedStar+St.Marys+Hospital,MedStar St.Marys Hospital Leonardtown,,,,,,,,,"Apr 30, 2023","Extracranial Cerebrovascular Testing, Peripheral Arterial Testing, Peripheral Venous Testing",,,,,,,,,,,,,,
188,189,MedStar Union Memorial Hospital,39.330251,-76.614175,granted,201 East University Parkway,,Baltimore,MD,21218,USA,,,,echo,www.google.com/search?q=MedStar+Union+Memorial+Hospital,MedStar Union Memorial Hospital Baltimore,,,"Jul 31, 2025",Adult Transthoracic,,,,,,,,,,,,,,,,,,,,
189,190,MedStar Union Memorial Hospital,39.330101,-76.613942,granted,201 East University Parkway,,Baltimore,MD,21218,USA,,unionmemorial.org,,vascular,,MedStar Union Memorial Hospital Baltimore,,,,,,,,,"Aug 31, 2024","Extracranial Cerebrovascular Testing, Peripheral Arterial Testing, Peripheral Venous Testing, Visceral Vascular Testing",,,,,,,,,,,,,,
190,191,Medstar Vascular Lab at the Woodholme Campus,39.391222,-76.735402,granted,1838 Green Tree Rd Suite 245,,Pikesville,MD,21208,USA,,,,vascular,www.google.com/search?q=Medstar+Vascular+Lab+at+the+Woodholme+Campus,Medstar Vascular Lab at the Woodholme Campus Pikesville,,,,,,,,,"Sep 30, 2024","Extracranial Cerebrovascular Testing, Peripheral Venous Testing",,,,,,,,,,,,,,
191,192,Medstar Vascular Surgery at Franklin Square,39.35039,-76.47838,granted,9101 Franklin Square Drive Medical Arts Building 212,,Baltimore,MD,21237,USA,,,,vascular,www.google.com/search?q=Medstar+Vascular+Surgery+at+Franklin+Square,Medstar Vascular Surgery at Franklin Square Baltimore,,,,,,,,,"Sep 30, 2024","Extracranial Cerebrovascular Testing, Peripheral Arterial Testing, Peripheral Venous Testing, Visceral Vascular Testing",,,,,,,,,,,,,,
192,193,Medstar Vascular Surgery at Good Samaritan,39.359417,-76.588628,granted,5601 Loch Raven Boulevard,Smyth Building #303,Baltimore,MD,21239,USA,,,,vascular,www.google.com/search?q=Medstar+Vascular+Surgery+at+Good+Samaritan,Medstar Vascular Surgery at Good Samaritan Baltimore,,,,,,,,,"Sep 30, 2024","Extracranial Cerebrovascular Testing, Peripheral Arterial Testing, Peripheral Venous Testing, Visceral Vascular Testing",,,,,,,,,,,,,,
193,194,Medstar Vascular Surgery at Harbor Hospital,39.25186,-76.61392,granted,3001 Hanover Street Outpatient Center 216,,Baltimore,MD,21225,USA,,,,vascular,www.google.com/search?q=Medstar+Vascular+Surgery+at+Harbor+Hospital,Medstar Vascular Surgery at Harbor Hospital Baltimore,,,,,,,,,"Sep 30, 2024","Extracranial Cerebrovascular Testing, Peripheral Arterial Testing, Peripheral Venous Testing, Visceral Vascular Testing",,,,,,,,,,,,,,
194,195,Medstar Vascular Surgery at the Bel Air Medical Campus,39.502858,-76.325884,granted,12 Medstar Blvd,,Bel Air,MD,21015,USA,,,,vascular,www.google.com/search?q=Medstar+Vascular+Surgery+at+the+Bel+Air+Medical+Campus,Medstar Vascular Surgery at the Bel Air Medical Campus Bel Air,,,,,,,,,"Sep 30, 2024","Extracranial Cerebrovascular Testing, Peripheral Arterial Testing, Peripheral Venous Testing",,,,,,,,,,,,,,
195,196,Medstar Vascular Surgery at Union Memorial Hospital,39.328639,-76.614944,granted,"3333 N. Calvert Street Jpb, Suite 325",,Baltimore,MD,21218,USA,,,,vascular,www.google.com/search?q=Medstar+Vascular+Surgery+at+Union+Memorial+Hospital,Medstar Vascular Surgery at Union Memorial Hospital Baltimore,,,,,,,,,"Sep 30, 2024","Extracranial Cerebrovascular Testing, Peripheral Arterial Testing, Peripheral Venous Testing, Visceral Vascular Testing",,,,,,,,,,,,,,
196,197,Mercy Medical Center,39.294421,-76.614149,granted,301 St. Paul Place,5th Floor,Baltimore,MD,21202,USA,,,,vascular,www.google.com/search?q=Mercy+Medical+Center,Mercy Medical Center Baltimore,,,,,,,,,"Mar 31, 2025","Extracranial Cerebrovascular Testing, Peripheral Arterial Testing, Peripheral Venous Testing, Visceral Vascular Testing",,,,,,,,,,,,,,
197,198,Mercy Medical Center,39.294169,-76.613656,granted,345 St. Paul Place,,Baltimore,MD,21202,USA,,www.mdmercy.com,,echo,,Mercy Medical Center Baltimore,,,"Aug 31, 2025",Adult Transthoracic,,,,,,,,,,,,,,,,,,,,
198,199,Mercy Vascular Center at Glen Burnie,39.137913,-76.600181,granted,7927 Ritchie Hwy,,Glen Burnie,MD,21060,USA,,,,vascular,www.google.com/search?q=Mercy+Vascular+Center+at+Glen+Burnie,Mercy Vascular Center at Glen Burnie Glen Burnie,,,,,,,,,"Mar 31, 2025","Extracranial Cerebrovascular Testing, Peripheral Arterial Testing, Peripheral Venous Testing",,,,,,,,,,,,,,
199,200,Mercy Vascular Center at Lutherville,39.429406,-76.621103,granted,1734 York Road,,Lutherville,MD,21093,USA,,,,vascular,www.google.com/search?q=Mercy+Vascular+Center+at+Lutherville,Mercy Vascular Center at Lutherville Lutherville,,,,,,,,,"Mar 31, 2025","Extracranial Cerebrovascular Testing, Peripheral Arterial Testing, Peripheral Venous Testing",,,,,,,,,,,,,,
200,201,Mercy Vascular Center at Overlea,39.365467,-76.51858,granted,7602 Belair Road,,Baltimore,MD,21236,USA,,,,vascular,www.google.com/search?q=Mercy+Vascular+Center+at+Overlea,Mercy Vascular Center at Overlea Baltimore,,,,,,,,,"Mar 31, 2025","Extracranial Cerebrovascular Testing, Peripheral Arterial Testing, Peripheral Venous Testing",,,,,,,,,,,,,,
201,202,Mercy Vascular Center at Reisterstown,39.465167,-76.827779,granted,114 Business Center Drive,,Reisterstown,MD,21136,USA,,,,vascular,www.google.com/search?q=Mercy+Vascular+Center+at+Reisterstown,Mercy Vascular Center at Reisterstown Reisterstown,,,,,,,,,"Mar 31, 2025","Extracranial Cerebrovascular Testing, Peripheral Arterial Testing, Peripheral Venous Testing",,,,,,,,,,,,,,
202,203,"Metropolitan Cardiovascular Consultants, LLC",39.032413,-76.914007,granted,10756 Rhode Island Avenue,,Beltsville,MD,20705,USA,,,,nuclear,"www.google.com/search?q=Metropolitan+Cardiovascular+Consultants,+LLC","Metropolitan Cardiovascular Consultants, LLC Beltsville",,,,,,,"May 31, 2024",Myocardial Perfusion Imaging,,,,,,,,,,,,,,,,
203,204,Mid-Atlantic Surgical Group Vascular Lab,38.370688,-75.51874,granted,6507 Deer Pointe Dr,,Salisbury,MD,21801,USA,,,,vascular,www.google.com/search?q=Mid-Atlantic+Surgical+Group+Vascular+Lab,Mid-Atlantic Surgical Group Vascular Lab Salisbury,,,,,,,,,"Apr 30, 2024",Extracranial Cerebrovascular Testing,,,,,,,,,,,,,,
204,205,MMG II CCA GoodSamaritan,39.359417,-76.588628,granted,5601 Loch Raven Blvd.,RMB Ste 206,Baltimore,MD,21239,USA,,,,echo,www.google.com/search?q=MMG+II+CCA+GoodSamaritan,MMG II CCA GoodSamaritan Baltimore,,,"Jun 30, 2023",Adult Transthoracic,,,,,,,,,,,,,,,,,,,,
205,206,"Mohammad Sarfarazi, M.D., Llc",38.991635,-76.877997,granted,7525 Greenway Center Drive,Suite 309,Greenbelt,MD,20770,USA,,,,nuclear,"www.google.com/search?q=Mohammad+Sarfarazi,+M.D.,+Llc","Mohammad Sarfarazi, M.D., Llc Greenbelt",,,,,,,"May 31, 2024","Equilibrium Radionuclide Angiography, Myocardial Perfusion Imaging",,,,,,,,,,,,,,,,
206,207,"Montgomery Cardiology, LLC",39.092393,-77.210114,granted,10110 Molecular Drive,Suite 200,Rockville,MD,20850,USA,,,,echo,"www.google.com/search?q=Montgomery+Cardiology,+LLC","Montgomery Cardiology, LLC Rockville",,,"Aug 31, 2025",Adult Transthoracic,,,,,,,,,,,,,,,,,,,,
207,208,Montgomery County Regional Outpatient Center,39.101229,-77.211433,granted,"9850 Key West Avenue, 4th Floor",,Rockville,MD,20850,USA,,,,pediatric_echo,www.google.com/search?q=Montgomery+County+Regional+Outpatient+Center,Montgomery County Regional Outpatient Center Rockville,,,,,,,,,,,"Jul 31, 2023","Pediatric Transthoracic, Fetal",,,,,,,,,,,,
208,209,Mount Washington Pediatrics Hospital,39.362029,-76.653551,granted,1708 W. Rogers Ave.,,Baltimore,MD,21209,USA,,,,pediatric_echo,www.google.com/search?q=Mount+Washington+Pediatrics+Hospital,Mount Washington Pediatrics Hospital Baltimore,,,,,,,,,,,"Sep 30, 2023",Pediatric Transthoracic,,,,,,,,,,,,
209,210,Multi Specialty and Transplant Clinic,39.28827,-76.62108,granted,16 S. Eutaw St,James T. Frenkil Bldg.,Baltimore,MD,21201,USA,,,,echo,www.google.com/search?q=Multi+Specialty+and+Transplant+Clinic,Multi Specialty and Transplant Clinic Baltimore,,,"Sep 30, 2024",Adult Transthoracic,,,,,,,,,,,,,,,,,,,,
210,211,National Institutes of Health,39.002989,-77.102798,granted,Building 10 Center Drive CRC,5NE - 1436,Bethesda,MD,20892,USA,,,,echo,www.google.com/search?q=National+Institutes+of+Health,National Institutes of Health Bethesda,,,"Sep 30, 2025",Adult Transthoracic,,,,,,,,,,,,,,,,,,,,
211,212,Northwest Hospital,39.359208,-76.782944,granted,5401 Old Court Road,,Randallstown,MD,21133,USA,,,,echo,www.google.com/search?q=Northwest+Hospital,Northwest Hospital Randallstown,,,"Apr 30, 2024",Adult Transthoracic,,,,,,,,,,,,,,,,,,,,
212,213,Nuclear Medicine Diagnostics,39.347424,-76.475599,granted,6830 Hospital Drive,Suite 201,Baltimore,MD,21237,USA,,,,nuclear,www.google.com/search?q=Nuclear+Medicine+Diagnostics,Nuclear Medicine Diagnostics Baltimore,,,,,,,"May 31, 2023",Myocardial Perfusion Imaging,,,,,,,,,,,,,,,,
213,214,O’Donnell Vein and Laser,38.972891,-76.269749,granted,166 Defense Highway,Suite 101,Annapolis,MD,21401,USA,,veinandwellness.com,,vascular,,O’Donnell Vein and Laser Annapolis,,,,,,,,,"Nov 30, 2024",Peripheral Venous Testing,,,,,,,,,,,,,,
214,215,O’onnell Vein and Laser,38.760098,-76.066396,granted,499 Idlewild Avenue,,Easton,MD,21601,USA,,www.veinandmedicalspa.com,,vascular,,O’onnell Vein and Laser Easton,,,,,,,,,"Nov 30, 2024",Peripheral Venous Testing,,,,,,,,,,,,,,
215,216,"Olney Medical Group, LLC",39.156046,-77.066799,granted,3411 Olandwood Ct.,Suite 105,Olney,MD,20832,USA,,www.olneymedicalgroup.net/,,nuclear,,"Olney Medical Group, LLC Olney",,,,,,,"Dec 31, 2023",Myocardial Perfusion Imaging,,,,,,,,,,,,,,,,
216,217,"Padder Health Services, LLC",39.210959,-76.886009,granted,10792 Hickory Ridge Road,,Columbia,MD,21044,USA,,,,nuclear,"www.google.com/search?q=Padder+Health+Services,+LLC","Padder Health Services, LLC Columbia",,,,,,,"Nov 30, 2022",Myocardial Perfusion Imaging,,,,,,,,,,,,,,,,
217,218,"Padder Health Services, LLC (Columbia)",39.231828,-76.815607,multigranted,8850 Columbia 100 Parkway,,Columbia,MD,21045,USA,,,,"nuclear, echo","www.google.com/search?q=Padder+Health+Services,+LLC+(Columbia)","Padder Health Services, LLC (Columbia) Columbia",,,"Sep 30, 2024",Adult Transthoracic,,,"Jun 30, 2024",Myocardial Perfusion Imaging,,,,,,,,,,,,,,,,
218,219,"Padder Health Services, LLC (Hagerstown)",39.622981,-77.681445,multigranted,11110 Medical Campus Road,Suite #223,Hagerstown,MD,21742,USA,,,,"nuclear, echo","www.google.com/search?q=Padder+Health+Services,+LLC+(Hagerstown)","Padder Health Services, LLC (Hagerstown) Hagerstown",,,"Sep 30, 2024",Adult Transthoracic,,,"Jun 30, 2024",Myocardial Perfusion Imaging,,,,,,,,,,,,,,,,
219,220,"Padder Health Services, LLC (Laurel)",39.083911,-76.882967,multigranted,7350 Van Dusen Road,Suite 130,Laurel,MD,20707,USA,,,,"nuclear, echo","www.google.com/search?q=Padder+Health+Services,+LLC+(Laurel)","Padder Health Services, LLC (Laurel) Laurel",,,"Sep 30, 2024",Adult Transthoracic,,,"Jun 30, 2024",Myocardial Perfusion Imaging,,,,,,,,,,,,,,,,
220,221,"Pankaj Lal, MD, PC",39.14172,-77.217522,granted,818 West Diamond Avenue,Suite 240,Gaithersburg,MD,20878,USA,,,,nuclear,"www.google.com/search?q=Pankaj+Lal,+MD,+PC","Pankaj Lal, MD, PC Gaithersburg",,,,,,,"May 31, 2024",Myocardial Perfusion Imaging,,,,,,,,,,,,,,,,
221,222,Patel Ramanan and Associates,38.614317,-76.918846,granted,"3575 Old Washington Rd., Suite A",,Waldorf,MD,20602,USA,,,,vascular,www.google.com/search?q=Patel+Ramanan+and+Associates,Patel Ramanan and Associates Waldorf,,,,,,,,,"Feb 28, 2025",Peripheral Arterial Testing,,,,,,,,,,,,,,
222,223,Patel Ramanan and Associates Echocardiography Laboratory,38.614688,-76.918466,granted,3575 Old Washington Rd,Suite A,Waldorf,MD,20602,USA,,patelramananecho.com,,echo,,Patel Ramanan and Associates Echocardiography Laboratory Waldorf,,,"Sep 29, 2022",Adult Transthoracic,,,,,,,,,,,,,,,,,,,,
223,224,"Patuxent Cardiology Associates, LLC.",38.617454,-76.613412,granted,3995 Old Town Road,,Huntingtown,MD,20639,USA,,,,nuclear,"www.google.com/search?q=Patuxent+Cardiology+Associates,+LLC.","Patuxent Cardiology Associates, LLC. Huntingtown",,,,,,,"Jul 31, 2023",Myocardial Perfusion Imaging,,,,,,,,,,,,,,,,
224,225,"Peninsula Imaging, L.L.C.",38.364256,-75.548903,granted,1655 Woodbrooke Drive,Suite 101,Salisbury,MD,21804,USA,,,,vascular,"www.google.com/search?q=Peninsula+Imaging,+L.L.C.","Peninsula Imaging, L.L.C. Salisbury",,,,,,,,,"May 31, 2025","Extracranial Cerebrovascular Testing, Peripheral Arterial Testing, Peripheral Venous Testing",,,,,,,,,,,,,,
225,226,Peninsula Regional Medical Center,38.363068,-75.599489,granted,100 E. Carroll Street,,Salisbury,MD,21801,USA,,,,echo,www.google.com/search?q=Peninsula+Regional+Medical+Center,Peninsula Regional Medical Center Salisbury,,,"May 31, 2025",Adult Transthoracic,,,,,,,,,,,,,,,,,,,,
226,227,Premier Vascular Center of Maryland,39.367251,-76.580822,granted,7801 York Road,Suite 240,Towson,MD,21204,USA,,,,vascular,www.google.com/search?q=Premier+Vascular+Center+of+Maryland,Premier Vascular Center of Maryland Towson,,,,,,,,,"Aug 31, 2023","Extracranial Cerebrovascular Testing, Peripheral Arterial Testing, Peripheral Venous Testing",,,,,,,,,,,,,,
227,228,Prince George’s County Regional Outpatient Center,38.820212,-76.845908,granted,"2900 N. Campus Way, Suite 103",,Lanham,MD,20706,USA,,,,pediatric_echo,www.google.com/search?q=Prince+George’s+County+Regional+Outpatient+Center,Prince George’s County Regional Outpatient Center Lanham,,,,,,,,,,,"Jul 31, 2023",Pediatric Transthoracic,,,,,,,,,,,,
228,229,"Radhey S. Murarkan, MD, PC",39.073943,-77.136481,granted,50 West Edmonston Drive,Suite 604,Rockville,MD,20852,USA,,,,nuclear,"www.google.com/search?q=Radhey+S.+Murarkan,+MD,+PC","Radhey S. Murarkan, MD, PC Rockville",,,,,,,"Apr 01, 2023",Myocardial Perfusion Imaging,,,,,,,,,,,,,,,,
229,230,"Ramesh Agarwal, MD, PA",38.363101,-75.598007,granted,145 East Carroll Street,Unit 103,Salisbury,MD,21801,USA,,,,nuclear,"www.google.com/search?q=Ramesh+Agarwal,+MD,+PA","Ramesh Agarwal, MD, PA Salisbury",,,,,,,"Sep 30, 2023",Myocardial Perfusion Imaging,,,,,,,,,,,,,,,,
230,231,Riverside Medical Diagnostic Center,38.967455,-76.918175,granted,6504 Kenilworth Avenue,Suite 200,Riverdale,MD,20737,USA,,,,nuclear,www.google.com/search?q=Riverside+Medical+Diagnostic+Center,Riverside Medical Diagnostic Center Riverdale,,,,,,,"Oct 31, 2024",Myocardial Perfusion Imaging,,,,,,,,,,,,,,,,
231,232,Rockville Internal Medicine Group,39.063328,-77.160858,granted,1201 Seven Locks Road,Suite 111,Rockville,MD,20854,USA,,www.rimgmd.com/,,echo,,Rockville Internal Medicine Group Rockville,,,"May 31, 2024",Adult Transthoracic,,,,,,,,,,,,,,,,,,,,
232,233,"Rockville Internal Medicine Group, LLC",39.063328,-77.160858,granted,1201 Seven Locks Road,Suite 111,Rockville,MD,20854,USA,,www.rimgmd.com/,,vascular,,"Rockville Internal Medicine Group, LLC Rockville",,,,,,,,,"Oct 31, 2023","Extracranial Cerebrovascular Testing, Peripheral Arterial Testing",,,,,,,,,,,,,,
233,234,"SD Cardiology Associates, LLC",39.268443,-76.705445,granted,716 Maiden Choice Lane,Suite 202,Catonsville,MD,21228,USA,,www.americancardio.com,,nuclear,,"SD Cardiology Associates, LLC Catonsville",,,,,,,"May 31, 2024",Myocardial Perfusion Imaging,,,,,,,,,,,,,,,,
234,235,Seven Square Professional Building,39.347365,-76.472499,granted,9110 Philadelphia Road Ste 300,,Rosedale,MD,21237,USA,,,,echo,www.google.com/search?q=Seven+Square+Professional+Building,Seven Square Professional Building Rosedale,,,"Aug 31, 2024",Adult Transthoracic,,,,,,,,,,,,,,,,,,,,
235,236,Shady Grove Adventist Hospital,39.098046,-77.201027,multigranted,9901 Medical Center Drive,,Rockville,MD,20850,USA,,,,"echo, vascular",www.google.com/search?q=Shady+Grove+Adventist+Hospital,Shady Grove Adventist Hospital Rockville,,,"Nov 30, 2022",Adult Transthoracic,,,,,"Jul 31, 2023","Extracranial Cerebrovascular Testing, Peripheral Arterial Testing, Peripheral Venous Testing",,,,,,,,,,,,,,
236,237,"Sherman Kahan, M.D., P.A.",39.449835,-77.404023,granted,74 Thomas Johnson Drive,,Frederick,MD,21702,USA,,,,nuclear,"www.google.com/search?q=Sherman+Kahan,+M.D.,+P.A.","Sherman Kahan, M.D., P.A. Frederick",,,,,,,"Jan 31, 2025","Myocardial Perfusion Imaging, Positron Emission Tomography (PET)",,,,,,,,,,,,,,,,
237,238,"Sherman Kahan, MD, PA",39.449835,-77.404023,granted,74 Thomas Johnson Drive,,Frederick,MD,21702,USA,,,,echo,"www.google.com/search?q=Sherman+Kahan,+MD,+PA","Sherman Kahan, MD, PA Frederick",,,"Nov 30, 2023",Adult Transthoracic,,,,,,,,,,,,,,,,,,,,
238,239,Sinai Hospital,39.354664,-76.66229,granted,2401 West Belvedere Ave,,Baltimore,MD,21215,USA,,,,vascular,www.google.com/search?q=Sinai+Hospital,Sinai Hospital Baltimore,,,,,,,,,"Jun 30, 2023","Extracranial Cerebrovascular Testing, Peripheral Venous Testing",,,,,,,,,,,,,,
239,240,"Sridhar Chatrathi, MD, FACC, FSCAI, FACP",38.992278,-76.875687,multigranted,7500 Hanover Parkway,Suite 105,Greenbelt,MD,20770,USA,,sridharchatrathi.md.com/,,"nuclear, echo",,"Sridhar Chatrathi, MD, FACC, FSCAI, FACP Greenbelt",,,"Aug 31, 2024",Adult Transthoracic,,,"Jan 31, 2024",Myocardial Perfusion Imaging,,,,,,,,,,,,,,,,
240,241,St Mary’s ROC at Charlotte Hall,38.49119,-76.775306,granted,"29955 Three Notch Road, Suite 202",,Charlotte Hall,MD,20622,USA,,,,pediatric_echo,www.google.com/search?q=St+Mary’s+ROC+at+Charlotte+Hall,St Mary’s ROC at Charlotte Hall Charlotte Hall,,,,,,,,,,,"Jul 31, 2023",Pediatric Transthoracic,,,,,,,,,,,,
241,242,St. Agnes Healthcare,39.272628,-76.670816,granted,900 Caton Ave.,,Baltimore,MD,21229,USA,,www.stagnes.org,,echo,,St. Agnes Healthcare Baltimore,,,"Aug 31, 2024",Adult Transthoracic,,,,,,,,,,,,,,,,,,,,
242,243,St. Joseph’s Cardiovascular Associates,39.386546,-76.61267,granted,7505 Osler Dr Suite 101,,Towson,MD,21204,USA,,,,echo,www.google.com/search?q=St.+Joseph’s+Cardiovascular+Associates,St. Joseph’s Cardiovascular Associates Towson,,,"Aug 31, 2024",Adult Transthoracic,,,,,,,,,,,,,,,,,,,,
243,244,Suburban Hospital Johns Hopkins Medicine,38.997251,-77.10922,granted,8600 Old Georgetown Road,,Bethesda,MD,20814,USA,,,,echo,www.google.com/search?q=Suburban+Hospital+Johns+Hopkins+Medicine,Suburban Hospital Johns Hopkins Medicine Bethesda,,,"Nov 30, 2024","Adult Transesophageal, Adult Transthoracic",,,,,,,,,,,,,,,,,,,,
244,245,"Syed Wasimul Haque, MD, PA",39.424398,-77.413563,granted,700 Montclaire Ave. Suite B,,Frederick,MD,21701,USA,,www.americancardio.com,,nuclear,,"Syed Wasimul Haque, MD, PA Frederick",,,,,,,"May 31, 2024",Myocardial Perfusion Imaging,,,,,,,,,,,,,,,,
245,246,The Center For Genetic Muscle Disorders,39.298735,-76.594153,granted,707 North Broadway,,Baltimore,MD,21205,USA,,,,pediatric_echo,www.google.com/search?q=The+Center+For+Genetic+Muscle+Disorders,The Center For Genetic Muscle Disorders Baltimore,,,,,,,,,,,"Sep 30, 2023",Pediatric Transthoracic,,,,,,,,,,,,
246,247,The Heart Center,38.984054,-76.999681,granted,"7610 Carroll Ave, Suite 300",,Takoma Park,MD,20912,USA,,,,nuclear,www.google.com/search?q=The+Heart+Center,The Heart Center Takoma Park,,,,,,,"May 31, 2024",Myocardial Perfusion Imaging,,,,,,,,,,,,,,,,
247,248,The Heart Center at Lutherville,39.429406,-76.621103,granted,1734 York Road,,Lutherville,MD,21093,USA,,,,echo,www.google.com/search?q=The+Heart+Center+at+Lutherville,The Heart Center at Lutherville Lutherville,,,"Jan 31, 2023","Adult Stress, Adult Transthoracic",,,,,,,,,,,,,,,,,,,,
248,249,The Heart Center at Overlea,39.365467,-76.51858,granted,7602 Belair Road,,Baltimore,MD,21236,USA,,,,echo,www.google.com/search?q=The+Heart+Center+at+Overlea,The Heart Center at Overlea Baltimore,,,"Jan 31, 2023","Adult Stress, Adult Transthoracic",,,,,,,,,,,,,,,,,,,,
249,250,The Heart Center of Northern Anne Arundel County,39.149274,-76.631418,granted,1417 Madison Park Drive,,Glen Burnie,MD,21061,USA,,,,echo,www.google.com/search?q=The+Heart+Center+of+Northern+Anne+Arundel+County,The Heart Center of Northern Anne Arundel County Glen Burnie,,,"Feb 28, 2023",Adult Transthoracic,,,,,,,,,,,,,,,,,,,,
250,251,The Heart Center of Northern Anne Arundel County,39.149274,-76.631418,granted,1417 Madison Park Drive,,Glen Burnie,MD,21061,USA,,,,nuclear,www.google.com/search?q=The+Heart+Center+of+Northern+Anne+Arundel+County,The Heart Center of Northern Anne Arundel County Glen Burnie,,,,,,,"Sep 30, 2023","Equilibrium Radionuclide Angiography, Myocardial Perfusion Imaging",,,,,,,,,,,,,,,,
251,252,The Johns Hopkins Medical Institution,39.297502,-76.590807,granted,600 North Wolfe Street,,Baltimore,MD,21287,USA,,,,echo,www.google.com/search?q=The+Johns+Hopkins+Medical+Institution,The Johns Hopkins Medical Institution Baltimore,,,"Feb 28, 2023","Adult Stress, Adult Transesophageal, Adult Transthoracic",,,,,,,,,,,,,,,,,,,,
252,253,The Johns Hopkins Medical Institution,39.295292,-76.591614,granted,1800 Orleans Street,Bloomberg M2232,Baltimore,MD,21287,USA,,,,pediatric_echo,www.google.com/search?q=The+Johns+Hopkins+Medical+Institution,The Johns Hopkins Medical Institution Baltimore,,,,,,,,,,,"Sep 30, 2023","Pediatric Transesophageal, Pediatric Transthoracic, Fetal",,,,,,,,,,,,
253,254,The Johns Hopkins Neurocirculatory Physiology Laboratory,39.29553,-76.592887,granted,"Phipps Building 455, 600 N. Wolfe Street",,Baltimore,MD,21287,USA,,www.hopkinsneuro.org/cerebrovascular/make_an_appointment.cfm,,vascular,,The Johns Hopkins Neurocirculatory Physiology Laboratory Baltimore,,,,,,,,,"Feb 28, 2025",Intracranial Cerebrovascular Testing,,,,,,,,,,,,,,
254,255,The Vascular Laboratory at Kent Island,38.977283,-76.286045,granted,1630 Main Street,Suite 208,Chester,MD,21619,USA,,,,vascular,www.google.com/search?q=The+Vascular+Laboratory+at+Kent+Island,The Vascular Laboratory at Kent Island Chester,,,,,,,,,"Oct 31, 2024","Extracranial Cerebrovascular Testing, Peripheral Arterial Testing, Peripheral Venous Testing",,,,,,,,,,,,,,
255,256,The Vascular Laboratory at Sajak Pavilion,38.991055,-76.536961,granted,2002 Medical Parkway,Suite 520,Annapolis,MD,21401,USA,,,,vascular,www.google.com/search?q=The+Vascular+Laboratory+at+Sajak+Pavilion,The Vascular Laboratory at Sajak Pavilion Annapolis,,,,,,,,,"Oct 31, 2024","Extracranial Cerebrovascular Testing, Peripheral Arterial Testing, Peripheral Venous Testing",,,,,,,,,,,,,,
256,257,Tidal Health Cardiology,38.362388,-75.595014,granted,400 Eastern Shore Drive,PO Box 49,Salisbury,MD,21804,USA,,peninsula.org,,nuclear,,Tidal Health Cardiology Salisbury,,,,,,,"Aug 31, 2023","Myocardial Perfusion Imaging, Positron Emission Tomography (PET)",,,,,,,,,,,,,,,,
257,258,TidalHealth Cardiology,38.338636,-75.601954,granted,106 Milford Street,Suite 702,Salisbury,MD,21804,USA,,,,nuclear,www.google.com/search?q=TidalHealth+Cardiology,TidalHealth Cardiology Salisbury,,,,,,,"Jul 31, 2025",Myocardial Perfusion Imaging,,,,,,,,,,,,,,,,
258,259,TidalHealth Cardiology,38.329643,-75.210721,granted,314 Franklin Avenue,Suite 301,Berlin,MD,21811,USA,,www.delmarvaheart.com,,nuclear,,TidalHealth Cardiology Berlin,,,,,,,"Jul 31, 2025",Myocardial Perfusion Imaging,,,,,,,,,,,,,,,,
259,260,TidalHealth Cardiology,38.329643,-75.210721,granted,314 Franklin Avenue,Suite 301,Berlin,MD,21811,USA,,,,echo,www.google.com/search?q=TidalHealth+Cardiology,TidalHealth Cardiology Berlin,,,"Jul 31, 2023",Adult Transthoracic,,,,,,,,,,,,,,,,,,,,
260,261,TidalHealth Cardiology,38.338636,-75.601954,granted,106 Milford Street,Suite 605,Salisbury,MD,21804,USA,,,,echo,www.google.com/search?q=TidalHealth+Cardiology,TidalHealth Cardiology Salisbury,,,"Jul 31, 2023",Adult Transthoracic,,,,,,,,,,,,,,,,,,,,
261,262,TidalHealth Cardiology,38.362438,-75.595001,granted,400 Eastern Shore Drive,,Salisbury,MD,21804,USA,,,,vascular,www.google.com/search?q=TidalHealth+Cardiology,TidalHealth Cardiology Salisbury,,,,,,,,,"Sep 30, 2023",Extracranial Cerebrovascular Testing,,,,,,,,,,,,,,
262,263,TidalHealth Cardiology- Berlin Office,38.329643,-75.210721,granted,314 Franklin Ave. 402,,Berlin,MD,21811,USA,,,,vascular,www.google.com/search?q=TidalHealth+Cardiology-+Berlin+Office,TidalHealth Cardiology- Berlin Office Berlin,,,,,,,,,"Sep 30, 2023",Extracranial Cerebrovascular Testing,,,,,,,,,,,,,,
263,264,"TidalHealth Peninsula Regional, Inc.",38.363068,-75.599489,granted,100 East Carroll Street,,Salisbury,MD,21801,USA,,,,vascular,"www.google.com/search?q=TidalHealth+Peninsula+Regional,+Inc.","TidalHealth Peninsula Regional, Inc. Salisbury",,,,,,,,,"Nov 30, 2022","Extracranial Cerebrovascular Testing, Peripheral Arterial Testing, Peripheral Venous Testing",,,,,,,,,,,,,,
264,265,UM Baltimore Washington Heart Associates,39.140912,-76.618382,multigranted,7845 Oakwood Road,Suite 106,Glen Burnie,MD,21061,USA,,,,"echo, vascular",www.google.com/search?q=UM+Baltimore+Washington+Heart+Associates,UM Baltimore Washington Heart Associates Glen Burnie,,,"Sep 30, 2023",Adult Transthoracic,,,,,"Jan 31, 2024","Extracranial Cerebrovascular Testing, Peripheral Arterial Testing, Peripheral Venous Testing",,,,,,,,,,,,,,
265,266,Union Hospital of Cecil County,39.608423,-75.831081,granted,106 Bow Street,,Elkton,MD,21921,USA,,,,echo,www.google.com/search?q=Union+Hospital+of+Cecil+County,Union Hospital of Cecil County Elkton,,,"Jul 31, 2023","Adult Stress, Adult Transesophageal, Adult Transthoracic",,,,,,,,,,,,,,,,,,,,
266,267,Union Hospital of Cecil County,39.608423,-75.831081,granted,106 Bow Street,,Elkton,MD,21921,USA,,,,nuclear,www.google.com/search?q=Union+Hospital+of+Cecil+County,Union Hospital of Cecil County Elkton,,,,,,,"Sep 30, 2023","Equilibrium Radionuclide Angiography, General Nuclear Medicine, Myocardial Perfusion Imaging",,,,,,,,,,,,,,,,
267,268,University of Maryland Baltimore Washington Health Services Queenstown Vascular Center,38.967206,-76.181406,granted,"125 Shoreway Dr, Suite 240",,Queenstown,MD,21658,USA,,,,vascular,www.google.com/search?q=University+of+Maryland+Baltimore+Washington+Health+Services+Queenstown+Vascular+Center,University of Maryland Baltimore Washington Health Services Queenstown Vascular Center Queenstown,,,,,,,,,"Sep 30, 2024","Extracranial Cerebrovascular Testing, Peripheral Arterial Testing, Peripheral Venous Testing, Visceral Vascular Testing",,,,,,,,,,,,,,
268,269,"University of Maryland Baltimore Washington Heart Associates, LLC",39.140912,-76.618382,granted,7845 Oakwood Road,Suite 106,Glen Burnie,MD,21061,USA,,,,nuclear,"www.google.com/search?q=University+of+Maryland+Baltimore+Washington+Heart+Associates,+LLC","University of Maryland Baltimore Washington Heart Associates, LLC Glen Burnie",,,,,,,"May 31, 2025",Myocardial Perfusion Imaging,,,,,,,,,,,,,,,,
269,270,University of Maryland Baltimore Washington Medical Center Vascular Center,39.139227,-76.62364,granted,301 Hospital Drive,,Glen Burnie,MD,21061,USA,,,,vascular,www.google.com/search?q=University+of+Maryland+Baltimore+Washington+Medical+Center+Vascular+Center,University of Maryland Baltimore Washington Medical Center Vascular Center Glen Burnie,,,,,,,,,"Sep 30, 2024","Extracranial Cerebrovascular Testing, Peripheral Arterial Testing, Peripheral Venous Testing, Visceral Vascular Testing",,,,,,,,,,,,,,
270,271,University of Maryland Cardiology Physicians,39.562247,-76.989039,granted,193 Stoner Ave.,Suite 350,Westminster,MD,21157,USA,,,,echo,www.google.com/search?q=University+of+Maryland+Cardiology+Physicians,University of Maryland Cardiology Physicians Westminster,,,"Jun 30, 2024",Adult Transthoracic,,,,,,,,,,,,,,,,,,,,
271,272,University of Maryland Cardiology Physicians,39.399402,-76.753557,granted,5 Park Center Court,Suite #200,Owings Mills,MD,21117,USA,,,,echo,www.google.com/search?q=University+of+Maryland+Cardiology+Physicians,University of Maryland Cardiology Physicians Owings Mills,,,"Jun 30, 2024",Adult Transthoracic,,,,,,,,,,,,,,,,,,,,
272,273,University of Maryland Cardiology Physicians Westminster,39.562247,-76.989039,granted,193 Stoner Avenue,Suite 350,Westminster,MD,21157,USA,,,,nuclear,www.google.com/search?q=University+of+Maryland+Cardiology+Physicians+Westminster,University of Maryland Cardiology Physicians Westminster Westminster,,,,,,,"May 31, 2024","Equilibrium Radionuclide Angiography, Myocardial Perfusion Imaging",,,,,,,,,,,,,,,,
273,274,University of Maryland Harford Memorial Hospital,39.54348,-76.091528,multigranted,501 South Union Avenue,,Havre De Grace,MD,21078,USA,,uchs.org,,"vascular, echo",,University of Maryland Harford Memorial Hospital Havre De Grace,,,"Jul 31, 2024",Adult Transthoracic,,,,,"Apr 30, 2024","Extracranial Cerebrovascular Testing, Peripheral Arterial Testing, Peripheral Venous Testing, Visceral Vascular Testing",,,,,,,,,,,,,,
274,275,University of Maryland Medical Center,39.28747,-76.623577,granted,22 South Greene Street N5W78,,Baltimore,MD,21201,USA,,,,pediatric_echo,www.google.com/search?q=University+of+Maryland+Medical+Center,University of Maryland Medical Center Baltimore,,,,,,,,,,,"Aug 31, 2025","Pediatric Transesophageal, Pediatric Transthoracic, Fetal",,,,,,,,,,,,
275,276,University of Maryland Medical Center,39.28747,-76.623577,granted,22 South Greene Street,3rd Floor Gudelsky,Baltimore,MD,21201,USA,,,,echo,www.google.com/search?q=University+of+Maryland+Medical+Center,University of Maryland Medical Center Baltimore,,,"Sep 30, 2024","Adult Stress, Adult Transesophageal, Adult Transthoracic",,,,,,,,,,,,,,,,,,,,
276,277,University of Maryland Medical Center Midtown Campus,39.298773,-76.620783,granted,827 Linden Avenue,,Baltimore,MD,21201,USA,,www.umms.org/midtown,,vascular,,University of Maryland Medical Center Midtown Campus Baltimore,,,,,,,,,"Nov 30, 2022","Extracranial Cerebrovascular Testing, Peripheral Arterial Testing, Peripheral Venous Testing, Visceral Vascular Testing",,,,,,,,,,,,,,
277,278,University of Maryland Shore Medical Center at Chestertown,39.21683,-76.064527,granted,100 Brown Street,,Chestertown,MD,21620,USA,,,,vascular,www.google.com/search?q=University+of+Maryland+Shore+Medical+Center+at+Chestertown,University of Maryland Shore Medical Center at Chestertown Chestertown,,,,,,,,,"Sep 30, 2024","Extracranial Cerebrovascular Testing, Peripheral Arterial Testing, Peripheral Venous Testing",,,,,,,,,,,,,,
278,279,University of Maryland Shore Medical Center at Easton,38.769655,-76.075825,granted,219 South Washington Street,,Easton,MD,21601,USA,,,,vascular,www.google.com/search?q=University+of+Maryland+Shore+Medical+Center+at+Easton,University of Maryland Shore Medical Center at Easton Easton,,,,,,,,,"Sep 30, 2024","Extracranial Cerebrovascular Testing, Peripheral Arterial Testing, Peripheral Venous Testing",,,,,,,,,,,,,,
279,280,University of Maryland Shore Medical Pavilion at Cambridge,38.570922,-76.068766,granted,713 Cambridge Marketplace Blvd.,Cardiovascular Diagnostics Suite 2-400,Cambridge,MD,21613,USA,,,,vascular,www.google.com/search?q=University+of+Maryland+Shore+Medical+Pavilion+at+Cambridge,University of Maryland Shore Medical Pavilion at Cambridge Cambridge,,,,,,,,,"Sep 30, 2024","Extracranial Cerebrovascular Testing, Peripheral Arterial Testing, Peripheral Venous Testing",,,,,,,,,,,,,,
280,281,University of Maryland Shore Regional Cardiovascular Center at Chestertown,39.216845,-76.064492,granted,100 Brown Street,,Chestertown,MD,21620,USA,,,,echo,www.google.com/search?q=University+of+Maryland+Shore+Regional+Cardiovascular+Center+at+Chestertown,University of Maryland Shore Regional Cardiovascular Center at Chestertown Chestertown,,,"Jun 30, 2023",Adult Transthoracic,,,,,,,,,,,,,,,,,,,,
281,282,University of Maryland Shore Regional Cardiovascular Diagnostic Center at Cadmus,38.764736,-76.070215,granted,500 Cadmus Lane,Suite 208,Easton,MD,21601,USA,,,,echo,www.google.com/search?q=University+of+Maryland+Shore+Regional+Cardiovascular+Diagnostic+Center+at+Cadmus,University of Maryland Shore Regional Cardiovascular Diagnostic Center at Cadmus Easton,,,"Jun 30, 2023",Adult Transthoracic,,,,,,,,,,,,,,,,,,,,
282,283,University of Maryland Shore Regional Cardiovascular Diagnostic Center at Dorchester,38.537992,-76.097882,granted,713 Cambridge Marketplace BLVD.,Suite 2-400,Cambridge,MD,21613,USA,,www.Shorehealth.org ,,echo,,University of Maryland Shore Regional Cardiovascular Diagnostic Center at Dorchester Cambridge,,,"Jun 30, 2023",Adult Transthoracic,,,,,,,,,,,,,,,,,,,,
283,284,University of Maryland Shore Regional Cardiovascular Diagnostic Center at Easton,38.769655,-76.075825,granted,219 South Washington Street,,Easton,MD,21601,USA,,,,echo,www.google.com/search?q=University+of+Maryland+Shore+Regional+Cardiovascular+Diagnostic+Center+at+Easton,University of Maryland Shore Regional Cardiovascular Diagnostic Center at Easton Easton,,,"Jun 30, 2023",Adult Transthoracic,,,,,,,,,,,,,,,,,,,,
284,285,University of Maryland Shore Regional Cardiovascular Diagnostic Center at Queenstown,38.966701,-76.182071,granted,125 Shoreway Drive,,Queenstown,MD,21658,USA,,,,echo,www.google.com/search?q=University+of+Maryland+Shore+Regional+Cardiovascular+Diagnostic+Center+at+Queenstown,University of Maryland Shore Regional Cardiovascular Diagnostic Center at Queenstown Queenstown,,,"Jun 30, 2023",Adult Transthoracic,,,,,,,,,,,,,,,,,,,,
285,286,University of Maryland St. Joseph Medical Center,39.388123,-76.613278,granted,7601 Osler Drive,C16,Towson,MD,21204,USA,,,,echo,www.google.com/search?q=University+of+Maryland+St.+Joseph+Medical+Center,University of Maryland St. Joseph Medical Center Towson,,,"Aug 31, 2024",Adult Transthoracic,,,,,,,,,,,,,,,,,,,,
286,287,University of Maryland Upper Chesapeake Medical Center,39.519469,-76.348354,multigranted,500 Upper Chesapeake Drive,,Bel Air,MD,21014,USA,,uchs.org,,"vascular, echo",,University of Maryland Upper Chesapeake Medical Center Bel Air,,,"Jul 31, 2024",Adult Transthoracic,,,,,"Apr 30, 2024","Extracranial Cerebrovascular Testing, Peripheral Arterial Testing, Peripheral Venous Testing, Visceral Vascular Testing",,,,,,,,,,,,,,
287,288,University Physicians Faculty Practice Office,39.288601,-76.621982,granted,419 West Redwood Street,,Baltimore,MD,21201,USA,,,,echo,www.google.com/search?q=University+Physicians+Faculty+Practice+Office,University Physicians Faculty Practice Office Baltimore,,,"Sep 30, 2024","Adult Stress, Adult Transthoracic",,,,,,,,,,,,,,,,,,,,
288,289,UPMC Diagnostic Center,39.65021,-78.732948,granted,12400 Willowbrook Road,,Cumberland,MD,21502,USA,,,,echo,www.google.com/search?q=UPMC+Diagnostic+Center,UPMC Diagnostic Center Cumberland,,,"Aug 31, 2024",Adult Transthoracic,,,,,,,,,,,,,,,,,,,,
289,290,UPMC Western Maryland,39.650091,-78.732777,granted,12500 Willowbrook Road,,Cumberland,MD,21502,USA,,,,echo,www.google.com/search?q=UPMC+Western+Maryland,UPMC Western Maryland Cumberland,,,"Aug 31, 2024",Adult Transthoracic,,,,,,,,,,,,,,,,,,,,
290,291,"Vascular Surgery Associates, LLC",39.60932,-75.83178,granted,111 West High Street Suite 103,,Elkton,MD,21921,USA,,www.vascularsurgeryassociates.net,,vascular,,"Vascular Surgery Associates, LLC Elkton",,,,,,,,,"Oct 30, 2022 | Aug 31, 2025","Peripheral Arterial Testing, Peripheral Venous Testing, Visceral Vascular Testing | Extracranial Cerebrovascular Testing",,,,,,,,,,,,,,
291,292,"Vascular Surgery Associates, LLC",39.551314,-76.982808,granted,902 Washington Road  Suite E,,Westminster,MD,21157,USA,,,,vascular,"www.google.com/search?q=Vascular+Surgery+Associates,+LLC","Vascular Surgery Associates, LLC Westminster",,,,,,,,,"Oct 30, 2022 | Aug 31, 2025","Peripheral Arterial Testing, Peripheral Venous Testing, Visceral Vascular Testing | Extracranial Cerebrovascular Testing",,,,,,,,,,,,,,
292,293,"Vascular Surgery Associates, LLC",39.386546,-76.61267,granted,"7505 Osler Drive, Suite  302",,Towson,MD,21204,USA,,,,vascular,"www.google.com/search?q=Vascular+Surgery+Associates,+LLC","Vascular Surgery Associates, LLC Towson",,,,,,,,,"Oct 30, 2022 | Aug 31, 2025","Peripheral Arterial Testing, Peripheral Venous Testing, Visceral Vascular Testing | Extracranial Cerebrovascular Testing",,,,,,,,,,,,,,
293,294,"Vascular Surgery Associates, LLC",39.404179,-76.62809,granted,6569 N Charles Street Suite  708 West Pavillon,,Towson,MD,21204,USA,,,,vascular,"www.google.com/search?q=Vascular+Surgery+Associates,+LLC","Vascular Surgery Associates, LLC Towson",,,,,,,,,"Oct 30, 2022 | Aug 31, 2025","Peripheral Arterial Testing, Peripheral Venous Testing, Visceral Vascular Testing | Extracranial Cerebrovascular Testing",,,,,,,,,,,,,,
294,295,"Vascular Surgery Associates, LLC",39.354293,-76.662514,granted,"2411 West Belvedere Avenue, Suite 301",,Baltimore,MD,21215,USA,,,,vascular,"www.google.com/search?q=Vascular+Surgery+Associates,+LLC","Vascular Surgery Associates, LLC Baltimore",,,,,,,,,"Oct 30, 2022 | Aug 31, 2025","Peripheral Arterial Testing, Peripheral Venous Testing, Visceral Vascular Testing | Extracranial Cerebrovascular Testing",,,,,,,,,,,,,,
295,296,"Vascular Surgery Associates, LLC.",39.519602,-76.344992,granted,"520 Upper Chesapeake Drive, Suite 306",,Bel Air,MD,21014,USA,,,,vascular,"www.google.com/search?q=Vascular+Surgery+Associates,+LLC.","Vascular Surgery Associates, LLC. Bel Air",,,,,,,,,"Oct 30, 2022 | Aug 31, 2025","Peripheral Arterial Testing, Peripheral Venous Testing, Visceral Vascular Testing | Extracranial Cerebrovascular Testing",,,,,,,,,,,,,,
296,297,Vein Center at GBMC Health Partners,39.393497,-76.628092,multigranted,6701 North Charles Street S-5104,,Baltimore,MD,21204,USA,,,,"vein_center, vascular",www.google.com/search?q=Vein+Center+at+GBMC+Health+Partners,Vein Center at GBMC Health Partners Baltimore,,,,,,,,,"Nov 30, 2024","Peripheral Arterial Testing, Peripheral Venous Testing",,,,,,,"Jun 30, 2023",Superficial Venous Evaluation and Management,,,,,,
297,298,Vein Clinics of America,39.104591,-77.203237,granted,9707 Key West Ave.,#125,Rockville,MD,20850,USA,,www.veinclinics.com/clinic/rockville-maryland/,,vascular,,Vein Clinics of America Rockville,,,,,,,,,"Nov 30, 2023",Peripheral Venous Testing,,,,,,,,,,,,,,
298,299,Vein Clinics of America,38.980571,-76.539736,granted,1910 Towne Centre Blvd.,#210,Annapolis,MD,21401,USA,,www.veinclinics.com/clinic/annapolis-maryland/,,vascular,,Vein Clinics of America Annapolis,,,,,,,,,"Nov 30, 2023",Peripheral Venous Testing,,,,,,,,,,,,,,
299,300,Vein Clinics of America,39.269889,-76.599387,granted,1500 Whetstone Way,#104,Baltimore,MD,21230,USA,,www.veinclinics.com/clinic/baltimore-maryland/,,vascular,,Vein Clinics of America Baltimore,,,,,,,,,"Nov 30, 2023",Peripheral Venous Testing,,,,,,,,,,,,,,
300,301,Vein Clinics of America,39.452752,-76.638827,granted,9515 Deereco Rd.,#205,Timonium,MD,21093,USA,,www.veinclinics.com/clinic/timonium-maryland/,,vascular,,Vein Clinics of America Timonium,,,,,,,,,"Nov 30, 2023",Peripheral Venous Testing,,,,,,,,,,,,,,
301,302,Vein Clinics of America,39.211686,-76.861074,granted,10440 Little Patuxent Pky.,#820,Columbia,MD,21044,USA,,www.veinclinics.com/clinic/columbia-maryland/,,vascular,,Vein Clinics of America Columbia,,,,,,,,,"Nov 30, 2023",Peripheral Venous Testing,,,,,,,,,,,,,,
302,303,Vein Clinics of America,39.387839,-76.737719,granted,1809 Reisterstown Rd.,#146,Pikesville,MD,21208,USA,,www.veinclinics.com/clinic/pikesville-maryland/,,vascular,,Vein Clinics of America Pikesville,,,,,,,,,"Nov 30, 2023",Peripheral Venous Testing,,,,,,,,,,,,,,
303,304,Vein Clinics of America,38.964038,-77.089536,granted,5550 Friendship Blvd.,#510,Chevy Chase,MD,20815,USA,,www.veinclinics.com/clinic/chevy-chase-maryland/,,vascular,,Vein Clinics of America Chevy Chase,,,,,,,,,"Nov 30, 2023",Peripheral Venous Testing,,,,,,,,,,,,,,
304,305,Walter Reed National Military Medical Center,38.99949,-77.096801,granted,8901 Wisconsin Avenue,,Bethesda,MD,20889,USA,,,,vascular,www.google.com/search?q=Walter+Reed+National+Military+Medical+Center,Walter Reed National Military Medical Center Bethesda,,,,,,,,,"Dec 30, 2022","Extracranial Cerebrovascular Testing, Peripheral Arterial Testing, Peripheral Venous Testing",,,,,,,,,,,,,,
305,306,Washington Cardiovascular Institute,38.984054,-76.999681,granted,7610 Carroll Avenue,,Takoma Park,MD,20912,USA,,,,vascular,www.google.com/search?q=Washington+Cardiovascular+Institute,Washington Cardiovascular Institute Takoma Park,,,,,,,,,"Dec 31, 2022","Peripheral Arterial Testing, Peripheral Venous Testing",,,,,,,,,,,,,,
306,307,Washington Cardiovascular Institute,39.447487,-77.405128,granted,75 Thomas Johnson Drive,Suite 1,Frederick,MD,21702,USA,,,,vascular,www.google.com/search?q=Washington+Cardiovascular+Institute,Washington Cardiovascular Institute Frederick,,,,,,,,,"Dec 31, 2022","Peripheral Arterial Testing, Peripheral Venous Testing",,,,,,,,,,,,,,
307,308,Washington Cardiovascular Institute,38.90989,-76.853988,granted,8816 Jericho City Drive,,Largo,MD,20785,USA,,,,vascular,www.google.com/search?q=Washington+Cardiovascular+Institute,Washington Cardiovascular Institute Largo,,,,,,,,,"Dec 31, 2022","Peripheral Arterial Testing, Peripheral Venous Testing",,,,,,,,,,,,,,
308,309,"Washington Cardiovascular Institute, LLC",39.36663,-76.97753,granted,"7610 Carroll Ave, Suite 100 & 110",,Takoma Park,MD,20912,USA,,www.washingtonvascular.com,,nuclear,,"Washington Cardiovascular Institute, LLC Takoma Park",,,,,,,"May 31, 2024",Myocardial Perfusion Imaging,,,,,,,,,,,,,,,,
309,310,"Wellspring Cardiac Care, PA",39.413542,-76.629224,granted,1122 Kenilworth Drive,Suite 214 The Exchange,Towson,MD,21204,USA,,,,nuclear,"www.google.com/search?q=Wellspring+Cardiac+Care,+PA","Wellspring Cardiac Care, PA Towson",,,,,,,"Jan 31, 2023",Myocardial Perfusion Imaging,,,,,,,,,,,,,,,,
310,311,White Oak Medical Center,38.98373,-77.000015,granted,11890 Healing Way,,Silver Spring,MD,20904,USA,,,,echo,www.google.com/search?q=White+Oak+Medical+Center,White Oak Medical Center Silver Spring,,,"Dec 31, 2023",Adult Transthoracic,,,,,,,,,,,,,,,,,,,,
311,312,"White Square Vascular Surgery, P.A.",39.358242,-76.471451,granted,5233 King Ave,Suite 208,Baltimore,MD,21237,USA,,,,vascular,"www.google.com/search?q=White+Square+Vascular+Surgery,+P.A.","White Square Vascular Surgery, P.A. Baltimore",,,,,,,,,"Nov 30, 2024","Extracranial Cerebrovascular Testing, Peripheral Arterial Testing, Peripheral Venous Testing, Visceral Vascular Testing",,,,,,,,,,,,,,
312,313,Woodholme Cardiovascular Assoc,39.391222,-76.735402,granted,1838 Greene Tree Rd,Suite 250,Baltimore,MD,21208,USA,,woodholmecardio.com/WoodholmeCardiovascularAssociates/WoodholmeCardiovascularAssociates.aspx,,nuclear,,Woodholme Cardiovascular Assoc Baltimore,,,,,,,"Dec 31, 2023",Positron Emission Tomography (PET),,,,,,,,,,,,,,,,
313,314,Woodholme Cardiovascular Associates,39.391222,-76.735402,granted,1838 Greene Tree Road,Suite 535,Balitmore,MD,21208,USA,,,,nuclear,www.google.com/search?q=Woodholme+Cardiovascular+Associates,Woodholme Cardiovascular Associates Balitmore,,,,,,,"Dec 31, 2023","Equilibrium Radionuclide Angiography, Myocardial Perfusion Imaging, Positron Emission Tomography (PET)",,,,,,,,,,,,,,,,
