,id,name,lat,lng,category,address,address2,city,state,postal,country,phone,web,features,modalities,searchGoogle,search,ct,ct_areas,echo,echo_areas,mr,mr_areas,nuclear,nuclear_areas,vascular,vascular_areas,pediatric_echo,pediatric_echo_areas,ct-dental,ct-dental_areas,stenting,stenting_areas,vein_center,vein_center_areas,cardiac_electrophysiology,cardiac_electrophysiology_areas,cardiovascular_catheterization,cardiovascular_catheterization_areas,jrcdms,jrcdms_areas
0,1,A Bahjat Shahbandar Md Pc,42.661133,-83.133013,multigranted,1349 South Rochester Road,Suite  105,Rochester Hills,MI,48307,USA,,,,"nuclear, echo",www.google.com/search?q=A+Bahjat+Shahbandar+Md+Pc,A Bahjat Shahbandar Md Pc Rochester Hills,,,"Mar 31, 2025",Adult Transthoracic,,,"Nov 30, 2024","Equilibrium Radionuclide Angiography, Myocardial Perfusion Imaging",,,,,,,,,,,,,,,,
1,2,Academic Cardiology Associates,42.624034,-83.096208,granted,1701 South Boulevard East,Suite 390,Rochester Hills,MI,48307,USA,,www.academiccardiology.com,,nuclear,,Academic Cardiology Associates Rochester Hills,,,,,,,"Aug 31, 2023",Myocardial Perfusion Imaging,,,,,,,,,,,,,,,,
2,3,"Academic Cardiology Associates, PC",42.624034,-83.096208,granted,1701 South Boulevard East,Suite 390,Rochester Hills,MI,48307,USA,,,,echo,"www.google.com/search?q=Academic+Cardiology+Associates,+PC","Academic Cardiology Associates, PC Rochester Hills",,,"Sep 30, 2023",Adult Transthoracic,,,,,,,,,,,,,,,,,,,,
3,4,Advanced Cardiac and Vascular Centers,42.990642,-85.590633,multigranted,"1525 E Beltline Ave NE, Suite 101",,Grand Rapids,MI,49525,USA,,www.advancedcardiacandvascular.com/,,"vascular, echo",,Advanced Cardiac and Vascular Centers Grand Rapids,,,"Nov 30, 2024",Adult Transthoracic,,,,,"Oct 31, 2024","Peripheral Arterial Testing, Peripheral Venous Testing",,,,,,,,,,,,,,
4,5,Advanced Cardiac and Vascular Centers,42.682872,-84.505739,multigranted,"3370 E Jolly Road, Suite A",,Lansing,MI,48910,USA,,www.advancedcardiacandvascular.com/,,"vascular, echo",,Advanced Cardiac and Vascular Centers Lansing,,,"Nov 30, 2024",Adult Transthoracic,,,,,"Oct 31, 2024","Peripheral Arterial Testing, Peripheral Venous Testing",,,,,,,,,,,,,,
5,6,"Advanced Cardiology Associates, PC",42.640949,-83.124726,multigranted,645 Barclay Circle,,Rochester Hills,MI,48307,USA,,,,"echo, nuclear","www.google.com/search?q=Advanced+Cardiology+Associates,+PC","Advanced Cardiology Associates, PC Rochester Hills",,,"Oct 31, 2023","Adult Stress, Adult Transthoracic",,,"Jun 30, 2024",Myocardial Perfusion Imaging,,,,,,,,,,,,,,,,
6,7,"Advanced Cardiology Associates, PC",42.822215,-83.2627,multigranted,72 S. Washington,Suite 203,Oxford,MI,48371,USA,,,,"echo, nuclear","www.google.com/search?q=Advanced+Cardiology+Associates,+PC","Advanced Cardiology Associates, PC Oxford",,,"Oct 31, 2023",Adult Transthoracic,,,"Jun 30, 2024",Myocardial Perfusion Imaging,,,,,,,,,,,,,,,,
7,8,"Advanced Cardiovascular Associates, PLC",42.623756,-83.051825,granted,44850 Mound Road,,Sterling Heights,MI,48314,USA,,,,echo,"www.google.com/search?q=Advanced+Cardiovascular+Associates,+PLC","Advanced Cardiovascular Associates, PLC Sterling Heights",,,"Jun 30, 2024","Adult Stress, Adult Transthoracic",,,,,,,,,,,,,,,,,,,,
8,9,"Advanced Cardiovascular Associates, PLC",42.623756,-83.051825,granted,44850 Mound Road,,Sterling Heights,MI,48314,USA,,,,nuclear,"www.google.com/search?q=Advanced+Cardiovascular+Associates,+PLC","Advanced Cardiovascular Associates, PLC Sterling Heights",,,,,,,"Jan 31, 2024",Myocardial Perfusion Imaging,,,,,,,,,,,,,,,,
9,10,Advanced Cardiovascular Clinic,43.014629,-83.775801,granted,6122 W. Pierson Road,Unit 1,Flushing,MI,48433,USA,,,,nuclear,www.google.com/search?q=Advanced+Cardiovascular+Clinic,Advanced Cardiovascular Clinic Flushing,,,,,,,"Jun 30, 2023",Myocardial Perfusion Imaging,,,,,,,,,,,,,,,,
10,11,"Advanced Cardiovascular Health Specialists, PC",42.409691,-83.417037,multigranted,37799 Professional Center Drive,Suite 105,Livonia,MI,48154,USA,,,,"echo, nuclear","www.google.com/search?q=Advanced+Cardiovascular+Health+Specialists,+PC","Advanced Cardiovascular Health Specialists, PC Livonia",,,"Sep 30, 2023","Adult Stress, Adult Transthoracic",,,"Feb 29, 2024","Equilibrium Radionuclide Angiography, Myocardial Perfusion Imaging",,,,,,,,,,,,,,,,
11,12,Advanced Veins and Vascular Management,41.944535,-84.651593,granted,3271 W Carleton Rd,,Hillsdale,MI,49242,USA,,,,vascular,www.google.com/search?q=Advanced+Veins+and+Vascular+Management,Advanced Veins and Vascular Management Hillsdale,,,,,,,,,"Aug 31, 2024","Extracranial Cerebrovascular Testing, Peripheral Arterial Testing, Peripheral Venous Testing, Screening",,,,,,,,,,,,,,
12,13,"APC Physicians, PLLC",42.256314,-83.208143,granted,6742 Park Avenue,,Allen Park,MI,48101,USA,,,,nuclear,"www.google.com/search?q=APC+Physicians,+PLLC","APC Physicians, PLLC Allen Park",,,,,,,"Aug 31, 2023",Myocardial Perfusion Imaging,,,,,,,,,,,,,,,,
13,14,"APC Physicians, PLLC",42.256314,-83.208143,granted,6742 Park Avenue,,Allen Park,MI,48101,USA,,,,echo,"www.google.com/search?q=APC+Physicians,+PLLC","APC Physicians, PLLC Allen Park",,,"Mar 31, 2023","Adult Stress, Adult Transthoracic",,,,,,,,,,,,,,,,,,,,
14,15,Ark Cardiovascular and Arrhythmia Center Plc,42.333516,-83.195774,granted,6050 Greenfield Road,Suite 101,Dearborn,MI,48126,USA,,,,nuclear,www.google.com/search?q=Ark+Cardiovascular+and+Arrhythmia+Center+Plc,Ark Cardiovascular and Arrhythmia Center Plc Dearborn,,,,,,,"Apr 30, 2023",Myocardial Perfusion Imaging,,,,,,,,,,,,,,,,
15,16,Ascension Borgess Hospital,42.304759,-85.561425,granted,1521 Gull Road,,Kalamazoo,MI,49048,USA,,www.borgess.com,,vascular,,Ascension Borgess Hospital Kalamazoo,,,,,,,,,"Aug 31, 2023","Extracranial Cerebrovascular Testing, Peripheral Arterial Testing, Peripheral Venous Testing",,,,,,,,,,,,,,
16,17,Ascension Borgess Hospital Borgess Heart Institute MOB,42.308262,-85.558825,granted,1722 Shaffer Street,Suite 1,Kalamazoo,MI,49048,USA,,,,echo,www.google.com/search?q=Ascension+Borgess+Hospital+Borgess+Heart+Institute+MOB,Ascension Borgess Hospital Borgess Heart Institute MOB Kalamazoo,,,"Jul 31, 2023","Adult Stress, Adult Transthoracic",,,,,,,,,,,,,,,,,,,,
17,18,Ascension Borgess The Surgical Group,42.304896,-85.561141,granted,1535 Gull Rd,MSB Suite 020,Kalamazoo,MI,49048,USA,,,,vascular,www.google.com/search?q=Ascension+Borgess+The+Surgical+Group,Ascension Borgess The Surgical Group Kalamazoo,,,,,,,,,"Dec 30, 2022","Extracranial Cerebrovascular Testing, Peripheral Arterial Testing, Peripheral Venous Testing",,,,,,,,,,,,,,
18,19,Ascension Macomb Oakland Hospital - Madison Heights Campus,42.493868,-83.085211,granted,27351 Dequindre,,Madison Heights,MI,48071,USA,,,,echo,www.google.com/search?q=Ascension+Macomb+Oakland+Hospital+-+Madison+Heights+Campus,Ascension Macomb Oakland Hospital - Madison Heights Campus Madison Heights,,,"Dec 31, 2022","Adult Stress, Adult Transthoracic",,,,,,,,,,,,,,,,,,,,
19,20,Ascension Macomb Oakland Hospital - Warren Campus,42.507178,-83.003535,granted,11800 East Twelve Mile Road,,Warren,MI,48093,USA,,,,echo,www.google.com/search?q=Ascension+Macomb+Oakland+Hospital+-+Warren+Campus,Ascension Macomb Oakland Hospital - Warren Campus Warren,,,"Dec 31, 2022","Adult Stress, Adult Transthoracic",,,,,,,,,,,,,,,,,,,,
20,21,Ascension Medical Group Eastside Cardiovascular Medicine,42.481706,-82.92731,granted,25195 Kelly Rd.,,Roseville,MI,48066,USA,,www.eastsidecardiovascular.com,,vascular,,Ascension Medical Group Eastside Cardiovascular Medicine Roseville,,,,,,,,,"Dec 31, 2023","Extracranial Cerebrovascular Testing, Peripheral Arterial Testing",,,,,,,,,,,,,,
21,22,Ascension Medical Group Genesys Heart Center,42.894053,-83.635194,granted,3399 Pollock Road,,Grand Blanc,MI,48439,USA,,,,echo,www.google.com/search?q=Ascension+Medical+Group+Genesys+Heart+Center,Ascension Medical Group Genesys Heart Center Grand Blanc,,,"Oct 31, 2023","Adult Stress, Adult Transthoracic",,,,,,,,,,,,,,,,,,,,
22,23,Ascension St. Mary’s of Michigan,43.426012,-83.941936,granted,800 South Washington Avenue,,Saginaw,MI,48601,USA,,,,echo,www.google.com/search?q=Ascension+St.+Mary’s+of+Michigan,Ascension St. Mary’s of Michigan Saginaw,,,"Feb 29, 2024","Adult Stress, Adult Transesophageal, Adult Transthoracic",,,,,,,,,,,,,,,,,,,,
23,24,Ascension St. Mary’s of Michigan Riverfront,43.422725,-83.944175,granted,1015 South Washington Avenue,,Saginaw,MI,48601,USA,,,,echo,www.google.com/search?q=Ascension+St.+Mary’s+of+Michigan+Riverfront,Ascension St. Mary’s of Michigan Riverfront Saginaw,,,"Feb 29, 2024","Adult Stress, Adult Transesophageal, Adult Transthoracic",,,,,,,,,,,,,,,,,,,,
24,25,Aspirus Ironwood Hospital,46.478193,-90.104689,granted,N10561 Grand View Lane,,Ironwood,MI,49938,USA,,,,echo,www.google.com/search?q=Aspirus+Ironwood+Hospital,Aspirus Ironwood Hospital Ironwood,,,"Jan 29, 2023","Adult Stress, Adult Transesophageal, Adult Transthoracic",,,,,,,,,,,,,,,,,,,,
25,26,Auburn Hills,42.676143,-83.221044,granted,2251 North Squirrel Rd.,Suite 301,Auburn Hills,MI,48326,USA,,,,vascular,www.google.com/search?q=Auburn+Hills,Auburn Hills Auburn Hills,,,,,,,,,"Jun 30, 2024",Peripheral Venous Testing,,,,,,,,,,,,,,
26,27,Baptist Health Cardiovascular Lab,38.015246,-84.422632,granted,1775 Alysheba Way,Suite 100,Lexington,MI,40501,USA,,www.baptisthealth.com,,echo,,Baptist Health Cardiovascular Lab Lexington,,,"Mar 31, 2023",Adult Transthoracic,,,,,,,,,,,,,,,,,,,,
27,28,Beaumont - Trenton Southshore Campus,42.115786,-83.211814,granted,5450 Fort Street,,Trenton,MI,48183,USA,,,,echo,www.google.com/search?q=Beaumont+-+Trenton+Southshore+Campus,Beaumont - Trenton Southshore Campus Trenton,,,"Feb 28, 2023","Adult Stress, Adult Transthoracic",,,,,,,,,,,,,,,,,,,,
28,29,Beaumont Cardiovascular Specialists,42.528877,-83.342509,multigranted,"29645 W. 14 Mile Road, 200",,Farmington Hills,MI,48334,USA,,,,"nuclear, echo",www.google.com/search?q=Beaumont+Cardiovascular+Specialists,Beaumont Cardiovascular Specialists Farmington Hills,,,"Aug 31, 2023","Adult Stress, Adult Transthoracic",,,"Oct 30, 2022","Equilibrium Radionuclide Angiography, Myocardial Perfusion Imaging",,,,,,,,,,,,,,,,
29,30,Beaumont Children’s Echocardiography Laboratory-Inpatient,42.517687,-83.192142,granted,3601 West 13 Mile Road,,Royal Oak,MI,48073,USA,,,,pediatric_echo,www.google.com/search?q=Beaumont+Children’s+Echocardiography+Laboratory-Inpatient,Beaumont Children’s Echocardiography Laboratory-Inpatient Royal Oak,,,,,,,,,,,"Jun 30, 2024",Pediatric Transthoracic,,,,,,,,,,,,
30,31,Beaumont Children’s Hospital Pediatric Echo Lab,42.517715,-83.190978,granted,3535 West 13 Mile Road,Suite 108,Royal Oak,MI,48073,USA,,,,pediatric_echo,www.google.com/search?q=Beaumont+Children’s+Hospital+Pediatric+Echo+Lab,Beaumont Children’s Hospital Pediatric Echo Lab Royal Oak,,,,,,,,,,,"Jun 30, 2024",Pediatric Transthoracic,,,,,,,,,,,,
31,32,Beaumont Children’s Pediatric Echocardiography Laboratory-Troy,42.618336,-83.092402,granted,44199 Dequindre Road,Suite 615,Troy,MI,48085,USA,,,,pediatric_echo,www.google.com/search?q=Beaumont+Children’s+Pediatric+Echocardiography+Laboratory-Troy,Beaumont Children’s Pediatric Echocardiography Laboratory-Troy Troy,,,,,,,,,,,"Jun 30, 2024",Pediatric Transthoracic,,,,,,,,,,,,
32,33,Beaumont Health,42.517687,-83.192142,granted,3601 West Thirteen Mile Road,,Royal Oak,MI,48073,USA,,,,cardiac_electrophysiology,www.google.com/search?q=Beaumont+Health,Beaumont Health Royal Oak,,,,,,,,,,,,,,,,,,,"Mar 31, 2023","Testing and Ablation, Device Implantation, Chronic Lead Extraction",,,,
33,34,Beaumont Health Center,42.536659,-83.183876,granted,4949 Coolidge Highway,,Royal Oak,MI,48073,USA,,beaumont.edu,,vascular,,Beaumont Health Center Royal Oak,,,,,,,,,"Dec 31, 2024","Extracranial Cerebrovascular Testing, Peripheral Arterial Testing, Peripheral Venous Testing, Visceral Vascular Testing",,,,,,,,,,,,,,
34,35,Beaumont Heart and Vascular Center,42.302216,-83.243916,granted,22060 Beech St,,Dearborn,MI,48124,USA,,,,nuclear,www.google.com/search?q=Beaumont+Heart+and+Vascular+Center,Beaumont Heart and Vascular Center Dearborn,,,,,,,"Mar 31, 2023",Myocardial Perfusion Imaging,,,,,,,,,,,,,,,,
35,36,Beaumont Heart and Vascular Center-Dearborn,42.302216,-83.243916,granted,22060 Beech St. Suite 200,,Dearborn,MI,48124,USA,,,,echo,www.google.com/search?q=Beaumont+Heart+and+Vascular+Center-Dearborn,Beaumont Heart and Vascular Center-Dearborn Dearborn,,,"Jul 31, 2024","Adult Stress, Adult Transthoracic",,,,,,,,,,,,,,,,,,,,
36,37,Beaumont Hospital - Royal Oak,42.517687,-83.192142,granted,3601 West Thirteen Mile Road,,Royal Oak,MI,48073,USA,,beaumont.edu,,vascular,,Beaumont Hospital - Royal Oak Royal Oak,,,,,,,,,"Dec 31, 2024","Extracranial Cerebrovascular Testing, Peripheral Arterial Testing, Peripheral Venous Testing, Visceral Vascular Testing",,,,,,,,,,,,,,
37,38,Beaumont Hospital - Troy,42.618121,-83.091163,granted,44201 Dequindre Road,,Troy,MI,48098,USA,,,,vascular,www.google.com/search?q=Beaumont+Hospital+-+Troy,Beaumont Hospital - Troy Troy,,,,,,,,,"Dec 31, 2022","Extracranial Cerebrovascular Testing, Peripheral Arterial Testing, Peripheral Venous Testing, Visceral Vascular Testing",,,,,,,,,,,,,,
38,39,Beaumont Hospital Grosse Pointe,42.384197,-82.915386,granted,468 Cadieux Road,,Grosse Pointe,MI,48230,USA,,,,vascular,www.google.com/search?q=Beaumont+Hospital+Grosse+Pointe,Beaumont Hospital Grosse Pointe Grosse Pointe,,,,,,,,,"Jan 31, 2023","Extracranial Cerebrovascular Testing, Peripheral Arterial Testing, Peripheral Venous Testing",,,,,,,,,,,,,,
39,40,Beaumont Hospital Grosse Pointe,42.384197,-82.915386,granted,468 Cadieux Road,,Grosse Pointe,MI,48230,USA,,,,echo,www.google.com/search?q=Beaumont+Hospital+Grosse+Pointe,Beaumont Hospital Grosse Pointe Grosse Pointe,,,"Aug 31, 2023",Adult Transthoracic,,,,,,,,,,,,,,,,,,,,
40,41,Beaumont Kabbani Cardiology Canton,42.320606,-83.448837,granted,2050 N Haggerty Rd,STE 200,Canton,MI,48187,USA,,,,echo,www.google.com/search?q=Beaumont+Kabbani+Cardiology+Canton,Beaumont Kabbani Cardiology Canton Canton,,,"Apr 30, 2025",Adult Transthoracic,,,,,,,,,,,,,,,,,,,,
41,42,Beaumont Macomb,42.627984,-82.964264,granted,"15979 Hall Road, Suite 203",,Macomb Township,MI,48044,USA,,,,vascular,www.google.com/search?q=Beaumont+Macomb,Beaumont Macomb Macomb Township,,,,,,,,,"Dec 31, 2022","Extracranial Cerebrovascular Testing, Peripheral Arterial Testing, Peripheral Venous Testing, Visceral Vascular Testing",,,,,,,,,,,,,,
42,43,Beaumont Medical Building,42.381689,-82.913133,granted,16815 E. Jefferson St.,,Grosse Pointe,MI,48230,USA,,,,echo,www.google.com/search?q=Beaumont+Medical+Building,Beaumont Medical Building Grosse Pointe,,,"Aug 31, 2023",Adult Transthoracic,,,,,,,,,,,,,,,,,,,,
43,44,Beaumont Medical Building Grosse Pointe,42.381689,-82.913133,granted,16815 E. Jefferson Ave.,Ste. L030,Grosse Pointe,MI,48230,USA,,beaumont.org,,vascular,,Beaumont Medical Building Grosse Pointe Grosse Pointe,,,,,,,,,"Jan 31, 2023","Extracranial Cerebrovascular Testing, Peripheral Arterial Testing, Peripheral Venous Testing",,,,,,,,,,,,,,
44,45,"Beaumont Michigan Heart Group, P.C.",42.588141,-83.170309,multigranted,4600 Investment Drive,Suite 200,Troy,MI,48098,USA,,www.mhgpc.com,,"echo, vascular, nuclear",,"Beaumont Michigan Heart Group, P.C. Troy",,,"Oct 31, 2023","Adult Stress, Adult Transthoracic",,,"Oct 31, 2024",Myocardial Perfusion Imaging,"May 31, 2024","Extracranial Cerebrovascular Testing, Peripheral Arterial Testing, Peripheral Venous Testing",,,,,,,,,,,,,,
45,46,Beaumont Northpointe Heart Center,42.496602,-83.165848,multigranted,27901 Woodward Avenue,Suite 300,Berkley,MI,48072,USA,,,,"vascular, echo, nuclear",www.google.com/search?q=Beaumont+Northpointe+Heart+Center,Beaumont Northpointe Heart Center Berkley,,,"Dec 31, 2023","Adult Stress, Adult Transthoracic",,,"Jan 31, 2024",Myocardial Perfusion Imaging,"Sep 30, 2023","Extracranial Cerebrovascular Testing, Peripheral Arterial Testing, Peripheral Venous Testing, Visceral Vascular Testing",,,,,,,,,,,,,,
46,47,Beaumont Northpointe Heart Center,42.618592,-83.091184,multigranted,44344 Dequindre Rd.,Suite 560,Sterling Heights,MI,48314,USA,,,,"vascular, echo",www.google.com/search?q=Beaumont+Northpointe+Heart+Center,Beaumont Northpointe Heart Center Sterling Heights,,,"Dec 31, 2023","Adult Stress, Adult Transthoracic",,,,,"Sep 30, 2023","Extracranial Cerebrovascular Testing, Peripheral Arterial Testing, Peripheral Venous Testing, Visceral Vascular Testing",,,,,,,,,,,,,,
47,48,Beaumont Vascular Surgery Center- Farmington Hills,42.341775,-83.394268,granted,28100 Grand River,Suite 200,Farmington Hills,MI,48336,USA,,,,vascular,www.google.com/search?q=Beaumont+Vascular+Surgery+Center-+Farmington+Hills,Beaumont Vascular Surgery Center- Farmington Hills Farmington Hills,,,,,,,,,"Jul 31, 2025","Extracranial Cerebrovascular Testing, Peripheral Arterial Testing",,,,,,,,,,,,,,
48,49,Beaumont West - Bloomfield,42.537191,-83.360492,granted,6900 Orchard Lake Road,,West Bloomfield,MI,48322,USA,,beaumont.edu,,vascular,,Beaumont West - Bloomfield West Bloomfield,,,,,,,,,"Dec 31, 2024","Extracranial Cerebrovascular Testing, Peripheral Arterial Testing, Peripheral Venous Testing, Visceral Vascular Testing",,,,,,,,,,,,,,
49,50,Beaumont Western Wayne Heart Group,42.467852,-83.4375,granted,39500 10 Mile Road,Suite 103,Novi,MI,48375,USA,,www.mhgpc.com,,nuclear,,Beaumont Western Wayne Heart Group Novi,,,,,,,"Oct 31, 2024",Myocardial Perfusion Imaging,,,,,,,,,,,,,,,,
50,51,"Bloomfield Vein and Vascular, PLLC",42.609074,-83.269165,granted,"43700 Woodward Blvd, Suite 207",,Bloomfield Hills,MI,48085,USA,,,,vascular,"www.google.com/search?q=Bloomfield+Vein+and+Vascular,+PLLC","Bloomfield Vein and Vascular, PLLC Bloomfield Hills",,,,,,,,,"Feb 28, 2023","Peripheral Arterial Testing, Peripheral Venous Testing",,,,,,,,,,,,,,
51,52,Bronson Advanced Cardiac Healthcare,42.286165,-85.581333,granted,601 John Street,Suite 100,Kalamazoo,MI,49007,USA,,,,echo,www.google.com/search?q=Bronson+Advanced+Cardiac+Healthcare,Bronson Advanced Cardiac Healthcare Kalamazoo,,,"May 31, 2025",Adult Transthoracic,,,,,,,,,,,,,,,,,,,,
52,53,Bronson Battle Creek Hospital,42.330559,-85.180405,granted,300 North Avenue,,Battle Creek,MI,49017,USA,,,,echo,www.google.com/search?q=Bronson+Battle+Creek+Hospital,Bronson Battle Creek Hospital Battle Creek,,,"May 31, 2025",Adult Transthoracic,,,,,,,,,,,,,,,,,,,,
53,54,Bronson Battle Creek Non Invasive Vascular Lab,42.330618,-85.180404,granted,300 North Ave,,Battle Creek,MI,49017,USA,,,,vascular,www.google.com/search?q=Bronson+Battle+Creek+Non+Invasive+Vascular+Lab,Bronson Battle Creek Non Invasive Vascular Lab Battle Creek,,,,,,,,,"Oct 31, 2023","Extracranial Cerebrovascular Testing, Peripheral Arterial Testing, Peripheral Venous Testing",,,,,,,,,,,,,,
54,55,Bronson Battle Creek Vascular and Endovascular Specialists,42.333645,-85.177613,granted,363 Fremont Street,Suite 101,Battle Creek,MI,49017,USA,,,,vascular,www.google.com/search?q=Bronson+Battle+Creek+Vascular+and+Endovascular+Specialists,Bronson Battle Creek Vascular and Endovascular Specialists Battle Creek,,,,,,,,,"Oct 31, 2023","Extracranial Cerebrovascular Testing, Peripheral Arterial Testing, Peripheral Venous Testing",,,,,,,,,,,,,,
55,56,"Bronson Cardiothoracic, Vascular and Endovascular Specialists",42.299047,-85.588389,granted,601 John Street,Ste M-460,269-341-7333,MI,49007,USA,,bronsonhealth.com,,vascular,,"Bronson Cardiothoracic, Vascular and Endovascular Specialists 269-341-7333",,,,,,,,,"Oct 31, 2023","Extracranial Cerebrovascular Testing, Peripheral Arterial Testing, Peripheral Venous Testing",,,,,,,,,,,,,,
56,57,Bronson Lakeview Hospital,42.221002,-85.897993,granted,408 Hazen Street,,Paw Paw,MI,49079,USA,,,,vascular,www.google.com/search?q=Bronson+Lakeview+Hospital,Bronson Lakeview Hospital Paw Paw,,,,,,,,,"Oct 31, 2023","Extracranial Cerebrovascular Testing, Peripheral Arterial Testing, Peripheral Venous Testing",,,,,,,,,,,,,,
57,58,Bronson Methodist Hospital,42.286165,-85.581333,granted,601 John Street,,Kalamazoo,MI,49007,USA,,,,pediatric_echo,www.google.com/search?q=Bronson+Methodist+Hospital,Bronson Methodist Hospital Kalamazoo,,,"May 31, 2025",Adult Transthoracic,,,,,,,"Apr 30, 2025",Pediatric Transthoracic,,,,,,,,,,,,
58,59,Bronson Methodist Hospital,42.286165,-85.581333,granted,601 John Street Suite 100,,Kalamazoo,MI,49007,USA,,,,nuclear,www.google.com/search?q=Bronson+Methodist+Hospital,Bronson Methodist Hospital Kalamazoo,,,,,,,"Oct 30, 2022",Myocardial Perfusion Imaging,,,,,,,,,,,,,,,,
59,60,Bronson Methodist Hospital,42.286165,-85.581333,granted,601 John Street,,Kalamazoo,MI,49007,USA,,,,vascular,www.google.com/search?q=Bronson+Methodist+Hospital,Bronson Methodist Hospital Kalamazoo,,,,,,,,,"Oct 31, 2023","Extracranial Cerebrovascular Testing, Intracranial Cerebrovascular Testing, Peripheral Arterial Testing, Peripheral Venous Testing",,,,,,,,,,,,,,
60,61,C.S. Mott Children’s Hospital,42.281672,-83.728476,granted,1540 East Hospital Dr.,,Ann Arbor,MI,48109,USA,,www.mottchildren.org/conditions-treatments/ped-heart,,cardiac_electrophysiology,,C.S. Mott Children’s Hospital Ann Arbor,,,,,,,,,,,,,,,,,,,"Jul 31, 2023","Testing and Ablation, Device Implantation, Chronic Lead Extraction",,,,
61,62,Canton Health Center,42.294573,-83.486588,granted,1600 Canton Center Road,1600 Canton Center Road,Canton,MI,48188,USA,,none,,vascular,,Canton Health Center Canton,,,,,,,,,"Apr 30, 2024","Extracranial Cerebrovascular Testing, Peripheral Arterial Testing, Peripheral Venous Testing, Visceral Vascular Testing",,,,,,,,,,,,,,
62,63,Capital Cardiology PC,42.733611,-84.534151,granted,1200 East Michigan Avenue,Suite- 725,Lansing,MI,48912,USA,,,,echo,www.google.com/search?q=Capital+Cardiology+PC,Capital Cardiology PC Lansing,,,"Feb 29, 2024",Adult Transthoracic,,,,,,,,,,,,,,,,,,,,
63,64,"Capital Cardiology, PC",42.733611,-84.534151,granted,1200 East Michigan Avenue,,Lansing,MI,48912,USA,,www.capitalcardiologypc.com,,nuclear,,"Capital Cardiology, PC Lansing",,,,,,,"Jan 31, 2024",Myocardial Perfusion Imaging,,,,,,,,,,,,,,,,
64,65,"Cardiology and Vascular Associates, P.C.",42.600387,-83.261355,multigranted,"42557 Woodward Avenue, Ste 100",,Bloomfield Hills,MI,48304,USA,,www.cava.cc,,"echo, vascular, nuclear",,"Cardiology and Vascular Associates, P.C. Bloomfield Hills",,,"Jan 29, 2023","Adult Stress, Adult Transthoracic",,,"Dec 31, 2024","Equilibrium Radionuclide Angiography, Myocardial Perfusion Imaging","Jul 31, 2024","Extracranial Cerebrovascular Testing, Peripheral Arterial Testing, Peripheral Venous Testing",,,,,,,,,,,,,,
65,66,"Cardiology and Vascular Associates, P.C.",42.728345,-83.376727,multigranted,5701 Bow Pointe Drive,Suite 205,Clarkston,MI,48346,USA,,www.cava.cc,,"echo, vascular, nuclear",,"Cardiology and Vascular Associates, P.C. Clarkston",,,"Jan 29, 2023","Adult Stress, Adult Transthoracic",,,"Dec 31, 2024","Equilibrium Radionuclide Angiography, Myocardial Perfusion Imaging","Jul 31, 2024","Extracranial Cerebrovascular Testing, Peripheral Arterial Testing, Peripheral Venous Testing",,,,,,,,,,,,,,
66,67,"Cardiology and Vascular Associates,PC",42.592298,-83.449507,granted,8390 Commerce Rd,Suite110B,Commerce Charter TWP,MI,48382,USA,,,,echo,"www.google.com/search?q=Cardiology+and+Vascular+Associates,PC","Cardiology and Vascular Associates,PC Commerce Charter TWP",,,"Jan 29, 2023",Adult Transthoracic,,,,,,,,,,,,,,,,,,,,
67,68,Cardiology Associates of Birmingham,42.525121,-83.285401,granted,32270 Telegraph Road,Suite 100,Bingham Farms,MI,48025,USA,,,,nuclear,www.google.com/search?q=Cardiology+Associates+of+Birmingham,Cardiology Associates of Birmingham Bingham Farms,,,,,,,"Nov 30, 2022",Myocardial Perfusion Imaging,,,,,,,,,,,,,,,,
68,69,"Cardiology Associates of Michigan, PC",42.789116,-82.480434,granted,4014 River Road,Building 2B,East China,MI,48054,USA,,,,echo,"www.google.com/search?q=Cardiology+Associates+of+Michigan,+PC","Cardiology Associates of Michigan, PC East China",,,"Sep 30, 2024","Adult Stress, Adult Transthoracic",,,,,,,,,,,,,,,,,,,,
69,70,"Cardiology Associates of Michigan, PC",42.670274,-82.994662,multigranted,"50505 Schoenherr Road, Suite 320",,Shelby Township,MI,48315,USA,,www.cardofmich.com,,"nuclear, echo",,"Cardiology Associates of Michigan, PC Shelby Township",,,"Sep 30, 2024","Adult Stress, Adult Transthoracic",,,"Nov 30, 2022","Equilibrium Radionuclide Angiography, Myocardial Perfusion Imaging",,,,,,,,,,,,,,,,
70,71,"Cardiology Associates of Michigan, PC",42.485428,-82.927435,multigranted,"25910 Kelly Road, Suite B",,Roseville,MI,48066,USA,,www.cardofmich.com,,"nuclear, echo",,"Cardiology Associates of Michigan, PC Roseville",,,"Sep 30, 2024","Adult Stress, Adult Transthoracic",,,"Nov 30, 2022","Equilibrium Radionuclide Angiography, Myocardial Perfusion Imaging",,,,,,,,,,,,,,,,
71,72,"Cardiology Associates of Port Huron, PC",42.986543,-82.433854,granted,1222 Tenth Avenue,,Port Huron,MI,48060,USA,,,,echo,"www.google.com/search?q=Cardiology+Associates+of+Port+Huron,+PC","Cardiology Associates of Port Huron, PC Port Huron",,,"Jul 31, 2024",Adult Transthoracic,,,,,,,,,,,,,,,,,,,,
72,73,"Cardiology Associates of Port Huron, PC",42.986543,-82.433854,granted,1222 Tenth Avenue,,Port Huron,MI,48060,USA,,,,nuclear,"www.google.com/search?q=Cardiology+Associates+of+Port+Huron,+PC","Cardiology Associates of Port Huron, PC Port Huron",,,,,,,"Sep 30, 2023",Myocardial Perfusion Imaging,,,,,,,,,,,,,,,,
73,74,Cardiology Consultants of East Michigan,43.058456,-83.333328,granted,1031 Suncrest Drive,,Lapeer,MI,48446,USA,,ccemonline.com,,echo,,Cardiology Consultants of East Michigan Lapeer,,,"Mar 31, 2023","Adult Stress, Adult Transthoracic",,,,,,,,,,,,,,,,,,,,
74,75,Cardiology Consultants of East Michigan,42.996847,-83.772553,granted,2222 S. Linden Rd,,Flint,MI,48532,USA,,,,echo,www.google.com/search?q=Cardiology+Consultants+of+East+Michigan,Cardiology Consultants of East Michigan Flint,,,"Mar 31, 2023",Adult Transthoracic,,,,,,,,,,,,,,,,,,,,
75,76,"Cardiology Consultants of East Michigan, PLLC",43.058456,-83.333328,granted,1031 Suncrest Drive,,Lapeer,MI,48446,USA,,,,nuclear,"www.google.com/search?q=Cardiology+Consultants+of+East+Michigan,+PLLC","Cardiology Consultants of East Michigan, PLLC Lapeer",,,,,,,"Aug 31, 2025",Myocardial Perfusion Imaging,,,,,,,,,,,,,,,,
76,77,Cardiology Consultants of Michigan,42.517715,-83.190978,granted,3535 West 13 Mile Road,Suite 232,Royal Oak,MI,48073,USA,,,,echo,www.google.com/search?q=Cardiology+Consultants+of+Michigan,Cardiology Consultants of Michigan Royal Oak,,,"Mar 31, 2024","Adult Stress, Adult Transthoracic",,,,,,,,,,,,,,,,,,,,
77,78,Cardiology Group of Lansing,42.733613,-84.529841,granted,1433 E. Michigan Ave,,Lansing,MI,48912,USA,,,,nuclear,www.google.com/search?q=Cardiology+Group+of+Lansing,Cardiology Group of Lansing Lansing,,,,,,,"Mar 31, 2024",Myocardial Perfusion Imaging,,,,,,,,,,,,,,,,
78,79,Cardiology Institute of Michigan,42.947792,-83.721134,granted,G-5100 Gateway Centre,,Flint,MI,48507,USA,,www.cimich.com,,echo,,Cardiology Institute of Michigan Flint,,,"Jan 29, 2023","Adult Stress, Adult Transthoracic",,,,,,,,,,,,,,,,,,,,
79,80,"Cardiology Institute of Michigan, PLLC",42.948507,-83.721197,granted,5100 Gateway Center Dr.,,Flint,MI,48507,USA,,,,vascular,"www.google.com/search?q=Cardiology+Institute+of+Michigan,+PLLC","Cardiology Institute of Michigan, PLLC Flint",,,,,,,,,"Jul 31, 2024","Extracranial Cerebrovascular Testing, Peripheral Arterial Testing",,,,,,,,,,,,,,
80,81,"Cardiology Institute of Michigan, PLLC",42.948507,-83.721197,granted,5100 Gateway Centre Drive,,Flint,MI,48507,USA,,www.cimich.com,,nuclear,,"Cardiology Institute of Michigan, PLLC Flint",,,,,,,"Mar 31, 2025",Myocardial Perfusion Imaging,,,,,,,,,,,,,,,,
81,82,"Cardiovascular Associates, P.C.",42.488612,-83.261432,granted,27177 Lahser Rd.,Suite 103,Southfield,MI,48034,USA,,,,echo,"www.google.com/search?q=Cardiovascular+Associates,+P.C.","Cardiovascular Associates, P.C. Southfield",,,"Feb 28, 2025",Adult Transthoracic,,,,,,,,,,,,,,,,,,,,
82,83,"Cardiovascular Associates, P.C.",42.488612,-83.261432,granted,"27177 Lahser Road, Ste 103",,Southfield,MI,48034,USA,,,,nuclear,"www.google.com/search?q=Cardiovascular+Associates,+P.C.","Cardiovascular Associates, P.C. Southfield",,,,,,,"Jul 31, 2024","Equilibrium Radionuclide Angiography, Myocardial Perfusion Imaging",,,,,,,,,,,,,,,,
83,84,"Cardiovascular Associates, Pc",42.488612,-83.261432,granted,27177 Lahser Road,Suite 103,Southfield,MI,48034,USA,,,,vascular,"www.google.com/search?q=Cardiovascular+Associates,+Pc","Cardiovascular Associates, Pc Southfield",,,,,,,,,"Apr 30, 2024","Extracranial Cerebrovascular Testing, Peripheral Arterial Testing",,,,,,,,,,,,,,
84,85,"Cardiovascular Care Associates, PLC",42.890007,-83.599719,granted,9450 South Saginaw Road,Suite E,Grand Blanc,MI,48439,USA,,,,nuclear,"www.google.com/search?q=Cardiovascular+Care+Associates,+PLC","Cardiovascular Care Associates, PLC Grand Blanc",,,,,,,"Dec 31, 2023",Myocardial Perfusion Imaging,,,,,,,,,,,,,,,,
85,86,"Cardiovascular Clinical Associates, PC",42.443647,-83.324833,granted,17880 Farmington Road,,Livonia,MI,48152,USA,,,,echo,"www.google.com/search?q=Cardiovascular+Clinical+Associates,+PC","Cardiovascular Clinical Associates, PC Livonia",,,"Mar 31, 2023","Adult Stress, Adult Transthoracic",,,,,,,,,,,,,,,,,,,,
86,87,"Cardiovascular Clinical Associates, PC",42.443647,-83.324833,granted,17880 Farmington Road,,Livonia,MI,48152,USA,,www.heartdrs.com,,vascular,,"Cardiovascular Clinical Associates, PC Livonia",,,,,,,,,"Feb 28, 2025","Extracranial Cerebrovascular Testing, Peripheral Arterial Testing, Peripheral Venous Testing",,,,,,,,,,,,,,
87,88,"Cardiovascular Consultants, P.C.",42.569814,-82.989293,granted,"37771 Schoenherr, Ste 101",,Sterling Heights,MI,48312,USA,,,,echo,"www.google.com/search?q=Cardiovascular+Consultants,+P.C.","Cardiovascular Consultants, P.C. Sterling Heights",,,"Feb 28, 2023",Adult Transthoracic,,,,,,,,,,,,,,,,,,,,
88,89,"Cardiovascular Consultants, PC",42.569485,-82.989794,granted,37771 Schoenherr,Suite 101,Sterling Heights,MI,48312,USA,,,,nuclear,"www.google.com/search?q=Cardiovascular+Consultants,+PC","Cardiovascular Consultants, PC Sterling Heights",,,,,,,"Mar 31, 2025",Myocardial Perfusion Imaging,,,,,,,,,,,,,,,,
89,90,"Cardiovascular Consultants, PC",42.719368,-83.035669,granted,57850 Van Dyke,Suite 400,Washington Twp.,MI,48094,USA,,,,nuclear,"www.google.com/search?q=Cardiovascular+Consultants,+PC","Cardiovascular Consultants, PC Washington Twp.",,,,,,,"Mar 31, 2025",Myocardial Perfusion Imaging,,,,,,,,,,,,,,,,
90,91,"CardioVascular Consultants, PC",42.719372,-83.035672,granted,57850 Van Dyke Suite 400,,Washington Twp.,MI,48094,USA,,,,echo,"www.google.com/search?q=CardioVascular+Consultants,+PC","CardioVascular Consultants, PC Washington Twp.",,,"Feb 28, 2023",Adult Transthoracic,,,,,,,,,,,,,,,,,,,,
91,92,Cardiovascular Institute of Michigan,42.614853,-82.953011,granted,43230 Garfield Road,Suite 150,Clinton Township,MI,48038,USA,,,,echo,www.google.com/search?q=Cardiovascular+Institute+of+Michigan,Cardiovascular Institute of Michigan Clinton Township,,,"Dec 30, 2022",Adult Transthoracic,,,,,,,,,,,,,,,,,,,,
92,93,Cardiovascular Institute of Michigan,42.480037,-82.933076,granted,18303 East 10 Mile Road,Suite 100,Roseville,MI,48066,USA,,,,echo,www.google.com/search?q=Cardiovascular+Institute+of+Michigan,Cardiovascular Institute of Michigan Roseville,,,"Dec 30, 2022",Adult Transthoracic,,,,,,,,,,,,,,,,,,,,
93,94,"Cardiovascular Institute of Michigan, P.C.",42.614853,-82.953011,granted,43230 Garfield Road,Suite 150,Clinton Township,MI,48038,USA,,,,nuclear,"www.google.com/search?q=Cardiovascular+Institute+of+Michigan,+P.C.","Cardiovascular Institute of Michigan, P.C. Clinton Township",,,,,,,"Feb 29, 2024",Myocardial Perfusion Imaging,,,,,,,,,,,,,,,,
94,95,"Cardiovascular Institute of Michigan, P.C.",42.480037,-82.933076,granted,18303 10 Mile Road,Suite 100,Roseville,MI,48066,USA,,,,nuclear,"www.google.com/search?q=Cardiovascular+Institute+of+Michigan,+P.C.","Cardiovascular Institute of Michigan, P.C. Roseville",,,,,,,"Feb 29, 2024",Myocardial Perfusion Imaging,,,,,,,,,,,,,,,,
95,96,Cardiovascular Institute of Novi,42.490337,-83.518291,granted,"47601 Grand River Avenue, Suite C206",,Novi,MI,48374,USA,,,,echo,www.google.com/search?q=Cardiovascular+Institute+of+Novi,Cardiovascular Institute of Novi Novi,,,"Jan 31, 2023","Adult Stress, Adult Transthoracic",,,,,,,,,,,,,,,,,,,,
96,97,Center for Vascular Medicine,42.25724,-83.211596,granted,6801 Allen Road,,Allen Park,MI,48101,USA,,,,vascular,www.google.com/search?q=Center+for+Vascular+Medicine,Center for Vascular Medicine Allen Park,,,,,,,,,"Dec 31, 2023",Peripheral Arterial Testing,,,,,,,,,,,,,,
97,98,Charlevoix Hospital,45.680076,-84.727058,granted,14700 Lakeshore Drive,,Charlevoix,MI,49720,USA,,,,echo,www.google.com/search?q=Charlevoix+Hospital,Charlevoix Hospital Charlevoix,,,"Jul 31, 2024","Adult Stress, Adult Transthoracic",,,,,,,,,,,,,,,,,,,,
98,99,Children’s Hospital of Michigan,42.351816,-83.053758,granted,3901 Beaubien,,Detroit,MI,48201,USA,,,,pediatric_echo,www.google.com/search?q=Children’s+Hospital+of+Michigan,Children’s Hospital of Michigan Detroit,,,,,,,,,,,"Dec 30, 2022","Pediatric Transesophageal, Pediatric Transthoracic, Fetal",,,,,,,,,,,,
99,100,Complete Health Systems,43.014629,-83.775801,granted,5084 Villa Linde Pkwy Suite 7,,Flint,MI,48532,USA,,,,nuclear,www.google.com/search?q=Complete+Health+Systems,Complete Health Systems Flint,,,,,,,"Mar 31, 2023",Myocardial Perfusion Imaging,,,,,,,,,,,,,,,,
100,101,Comprehensive Vascular and Endovascular Care,42.456399,-83.206611,granted,"22250 Providence Drive, Suite 555",,Southfield,MI,48075,USA,,www.compvasccare.org,,vascular,,Comprehensive Vascular and Endovascular Care Southfield,,,,,,,,,"Aug 31, 2023","Extracranial Cerebrovascular Testing, Peripheral Arterial Testing, Peripheral Venous Testing",,,,,,,,,,,,,,
101,102,Comprehensive Vascular Care and Endovascular Care,42.48441,-83.522499,granted,26850 Providence Parkway Suite 405,,Novi,MI,48374,USA,,www.compvasccare.org,,vascular,,Comprehensive Vascular Care and Endovascular Care Novi,,,,,,,,,"Aug 31, 2023","Extracranial Cerebrovascular Testing, Peripheral Arterial Testing, Peripheral Venous Testing",,,,,,,,,,,,,,
102,103,Covenant Cardiology,43.430395,-83.953886,granted,900 Cooper Suite 4100,,Saginaw,MI,48602,USA,,,,vascular,www.google.com/search?q=Covenant+Cardiology,Covenant Cardiology Saginaw,,,,,,,,,"Jan 31, 2024","Extracranial Cerebrovascular Testing, Peripheral Venous Testing",,,,,,,,,,,,,,
103,104,Covenant Cardiology - Alma,43.397968,-84.658081,granted,1910 Pine Avenue,,Alma,MI,48801,USA,,www.covenantheart.com,,echo,,Covenant Cardiology - Alma Alma,,,"Aug 31, 2023","Adult Stress, Adult Transthoracic",,,,,,,,,,,,,,,,,,,,
104,105,Covenant Cardiology - Bay City,43.623999,-83.934972,granted,2919 Wilder Road,Suite 210,Bay City,MI,48706,USA,,,,echo,www.google.com/search?q=Covenant+Cardiology+-+Bay+City,Covenant Cardiology - Bay City Bay City,,,"Aug 31, 2023","Adult Stress, Adult Transthoracic",,,,,,,,,,,,,,,,,,,,
105,106,Covenant Cardiology - Berl Drive,43.478354,-83.967579,granted,4884 Berl Drive,,Saginaw,MI,48604,USA,,,,echo,www.google.com/search?q=Covenant+Cardiology+-+Berl+Drive,Covenant Cardiology - Berl Drive Saginaw,,,"Aug 31, 2023","Adult Stress, Adult Transthoracic",,,,,,,,,,,,,,,,,,,,
106,107,Covenant Cardiology - Cooper,43.430395,-83.953782,granted,900 Cooper Avenue,Suite 4100,Saginaw,MI,48602,USA,,,,echo,www.google.com/search?q=Covenant+Cardiology+-+Cooper,Covenant Cardiology - Cooper Saginaw,,,"Aug 31, 2023","Adult Stress, Adult Transthoracic",,,,,,,,,,,,,,,,,,,,
107,108,Covenant Cardiology - Frankenmuth,43.345412,-83.738241,granted,600 North Main Street,Suite 220B,Frankenmuth,MI,48734,USA,,,,echo,www.google.com/search?q=Covenant+Cardiology+-+Frankenmuth,Covenant Cardiology - Frankenmuth Frankenmuth,,,"Aug 31, 2023",Adult Transthoracic,,,,,,,,,,,,,,,,,,,,
108,109,Covenant Center for the Heart,43.428097,-83.955548,granted,1447 N Harrison,,Saginaw,MI,48602,USA,,,,echo,www.google.com/search?q=Covenant+Center+for+the+Heart,Covenant Center for the Heart Saginaw,,,"Aug 31, 2023","Adult Stress, Adult Transesophageal, Adult Transthoracic",,,,,,,,,,,,,,,,,,,,
109,110,Covenant Center for the Heart Physician Group,43.430395,-83.953782,granted,900 Cooper Avenue,Suite 4100,Saginaw,MI,48602,USA,,,,nuclear,www.google.com/search?q=Covenant+Center+for+the+Heart+Physician+Group,Covenant Center for the Heart Physician Group Saginaw,,,,,,,"Jan 31, 2023",Myocardial Perfusion Imaging,,,,,,,,,,,,,,,,
110,111,Dearborn Cardiology,42.303131,-83.241311,multigranted,5250 Auto Club Dr.,Suite 300,Dearborn,MI,48126,USA,,,,"nuclear, echo",www.google.com/search?q=Dearborn+Cardiology,Dearborn Cardiology Dearborn,,,"Apr 30, 2024","Adult Stress, Adult Transthoracic",,,"Nov 30, 2022","Equilibrium Radionuclide Angiography, Myocardial Perfusion Imaging",,,,,,,,,,,,,,,,
111,112,Dearborn Cardiology,42.50343,-83.175527,granted,"1695 12 Mile Rd, Suite 245",,Berkley,MI,48072,,,,,nuclear,www.google.com/search?q=Dearborn+Cardiology,Dearborn Cardiology Berkley,,,,,,,"Nov 30, 2022","Equilibrium Radionuclide Angiography, Myocardial Perfusion Imaging",,,,,,,,,,,,,,,,
112,113,Dearborn Cardiology,42.242967,-83.255592,granted,9029 Pardee,,Taylor,MI,48180,,,,,nuclear,www.google.com/search?q=Dearborn+Cardiology,Dearborn Cardiology Taylor,,,,,,,"Nov 30, 2022","Equilibrium Radionuclide Angiography, Myocardial Perfusion Imaging",,,,,,,,,,,,,,,,
113,114,Dearborn Cardiology Associates,42.303131,-83.241311,granted,"5250 Auto Club Drive, Suite 300",,Dearborn,MI,48126,USA,,www.dearborncardiology.com,,vascular,,Dearborn Cardiology Associates Dearborn,,,,,,,,,"Oct 31, 2024","Extracranial Cerebrovascular Testing, Peripheral Arterial Testing",,,,,,,,,,,,,,
114,115,Downriver Heart and Vascular Specialists,42.198449,-83.18044,multigranted,15150 Fort Street,,Southgate,MI,48195,USA,,,,"nuclear, echo, vascular",www.google.com/search?q=Downriver+Heart+and+Vascular+Specialists,Downriver Heart and Vascular Specialists Southgate,,,"May 31, 2025","Adult Stress, Adult Transthoracic",,,"Mar 31, 2024",Myocardial Perfusion Imaging,"Jul 31, 2025","Extracranial Cerebrovascular Testing, Peripheral Arterial Testing",,,,,,,,,,,,,,
115,116,"Dr. Vinod Kohli, MD, PC",42.469042,-83.026928,granted,23700 Van Dyke,,Warren,MI,48089,USA,,,,nuclear,"www.google.com/search?q=Dr.+Vinod+Kohli,+MD,+PC","Dr. Vinod Kohli, MD, PC Warren",,,,,,,"Dec 31, 2023",Myocardial Perfusion Imaging,,,,,,,,,,,,,,,,
116,117,"Eastlake Cardiovascular, P.C.",42.487283,-82.927519,granted,25990 Kelly Rd. Suite 3,,Roseville,MI,48066,USA,,,,vascular,"www.google.com/search?q=Eastlake+Cardiovascular,+P.C.","Eastlake Cardiovascular, P.C. Roseville",,,,,,,,,"Jan 31, 2024","Peripheral Arterial Testing, Peripheral Venous Testing",,,,,,,,,,,,,,
117,118,"Eastlake Cardiovascular, P.C.",42.474603,-82.906959,granted,24211 Little Mack,,St. Clair Shores,MI,48080,USA,,,,vascular,"www.google.com/search?q=Eastlake+Cardiovascular,+P.C.","Eastlake Cardiovascular, P.C. St. Clair Shores",,,,,,,,,"Mar 31, 2023","Extracranial Cerebrovascular Testing, Peripheral Arterial Testing, Peripheral Venous Testing",,,,,,,,,,,,,,
118,119,"Eastlake Cardiovascular, PC",42.474603,-82.906959,granted,24211 Little Mack,,Saint Clair Shores,MI,48080,USA,,,,nuclear,"www.google.com/search?q=Eastlake+Cardiovascular,+PC","Eastlake Cardiovascular, PC Saint Clair Shores",,,,,,,"Sep 30, 2024",Myocardial Perfusion Imaging,,,,,,,,,,,,,,,,
119,120,"Eastlake Cardiovascular, PC",42.474603,-82.906959,granted,24211 Little Mack,,St. Clair Shores,MI,48080,USA,,www.eastlakecv.com,,echo,,"Eastlake Cardiovascular, PC St. Clair Shores",,,"Nov 30, 2023","Adult Stress, Adult Transthoracic",,,,,,,,,,,,,,,,,,,,
120,121,"Eastside Cardiovascular Medicine, PC",42.481706,-82.92731,granted,25195 Kelly Road,,Roseville,MI,48066,USA,,www.eastsidecardiovascular.com,,echo,,"Eastside Cardiovascular Medicine, PC Roseville",,,"Jan 31, 2025","Adult Stress, Adult Transthoracic",,,,,,,,,,,,,,,,,,,,
121,122,Edward W. Sparrow Hospital Association,42.733611,-84.534151,granted,1140 E. Michigan Ave.,Suite 400,Lansing,MI,48912,USA,,,,echo,www.google.com/search?q=Edward+W.+Sparrow+Hospital+Association,Edward W. Sparrow Hospital Association Lansing,,,"Nov 29, 2022",Adult Transthoracic,,,,,,,,,,,,,,,,,,,,
122,123,Edward W. Sparrow Hospital Association,43.007329,-84.181863,granted,"300 Health Park, Suite 301",Owosso Heart Station,Owosso,MI,48867,USA,,,,echo,www.google.com/search?q=Edward+W.+Sparrow+Hospital+Association,Edward W. Sparrow Hospital Association Owosso,,,"Nov 29, 2022",Adult Transthoracic,,,,,,,,,,,,,,,,,,,,
123,124,Edward W. Sparrow Hospital dba Thoracic Cardiovascular Institute,42.704738,-84.55579,granted,1140 E. Michigan Ave,Suite 400,Lansing,MI,48912,USA,,www.tciheart.com,,nuclear,,Edward W. Sparrow Hospital dba Thoracic Cardiovascular Institute Lansing,,,,,,,"Apr 30, 2024","Equilibrium Radionuclide Angiography, Myocardial Perfusion Imaging",,,,,,,,,,,,,,,,
124,125,"Envision Diagnostic Center, PLLC",42.510865,-83.436864,granted,29409 Haggerty Road,Suite 100,Novi,MI,48377,USA,,,,echo,"www.google.com/search?q=Envision+Diagnostic+Center,+PLLC","Envision Diagnostic Center, PLLC Novi",,,"Nov 30, 2024","Adult Stress, Adult Transthoracic",,,,,,,,,,,,,,,,,,,,
125,126,"Flint Cardiovascular Consultants, PC",43.011188,-83.770757,granted,4455 Town Center Pkwy,,Flint,MI,48532,USA,,,,echo,"www.google.com/search?q=Flint+Cardiovascular+Consultants,+PC","Flint Cardiovascular Consultants, PC Flint",,,"Nov 30, 2022",Adult Transthoracic,,,,,,,,,,,,,,,,,,,,
126,127,"Flint Vascular Surgery, PLLC",43.00803,-83.772834,granted,1325 S. Linden Rd,,Flint,MI,48532,USA,,,,vascular,"www.google.com/search?q=Flint+Vascular+Surgery,+PLLC","Flint Vascular Surgery, PLLC Flint",,,,,,,,,"Apr 30, 2025","Extracranial Cerebrovascular Testing, Peripheral Arterial Testing, Peripheral Venous Testing, Visceral Vascular Testing",,,,,,,,,,,,,,
127,128,Garden City Hospital,42.332356,-83.311771,granted,6245 Inkster Road,,Garden City,MI,48135,USA,,www.gchosp.org,,echo,,Garden City Hospital Garden City,,,"Dec 31, 2022","Adult Stress, Adult Transthoracic",,,,,,,,,,,,,,,,,,,,
128,129,Genesys Heart Center,42.894053,-83.635194,granted,3399 Pollock Road,,Grand Blanc,MI,48439,USA,,,,nuclear,www.google.com/search?q=Genesys+Heart+Center,Genesys Heart Center Grand Blanc,,,,,,,"Jun 30, 2024","Equilibrium Radionuclide Angiography, Myocardial Perfusion Imaging",,,,,,,,,,,,,,,,
129,130,Genesys Regional Medical Center,42.892981,-83.636819,granted,One Genesys Parkway,,Grand Blanc,MI,48439,USA,,,,echo,www.google.com/search?q=Genesys+Regional+Medical+Center,Genesys Regional Medical Center Grand Blanc,,,"Mar 31, 2023","Adult Stress, Adult Transesophageal, Adult Transthoracic",,,,,,,,,,,,,,,,,,,,
130,131,Goldman and Miller Cardiology,42.513931,-83.352816,granted,30335 W 13 Mile Road,Suite 103,Farmington Hills,MI,48334,USA,,,,nuclear,www.google.com/search?q=Goldman+and+Miller+Cardiology,Goldman and Miller Cardiology Farmington Hills,,,,,,,"Oct 30, 2022","Equilibrium Radionuclide Angiography, Myocardial Perfusion Imaging",,,,,,,,,,,,,,,,
131,132,Grayling Hospital,44.667251,-84.707939,granted,1100 E Michigan Avenue,,Grayling,MI,49738,USA,,,,echo,www.google.com/search?q=Grayling+Hospital,Grayling Hospital Grayling,,,"Jul 31, 2024",Adult Transthoracic,,,,,,,,,,,,,,,,,,,,
132,133,Greater Cardiology,42.906326,-85.743155,granted,655 Kenmoor Ave SE,#101,Grand Rapids,MI,49546,USA,,www.grcardiology.com,,echo,,Greater Cardiology Grand Rapids,,,"Nov 30, 2024","Adult Stress, Adult Transthoracic",,,,,,,,,,,,,,,,,,,,
133,134,"H. Joseph Blair, MD, PC",43.426495,-83.976289,granted,2000 Court Street,,Saginaw,MI,48602,USA,,,,echo,"www.google.com/search?q=H.+Joseph+Blair,+MD,+PC","H. Joseph Blair, MD, PC Saginaw",,,"Jan 31, 2024","Adult Stress, Adult Transthoracic",,,,,,,,,,,,,,,,,,,,
134,135,Heart and Vascular Consultants,42.352058,-83.058288,multigranted,4160 John R Ste. 724,,Detroit,MI,48201,USA,,,,"echo, vascular",www.google.com/search?q=Heart+and+Vascular+Consultants,Heart and Vascular Consultants Detroit,,,"Mar 31, 2023",Adult Transthoracic,,,,,"May 31, 2024","Extracranial Cerebrovascular Testing, Peripheral Arterial Testing",,,,,,,,,,,,,,
135,136,Heart and Vascular Consultants,42.352058,-83.058288,granted,4160 John R St,Suite 724,Detroit,MI,48201,USA,,,,nuclear,www.google.com/search?q=Heart+and+Vascular+Consultants,Heart and Vascular Consultants Detroit,,,,,,,"Feb 29, 2024",Myocardial Perfusion Imaging,,,,,,,,,,,,,,,,
136,137,Heart and Vascular Institute of Michigan,42.993809,-83.774614,granted,2340 Stonebridge Drive,Bldg H,Flint,MI,48532,USA,,,,echo,www.google.com/search?q=Heart+and+Vascular+Institute+of+Michigan,Heart and Vascular Institute of Michigan Flint,,,"Jan 31, 2024",Adult Transthoracic,,,,,,,,,,,,,,,,,,,,
137,138,Heart and Vascular Institute of Michigan,43.059618,-83.333279,granted,1075 Suncrest Drive,Suite C,Lapeer,MI,48446,USA,,,,echo,www.google.com/search?q=Heart+and+Vascular+Institute+of+Michigan,Heart and Vascular Institute of Michigan Lapeer,,,"Jan 31, 2024",Adult Transthoracic,,,,,,,,,,,,,,,,,,,,
138,139,Heart and Vascular Institute of Michigan,43.059618,-83.333279,granted,1075 Suncrest Drive,,Lapeer,MI,48446,USA,,www.hvimi.com,,vascular,,Heart and Vascular Institute of Michigan Lapeer,,,,,,,,,"Sep 30, 2022","Extracranial Cerebrovascular Testing, Peripheral Arterial Testing, Peripheral Venous Testing",,,,,,,,,,,,,,
139,140,Heart and Vascular Institute PLLC,42.281427,-83.386321,multigranted,"4020 Venoy Road, Suite 200",,Wayne,MI,48184,USA,,www.heartteam.com,,"nuclear, echo",,Heart and Vascular Institute PLLC Wayne,,,"Oct 31, 2023","Adult Stress, Adult Transthoracic",,,"Apr 30, 2023",Myocardial Perfusion Imaging,,,,,,,,,,,,,,,,
140,141,"Heart and Vascular Institute, PLLC",42.501896,-83.244032,granted,20240 W 12 Mile Rd,,Southfield,MI,48076,USA,,www.heartteam.com,,vascular,,"Heart and Vascular Institute, PLLC Southfield",,,,,,,,,"Dec 31, 2024","Extracranial Cerebrovascular Testing, Peripheral Arterial Testing, Peripheral Venous Testing, Visceral Vascular Testing",,,,,,,,,,,,,,
141,142,"Heart and Vascular Institute, PLLC",42.352058,-83.058288,granted,4160 John R Street,Suite 510,Detroit,MI,48201,USA,,,,vascular,"www.google.com/search?q=Heart+and+Vascular+Institute,+PLLC","Heart and Vascular Institute, PLLC Detroit",,,,,,,,,"Dec 31, 2024","Extracranial Cerebrovascular Testing, Peripheral Arterial Testing, Peripheral Venous Testing, Visceral Vascular Testing",,,,,,,,,,,,,,
142,143,"Heart and Vascular Institute, PLLC",42.30354,-83.255696,granted,22720 Michigan Ave,Ste 200,Dearborn,MI,48124,USA,,,,vascular,"www.google.com/search?q=Heart+and+Vascular+Institute,+PLLC","Heart and Vascular Institute, PLLC Dearborn",,,,,,,,,"Dec 31, 2024","Extracranial Cerebrovascular Testing, Peripheral Arterial Testing, Peripheral Venous Testing, Visceral Vascular Testing",,,,,,,,,,,,,,
143,144,"Heart Cardiology Consultants, PC",42.581865,-83.874312,multigranted,1225 S. Latson Road,Suite 230,Howell,MI,48843,USA,,,,"echo, vascular","www.google.com/search?q=Heart+Cardiology+Consultants,+PC","Heart Cardiology Consultants, PC Howell",,,"Nov 30, 2022",Adult Transthoracic,,,,,"May 31, 2024","Extracranial Cerebrovascular Testing, Peripheral Arterial Testing, Peripheral Venous Testing",,,,,,,,,,,,,,
144,145,"Heart Cardiology Consultants, PC",42.456399,-83.206611,multigranted,22250 Providence Drive 705,,Southfield,MI,48075,USA,,,,"echo, vascular","www.google.com/search?q=Heart+Cardiology+Consultants,+PC","Heart Cardiology Consultants, PC Southfield",,,"Nov 30, 2022","Adult Stress, Adult Transthoracic",,,,,"May 31, 2024","Extracranial Cerebrovascular Testing, Peripheral Arterial Testing, Peripheral Venous Testing",,,,,,,,,,,,,,
145,146,Heart Care,42.65941,-83.422374,multigranted,6889 Highland Road,,Waterford,MI,48327,USA,,,,"echo, nuclear",www.google.com/search?q=Heart+Care,Heart Care Waterford,,,"Jul 31, 2023",Adult Transthoracic,,,"Nov 30, 2024","Equilibrium Radionuclide Angiography, Myocardial Perfusion Imaging",,,,,,,,,,,,,,,,
146,147,Heart Rhythm and Pacemaker Specialist,42.485094,-82.927419,granted,25689 Kelly Rd  Suite D,,Roseville,MI,48066,USA,,Hearttoheartnuclearcardiologygmail.com,,nuclear,,Heart Rhythm and Pacemaker Specialist Roseville,,,,,,,"Jul 31, 2025",Myocardial Perfusion Imaging,,,,,,,,,,,,,,,,
147,148,"Heart Rhythm Clinic of Michigan, PC",43.005788,-83.772776,multigranted,1386 Linden Road,,Flint,MI,48532,USA,,www.hrcmichigan.com,,"nuclear, echo",,"Heart Rhythm Clinic of Michigan, PC Flint",,,"Nov 30, 2023",Adult Transthoracic,,,"May 31, 2023",Myocardial Perfusion Imaging,,,,,,,,,,,,,,,,
148,149,Helen DeVos Children’s Hospital,43.005017,-84.179579,granted,802 West King Street,Suite K,Owosso,MI,48867,USA,,,,pediatric_echo,www.google.com/search?q=Helen+DeVos+Children’s+Hospital,Helen DeVos Children’s Hospital Owosso,,,,,,,,,,,"Apr 30, 2024",Pediatric Transthoracic,,,,,,,,,,,,
149,150,Helen DeVos Children’s Hospital,42.804795,-86.08327,granted,588 East Lakewood Blvd,,Holland,MI,49424,USA,,,,pediatric_echo,www.google.com/search?q=Helen+DeVos+Children’s+Hospital,Helen DeVos Children’s Hospital Holland,,,,,,,,,,,"Apr 30, 2024",Pediatric Transthoracic,,,,,,,,,,,,
150,151,Helen DeVos Children’s Hospital,42.677582,-84.501387,granted,3960 Patient Care Drive,Suite 113,Lansing,MI,48911,USA,,,,pediatric_echo,www.google.com/search?q=Helen+DeVos+Children’s+Hospital,Helen DeVos Children’s Hospital Lansing,,,,,,,,,,,"Apr 30, 2024","Pediatric Transthoracic, Fetal",,,,,,,,,,,,
151,152,Helen DeVos Children’s Hospital,43.290427,-86.213398,granted,2009 Holton Road,,Muskegon,MI,49445,USA,,,,pediatric_echo,www.google.com/search?q=Helen+DeVos+Children’s+Hospital,Helen DeVos Children’s Hospital Muskegon,,,,,,,,,,,"Apr 30, 2024",Pediatric Transthoracic,,,,,,,,,,,,
152,153,Helen DeVos Children’s Hospital,42.04686,-86.455881,granted,3950 Hollywood Road,Suite 240,St Joseph,MI,49085,USA,,,,pediatric_echo,www.google.com/search?q=Helen+DeVos+Children’s+Hospital,Helen DeVos Children’s Hospital St Joseph,,,,,,,,,,,"Apr 30, 2024",Pediatric Transthoracic,,,,,,,,,,,,
153,154,Helen DeVos Children’s Hospital,43.877329,-85.518715,granted,225 State Street,,Reed City,MI,49677,USA,,,,pediatric_echo,www.google.com/search?q=Helen+DeVos+Children’s+Hospital,Helen DeVos Children’s Hospital Reed City,,,,,,,,,,,"Apr 30, 2024",Pediatric Transthoracic,,,,,,,,,,,,
154,155,Helen DeVos Children’s Hospital,43.590535,-84.767506,granted,1205 South Mission Street,Suite 4,Mt Pleasant,MI,48858,USA,,,,pediatric_echo,www.google.com/search?q=Helen+DeVos+Children’s+Hospital,Helen DeVos Children’s Hospital Mt Pleasant,,,,,,,,,,,"Apr 30, 2024",Pediatric Transthoracic,,,,,,,,,,,,
155,156,Helen DeVos Children’s Hospital,42.970527,-85.665319,granted,"100 Michigan Avenue, NE",,Grand Rapids,MI,49503,USA,,www.spectrumhealth.org/patient-care/childrens-health/congenital-heart-center,,pediatric_echo,,Helen DeVos Children’s Hospital Grand Rapids,,,,,,,,,,,"Apr 30, 2024","Pediatric Transesophageal, Pediatric Transthoracic, Fetal",,,,,,,,,,,,
156,157,Henry Ford Allegiance Health Vascular Laboratory,42.250356,-84.393603,granted,205 N. East Ave.,,Jackson,MI,49201,USA,,,,vascular,www.google.com/search?q=Henry+Ford+Allegiance+Health+Vascular+Laboratory,Henry Ford Allegiance Health Vascular Laboratory Jackson,,,,,,,,,"Feb 28, 2025","Extracranial Cerebrovascular Testing, Peripheral Arterial Testing, Peripheral Venous Testing, Visceral Vascular Testing",,,,,,,,,,,,,,
157,158,Henry Ford Allegiance Health Vascular Laboratory,42.245597,-84.412158,granted,300 West Washington Avenue,Suite 350,Jackson,MI,49201,USA,,,,vascular,www.google.com/search?q=Henry+Ford+Allegiance+Health+Vascular+Laboratory,Henry Ford Allegiance Health Vascular Laboratory Jackson,,,,,,,,,"Feb 28, 2025","Extracranial Cerebrovascular Testing, Peripheral Arterial Testing, Peripheral Venous Testing, Visceral Vascular Testing",,,,,,,,,,,,,,
158,159,Henry Ford Cottage,42.397063,-82.901184,granted,159 Kercheval,,Grosse Pointe Farms,MI,48236,USA,,www.henryfordhealth.org/body.cfm?id=49696,,vascular,,Henry Ford Cottage Grosse Pointe Farms,,,,,,,,,"Oct 31, 2023","Extracranial Cerebrovascular Testing, Peripheral Arterial Testing, Peripheral Venous Testing",,,,,,,,,,,,,,
159,160,Henry Ford Health Cardiology Diagnostics Jackson,42.247792,-84.389913,granted,309 Page Avenue,,Jackson,MI,49201,USA,,,,echo,www.google.com/search?q=Henry+Ford+Health+Cardiology+Diagnostics+Jackson,Henry Ford Health Cardiology Diagnostics Jackson Jackson,,,"Oct 31, 2023","Adult Stress, Adult Transthoracic",,,,,,,,,,,,,,,,,,,,
160,161,Henry Ford Health Jackson,42.250206,-84.393546,granted,205 N. East Ave.,,Jackson,MI,49201,USA,,,,echo,www.google.com/search?q=Henry+Ford+Health+Jackson,Henry Ford Health Jackson Jackson,,,"Oct 31, 2023","Adult Stress, Adult Transesophageal, Adult Transthoracic",,,,,,,,,,,,,,,,,,,,
161,162,Henry Ford Health System,42.612671,-82.963405,granted,15855 Nineteen Mile Road,,Clinton Township,MI,48038,USA,,,,echo,www.google.com/search?q=Henry+Ford+Health+System,Henry Ford Health System Clinton Township,,,"Aug 31, 2024","Adult Stress, Adult Transesophageal, Adult Transthoracic",,,,,,,,,,,,,,,,,,,,
162,163,Henry Ford Hospital,42.366114,-83.084592,granted,2799 West Grand Boulevard,K-14 Cardiology,Detroit,MI,48202,USA,,,,echo,www.google.com/search?q=Henry+Ford+Hospital,Henry Ford Hospital Detroit,,,"Jan 31, 2024","Adult Stress, Adult Transesophageal, Adult Transthoracic",,,,,,,,,,,,,,,,,,,,
163,164,Henry Ford Hospital,42.366114,-83.084592,granted,2799 West Grand Boulevard,,Detroit,MI,48082,USA,,www.henryfordhealth.org/body.cfm?id=49696,,vascular,,Henry Ford Hospital Detroit,,,,,,,,,"Oct 31, 2023","Extracranial Cerebrovascular Testing, Peripheral Arterial Testing, Peripheral Venous Testing, Visceral Vascular Testing",,,,,,,,,,,,,,
164,165,Henry Ford Hospital West Bloomfield Vascular Laboratory,42.541451,-83.409433,granted,6777 W. Maple,,West Bloomfield,MI,48322,USA,,,,vascular,www.google.com/search?q=Henry+Ford+Hospital+West+Bloomfield+Vascular+Laboratory,Henry Ford Hospital West Bloomfield Vascular Laboratory West Bloomfield,,,,,,,,,"Jun 30, 2024","Extracranial Cerebrovascular Testing, Peripheral Arterial Testing, Peripheral Venous Testing",,,,,,,,,,,,,,
165,166,Henry Ford Hospital-Fairlane,42.3213,-83.228239,granted,19401 Hubbard Drive,,Dearborn,MI,48075,USA,,www.henryfordhealth.org/body.cfm?id=49696,,vascular,,Henry Ford Hospital-Fairlane Dearborn,,,,,,,,,"Oct 31, 2023","Extracranial Cerebrovascular Testing, Peripheral Arterial Testing, Peripheral Venous Testing, Visceral Vascular Testing",,,,,,,,,,,,,,
166,167,Henry Ford Hospital-Sterling Heights,42.550553,-83.073243,granted,3500 15 Mile,,Sterling Hgts,MI,48310,USA,,www.henryfordhealth.org/body.cfm?id=49696,,vascular,,Henry Ford Hospital-Sterling Heights Sterling Hgts,,,,,,,,,"Oct 31, 2023","Extracranial Cerebrovascular Testing, Peripheral Arterial Testing, Peripheral Venous Testing, Visceral Vascular Testing",,,,,,,,,,,,,,
167,168,Henry Ford Macomb Ancillary Services,42.615828,-82.95304,granted,43421 Garfiled Rd. Suite 1,,Clinton Township,MI,48038,USA,,,,echo,www.google.com/search?q=Henry+Ford+Macomb+Ancillary+Services,Henry Ford Macomb Ancillary Services Clinton Township,,,"Oct 31, 2025",Adult Transthoracic,,,,,,,,,,,,,,,,,,,,
168,169,Henry Ford Macomb Hospitals,42.612671,-82.963405,granted,15855 Nineteen Mile Road,,Clinton Township,MI,48038,USA,,,,vascular,www.google.com/search?q=Henry+Ford+Macomb+Hospitals,Henry Ford Macomb Hospitals Clinton Township,,,,,,,,,"Jun 30, 2023","Extracranial Cerebrovascular Testing, Peripheral Arterial Testing, Peripheral Venous Testing",,,,,,,,,,,,,,
169,170,Henry Ford Macomb Imaging Center Mt Clemens,42.592936,-82.880062,granted,133 South Main,Suite A,Mt. Clemens,MI,48043,USA,,,,echo,www.google.com/search?q=Henry+Ford+Macomb+Imaging+Center+Mt+Clemens,Henry Ford Macomb Imaging Center Mt Clemens Mt. Clemens,,,"Oct 31, 2025","Adult Stress, Adult Transthoracic",,,,,,,,,,,,,,,,,,,,
170,171,Henry Ford Macomb Imaging Center-Mt. Clemens,42.592936,-82.880062,granted,"133 S. Main, Suite A",,Mt. Clemens,MI,48043,USA,,,,nuclear,www.google.com/search?q=Henry+Ford+Macomb+Imaging+Center-Mt.+Clemens,Henry Ford Macomb Imaging Center-Mt. Clemens Mt. Clemens,,,,,,,"Apr 30, 2023",Myocardial Perfusion Imaging,,,,,,,,,,,,,,,,
171,172,Henry Ford Medical Center-Cottage Hospital,42.396112,-82.901901,granted,131 Kercheval Ave,,Grosse Pointe Farms,MI,48236,USA,,,,echo,www.google.com/search?q=Henry+Ford+Medical+Center-Cottage+Hospital,Henry Ford Medical Center-Cottage Hospital Grosse Pointe Farms,,,"Jan 31, 2024","Adult Stress, Adult Transthoracic",,,,,,,,,,,,,,,,,,,,
172,173,Henry Ford Medical Center-Fairlane,42.3213,-83.228239,granted,19401 Hubbard Drive,,Dearborn,MI,48126,USA,,,,echo,www.google.com/search?q=Henry+Ford+Medical+Center-Fairlane,Henry Ford Medical Center-Fairlane Dearborn,,,"Jan 31, 2024","Adult Stress, Adult Transthoracic",,,,,,,,,,,,,,,,,,,,
173,174,Henry Ford Medical Center-Livonia,42.384023,-83.330053,granted,29200 Schoolcraft Rd,,Livonia,MI,48150,USA,,,,echo,www.google.com/search?q=Henry+Ford+Medical+Center-Livonia,Henry Ford Medical Center-Livonia Livonia,,,"Jan 31, 2024","Adult Stress, Adult Transthoracic",,,,,,,,,,,,,,,,,,,,
174,175,Henry Ford Medical Center-Sterling Heights,42.565381,-83.068128,granted,3500 Fifteen Mile Rd,,Sterling Heights,MI,48310,USA,,,,echo,www.google.com/search?q=Henry+Ford+Medical+Center-Sterling+Heights,Henry Ford Medical Center-Sterling Heights Sterling Heights,,,"Jan 31, 2024","Adult Stress, Adult Transthoracic",,,,,,,,,,,,,,,,,,,,
175,176,Henry Ford West Bloomfield Hospital,42.543912,-83.321006,granted,6777 W Maple Rd.,,West Bloomfield Township,MI,48322,USA,,,,echo,www.google.com/search?q=Henry+Ford+West+Bloomfield+Hospital,Henry Ford West Bloomfield Hospital West Bloomfield Township,,,"Jan 31, 2024","Adult Stress, Adult Transesophageal, Adult Transthoracic",,,,,,,,,,,,,,,,,,,,
176,177,Henry Ford Wyandotte Cardiology Brownstown,42.138257,-83.257723,granted,23050 West Road,Suite120,Brownstown,MI,48183,USA,,www.downrivercardiology.com,,echo,,Henry Ford Wyandotte Cardiology Brownstown Brownstown,,,"Dec 31, 2022",Adult Transthoracic,,,,,,,,,,,,,,,,,,,,
177,178,Henry Ford Wyandotte Downriver Cardiology,42.138247,-83.257552,granted,23050 West Road,Suite 120,Brownstown,MI,48183,USA,,,,nuclear,www.google.com/search?q=Henry+Ford+Wyandotte+Downriver+Cardiology,Henry Ford Wyandotte Downriver Cardiology Brownstown,,,,,,,"Jan 31, 2024",Myocardial Perfusion Imaging,,,,,,,,,,,,,,,,
178,179,Henry Ford Wyandotte Hospital,42.209694,-83.148776,granted,2333 Biddle street,,Wyandotte,MI,48192,USA,,,,echo,www.google.com/search?q=Henry+Ford+Wyandotte+Hospital,Henry Ford Wyandotte Hospital Wyandotte,,,"Jan 31, 2024","Adult Stress, Adult Transthoracic",,,,,,,,,,,,,,,,,,,,
179,180,Henry Ford Wyandotte Hospital,42.209694,-83.148776,multigranted,2333 Biddle,,Wyandotte,MI,48192,USA,,,,"echo, vascular",www.google.com/search?q=Henry+Ford+Wyandotte+Hospital,Henry Ford Wyandotte Hospital Wyandotte,,,"Dec 31, 2023","Adult Stress, Adult Transesophageal, Adult Transthoracic",,,,,"Apr 30, 2024","Extracranial Cerebrovascular Testing, Peripheral Arterial Testing, Peripheral Venous Testing",,,,,,,,,,,,,,
180,181,Huron Valley Sinai Hospital,42.59269,-83.499839,granted,1 William Carls Drive,Ground Floor Regional Specialty Center,Commerce,MI,48382,USA,,,,echo,www.google.com/search?q=Huron+Valley+Sinai+Hospital,Huron Valley Sinai Hospital Commerce,,,"Aug 31, 2024","Adult Stress, Adult Transthoracic",,,,,,,,,,,,,,,,,,,,
181,182,Jackson Cardiology Consultants,42.248875,-84.390294,multigranted,205 Page Avenue,,Jackson,MI,49201,USA,,,,"vascular, echo",www.google.com/search?q=Jackson+Cardiology+Consultants,Jackson Cardiology Consultants Jackson,,,"Apr 30, 2024",Adult Transthoracic,,,,,"Oct 30, 2022 | Aug 31, 2025",Peripheral Arterial Testing | Extracranial Cerebrovascular Testing,,,,,,,,,,,,,,
182,183,Kalkaska Memorial Health Center,44.730897,-85.183837,granted,419 South Coral,,Kalkaska,MI,49646,USA,,,,echo,www.google.com/search?q=Kalkaska+Memorial+Health+Center,Kalkaska Memorial Health Center Kalkaska,,,"Jul 31, 2024",Adult Transthoracic,,,,,,,,,,,,,,,,,,,,
183,184,Lake Huron Medical Center,42.955785,-82.431961,granted,2601 Electric Avenue,,Port Huron,MI,48060,USA,,,,echo,www.google.com/search?q=Lake+Huron+Medical+Center,Lake Huron Medical Center Port Huron,,,"Dec 30, 2022",Adult Transthoracic,,,,,,,,,,,,,,,,,,,,
184,185,Lakeland Heart and Vascular,42.046852,-86.455838,granted,"3950 Hollywood Rd, Suite 110",,St. Joseph,MI,49085,USA,,,,vascular,www.google.com/search?q=Lakeland+Heart+and+Vascular,Lakeland Heart and Vascular St. Joseph,,,,,,,,,"Feb 29, 2024",Extracranial Cerebrovascular Testing,,,,,,,,,,,,,,
185,186,Lakeshore Vascular Services,42.072578,-86.477088,granted,2500 Niles Road,Suite 1,St. Joseph,MI,49085,USA,,lakeshorectsurgery.com,,vascular,,Lakeshore Vascular Services St. Joseph,,,,,,,,,"Jul 31, 2023","Extracranial Cerebrovascular Testing, Peripheral Arterial Testing, Visceral Vascular Testing",,,,,,,,,,,,,,
186,187,Lansing Cardiovascular Consultants Pc Holt,42.650319,-84.527797,granted,2380 Cedar St,,Holt,MI,48842,USA,,,,nuclear,www.google.com/search?q=Lansing+Cardiovascular+Consultants+Pc+Holt,Lansing Cardiovascular Consultants Pc Holt Holt,,,,,,,"Nov 30, 2023",Myocardial Perfusion Imaging,,,,,,,,,,,,,,,,
187,188,"Lansing Cardiovascular Consultants, PC",42.650313,-84.527789,granted,2380 N Cedar Street,,Holt,MI,48842,USA,,,,echo,"www.google.com/search?q=Lansing+Cardiovascular+Consultants,+PC","Lansing Cardiovascular Consultants, PC Holt",,,"Sep 29, 2022",Adult Transthoracic,,,,,,,,,,,,,,,,,,,,
188,189,"Lansing Cardiovascular Consultants, PC",42.680832,-84.441099,granted,3413 WoodsEdge Drive,,Okemos,MI,48864,USA,,,,echo,"www.google.com/search?q=Lansing+Cardiovascular+Consultants,+PC","Lansing Cardiovascular Consultants, PC Okemos",,,"Sep 29, 2022",Adult Transthoracic,,,,,,,,,,,,,,,,,,,,
189,190,"Macomb Surgical Associates, PC",42.57155,-82.951037,granted,37400 Garfield,Suite 120,Clinton Twp.,MI,48036,USA,,,,vascular,"www.google.com/search?q=Macomb+Surgical+Associates,+PC","Macomb Surgical Associates, PC Clinton Twp.",,,,,,,,,"Sep 30, 2023","Extracranial Cerebrovascular Testing, Peripheral Arterial Testing, Peripheral Venous Testing",,,,,,,,,,,,,,
190,191,McLaren Bay Heart and Vascular West Branch,44.268998,-84.242514,granted,2110 S M-76,,West Branch,MI,48661,USA,,,,vascular,www.google.com/search?q=McLaren+Bay+Heart+and+Vascular+West+Branch,McLaren Bay Heart and Vascular West Branch West Branch,,,,,,,,,"Sep 29, 2022","Extracranial Cerebrovascular Testing, Peripheral Arterial Testing, Visceral Vascular Testing",,,,,,,,,,,,,,
191,192,McLaren Bay Region,43.589393,-83.868688,granted,1900 Columbus Ave,,Bay City,MI,48708,USA,,,,vascular,www.google.com/search?q=McLaren+Bay+Region,McLaren Bay Region Bay City,,,,,,,,,"Sep 29, 2022","Extracranial Cerebrovascular Testing, Peripheral Arterial Testing, Visceral Vascular Testing",,,,,,,,,,,,,,
192,193,McLaren Bay Region,43.589393,-83.868688,granted,1900 Columbus Avenue,,Bay City,MI,48706,USA,,www.bayregional.org,,echo,,McLaren Bay Region Bay City,,,"Sep 29, 2022",Adult Transthoracic,,,,,,,,,,,,,,,,,,,,
193,194,McLaren Cardiovascular Group,42.6844,-84.428572,multigranted,2134 Hampton Place,,Okemos,MI,48864,USA,,,,"nuclear, echo",www.google.com/search?q=McLaren+Cardiovascular+Group,McLaren Cardiovascular Group Okemos,,,"Jun 30, 2025",Adult Transthoracic,,,"Dec 31, 2022","Equilibrium Radionuclide Angiography, Myocardial Perfusion Imaging",,,,,,,,,,,,,,,,
194,195,McLaren Cardiovascular Institue,42.660283,-83.390728,multigranted,5210 Highland Rd,,Waterford Twp,MI,48327,USA,,,,"vascular, echo",www.google.com/search?q=McLaren+Cardiovascular+Institue,McLaren Cardiovascular Institue Waterford Twp,,,"Aug 31, 2024",Adult Transthoracic,,,,,"Jun 30, 2024","Extracranial Cerebrovascular Testing, Peripheral Arterial Testing, Peripheral Venous Testing",,,,,,,,,,,,,,
195,196,Mclaren Cardiovascular Institute,42.586894,-82.897596,granted,1030 Harrington,Suite 101,Mount Clemens,MI,48043,USA,,,,echo,www.google.com/search?q=Mclaren+Cardiovascular+Institute,Mclaren Cardiovascular Institute Mount Clemens,,,"Jan 31, 2024","Adult Stress, Adult Transthoracic",,,,,,,,,,,,,,,,,,,,
196,197,Mclaren Macomb,42.586795,-82.896919,granted,1000 Harrington Rd,,Mt. Clemens,MI,48043,USA,,mclaren.org,,echo,,Mclaren Macomb Mt. Clemens,,,"Jan 31, 2024","Adult Stress, Adult Transesophageal, Adult Transthoracic",,,,,,,,,,,,,,,,,,,,
197,198,McLaren Northern Michigan,45.373477,-84.969152,granted,416 Connable Ave.,,Petoskey,MI,49770,USA,,www.northernhealth.org,,echo,,McLaren Northern Michigan Petoskey,,,"Mar 31, 2023","Adult Stress, Adult Transesophageal, Adult Transthoracic",,,,,,,,,,,,,,,,,,,,
198,199,McLaren Oakland,42.638394,-83.291095,multigranted,50 North Perry,,Pontiac,MI,48342,USA,,,,"vascular, echo",www.google.com/search?q=McLaren+Oakland,McLaren Oakland Pontiac,,,"Aug 31, 2024","Adult Stress, Adult Transesophageal, Adult Transthoracic",,,,,"Jun 30, 2024","Extracranial Cerebrovascular Testing, Peripheral Arterial Testing, Peripheral Venous Testing",,,,,,,,,,,,,,
199,200,Mclaren Port Huron Thoracic and Cardiovascular Surgery,42.985785,-82.430742,granted,1107 Stone St,Suite 1,Port Huron,MI,48060,USA,,,,vascular,www.google.com/search?q=Mclaren+Port+Huron+Thoracic+and+Cardiovascular+Surgery,Mclaren Port Huron Thoracic and Cardiovascular Surgery Port Huron,,,,,,,,,"Dec 31, 2023","Extracranial Cerebrovascular Testing, Peripheral Arterial Testing",,,,,,,,,,,,,,
200,201,McLaren-Flint,43.014187,-83.733578,multigranted,401 South Ballenger Hwy.; 2-North,,Flint,MI,48532,USA,,,,"vascular, echo",www.google.com/search?q=McLaren-Flint,McLaren-Flint Flint,,,"Dec 31, 2024","Adult Transesophageal, Adult Transthoracic",,,,,"Nov 30, 2023","Extracranial Cerebrovascular Testing, Peripheral Arterial Testing, Peripheral Venous Testing",,,,,,,,,,,,,,
201,202,"Med - Share Diagnostics, Inc.",42.481526,-83.285336,granted,26222 Telegraph Road,,Southfield,MI,48033,USA,,,,vascular,"www.google.com/search?q=Med+-+Share+Diagnostics,+Inc.","Med - Share Diagnostics, Inc. Southfield",,,,,,,,,"Nov 29, 2022",Extracranial Cerebrovascular Testing,,,,,,,,,,,,,,
202,203,"Med - Share, Inc.",42.481526,-83.285336,granted,26222 Telegraph Road,Suite 100,Southfield,MI,48034,USA,,,,echo,"www.google.com/search?q=Med+-+Share,+Inc.","Med - Share, Inc. Southfield",,,"Aug 31, 2023",Adult Transthoracic,,,,,,,,,,,,,,,,,,,,
203,204,"Med-Share, Inc.",42.481526,-83.285336,granted,26222 Telegraph Rd.,Suite 100,Southfield,MI,48234,USA,,,,nuclear,"www.google.com/search?q=Med-Share,+Inc.","Med-Share, Inc. Southfield",,,,,,,"Dec 31, 2023",Myocardial Perfusion Imaging,,,,,,,,,,,,,,,,
204,205,"Medical Associates, PC",42.232826,-83.601981,granted,428 South Grove Road,,Ypsilanti,MI,48198,USA,,,,echo,"www.google.com/search?q=Medical+Associates,+PC","Medical Associates, PC Ypsilanti",,,"Feb 28, 2023",Adult Transthoracic,,,,,,,,,,,,,,,,,,,,
205,206,Mercy Health Muskegon,43.205023,-86.207626,granted,1500 East Sherman Boulevard,,Muskegon,MI,49444,USA,,,,echo,www.google.com/search?q=Mercy+Health+Muskegon,Mercy Health Muskegon Muskegon,,,"Aug 31, 2023",Adult Transthoracic,,,,,,,,,,,,,,,,,,,,
206,207,Mercy Health Partners Mercy Campus,43.205023,-86.207626,granted,1500 East Sherman Boulevard,,Muskegon,MI,49443,USA,,mercy-healthpartners.org,,vascular,,Mercy Health Partners Mercy Campus Muskegon,,,,,,,,,"May 31, 2024","Extracranial Cerebrovascular Testing, Peripheral Arterial Testing, Peripheral Venous Testing, Visceral Vascular Testing",,,,,,,,,,,,,,
207,208,Mercy Health Physician Partners Cardiovascular,42.944666,-85.570621,multigranted,1000 East Paris SE Suite 200,,Grand Rapids,MI,49546,USA,,www.mercyhealthphysicianpartners.com/grandrapids/physicians/cardiology,,"vascular, nuclear, echo",,Mercy Health Physician Partners Cardiovascular Grand Rapids,,,"Apr 30, 2025","Adult Stress, Adult Transesophageal, Adult Transthoracic",,,"Feb 29, 2024",Myocardial Perfusion Imaging,"Jan 31, 2024","Extracranial Cerebrovascular Testing, Peripheral Arterial Testing, Peripheral Venous Testing",,,,,,,,,,,,,,
208,209,Mercy Health Physician Partners Cardiovascular,42.855222,-85.689698,multigranted,2373 Sixty-Fourth St SW,Suite 2500,Byron Center,MI,49315,USA,,www.mercyhealthphysicianpartners.com/grandrapids/physicians/cardiology,,"vascular, echo",,Mercy Health Physician Partners Cardiovascular Byron Center,,,"Apr 30, 2025",Adult Transthoracic,,,,,"Jan 31, 2024","Extracranial Cerebrovascular Testing, Peripheral Arterial Testing, Peripheral Venous Testing",,,,,,,,,,,,,,
209,210,Mercy Health Physician Partners Vascular Surgery,42.956876,-85.66177,granted,310 Lafayette SE,Suite 301,Grand Rapids,MI,49503,USA,,,,vascular,www.google.com/search?q=Mercy+Health+Physician+Partners+Vascular+Surgery,Mercy Health Physician Partners Vascular Surgery Grand Rapids,,,,,,,,,"Jul 31, 2024","Extracranial Cerebrovascular Testing, Peripheral Arterial Testing, Peripheral Venous Testing",,,,,,,,,,,,,,
210,211,Mercy Health Physician Partners Vascular Surgery,42.965446,-85.670209,granted,2373 64th St.,Suite 1304,Wyoming,MI,49315,USA,,,,vascular,www.google.com/search?q=Mercy+Health+Physician+Partners+Vascular+Surgery,Mercy Health Physician Partners Vascular Surgery Wyoming,,,,,,,,,"Jul 31, 2024","Extracranial Cerebrovascular Testing, Peripheral Arterial Testing, Peripheral Venous Testing",,,,,,,,,,,,,,
211,212,Mercy Health Saint Marys,42.999275,-85.641896,granted,310 Laffayette SE,Suite 310,Grand Rapids,MI,49505,USA,,www.mercyhealthsaintmarys.com/saint-marys-cardiovascular,,echo,,Mercy Health Saint Marys Grand Rapids,,,"Apr 30, 2025","Adult Stress, Adult Transthoracic",,,,,,,,,,,,,,,,,,,,
212,213,Mercy Health Saint Marys,42.958252,-85.664114,granted,200 Jefferson SE,,Grand Rapids,MI,49503,USA,,www.mercyhealthsaintmarys.com/saint-marys-cardiovascular,,echo,,Mercy Health Saint Marys Grand Rapids,,,"Apr 30, 2025","Adult Stress, Adult Transesophageal, Adult Transthoracic",,,,,,,,,,,,,,,,,,,,
213,214,Mercy Health West Shore Cardiology Services,43.957044,-86.4293,granted,7 Atkinson Drive,,Ludington,MI,49431,USA,,,,nuclear,www.google.com/search?q=Mercy+Health+West+Shore+Cardiology+Services,Mercy Health West Shore Cardiology Services Ludington,,,,,,,"Jun 30, 2024",Myocardial Perfusion Imaging,,,,,,,,,,,,,,,,
214,215,Mercy Health West Shore Cardiology Services,43.206106,-86.214667,granted,2525 Roberts,,Muskegon,MI,49444,USA,,,,nuclear,www.google.com/search?q=Mercy+Health+West+Shore+Cardiology+Services,Mercy Health West Shore Cardiology Services Muskegon,,,,,,,"Jun 30, 2024",Myocardial Perfusion Imaging,,,,,,,,,,,,,,,,
215,216,Metro Health University of Michigan Health,42.858248,-85.722943,multigranted,5900 Byron Center Ave SW,,Wyoming,MI,49519,USA,,,,"nuclear, vascular, echo",www.google.com/search?q=Metro+Health+University+of+Michigan+Health,Metro Health University of Michigan Health Wyoming,,,"Mar 01, 2023","Adult Stress, Adult Transesophageal, Adult Transthoracic",,,"Nov 30, 2022","Equilibrium Radionuclide Angiography, Myocardial Perfusion Imaging","Dec 30, 2022","Extracranial Cerebrovascular Testing, Peripheral Arterial Testing, Peripheral Venous Testing",,,,,,,,,,,,,,
216,217,Metro Heart and Vascular at Greenville,43.177093,-85.284975,multigranted,1915 West Washington Street Suite 1,,Greenville,MI,48838,USA,,uofmhealthwest.org/locations/metro-heart-vascular-greenville/,,"nuclear, vascular, echo",,Metro Heart and Vascular at Greenville Greenville,,,"Mar 01, 2023","Adult Stress, Adult Transthoracic",,,"Nov 30, 2022",Myocardial Perfusion Imaging,"Dec 30, 2022","Extracranial Cerebrovascular Testing, Peripheral Arterial Testing, Peripheral Venous Testing",,,,,,,,,,,,,,
217,218,Metro Vein Centers,42.533093,-83.360317,granted,"7125 Orchard Lake Road, Suite 120",,West Bloomfield,MI,48322,USA,,metroveincenters.com,,vascular,,Metro Vein Centers West Bloomfield,,,,,,,,,"Sep 30, 2022",Peripheral Venous Testing,,,,,,,,,,,,,,
218,219,MHI at Prairie Ridge Medical Clinic,45.587876,-95.91531,granted,24 East 7th Street,,Morris,MI,56267,USA,,,,echo,www.google.com/search?q=MHI+at+Prairie+Ridge+Medical+Clinic,MHI at Prairie Ridge Medical Clinic Morris,,,"Oct 30, 2022",Adult Transthoracic,,,,,,,,,,,,,,,,,,,,
219,220,Michigan Canton Cardiology Associates,42.279247,-83.363085,granted,2050 N. Haggerty Rd,Suite B2,Canton,MI,48187,USA,,,,nuclear,www.google.com/search?q=Michigan+Canton+Cardiology+Associates,Michigan Canton Cardiology Associates Canton,,,,,,,"Jan 31, 2023",Myocardial Perfusion Imaging,,,,,,,,,,,,,,,,
220,221,Michigan Heart and Vascular Specialists,45.42381,-83.834393,multigranted,573 Bradley Highway,,Rogers City,MI,49779,USA,,www.michiganhvs.com,,"echo, vascular",,Michigan Heart and Vascular Specialists Rogers City,,,"Mar 31, 2023",Adult Transthoracic,,,,,"Apr 30, 2024","Peripheral Venous Testing, Screening",,,,,,,,,,,,,,
221,222,Michigan Heart and Vascular Specialists,45.371642,-84.970329,multigranted,560 West Mitchell Street,Burns Professional Building Suite 400,Petoskey,MI,49770,USA,,www.michiganhvs.com,,"echo, vascular, nuclear",,Michigan Heart and Vascular Specialists Petoskey,,,"Mar 31, 2023","Adult Stress, Adult Transesophageal, Adult Transthoracic",,,"Sep 30, 2024",Myocardial Perfusion Imaging,"Apr 30, 2024","Extracranial Cerebrovascular Testing, Peripheral Arterial Testing, Peripheral Venous Testing, Visceral Vascular Testing, Screening",,,,,,,,,,,,,,
222,223,Michigan Heart and Vascular Specialists,45.039389,-84.673856,multigranted,944 North Center St,,Gaylord,MI,49735,USA,,www.michiganhvs.com,,"echo, vascular",,Michigan Heart and Vascular Specialists Gaylord,,,"Mar 31, 2023",Adult Transthoracic,,,,,"Apr 30, 2024","Extracranial Cerebrovascular Testing, Peripheral Arterial Testing, Peripheral Venous Testing, Visceral Vascular Testing, Screening",,,,,,,,,,,,,,
223,224,Michigan Heart SJMHS,42.261192,-83.651454,granted,5325 Elliott Drive,Suite 202,Ann Arbor,MI,48197,USA,,michiganheart.com,,nuclear,,Michigan Heart SJMHS Ann Arbor,,,,,,,"Jan 29, 2023",Myocardial Perfusion Imaging,,,,,,,,,,,,,,,,
224,225,Michigan Heart SJMHS,42.565968,-83.802759,granted,7575 W. Grand River Road,Suite 206,Brighton,MI,48114,USA,,michiganheart.com,,nuclear,,Michigan Heart SJMHS Brighton,,,,,,,"Jan 29, 2023",Myocardial Perfusion Imaging,,,,,,,,,,,,,,,,
225,226,Michigan Heart SJMHS,42.294573,-83.486588,granted,1600 Canton Center Road,Suite 345,Canton,MI,48188,USA,,michiganheart.com,,nuclear,,Michigan Heart SJMHS Canton,,,,,,,"Jan 29, 2023",Myocardial Perfusion Imaging,,,,,,,,,,,,,,,,
226,227,Michigan Heart SJMHS,42.389135,-83.402572,granted,14555 Levan Road,"Marian Pavilion, Suite 203",Livonia,MI,48154,USA,,michiganheart.com,,nuclear,,Michigan Heart SJMHS Livonia,,,,,,,"Jan 29, 2023",Myocardial Perfusion Imaging,,,,,,,,,,,,,,,,
227,228,"Michigan Internal Medicine and Cardiology Associates, PC",42.620018,-83.243484,granted,2191 South Boulevard,,Auburn Hills,MI,48326,USA,,,,echo,"www.google.com/search?q=Michigan+Internal+Medicine+and+Cardiology+Associates,+PC","Michigan Internal Medicine and Cardiology Associates, PC Auburn Hills",,,"Mar 31, 2023",Adult Transthoracic,,,,,,,,,,,,,,,,,,,,
228,229,"Michigan Internal Medicine and Cardiology Associates, PC",42.620018,-83.243484,granted,2191 South Boulevard,,Auburn Hills,MI,48326,USA,,,,nuclear,"www.google.com/search?q=Michigan+Internal+Medicine+and+Cardiology+Associates,+PC","Michigan Internal Medicine and Cardiology Associates, PC Auburn Hills",,,,,,,"Jul 31, 2023",Myocardial Perfusion Imaging,,,,,,,,,,,,,,,,
229,230,Michigan Medicine Domino Farms Vascular Surgery Diagnostic Vascular Unit,42.317859,-83.682052,granted,24 Frank Lloyd Wright Dr.,Lobby A,Ann Arbor,MI,48106,USA,,,,vascular,www.google.com/search?q=Michigan+Medicine+Domino+Farms+Vascular+Surgery+Diagnostic+Vascular+Unit,Michigan Medicine Domino Farms Vascular Surgery Diagnostic Vascular Unit Ann Arbor,,,,,,,,,"Sep 30, 2024","Extracranial Cerebrovascular Testing, Peripheral Arterial Testing, Peripheral Venous Testing",,,,,,,,,,,,,,
230,231,Michigan Medicine Frankel Cardiovascular Center Vascular Surgery Diagnostic Vascular Unit,42.28534,-83.72904,granted,1500 E. Medical Center Dr.,CVC 3702A SPC 5857,Ann Arbor,MI,48109,USA,,,,vascular,www.google.com/search?q=Michigan+Medicine+Frankel+Cardiovascular+Center+Vascular+Surgery+Diagnostic+Vascular+Unit,Michigan Medicine Frankel Cardiovascular Center Vascular Surgery Diagnostic Vascular Unit Ann Arbor,,,,,,,,,"Sep 30, 2024","Extracranial Cerebrovascular Testing, Peripheral Arterial Testing, Peripheral Venous Testing",,,,,,,,,,,,,,
231,232,Michigan Medicine University Hospital Vascular Surgery Diagnostic Vascular Unit,42.28534,-83.72904,granted,1500 E. Medical Center Dr.,UH 2B42 SPC 5053,Ann Arbor,MI,48109,USA,,,,vascular,www.google.com/search?q=Michigan+Medicine+University+Hospital+Vascular+Surgery+Diagnostic+Vascular+Unit,Michigan Medicine University Hospital Vascular Surgery Diagnostic Vascular Unit Ann Arbor,,,,,,,,,"Sep 30, 2024","Extracranial Cerebrovascular Testing, Peripheral Arterial Testing, Peripheral Venous Testing",,,,,,,,,,,,,,
232,233,"Michigan Physicians Group, P.C.",42.503135,-83.18804,granted,2905 West 12 Mile Road,,Berkley,MI,48072,USA,,,,nuclear,"www.google.com/search?q=Michigan+Physicians+Group,+P.C.","Michigan Physicians Group, P.C. Berkley",,,,,,,"May 31, 2024",Myocardial Perfusion Imaging,,,,,,,,,,,,,,,,
233,234,"Michigan Physicians Group, PC Cardiovascular Imaging",42.5031363,-83.1882746,granted,2905 West Twelve Mile Road,,Berkley,MI,48072,USA,,www.mpghealthcare.org,,vascular,,"Michigan Physicians Group, PC Cardiovascular Imaging Berkley",,,,,,,,,"Feb 28, 2023","Extracranial Cerebrovascular Testing, Peripheral Arterial Testing, Peripheral Venous Testing, Visceral Vascular Testing",,,,,,,,,,,,,,
234,235,"Michigan Physicians Group, PC Cardiovascular Imaging",42.388908,-83.334826,granted,14325 Middlebelt Road,,Livonia,MI,48154,USA,,www.mpghealthcare.org,,vascular,,"Michigan Physicians Group, PC Cardiovascular Imaging Livonia",,,,,,,,,"Feb 28, 2023","Extracranial Cerebrovascular Testing, Peripheral Arterial Testing, Peripheral Venous Testing, Visceral Vascular Testing",,,,,,,,,,,,,,
235,236,Michigan Vascular Access Center,42.974234,-83.778738,granted,5202 Miller Road,,Flint,MI,48507,USA,,,,vascular,www.google.com/search?q=Michigan+Vascular+Access+Center,Michigan Vascular Access Center Flint,,,,,,,,,"Sep 30, 2023",Peripheral Venous Testing,,,,,,,,,,,,,,
236,237,Michigan Vascular Center,42.973916,-83.734633,granted,G 5020 W. Bristol Road,,Flint,MI,48507,USA,,,,vascular,www.google.com/search?q=Michigan+Vascular+Center,Michigan Vascular Center Flint,,,,,,,,,"Mar 31, 2025","Extracranial Cerebrovascular Testing, Peripheral Arterial Testing, Peripheral Venous Testing, Visceral Vascular Testing",,,,,,,,,,,,,,
237,238,Midwest Cardiology,42.325284,-83.343155,granted,30626 Ford Road,,Gardencity,MI,48135,USA,,,,echo,www.google.com/search?q=Midwest+Cardiology,Midwest Cardiology Gardencity,,,"Jan 31, 2023","Adult Stress, Adult Transthoracic",,,,,,,,,,,,,,,,,,,,
238,239,"Midwest Cardiology Assoc.,P.C.",42.325284,-83.343155,granted,30626 Ford Rd.,,Garden City,MI,48135,USA,,,,nuclear,"www.google.com/search?q=Midwest+Cardiology+Assoc.,P.C.","Midwest Cardiology Assoc.,P.C. Garden City",,,,,,,"Aug 31, 2023","Equilibrium Radionuclide Angiography, Myocardial Perfusion Imaging",,,,,,,,,,,,,,,,
239,240,Millennium Cardiology a Division of Michigan Healthcare Professionals,42.523538,-83.348278,granted,32255 Northwestern Highway,Suite 115,Farmington Hills,MI,48334,USA,,,,echo,www.google.com/search?q=Millennium+Cardiology+a+Division+of+Michigan+Healthcare+Professionals,Millennium Cardiology a Division of Michigan Healthcare Professionals Farmington Hills,,,"Jan 31, 2023",Adult Transthoracic,,,,,,,,,,,,,,,,,,,,
240,241,Miller Vein,42.494761,-83.50432,granted,25500 Meadowbrook Rd,Suite 215,Novi,MI,48375,USA,,www.millervein.com,,vascular,,Miller Vein Novi,,,,,,,,,"Jun 30, 2024",Peripheral Venous Testing,,,,,,,,,,,,,,
241,242,Miller Vein,42.261571,-83.590926,granted,4870 Clark Suite 102,,Ypsilanti,MI,48197,USA,,,,vascular,www.google.com/search?q=Miller+Vein,Miller Vein Ypsilanti,,,,,,,,,"Jun 30, 2024",Peripheral Venous Testing,,,,,,,,,,,,,,
242,243,Miller Vein,42.306131,-83.241113,granted,22731 Newman,Suite 250,Dearborn,MI,48124,USA,,,,vascular,www.google.com/search?q=Miller+Vein,Miller Vein Dearborn,,,,,,,,,"Jun 30, 2024",Peripheral Venous Testing,,,,,,,,,,,,,,
243,244,Miller Vein,42.548237,-83.150486,granted,230 W Maple Road,Suite 202,Troy,MI,48084,USA,,www.millervein.com,,vascular,,Miller Vein Troy,,,,,,,,,"Jun 30, 2024",Peripheral Venous Testing,,,,,,,,,,,,,,
244,245,Miller Vein,41.929736,-83.390235,granted,1040 N. Monroe Street,,Monroe,MI,48162,USA,,millervein.com,,vascular,,Miller Vein Monroe,,,,,,,,,"Jun 30, 2024",Peripheral Venous Testing,,,,,,,,,,,,,,
245,246,"Miller Vein, Macomb Township",42.640439,-82.936327,granted,17900 23 Mile Road,Suite 406,Macomb Township,MI,48044,USA,,www.millervein.com,,vascular,,"Miller Vein, Macomb Township Macomb Township",,,,,,,,,"Jun 30, 2024",Peripheral Venous Testing,,,,,,,,,,,,,,
246,247,Munson Healthcare Cadillac,44.246148,-85.390456,granted,400 Hobart Street,,Cadillac,MI,49601,USA,,,,echo,www.google.com/search?q=Munson+Healthcare+Cadillac,Munson Healthcare Cadillac Cadillac,,,"Jul 31, 2024","Adult Transesophageal, Adult Transthoracic",,,,,,,,,,,,,,,,,,,,
247,248,Munson Healthcare Manistee Hospital,44.272355,-86.273439,granted,1465 East Parkdale Avenue,,Manistee,MI,49660,USA,,,,echo,www.google.com/search?q=Munson+Healthcare+Manistee+Hospital,Munson Healthcare Manistee Hospital Manistee,,,"Jul 31, 2024",Adult Transthoracic,,,,,,,,,,,,,,,,,,,,
248,249,Munson Healthcare Otsego Memorial Hospital,45.035374,-84.673886,granted,825 North Center Avenue,,Gaylord,MI,49735,USA,,,,echo,www.google.com/search?q=Munson+Healthcare+Otsego+Memorial+Hospital,Munson Healthcare Otsego Memorial Hospital Gaylord,,,"Jul 31, 2024",Adult Transthoracic,,,,,,,,,,,,,,,,,,,,
249,250,Munson Medical Center,44.761646,-85.641404,granted,1105 Sixth Street,,Traverse City,MI,49684,USA,,,,echo,www.google.com/search?q=Munson+Medical+Center,Munson Medical Center Traverse City,,,"Jul 31, 2024","Adult Stress, Adult Transesophageal, Adult Transthoracic",,,,,,,,,,,,,,,,,,,,
250,251,MyMichigan Medical Center Alpena,45.076857,-83.450672,granted,1501 W. Chisholm St.,,Alpena,MI,49707,USA,,www.midmichigan.org,,echo,,MyMichigan Medical Center Alpena Alpena,,,"Aug 31, 2024",Adult Transthoracic,,,,,,,,,,,,,,,,,,,,
251,252,MyMichigan Medical Center Gratiot,43.39168,-84.662278,granted,300 E. Warwick Dr.,,Alma,MI,48801,USA,,,,echo,www.google.com/search?q=MyMichigan+Medical+Center+Gratiot,MyMichigan Medical Center Gratiot Alma,,,"Aug 31, 2024","Adult Stress, Adult Transthoracic",,,,,,,,,,,,,,,,,,,,
252,253,MyMichigan Medical Center Midland,43.635774,-84.261821,multigranted,4000 Wellness Drive,,Midland,MI,48670,USA,,,,"echo, vascular",www.google.com/search?q=MyMichigan+Medical+Center+Midland,MyMichigan Medical Center Midland Midland,,,"Aug 31, 2024","Adult Stress, Adult Transesophageal, Adult Transthoracic",,,,,"Sep 30, 2024","Extracranial Cerebrovascular Testing, Peripheral Arterial Testing, Peripheral Venous Testing, Visceral Vascular Testing",,,,,,,,,,,,,,
253,254,National Diagnostic Services,42.467773,-83.439266,multigranted,28700 Cabot Drive,Suite 500,Novi,MI,48377,USA,,ndsexam.com,,"vascular, echo",,National Diagnostic Services Novi,,,"Dec 31, 2024",Adult Transthoracic,,,,,"Aug 29, 2022","Extracranial Cerebrovascular Testing, Peripheral Arterial Testing, Peripheral Venous Testing",,,,,,,,,,,,,,
254,255,Northern Michigan Vascular Center P. C.,44.759147,-85.65304,granted,3930 Cedar Run Road,,Traverse City,MI,49684,USA,,VascularCenterMi.com,,vascular,,Northern Michigan Vascular Center P. C. Traverse City,,,,,,,,,"Apr 30, 2025","Extracranial Cerebrovascular Testing, Peripheral Arterial Testing, Peripheral Venous Testing",,,,,,,,,,,,,,
255,256,Northern Michigan Vein Specialists,44.749818,-85.561015,granted,880 Munson Ave. Suite A,,Traverse City,MI,49686,USA,,,,vascular,www.google.com/search?q=Northern+Michigan+Vein+Specialists,Northern Michigan Vein Specialists Traverse City,,,,,,,,,"Feb 28, 2023",Peripheral Venous Testing,,,,,,,,,,,,,,
256,257,Northern Michigan Vein Specialists,44.225661,-85.400837,granted,440 Cobb Street,,Cadillac,MI,49601,USA,,,,vascular,www.google.com/search?q=Northern+Michigan+Vein+Specialists,Northern Michigan Vein Specialists Cadillac,,,,,,,,,"Feb 28, 2023",Peripheral Venous Testing,,,,,,,,,,,,,,
257,258,Northland Radiology,42.446794,-83.200752,granted,20905 Greenfield Road,Suite 105,Southfield,MI,48075,USA,,,,echo,www.google.com/search?q=Northland+Radiology,Northland Radiology Southfield,,,"Aug 31, 2023",Adult Transthoracic,,,,,,,,,,,,,,,,,,,,
258,259,Northland Radiology - Southfield,42.446794,-83.200752,granted,20905 Greenfield Rd.,Suite 105,Southfield,MI,48075,USA,,,,nuclear,www.google.com/search?q=Northland+Radiology+-+Southfield,Northland Radiology - Southfield Southfield,,,,,,,"Dec 31, 2023",Myocardial Perfusion Imaging,,,,,,,,,,,,,,,,
259,260,"Northland Radiology, Southfield",42.446794,-83.200752,granted,"20905 Greenfield Road, Suite 105",,Southfield,MI,48075,USA,,,,vascular,"www.google.com/search?q=Northland+Radiology,+Southfield","Northland Radiology, Southfield Southfield",,,,,,,,,"Nov 29, 2022",Extracranial Cerebrovascular Testing,,,,,,,,,,,,,,
260,261,Northville Health Center - Pediatric Cardiology,42.423245,-83.438411,granted,39901 Traditions Drive Ste 240,,Northville,MI,48168,USA,,,,pediatric_echo,www.google.com/search?q=Northville+Health+Center+-+Pediatric+Cardiology,Northville Health Center - Pediatric Cardiology Northville,,,,,,,,,,,"Jul 31, 2023","Pediatric Transthoracic, Fetal",,,,,,,,,,,,
261,262,Oakland Hills Cardiology-Beaumont,42.536659,-83.183876,granted,4949 Coolidge Highway,,Royal Oak,MI,48073,USA,,,,echo,www.google.com/search?q=Oakland+Hills+Cardiology-Beaumont,Oakland Hills Cardiology-Beaumont Royal Oak,,,"Feb 28, 2025","Adult Stress, Adult Transthoracic",,,,,,,,,,,,,,,,,,,,
262,263,Oaklawn Hospital Echocardiography Lab,42.273092,-84.95779,granted,200 N Madison Avenue,,Marshall,MI,49068,USA,,,,echo,www.google.com/search?q=Oaklawn+Hospital+Echocardiography+Lab,Oaklawn Hospital Echocardiography Lab Marshall,,,"Nov 30, 2024",Adult Transthoracic,,,,,,,,,,,,,,,,,,,,
263,264,Oakwood Hospital - Dearborn,42.291912,-83.211951,granted,18101 Oakwood Boulevard,,Dearborn,MI,48124,USA,,oakwood.org,,echo,,Oakwood Hospital - Dearborn Dearborn,,,"Mar 31, 2024","Adult Stress, Adult Transesophageal, Adult Transthoracic",,,,,,,,,,,,,,,,,,,,
264,265,Oakwood Hospital - Wayne,42.274275,-83.365625,granted,33155 Annapolis St,,Wayne,MI,48184,USA,,,,echo,www.google.com/search?q=Oakwood+Hospital+-+Wayne,Oakwood Hospital - Wayne Wayne,,,"Mar 31, 2024","Adult Stress, Adult Transthoracic",,,,,,,,,,,,,,,,,,,,
265,266,Oakwood Hosptial - Taylor,42.23346,-83.269665,granted,10000 Telegraph Rd,,Taylor,MI,48180,USA,,oakwood.org,,echo,,Oakwood Hosptial - Taylor Taylor,,,"Mar 31, 2024","Adult Stress, Adult Transthoracic",,,,,,,,,,,,,,,,,,,,
266,267,"OW Brown, MD, PC",42.520816,-83.285731,granted,31700 Telegraph Road Suite 140,,Bingham Farms,MI,48025,USA,,,,vascular,"www.google.com/search?q=OW+Brown,+MD,+PC","OW Brown, MD, PC Bingham Farms",,,,,,,,,"Dec 31, 2024","Extracranial Cerebrovascular Testing, Peripheral Arterial Testing, Peripheral Venous Testing",,,,,,,,,,,,,,
267,268,"Paragon Health PC, Dba",42.309046,-85.55668,granted,1815 Henson Street,,Kalamazoo,MI,49048,USA,,www.avsurgery.com,,vascular,,"Paragon Health PC, Dba Kalamazoo",,,,,,,,,"Feb 29, 2024","Extracranial Cerebrovascular Testing, Peripheral Arterial Testing, Peripheral Venous Testing",,,,,,,,,,,,,,
268,269,Paul Oliver Memorial Hospital,44.637376,-86.242913,granted,224 Park Avenue,,Frankfort,MI,49636,USA,,,,echo,www.google.com/search?q=Paul+Oliver+Memorial+Hospital,Paul Oliver Memorial Hospital Frankfort,,,"Jul 31, 2024",Adult Transthoracic,,,,,,,,,,,,,,,,,,,,
269,270,PCS-Dearborn,42.317804,-83.190898,granted,20200 Outer Drive,,Dearborn,MI,48124,USA,,,,nuclear,www.google.com/search?q=PCS-Dearborn,PCS-Dearborn Dearborn,,,,,,,"Oct 31, 2023","Equilibrium Radionuclide Angiography, Myocardial Perfusion Imaging",,,,,,,,,,,,,,,,
270,271,PCS-Gibraltar,42.116698,-83.211,granted,19850 Gibraltar Road,,Gibraltar,MI,48173,USA,,,,nuclear,www.google.com/search?q=PCS-Gibraltar,PCS-Gibraltar Gibraltar,,,,,,,"Oct 31, 2023","Equilibrium Radionuclide Angiography, Myocardial Perfusion Imaging",,,,,,,,,,,,,,,,
271,272,PCS-Plymouth,42.349733,-83.540298,granted,40720 Ann Arbor Road,,Plymouth,MI,48170,USA,,,,nuclear,www.google.com/search?q=PCS-Plymouth,PCS-Plymouth Plymouth,,,,,,,"Oct 31, 2023",Myocardial Perfusion Imaging,,,,,,,,,,,,,,,,
272,273,Pennock Health Services,42.6442,-85.3021,granted,1009 West Green Street,,Hastings,MI,49058,USA,,Pennock Health Services,,echo,,Pennock Health Services Hastings,,,"Sep 30, 2023","Adult Stress, Adult Transthoracic",,,,,,,,,,,,,,,,,,,,
273,274,"Petoskey Surgeons, PC",45.372535,-84.96698,granted,521 Monroe Street,,Petoskey,MI,49770,USA,,,,vascular,"www.google.com/search?q=Petoskey+Surgeons,+PC","Petoskey Surgeons, PC Petoskey",,,,,,,,,"Dec 31, 2023","Extracranial Cerebrovascular Testing, Peripheral Arterial Testing, Peripheral Venous Testing, Visceral Vascular Testing",,,,,,,,,,,,,,
274,275,"Port Huron Heart Center Cardiology Associates of Port Huron, PC",42.986543,-82.433854,granted,1222 Tenth Avenue,,Port Huron,MI,48060,USA,,porthuronheartcenter.com,,vascular,,"Port Huron Heart Center Cardiology Associates of Port Huron, PC Port Huron",,,,,,,,,"Jul 31, 2024",Extracranial Cerebrovascular Testing,,,,,,,,,,,,,,
275,276,"Port Huron Vascular Clinic, PC",42.955466,-82.432399,granted,2603 Electric Avenue,Suite C,Port Huron,MI,48060,USA,,,,vascular,"www.google.com/search?q=Port+Huron+Vascular+Clinic,+PC","Port Huron Vascular Clinic, PC Port Huron",,,,,,,,,"Jan 31, 2024","Extracranial Cerebrovascular Testing, Peripheral Arterial Testing, Peripheral Venous Testing",,,,,,,,,,,,,,
276,277,Premier Internists,42.523538,-83.348278,granted,32255 Northwestern Hwy,Suite 180,Farmington Hills,MI,48334,USA,,,,echo,www.google.com/search?q=Premier+Internists,Premier Internists Farmington Hills,,,"Jan 31, 2023",Adult Transthoracic,,,,,,,,,,,,,,,,,,,,
277,278,Premier Medical Clinics,43.011758,-83.772919,granted,1165 South Linden,,Flint,MI,48532,USA,,,,echo,www.google.com/search?q=Premier+Medical+Clinics,Premier Medical Clinics Flint,,,"Jul 31, 2024",Adult Transthoracic,,,,,,,,,,,,,,,,,,,,
278,279,Progressive Cardiology,42.992413,-83.772435,granted,2335 South Linden Road,,Flint,MI,48532,USA,,,,echo,www.google.com/search?q=Progressive+Cardiology,Progressive Cardiology Flint,,,"Jul 31, 2023","Adult Stress, Adult Transthoracic",,,,,,,,,,,,,,,,,,,,
279,280,Progressive Health Care,42.412493,-83.340204,granted,29911 Six Mile Road,,Livonia,MI,48152,USA,,,,echo,www.google.com/search?q=Progressive+Health+Care,Progressive Health Care Livonia,,,"Apr 30, 2025",Adult Transthoracic,,,,,,,,,,,,,,,,,,,,
280,281,"Progressive Health Care, PC",42.141099,-83.204046,granted,22021 Ecorse Rd,,Taylor,MI,48180,USA,,,,echo,"www.google.com/search?q=Progressive+Health+Care,+PC","Progressive Health Care, PC Taylor",,,"Apr 30, 2025",Adult Transthoracic,,,,,,,,,,,,,,,,,,,,
281,282,"Progressive Health Care, PC",42.4963414,-83.1839158,granted,2635 Coolidge Highway,,Berkley,MI,48072,USA,,,,echo,"www.google.com/search?q=Progressive+Health+Care,+PC","Progressive Health Care, PC Berkley",,,"Apr 30, 2025",Adult Transthoracic,,,,,,,,,,,,,,,,,,,,
282,283,ProMedica Charles and Virginia Hickman Hospital,41.912713,-84.049555,granted,5640 N. Adrian Hwy,,Adrian,MI,49221,USA,,www.promedica.org/location/promedica-charles-and-virginia-hickman-hospital,,vascular,,ProMedica Charles and Virginia Hickman Hospital Adrian,,,,,,,,,"Feb 28, 2025","Extracranial Cerebrovascular Testing, Peripheral Arterial Testing, Peripheral Venous Testing",,,,,,,,,,,,,,
283,284,ProMedica Monroe Regional Hospital,41.925126,-83.389084,granted,718 North Macomb Street,,Monroe,MI,48162,USA,,www.promedica.org/location/promedica-monroe-regional-hospital,,vascular,,ProMedica Monroe Regional Hospital Monroe,,,,,,,,,"Feb 28, 2025","Extracranial Cerebrovascular Testing, Peripheral Arterial Testing, Peripheral Venous Testing",,,,,,,,,,,,,,
284,285,Sinai - Grace Hospital,42.420101,-83.181531,granted,6071 West Outer Drive,,Detroit,MI,48235,USA,,,,echo,www.google.com/search?q=Sinai+-+Grace+Hospital,Sinai - Grace Hospital Detroit,,,"Nov 30, 2023","Adult Stress, Adult Transesophageal, Adult Transthoracic",,,,,,,,,,,,,,,,,,,,
285,286,SJMHS Michigan Heart,42.261192,-83.651454,granted,5325 Elliott Drive,PO Box 971,Ann Arbor,MI,48197,USA,,,,echo,www.google.com/search?q=SJMHS+Michigan+Heart,SJMHS Michigan Heart Ann Arbor,,,"Jul 31, 2023","Adult Stress, Adult Transesophageal, Adult Transthoracic",,,,,,,,,,,,,,,,,,,,
286,287,SJMHS Michigan Heart Ann Arbor,42.261192,-83.651454,granted,5325 Elliott Drive,,Ypsilanti,MI,48197,USA,,www.michiganheart.com,,vascular,,SJMHS Michigan Heart Ann Arbor Ypsilanti,,,,,,,,,"Sep 30, 2025","Extracranial Cerebrovascular Testing, Peripheral Arterial Testing, Peripheral Venous Testing, Visceral Vascular Testing",,,,,,,,,,,,,,
287,288,SJMHS Michigan Heart Brighton,42.565968,-83.802759,granted,"7575 Grand River, Suite 206",,Brighton,MI,48114,USA,,www.michiganheart.com,,vascular,,SJMHS Michigan Heart Brighton Brighton,,,,,,,,,"Sep 30, 2025","Extracranial Cerebrovascular Testing, Peripheral Arterial Testing, Peripheral Venous Testing, Visceral Vascular Testing",,,,,,,,,,,,,,
288,289,SJMHS Michigan Heart Canton,42.294573,-83.486588,granted,1600 South Canton Center Road,Suite 345,Canton,MI,48188,USA,,www.michiganheart.com,,vascular,,SJMHS Michigan Heart Canton Canton,,,,,,,,,"Sep 30, 2025","Extracranial Cerebrovascular Testing, Peripheral Arterial Testing, Peripheral Venous Testing, Visceral Vascular Testing",,,,,,,,,,,,,,
289,290,SJMHS Michigan Heart Livonia,42.389135,-83.402572,granted,"14555 Levan Road, Suite 203",,Livonia,MI,48154,USA,,www.michiganheart.com,,vascular,,SJMHS Michigan Heart Livonia Livonia,,,,,,,,,"Sep 30, 2025","Extracranial Cerebrovascular Testing, Peripheral Arterial Testing, Peripheral Venous Testing, Visceral Vascular Testing",,,,,,,,,,,,,,
290,291,SJMHS-Michigan Heart,42.294573,-83.486588,granted,1600 South Canton Center Road,Suite 345,Canton,MI,48188,USA,,,,echo,www.google.com/search?q=SJMHS-Michigan+Heart,SJMHS-Michigan Heart Canton,,,"Jul 31, 2023","Adult Stress, Adult Transthoracic",,,,,,,,,,,,,,,,,,,,
291,292,SJMHS-Michigan Heart,42.389135,-83.402572,granted,14555 Levan Road,Suite 203,Livonia,MI,48154,USA,,,,echo,www.google.com/search?q=SJMHS-Michigan+Heart,SJMHS-Michigan Heart Livonia,,,"Jul 31, 2023","Adult Stress, Adult Transthoracic",,,,,,,,,,,,,,,,,,,,
292,293,SJMHS-Michigan Heart,42.565968,-83.802759,granted,7575 Grand River,Suite 206,Brighton,MI,48114,USA,,,,echo,www.google.com/search?q=SJMHS-Michigan+Heart,SJMHS-Michigan Heart Brighton,,,"Jul 31, 2023","Adult Stress, Adult Transthoracic",,,,,,,,,,,,,,,,,,,,
293,294,Sonar - X,42.493912,-83.284282,granted,26222 Telegraph,Suite 200,Southfield,MI,48034,USA,,,,echo,www.google.com/search?q=Sonar+-+X,Sonar - X Southfield,,,"Aug 31, 2023",Adult Transthoracic,,,,,,,,,,,,,,,,,,,,
294,295,Sonar - X,42.481526,-83.285336,granted,26222 Telegraph Road,,Southfield,MI,48033,USA,,,,vascular,www.google.com/search?q=Sonar+-+X,Sonar - X Southfield,,,,,,,,,"Nov 29, 2022",Extracranial Cerebrovascular Testing,,,,,,,,,,,,,,
295,296,South West Michigan Vascular Laboratory,42.24688,-85.198514,granted,3790 Capital Avenue South West,,Battle Creek,MI,49015,USA,,www.vascularhealthctr.com,,vascular,,South West Michigan Vascular Laboratory Battle Creek,,,,,,,,,"Jan 31, 2024","Extracranial Cerebrovascular Testing, Peripheral Arterial Testing, Peripheral Venous Testing, Visceral Vascular Testing",,,,,,,,,,,,,,
296,297,Spectrum Health,42.970527,-85.665319,granted,100 Michigan St,,Grand Rapids,MI,49503,USA,,,,mr,www.google.com/search?q=Spectrum+Health,Spectrum Health Grand Rapids,,,,,"Feb 28, 2025",Cardiovascular MRI,,,,,,,,,,,,,,,,,,
297,298,Spectrum Health - Holland,42.775107,-86.112411,granted,602 Michigan Ave Suite 102,,Holland,MI,49423,USA,,,,echo,www.google.com/search?q=Spectrum+Health+-+Holland,Spectrum Health - Holland Holland,,,"Sep 30, 2023","Adult Stress, Adult Transthoracic",,,,,,,,,,,,,,,,,,,,
298,299,Spectrum Health Big Rapids,43.693126,-85.475763,granted,605 Oak St,,Big Rapids,MI,49307,USA,,,,echo,www.google.com/search?q=Spectrum+Health+Big+Rapids,Spectrum Health Big Rapids Big Rapids,,,"Sep 30, 2023","Adult Stress, Adult Transthoracic",,,,,,,,,,,,,,,,,,,,
299,300,Spectrum Health Big Rapids,43.693126,-85.475763,granted,605 Oak St,,Big Rapids,MI,49307,USA,,,,nuclear,www.google.com/search?q=Spectrum+Health+Big+Rapids,Spectrum Health Big Rapids Big Rapids,,,,,,,"Mar 31, 2024",Myocardial Perfusion Imaging,,,,,,,,,,,,,,,,
300,301,Spectrum Health Big Rapids - Specialty Clinic,43.693136,-85.474107,granted,"705 Oak St, Suite 1",,Big Rapids,MI,49307,USA,,,,vascular,www.google.com/search?q=Spectrum+Health+Big+Rapids+-+Specialty+Clinic,Spectrum Health Big Rapids - Specialty Clinic Big Rapids,,,,,,,,,"Dec 31, 2022","Extracranial Cerebrovascular Testing, Peripheral Arterial Testing",,,,,,,,,,,,,,
301,302,Spectrum Health Blodgett,42.943891,-85.616721,granted,1840 Wealthy SE,,Grand Rapids,MI,49506,USA,,,,vascular,www.google.com/search?q=Spectrum+Health+Blodgett,Spectrum Health Blodgett Grand Rapids,,,,,,,,,"Dec 31, 2022","Extracranial Cerebrovascular Testing, Peripheral Arterial Testing, Peripheral Venous Testing, Visceral Vascular Testing",,,,,,,,,,,,,,
302,303,Spectrum Health Butterworth,42.943891,-85.616721,granted,100 Michigan NE,,Grand Rapids,MI,49503,USA,,,,vascular,www.google.com/search?q=Spectrum+Health+Butterworth,Spectrum Health Butterworth Grand Rapids,,,,,,,,,"Dec 31, 2022","Extracranial Cerebrovascular Testing, Peripheral Arterial Testing, Peripheral Venous Testing, Visceral Vascular Testing",,,,,,,,,,,,,,
303,304,Spectrum Health Cardiovascular Imaging,42.977135,-85.598199,granted,2900 Bradford Street,,Grand Rapids,MI,49525,USA,,,,vascular,www.google.com/search?q=Spectrum+Health+Cardiovascular+Imaging,Spectrum Health Cardiovascular Imaging Grand Rapids,,,,,,,,,"Dec 31, 2022","Extracranial Cerebrovascular Testing, Peripheral Arterial Testing, Peripheral Venous Testing, Visceral Vascular Testing",,,,,,,,,,,,,,
304,305,Spectrum Health Cardiovascular Imaging - Blodgett,42.95428,-85.622093,granted,1840 Wealthy St SE,,East Grand Rapids,MI,49506,USA,,,,nuclear,www.google.com/search?q=Spectrum+Health+Cardiovascular+Imaging+-+Blodgett,Spectrum Health Cardiovascular Imaging - Blodgett East Grand Rapids,,,,,,,"Mar 31, 2024",Myocardial Perfusion Imaging,,,,,,,,,,,,,,,,
305,306,Spectrum Health Cardiovascular Imaging - Blodgett,42.941015,-85.623319,granted,1840 Wealthy South East,,Grand Rapids,MI,49506,USA,,www.spectrumhealth.org,,echo,,Spectrum Health Cardiovascular Imaging - Blodgett Grand Rapids,,,"Sep 30, 2023","Adult Stress, Adult Transesophageal, Adult Transthoracic",,,,,,,,,,,,,,,,,,,,
306,307,Spectrum Health Cardiovascular Imaging - Bradford,42.977135,-85.598199,granted,"2900 Bradford St., NE",,Grand Rapids,MI,49525,USA,,,,echo,www.google.com/search?q=Spectrum+Health+Cardiovascular+Imaging+-+Bradford,Spectrum Health Cardiovascular Imaging - Bradford Grand Rapids,,,"Sep 30, 2023","Adult Stress, Adult Transesophageal, Adult Transthoracic",,,,,,,,,,,,,,,,,,,,
307,308,Spectrum Health Cardiovascular Imaging - Bradford,42.977135,-85.598199,granted,2900 Bradford Street,,Grand Rapids,MI,49525,USA,,,,nuclear,www.google.com/search?q=Spectrum+Health+Cardiovascular+Imaging+-+Bradford,Spectrum Health Cardiovascular Imaging - Bradford Grand Rapids,,,,,,,"Mar 31, 2024","Equilibrium Radionuclide Angiography, Myocardial Perfusion Imaging",,,,,,,,,,,,,,,,
308,309,Spectrum Health Cardiovascular Imaging - Gerber Memorial Hospital,43.464383,-85.950763,granted,212 S Sullivan Ave,,Fremont,MI,49412,USA,,,,nuclear,www.google.com/search?q=Spectrum+Health+Cardiovascular+Imaging+-+Gerber+Memorial+Hospital,Spectrum Health Cardiovascular Imaging - Gerber Memorial Hospital Fremont,,,,,,,"Mar 31, 2024","Equilibrium Radionuclide Angiography, Myocardial Perfusion Imaging",,,,,,,,,,,,,,,,
309,310,Spectrum Health Cardiovascular Imaging - Holland,42.775107,-86.112411,granted,602 Michigan Ave,Suite 102,Holland,MI,49423,USA,,,,nuclear,www.google.com/search?q=Spectrum+Health+Cardiovascular+Imaging+-+Holland,Spectrum Health Cardiovascular Imaging - Holland Holland,,,,,,,"Mar 31, 2024","Equilibrium Radionuclide Angiography, Myocardial Perfusion Imaging",,,,,,,,,,,,,,,,
310,311,Spectrum Health Cardiovascular Imaging - Meijer Heart Center,42.970527,-85.665319,granted,"100 Michigan Avenue, Northeast",,Grand Rapids,MI,49503,USA,,,,echo,www.google.com/search?q=Spectrum+Health+Cardiovascular+Imaging+-+Meijer+Heart+Center,Spectrum Health Cardiovascular Imaging - Meijer Heart Center Grand Rapids,,,"Sep 30, 2023","Adult Stress, Adult Transesophageal, Adult Transthoracic",,,,,,,,,,,,,,,,,,,,
311,312,Spectrum Health Cardiovascular Imaging - Meijer Heart Center,42.970527,-85.665319,granted,100 Michigan Street NE,MC 002,Grand Rapids,MI,49503,USA,,heartcenter.spectrum-health.org/,,nuclear,,Spectrum Health Cardiovascular Imaging - Meijer Heart Center Grand Rapids,,,,,,,"Mar 31, 2024","Equilibrium Radionuclide Angiography, Myocardial Perfusion Imaging",,,,,,,,,,,,,,,,
312,313,Spectrum Health Cardiovascular Imaging - United Hospital,43.175469,-85.268781,granted,615 South Bower,,Greenville,MI,48338,USA,,,,nuclear,www.google.com/search?q=Spectrum+Health+Cardiovascular+Imaging+-+United+Hospital,Spectrum Health Cardiovascular Imaging - United Hospital Greenville,,,,,,,"Mar 31, 2024","Equilibrium Radionuclide Angiography, Myocardial Perfusion Imaging",,,,,,,,,,,,,,,,
313,314,Spectrum Health Cardiovascular Imaging - West Pavilion,42.855001,-85.762391,granted,"6105 Wilson Ave., SW",Suite 100,Wyoming,MI,49418,USA,,,,echo,www.google.com/search?q=Spectrum+Health+Cardiovascular+Imaging+-+West+Pavilion,Spectrum Health Cardiovascular Imaging - West Pavilion Wyoming,,,"Sep 30, 2023","Adult Stress, Adult Transthoracic",,,,,,,,,,,,,,,,,,,,
314,315,Spectrum Health Cardiovascular Imaging - West Pavilion,42.858248,-85.722943,granted,5900 Byron Center Avenue,,Wyoming,MI,49519,USA,,,,nuclear,www.google.com/search?q=Spectrum+Health+Cardiovascular+Imaging+-+West+Pavilion,Spectrum Health Cardiovascular Imaging - West Pavilion Wyoming,,,,,,,"Mar 31, 2024","Equilibrium Radionuclide Angiography, Myocardial Perfusion Imaging",,,,,,,,,,,,,,,,
315,316,Spectrum Health Cardiovascular Imaging -Kelsey Hospital,43.4411,-85.278516,granted,418 Washington St,,Lakeview,MI,48850,USA,,,,echo,www.google.com/search?q=Spectrum+Health+Cardiovascular+Imaging+-Kelsey+Hospital,Spectrum Health Cardiovascular Imaging -Kelsey Hospital Lakeview,,,"Sep 30, 2023",Adult Transthoracic,,,,,,,,,,,,,,,,,,,,
316,317,Spectrum Health Cardiovascular Imaging -United Hospital,43.175469,-85.268781,granted,615 S. Bower St.,,Greenville,MI,48838,USA,,,,echo,www.google.com/search?q=Spectrum+Health+Cardiovascular+Imaging+-United+Hospital,Spectrum Health Cardiovascular Imaging -United Hospital Greenville,,,"Sep 30, 2023","Adult Stress, Adult Transesophageal, Adult Transthoracic",,,,,,,,,,,,,,,,,,,,
317,318,Spectrum Health Cardiovascular Imaging -Zeeland Community Hospital,42.819505,-85.987329,granted,8333 Felch St.,,Zeeland,MI,49464,USA,,,,echo,www.google.com/search?q=Spectrum+Health+Cardiovascular+Imaging+-Zeeland+Community+Hospital,Spectrum Health Cardiovascular Imaging -Zeeland Community Hospital Zeeland,,,"Sep 30, 2023","Adult Stress, Adult Transthoracic",,,,,,,,,,,,,,,,,,,,
318,319,Spectrum Health Cardiovascular Imaging- Gerber Memorial Hospital,43.464383,-85.950763,granted,212 S Sullivan,,Fremont,MI,49412,USA,,,,echo,www.google.com/search?q=Spectrum+Health+Cardiovascular+Imaging-+Gerber+Memorial+Hospital,Spectrum Health Cardiovascular Imaging- Gerber Memorial Hospital Fremont,,,"Sep 30, 2023","Adult Stress, Adult Transesophageal, Adult Transthoracic",,,,,,,,,,,,,,,,,,,,
319,320,Spectrum Health Gerber Memorial,43.463801,-85.950749,granted,212 South Sullivan Avenue,,Fremont,MI,49412,USA,,,,vascular,www.google.com/search?q=Spectrum+Health+Gerber+Memorial,Spectrum Health Gerber Memorial Fremont,,,,,,,,,"Dec 31, 2022","Extracranial Cerebrovascular Testing, Peripheral Arterial Testing, Peripheral Venous Testing, Visceral Vascular Testing",,,,,,,,,,,,,,
320,321,Spectrum Health Holland,42.774581,-86.112772,granted,602 Michigan Ave,,Holland,MI,49423,USA,,,,vascular,www.google.com/search?q=Spectrum+Health+Holland,Spectrum Health Holland Holland,,,,,,,,,"Dec 31, 2022","Extracranial Cerebrovascular Testing, Peripheral Arterial Testing, Peripheral Venous Testing, Visceral Vascular Testing",,,,,,,,,,,,,,
321,322,Spectrum Health Lake Drive,42.938975,-85.568412,granted,4069 Lake Drive,,Grand Rapids,MI,49546,USA,,,,vascular,www.google.com/search?q=Spectrum+Health+Lake+Drive,Spectrum Health Lake Drive Grand Rapids,,,,,,,,,"Dec 31, 2022","Extracranial Cerebrovascular Testing, Peripheral Arterial Testing, Peripheral Venous Testing, Visceral Vascular Testing",,,,,,,,,,,,,,
322,323,Spectrum Health Ludington,43.957979,-86.428529,granted,One Atkinson Dr,,Ludington,MI,49431,USA,,,,nuclear,www.google.com/search?q=Spectrum+Health+Ludington,Spectrum Health Ludington Ludington,,,,,,,"Mar 31, 2024","Equilibrium Radionuclide Angiography, Myocardial Perfusion Imaging",,,,,,,,,,,,,,,,
323,324,Spectrum Health Ludington Hospital,43.956102,-86.429331,granted,1 Atkinson Dr,,Ludington,MI,49431,USA,,,,echo,www.google.com/search?q=Spectrum+Health+Ludington+Hospital,Spectrum Health Ludington Hospital Ludington,,,"Sep 30, 2023","Adult Stress, Adult Transthoracic",,,,,,,,,,,,,,,,,,,,
324,325,Spectrum Health Medical Group Vein Center,42.92677,-85.567274,granted,4069 Lake Drive SE,Suite 114,Grand Rapids,MI,49546,USA,,,,vein_center,www.google.com/search?q=Spectrum+Health+Medical+Group+Vein+Center,Spectrum Health Medical Group Vein Center Grand Rapids,,,,,,,,,,,,,,,,,"Jul 31, 2024",Superficial Venous Evaluation and Management,,,,,,
325,326,Spectrum Health North Muskegon,43.290427,-86.213398,granted,1845 Holton Rd,,Muskegon,MI,49445,USA,,,,vascular,www.google.com/search?q=Spectrum+Health+North+Muskegon,Spectrum Health North Muskegon Muskegon,,,,,,,,,"Dec 31, 2022","Extracranial Cerebrovascular Testing, Peripheral Arterial Testing, Peripheral Venous Testing, Visceral Vascular Testing",,,,,,,,,,,,,,
326,327,Spectrum Health Pennock,42.6442,-85.3021,granted,1009 W Green St,,Hastings,MI,49058,USA,,,,nuclear,www.google.com/search?q=Spectrum+Health+Pennock,Spectrum Health Pennock Hastings,,,,,,,"Mar 31, 2024",Myocardial Perfusion Imaging,,,,,,,,,,,,,,,,
327,328,Spectrum Health Pennock - Multispecialty Clinic,42.6442,-85.3021,granted,1005 W. Green Street,,Hastings,MI,49058,USA,,,,vascular,www.google.com/search?q=Spectrum+Health+Pennock+-+Multispecialty+Clinic,Spectrum Health Pennock - Multispecialty Clinic Hastings,,,,,,,,,"Dec 31, 2022","Extracranial Cerebrovascular Testing, Peripheral Arterial Testing, Visceral Vascular Testing",,,,,,,,,,,,,,
328,329,Spectrum Health Reed City Hospital,43.87848,-85.522916,granted,300 N Patterson Rd,,Reed City,MI,49677,USA,,,,echo,www.google.com/search?q=Spectrum+Health+Reed+City+Hospital,Spectrum Health Reed City Hospital Reed City,,,"Sep 30, 2023",Adult Transthoracic,,,,,,,,,,,,,,,,,,,,
329,330,Spectrum Health United,43.175469,-85.268781,granted,615 S Bower St,,Greenville,MI,48838,USA,,,,vascular,www.google.com/search?q=Spectrum+Health+United,Spectrum Health United Greenville,,,,,,,,,"Dec 31, 2022","Extracranial Cerebrovascular Testing, Peripheral Arterial Testing, Visceral Vascular Testing",,,,,,,,,,,,,,
330,331,Spectrum Health United - Medical Specialty Clinic,43.175469,-85.268781,granted,705 Greenville West Drive,,Greenville,MI,48838,USA,,,,vascular,www.google.com/search?q=Spectrum+Health+United+-+Medical+Specialty+Clinic,Spectrum Health United - Medical Specialty Clinic Greenville,,,,,,,,,"Dec 31, 2022","Extracranial Cerebrovascular Testing, Peripheral Arterial Testing, Visceral Vascular Testing",,,,,,,,,,,,,,
331,332,Spectrum Health West Pavilion,42.854997,-85.762388,granted,6105 Wilson Ave.,,Wyoming,MI,49418,USA,,,,vascular,www.google.com/search?q=Spectrum+Health+West+Pavilion,Spectrum Health West Pavilion Wyoming,,,,,,,,,"Dec 31, 2022","Extracranial Cerebrovascular Testing, Peripheral Arterial Testing, Peripheral Venous Testing, Visceral Vascular Testing",,,,,,,,,,,,,,
332,333,Spectrum Health Zeeland,42.819539,-85.988129,granted,8333 Felch Street,,Zeeland,MI,49464,USA,,,,vascular,www.google.com/search?q=Spectrum+Health+Zeeland,Spectrum Health Zeeland Zeeland,,,,,,,,,"Dec 31, 2022","Extracranial Cerebrovascular Testing, Peripheral Arterial Testing, Visceral Vascular Testing",,,,,,,,,,,,,,
333,334,Spectrum Health Zeeland,42.819539,-85.988129,granted,8333 Felch Street,,Zeeland,MI,49464,USA,,,,nuclear,www.google.com/search?q=Spectrum+Health+Zeeland,Spectrum Health Zeeland Zeeland,,,,,,,"Mar 31, 2024",Myocardial Perfusion Imaging,,,,,,,,,,,,,,,,
334,335,St Joseph Mercy Chelsea,42.309516,-84.021084,granted,775 South Main Street,,Chelsea,MI,48118,USA,,www.cch.org,,echo,,St Joseph Mercy Chelsea Chelsea,,,"Jan 31, 2023","Adult Stress, Adult Transthoracic",,,,,,,,,,,,,,,,,,,,
335,336,St Joseph Mercy Health System,42.261192,-83.651454,granted,5325 Elliott Drive,Suite 101,Ypsilanti,MI,48197,USA,,,,vascular,www.google.com/search?q=St+Joseph+Mercy+Health+System,St Joseph Mercy Health System Ypsilanti,,,,,,,,,"Apr 30, 2024","Extracranial Cerebrovascular Testing, Peripheral Arterial Testing, Peripheral Venous Testing, Visceral Vascular Testing",,,,,,,,,,,,,,
336,337,"St. Clair Specialty Physicians, PC",42.418521,-82.913817,granted,18001 E. Ten Mile Rd,,Roseville,MI,48066,USA,,,,vascular,"www.google.com/search?q=St.+Clair+Specialty+Physicians,+PC","St. Clair Specialty Physicians, PC Roseville",,,,,,,,,"Oct 31, 2024","Extracranial Cerebrovascular Testing, Peripheral Arterial Testing, Peripheral Venous Testing",,,,,,,,,,,,,,
337,338,"St. John Providence Hospital, Providence Hospital Heart Institute",42.459196,-83.205163,granted,16001 West Nine Mile Road,,Southfield,MI,48075,USA,,www.stjohnprovidence.org,,echo,,"St. John Providence Hospital, Providence Hospital Heart Institute Southfield",,,"Feb 28, 2023","Adult Stress, Adult Transthoracic",,,,,,,,,,,,,,,,,,,,
338,339,St. Joseph Mercy Hospital - Ypsilanti,42.264166,-83.66069,granted,5301 East Huron River Drive,PO Box 995,Ann Arbor,MI,48106,USA,,,,echo,www.google.com/search?q=St.+Joseph+Mercy+Hospital+-+Ypsilanti,St. Joseph Mercy Hospital - Ypsilanti Ann Arbor,,,"Jul 31, 2023","Adult Stress, Adult Transesophageal, Adult Transthoracic",,,,,,,,,,,,,,,,,,,,
339,340,St. Joseph Mercy-Oakland,42.615276,-83.275412,granted,44405 Woodward Avenue,,Pontiac,MI,48341,USA,,,,echo,www.google.com/search?q=St.+Joseph+Mercy-Oakland,St. Joseph Mercy-Oakland Pontiac,,,"Sep 30, 2023",Adult Transthoracic,,,,,,,,,,,,,,,,,,,,
340,341,St. Mary Mercy Hospital Cardiovascular Services-,42.396568,-83.404618,granted,36475 Five Mile Road,,Livonia,MI,48154,USA,,,,vascular,www.google.com/search?q=St.+Mary+Mercy+Hospital+Cardiovascular+Services-,St. Mary Mercy Hospital Cardiovascular Services- Livonia,,,,,,,,,"Apr 30, 2024","Extracranial Cerebrovascular Testing, Peripheral Arterial Testing, Peripheral Venous Testing, Visceral Vascular Testing",,,,,,,,,,,,,,
341,342,St. Mary Mercy Livonia - Saint Joseph Mercy Health System,42.396568,-83.404618,granted,36475 West Five Mile Road,,Livonia,MI,48154,USA,,stmarymercy.org,,echo,,St. Mary Mercy Livonia - Saint Joseph Mercy Health System Livonia,,,"Sep 30, 2024","Adult Stress, Adult Transesophageal, Adult Transthoracic",,,,,,,,,,,,,,,,,,,,
342,343,"Stelian Marinescu, MD",42.311642,-83.261889,granted,23100 Cherry Hill,Suite 5 and Suite 7,Dearborn,MI,48124,USA,,,,nuclear,"www.google.com/search?q=Stelian+Marinescu,+MD","Stelian Marinescu, MD Dearborn",,,,,,,"Jan 31, 2023","Equilibrium Radionuclide Angiography, Myocardial Perfusion Imaging",,,,,,,,,,,,,,,,
343,344,"Subbarao Chavali, MD",43.600662,-83.905201,granted,2110 16th Street,Suite 5,Bay City,MI,48708,USA,,,,nuclear,"www.google.com/search?q=Subbarao+Chavali,+MD","Subbarao Chavali, MD Bay City",,,,,,,"Jan 31, 2024",Myocardial Perfusion Imaging,,,,,,,,,,,,,,,,
344,345,The Vascular Lab of West Michigan,43.207411,-86.211739,granted,1316 Mercy Drive,,Muskegon,MI,49444,USA,,www.msapc.com,,vascular,,The Vascular Lab of West Michigan Muskegon,,,,,,,,,"Jul 31, 2025","Extracranial Cerebrovascular Testing, Peripheral Arterial Testing, Peripheral Venous Testing, Visceral Vascular Testing",,,,,,,,,,,,,,
345,346,Thoracic Cardiovascular Institute,43.019188,-84.174194,granted,300 Health Park Drive,,Owosso,MI,48867,USA,,,,vascular,www.google.com/search?q=Thoracic+Cardiovascular+Institute,Thoracic Cardiovascular Institute Owosso,,,,,,,,,"Apr 30, 2023","Extracranial Cerebrovascular Testing, Peripheral Arterial Testing, Visceral Vascular Testing",,,,,,,,,,,,,,
346,347,Thoracic Cardiovascular Institute,42.737637,-84.523191,granted,"1140 East Michigan Avenue, Ste 400",Sparrow Plaza Bldg,Lansing,MI,48912,USA,,,,vascular,www.google.com/search?q=Thoracic+Cardiovascular+Institute,Thoracic Cardiovascular Institute Lansing,,,,,,,,,"Apr 30, 2023","Extracranial Cerebrovascular Testing, Peripheral Arterial Testing, Peripheral Venous Testing, Visceral Vascular Testing",,,,,,,,,,,,,,
347,348,Thoracic Cardiovascular Institute Edward W. Sparrow Hospital Association,43.01919,-84.174238,granted,300 Health Park Drive,,Owosso,MI,48867,USA,,www.tciheart.com  also www.sparrow.org,,nuclear,,Thoracic Cardiovascular Institute Edward W. Sparrow Hospital Association Owosso,,,,,,,"Apr 30, 2024","Equilibrium Radionuclide Angiography, Myocardial Perfusion Imaging",,,,,,,,,,,,,,,,
348,349,Traverse Heart and Vascular,44.761643,-85.644,granted,1200 Sixth Street,,Traverse City,MI,49684,USA,,www.gtheart.com,,vascular,,Traverse Heart and Vascular Traverse City,,,,,,,,,"Sep 29, 2022","Extracranial Cerebrovascular Testing, Peripheral Arterial Testing, Visceral Vascular Testing",,,,,,,,,,,,,,
349,350,Traverse Heart and Vascular,44.761643,-85.644,granted,1200 Sixth Street,,Traverse City,MI,49684,USA,,,,echo,www.google.com/search?q=Traverse+Heart+and+Vascular,Traverse Heart and Vascular Traverse City,,,"Jul 31, 2024","Adult Stress, Adult Transthoracic",,,,,,,,,,,,,,,,,,,,
350,351,Traverse Heart and Vascular,44.246167,-85.390473,granted,704 Oak Street,Suite 200,Cadillac,MI,49601,USA,,,,vascular,www.google.com/search?q=Traverse+Heart+and+Vascular,Traverse Heart and Vascular Cadillac,,,,,,,,,"Sep 29, 2022","Extracranial Cerebrovascular Testing, Peripheral Arterial Testing, Visceral Vascular Testing",,,,,,,,,,,,,,
351,352,Traverse Heart and Vascular,44.246167,-85.390473,granted,704 Oak Street,Suite 200,Cadillac,MI,49601,USA,,,,echo,www.google.com/search?q=Traverse+Heart+and+Vascular,Traverse Heart and Vascular Cadillac,,,"Jul 31, 2024","Adult Stress, Adult Transthoracic",,,,,,,,,,,,,,,,,,,,
352,353,Traverse Heart and Vascular,45.408638,-84.613476,granted,3696 S. Straits Hwy,,Indian River,MI,49769,USA,,,,echo,www.google.com/search?q=Traverse+Heart+and+Vascular,Traverse Heart and Vascular Indian River,,,"Jul 31, 2024",Adult Transthoracic,,,,,,,,,,,,,,,,,,,,
353,354,Traverse Heart and Vascular,46.495904,-84.34894,granted,1107 E. Michigan Ave,,Grayling,MI,49738,USA,,,,echo,www.google.com/search?q=Traverse+Heart+and+Vascular,Traverse Heart and Vascular Grayling,,,"Jul 31, 2024","Adult Stress, Adult Transthoracic",,,,,,,,,,,,,,,,,,,,
354,355,Trinity Health Livingston Hospital,42.615373,-83.939356,granted,620 Byron Road,,Howell,MI,48843,USA,,www.stjoeshealth.org,,echo,,Trinity Health Livingston Hospital Howell,,,"Jan 31, 2023","Adult Stress, Adult Transthoracic",,,,,,,,,,,,,,,,,,,,
355,356,Trinity Health Medical Group Cardiology Muskegon,43.204947,-86.212293,granted,1212 East Sherman Boulevard,,Muskegon,MI,49444,USA,,,,echo,www.google.com/search?q=Trinity+Health+Medical+Group+Cardiology+Muskegon,Trinity Health Medical Group Cardiology Muskegon Muskegon,,,"Feb 28, 2023",Adult Transthoracic,,,,,,,,,,,,,,,,,,,,
356,357,Troy Beaumont,42.618589,-83.091184,granted,"44344 Dequindre Rd, Suite 590",,Sterling Heights,MI,48314,USA,,,,vein_center,www.google.com/search?q=Troy+Beaumont,Troy Beaumont Sterling Heights,,,,,,,,,,,,,,,,,"Feb 29, 2024",Superficial Venous Evaluation and Management,,,,,,
357,358,University of Michigan Health-West,42.858067,-85.722937,granted,5900 Byron Center Ave Sw,,Wyoming,MI,49519,USA,,uofmhealthwest.org/,,pediatric_echo,,University of Michigan Health-West Wyoming,,,,,,,,,,,"Mar 31, 2023",Pediatric Transthoracic,,,,,,,,,,,,
358,359,"University of Michigan Health-West, Pediatric Cardiology",42.971319,-85.654542,granted,1310 East Beltline SE,,Grand Rapids,MI,49506,USA,,,,pediatric_echo,"www.google.com/search?q=University+of+Michigan+Health-West,+Pediatric+Cardiology","University of Michigan Health-West, Pediatric Cardiology Grand Rapids",,,,,,,,,,,"Mar 31, 2023",Pediatric Transthoracic,,,,,,,,,,,,
359,360,University of Michigan-Pediatric Cardiology,42.281672,-83.728476,granted,1540 E. Hospital Drive,"Floor 11, Room 715Z",Ann Arbor,MI,48109,USA,,,,pediatric_echo,www.google.com/search?q=University+of+Michigan-Pediatric+Cardiology,University of Michigan-Pediatric Cardiology Ann Arbor,,,,,,,,,,,"Jul 31, 2023","Pediatric Transesophageal, Pediatric Transthoracic, Fetal",,,,,,,,,,,,
360,361,"Vascular and Endovascular Associates, PLC",42.562862,-83.137337,granted,525 East Big Beaver Road,,Troy,MI,48083,USA,,,,vascular,"www.google.com/search?q=Vascular+and+Endovascular+Associates,+PLC","Vascular and Endovascular Associates, PLC Troy",,,,,,,,,"May 31, 2024",Extracranial Cerebrovascular Testing,,,,,,,,,,,,,,
361,362,VeinSolutions,42.948507,-83.721197,granted,5151 Gateway Center   Suite 400,,Flint,MI,48507,USA,,,,vascular,www.google.com/search?q=VeinSolutions,VeinSolutions Flint,,,,,,,,,"Feb 28, 2025",Peripheral Venous Testing,,,,,,,,,,,,,,
362,363,VeinsPlus (Main),42.75918,-84.482706,granted,"3496 E. Lake Lansing Rd., Ste 160",,East Lansing,MI,48823,USA,,veinsplus.com,,vascular,,VeinsPlus (Main) East Lansing,,,,,,,,,"Mar 31, 2025",Peripheral Venous Testing,,,,,,,,,,,,,,
363,364,Venocure PLLC,42.291403,-83.250996,granted,2881 monroe,,dearborn,MI,48124,USA,,,,echo,www.google.com/search?q=Venocure+PLLC,Venocure PLLC dearborn,,,"Mar 31, 2024",Adult Transthoracic,,,,,,,,,,,,,,,,,,,,
364,365,War Memorial Hospital,46.498095,-84.349517,granted,500 Osborn Blvd,,Sault Ste. Marie,MI,49783,USA,,,,echo,www.google.com/search?q=War+Memorial+Hospital,War Memorial Hospital Sault Ste. Marie,,,"Oct 31, 2024",Adult Transthoracic,,,,,,,,,,,,,,,,,,,,
365,366,West Michigan Cardiology,42.976846,-85.590796,granted,743 East Beltline North East,,Grand Rapids,MI,49525,USA,,,,echo,www.google.com/search?q=West+Michigan+Cardiology,West Michigan Cardiology Grand Rapids,,,"Oct 30, 2022","Adult Stress, Adult Transthoracic",,,,,,,,,,,,,,,,,,,,
366,367,West Michigan Cardiology,43.192047,-85.253356,granted,709 Greenville West Drive,,Greenville,MI,48838,USA,,,,echo,www.google.com/search?q=West+Michigan+Cardiology,West Michigan Cardiology Greenville,,,"Oct 30, 2022","Adult Stress, Adult Transthoracic",,,,,,,,,,,,,,,,,,,,
367,368,West Michigan Cardiology,43.174733,-85.279652,granted,709 S. Greenville West Drive,,Greenville,MI,48838,USA,,,,vascular,www.google.com/search?q=West+Michigan+Cardiology,West Michigan Cardiology Greenville,,,,,,,,,"Nov 29, 2022","Extracranial Cerebrovascular Testing, Peripheral Arterial Testing, Visceral Vascular Testing",,,,,,,,,,,,,,
368,369,West Michigan Cardiology,42.976846,-85.590796,granted,743 East Beltline North East,,Grand Rapids,MI,49525,USA,,,,vascular,www.google.com/search?q=West+Michigan+Cardiology,West Michigan Cardiology Grand Rapids,,,,,,,,,"Nov 29, 2022","Extracranial Cerebrovascular Testing, Peripheral Arterial Testing, Visceral Vascular Testing",,,,,,,,,,,,,,
369,370,"West Michigan Cardiology, PC  Grand Rapids",42.976846,-85.590796,granted,"743 E. Beltline, NE",,Grand Rapids,MI,49525,USA,,,,nuclear,"www.google.com/search?q=West+Michigan+Cardiology,+PC++Grand+Rapids","West Michigan Cardiology, PC  Grand Rapids Grand Rapids",,,,,,,"Jun 30, 2025","Equilibrium Radionuclide Angiography, Myocardial Perfusion Imaging",,,,,,,,,,,,,,,,
370,371,"West Michigan Cardiology, PC Greenville",43.192047,-85.253356,granted,709 Greenville W Drive,,Greenville,MI,48838,USA,,,,nuclear,"www.google.com/search?q=West+Michigan+Cardiology,+PC+Greenville","West Michigan Cardiology, PC Greenville Greenville",,,,,,,"Jun 30, 2025",Myocardial Perfusion Imaging,,,,,,,,,,,,,,,,
371,372,"Wilfredo Rivera, MD, PC dba Progressive Cardiology Associates, PC",42.992413,-83.772435,granted,2335 South Linden Road,,Flint,MI,48532,USA,,riveracardioyahoo.com,,nuclear,,"Wilfredo Rivera, MD, PC dba Progressive Cardiology Associates, PC Flint",,,,,,,"Jul 31, 2023",Myocardial Perfusion Imaging,,,,,,,,,,,,,,,,
372,373,William Beaumont Hospital,42.517687,-83.192142,granted,3601 West 13 Mile Road,,Royal Oak,MI,48073,USA,,www.beaumont.edu,,echo,,William Beaumont Hospital Royal Oak,,,"Feb 28, 2023","Adult Stress, Adult Transesophageal, Adult Transthoracic",,,,,,,,,,,,,,,,,,,,
373,374,William Beaumont Hospital,42.536659,-83.183876,granted,4949 Coolidge Highway,,Royal Oak,MI,48073,USA,,www.beaumont.org,,echo,,William Beaumont Hospital Royal Oak,,,"Feb 28, 2023","Adult Stress, Adult Transthoracic",,,,,,,,,,,,,,,,,,,,
374,375,William Beaumont Hospital,42.618121,-83.091163,granted,44201 Dequindre Road,,Troy,MI,48098,USA,,beaumont.edu,,echo,,William Beaumont Hospital Troy,,,"Oct 31, 2024","Adult Stress, Adult Transesophageal, Adult Transthoracic",,,,,,,,,,,,,,,,,,,,
375,376,William Beaumont Hospital,42.537145,-83.360666,granted,6900 Orchard Lake Rd,,West Bloomfield,MI,48322,USA,,www.beaumont.org,,echo,,William Beaumont Hospital West Bloomfield,,,"Feb 28, 2023",Adult Transthoracic,,,,,,,,,,,,,,,,,,,,
376,377,Woodland Health Center,42.565968,-83.802759,granted,7575 Grand River Boulevard,,Brighton,MI,48114,USA,,none,,vascular,,Woodland Health Center Brighton,,,,,,,,,"Apr 30, 2024","Extracranial Cerebrovascular Testing, Peripheral Arterial Testing, Peripheral Venous Testing, Visceral Vascular Testing",,,,,,,,,,,,,,
377,378,"Woods Cardiovascular Internal Medicine Associates, P.C.",42.496383,-82.987182,granted,27550 Schoenherr,Suite 200,Warren,MI,48088,USA,,,,nuclear,"www.google.com/search?q=Woods+Cardiovascular+Internal+Medicine+Associates,+P.C.","Woods Cardiovascular Internal Medicine Associates, P.C. Warren",,,,,,,"Oct 31, 2023","Equilibrium Radionuclide Angiography, Myocardial Perfusion Imaging",,,,,,,,,,,,,,,,
378,379,"WOODS CVIMA, P.C.",42.51635,-82.982952,granted,27550 Schoenherr Road,Suite 200 Regal Court 2,Warren,MI,48088,USA,,,,vascular,"www.google.com/search?q=WOODS+CVIMA,+P.C.","WOODS CVIMA, P.C. Warren",,,,,,,,,"Nov 30, 2024",Extracranial Cerebrovascular Testing,,,,,,,,,,,,,,
379,380,WSUPG Internal Medicine,42.35383,-83.05475,granted,400 Mack Avenue,,Detroit,MI,48201,USA,,,,echo,www.google.com/search?q=WSUPG+Internal+Medicine,WSUPG Internal Medicine Detroit,,,"Sep 30, 2024",Adult Transthoracic,,,,,,,,,,,,,,,,,,,,
380,381,"Zakwan Mahjoub, MD, PC",42.623525,-83.114528,granted,811 South Blvd E  Suite 105,,Rochester Hills,MI,48307,USA,,,,echo,"www.google.com/search?q=Zakwan+Mahjoub,+MD,+PC","Zakwan Mahjoub, MD, PC Rochester Hills",,,"Jun 30, 2025",Adult Transthoracic,,,,,,,,,,,,,,,,,,,,
