,id,name,lat,lng,category,address,address2,city,state,postal,country,phone,web,features,modalities,searchGoogle,search,ct,ct_areas,echo,echo_areas,mr,mr_areas,nuclear,nuclear_areas,vascular,vascular_areas,pediatric_echo,pediatric_echo_areas,ct-dental,ct-dental_areas,stenting,stenting_areas,vein_center,vein_center_areas,cardiac_electrophysiology,cardiac_electrophysiology_areas,cardiovascular_catheterization,cardiovascular_catheterization_areas,jrcdms,jrcdms_areas
0,1,Abbott Northwestern Hospital,44.951953,-93.262294,multigranted,800 East 28th Street,Internal Zip 92100,Minneapolis,MN,55407,USA,,,,"echo, vein_center, nuclear, vascular, ct",www.google.com/search?q=Abbott+Northwestern+Hospital,Abbott Northwestern Hospital Minneapolis,"Jul 31, 2024","Coronary CTA, Vascular CTA, Coronary Calcium Scoring","Oct 30, 2022","Adult Stress, Adult Transesophageal, Adult Transthoracic",,,"Apr 30, 2023","General Nuclear Medicine, Myocardial Perfusion Imaging, Positron Emission Tomography (PET)","Apr 30, 2024","Extracranial Cerebrovascular Testing, Peripheral Arterial Testing, Peripheral Venous Testing",,,,,,,"Jan 31, 2023",Superficial Venous Evaluation and Management,,,,,,
1,2,"Advanced Specialty Associates, Ltd.",46.34479,-94.25092,granted,13359 Isle Dr Suite 1,,Baxter,MN,56425,USA,,www.advancedspecialtyassociates.com,,ct,,"Advanced Specialty Associates, Ltd. Baxter","Aug 31, 2023",Maxillofacial CT,,,,,,,,,,,,,,,,,,,,,,
2,3,"Advancements in Allergy and Asthma Care, Ltd",44.971292,-93.437116,granted,"12450 Wayzata Blvd., Ste. 215",,Minnetonka,MN,55305,USA,,http:/www.advancementsinallergy.com/,,ct,,"Advancements in Allergy and Asthma Care, Ltd Minnetonka","Jun 30, 2023",Maxillofacial CT,,,,,,,,,,,,,,,,,,,,,,
3,4,Allina Medical Clinic - Maple Grove,45.097403,-93.447375,granted,7840 Vinewood Lane,,Maple Grove,MN,55369,USA,,,,echo,www.google.com/search?q=Allina+Medical+Clinic+-+Maple+Grove,Allina Medical Clinic - Maple Grove Maple Grove,,,"Jan 31, 2024",Adult Transthoracic,,,,,,,,,,,,,,,,,,,,
4,5,Andros ENT and Sleep Center,44.867529,-93.054184,granted,5565 Blaine Ave,Suite 225,Inver Grove Heights,MN,55076,USA,,,,ct,www.google.com/search?q=Andros+ENT+and+Sleep+Center,Andros ENT and Sleep Center Inver Grove Heights,"Jan 31, 2023",Maxillofacial CT,,,,,,,,,,,,,,,,,,,,,,
5,6,Avera Worthington Medical Group,43.634836,-95.596436,granted,1216 Ryans Road,,Worthington,MN,56187,USA,,,,nuclear,www.google.com/search?q=Avera+Worthington+Medical+Group,Avera Worthington Medical Group Worthington,,,,,,,"Nov 30, 2023","General Nuclear Medicine, Myocardial Perfusion Imaging",,,,,,,,,,,,,,,,
6,7,Buffalo Hospital,45.193198,-93.871283,granted,303 Catlin Street,,Buffalo,MN,55313,USA,,,,nuclear,www.google.com/search?q=Buffalo+Hospital,Buffalo Hospital Buffalo,,,,,,,"Mar 31, 2023",Myocardial Perfusion Imaging,,,,,,,,,,,,,,,,
7,8,Buffalo Hospital,45.193198,-93.871283,granted,303 Catlin Street,,Buffalo,MN,55313,USA,,,,echo,www.google.com/search?q=Buffalo+Hospital,Buffalo Hospital Buffalo,,,"Jan 31, 2024","Adult Stress, Adult Transesophageal, Adult Transthoracic",,,,,,,,,,,,,,,,,,,,
8,9,Burnsville Park Nicollet Clinic,44.748038,-93.275196,granted,14000 Fairview Drive,,Burnsville,MN,55337,USA,,,,echo,www.google.com/search?q=Burnsville+Park+Nicollet+Clinic,Burnsville Park Nicollet Clinic Burnsville,,,"Jan 31, 2025","Adult Stress, Adult Transthoracic",,,,,,,,,,,,,,,,,,,,
9,10,Center For Specialty Care,43.647358,-94.447331,granted,"717 South State Street, Suite 900",,Fairmont,MN,56031,USA,,www.centerforspecialtycare.com/,,mr,,Center For Specialty Care Fairmont,,,,,"Nov 29, 2022","Musculoskeletal MRI, Neurological MRI",,,,,,,,,,,,,,,,,,
10,11,CentraCare Heart and Vascular Center,45.575325,-94.17045,multigranted,1406 Sixth Avenue North,,St. Cloud,MN,56303,USA,,www.centracare.com/services/heart-vascular,,"echo, pediatric_echo, cardiac_electrophysiology",,CentraCare Heart and Vascular Center St. Cloud,,,"Jan 31, 2023","Adult Stress, Adult Transesophageal, Adult Transthoracic",,,,,,,"May 31, 2023",Pediatric Transthoracic | Fetal,,,,,,,"May 31, 2023","Testing and Ablation, Device Implantation, Chronic Lead Extraction",,,,
11,12,CentraCare Rice Memorial Hospital,45.120611,-95.045558,granted,301 Becker Ave. S.W.,,Willmar,MN,56201,USA,,www.ricehospital.com,,echo,,CentraCare Rice Memorial Hospital Willmar,,,"Jan 31, 2023",Adult Transthoracic,,,,,,,,,,,,,,,,,,,,
12,13,Chanhassen Park Nicollet Clinic,44.857732,-93.529578,granted,300 Lake Drive East,,Chanhassen,MN,55317,USA,,,,echo,www.google.com/search?q=Chanhassen+Park+Nicollet+Clinic,Chanhassen Park Nicollet Clinic Chanhassen,,,"Jan 31, 2025",Adult Transthoracic,,,,,,,,,,,,,,,,,,,,
13,14,Children’s Minnesota,44.956237,-93.262588,granted,2525 Chicago Avenue South,32-1500 Echocardiography Laboratory,Minneapolis,MN,55404,USA,,,,pediatric_echo,www.google.com/search?q=Children’s+Minnesota,Children’s Minnesota Minneapolis,,,,,,,,,,,"Mar 31, 2023","Pediatric Transesophageal, Pediatric Transthoracic",,,,,,,,,,,,
14,15,Children’s Minnesota - St. Paul,44.942199,-93.107874,granted,345 North Smith Avenue,"Gardenview Building, 3rd Floor",St. Paul,MN,55102,USA,,,,pediatric_echo,www.google.com/search?q=Children’s+Minnesota+-+St.+Paul,Children’s Minnesota - St. Paul St. Paul,,,,,,,,,,,"Mar 31, 2023",Pediatric Transthoracic,,,,,,,,,,,,
15,16,"Ear, Nose and Throat SpecialtyCare - Minneapolis",44.960509,-93.265105,granted,2211 Park Avenue South,,Minneapolis,MN,55404,USA,,www.entsc.com,,ct,,"Ear, Nose and Throat SpecialtyCare - Minneapolis Minneapolis","Dec 31, 2023",Maxillofacial CT,,,,,,,,,,,,,,,,,,,,,,
16,17,"Ear, Nose and Throat SpecialtyCare - Saint Paul",44.94085,-93.10944,granted,347 Smith Avenue N,602 Garden View Medical Building,Saint Paul,MN,55102,USA,,www.entsc.com,,ct,,"Ear, Nose and Throat SpecialtyCare - Saint Paul Saint Paul","Dec 31, 2023",Maxillofacial CT,,,,,,,,,,,,,,,,,,,,,,
17,18,Elk Ridge Health,45.304596,-93.62606,granted,14181 Business Center Drive North West,,Elk River,MN,55330,USA,,,,echo,www.google.com/search?q=Elk+Ridge+Health,Elk Ridge Health Elk River,,,"Jan 31, 2024",Adult Transthoracic,,,,,,,,,,,,,,,,,,,,
18,19,Essentia Health St. Joseph’s Medical Center,46.362509,-94.205143,granted,523 North 3rd Street,,Brainerd,MN,56401,USA,,www.sjmcmn.org,,nuclear,,Essentia Health St. Joseph’s Medical Center Brainerd,,,,,,,"Jun 30, 2024","General Nuclear Medicine, Myocardial Perfusion Imaging",,,,,,,,,,,,,,,,
19,20,Essentia Health St. Mary’s Detroit Lakes,46.815307,-95.845453,granted,1027 Washington Ave,,Detroit Lakes,MN,56501,USA,,,,echo,www.google.com/search?q=Essentia+Health+St.+Mary’s+Detroit+Lakes,Essentia Health St. Mary’s Detroit Lakes Detroit Lakes,,,"Jul 31, 2024",Adult Transthoracic,,,,,,,,,,,,,,,,,,,,
20,21,Fairview Clinics-Fridley,45.084496,-93.263267,granted,6401 University Ave,,Fridley,MN,55432,USA,,,,echo,www.google.com/search?q=Fairview+Clinics-Fridley,Fairview Clinics-Fridley Fridley,,,"Mar 31, 2025","Adult Stress, Adult Transthoracic",,,,,,,,,,,,,,,,,,,,
21,22,Fairview Lakes Regional Medical Center,45.322419,-92.998621,granted,5200 Fairview Blvd,,Wyoming,MN,55092,USA,,www.fairview.org/Hospitals/Lakes/index.htm,,echo,,Fairview Lakes Regional Medical Center Wyoming,,,"Nov 30, 2024","Adult Stress, Adult Transthoracic",,,,,,,,,,,,,,,,,,,,
22,23,Fairview Maple Grove,45.134805,-93.464759,granted,14500 99th Avenue North,,Maple Grove,MN,55369,USA,,,,echo,www.google.com/search?q=Fairview+Maple+Grove,Fairview Maple Grove Maple Grove,,,"Mar 31, 2025","Adult Stress, Adult Transthoracic",,,,,,,,,,,,,,,,,,,,
23,24,Fairview Northland Hospital,45.558603,-93.58867,granted,911 Northland Drive,,Princeton,MN,55371,USA,,www.fairview.org/hospitals/northland/index.htm,,echo,,Fairview Northland Hospital Princeton,,,"Nov 30, 2024","Adult Stress, Adult Transthoracic",,,,,,,,,,,,,,,,,,,,
24,25,Fairview Ridges Hospital,44.749947,-93.274858,granted,201 E. Nicollet Blvd,,Burnsville,MN,55337,USA,,www.fairview.org/Hospitals/ridges/index.htm,,echo,,Fairview Ridges Hospital Burnsville,,,"Nov 30, 2024","Adult Stress, Adult Transesophageal, Adult Transthoracic",,,,,,,,,,,,,,,,,,,,
25,26,Fairview Southdale Hospital,44.886279,-93.328857,multigranted,6401 France Ave S.,,Edina,MN,55435,USA,,www.fairview.org/Hospitals/southdale/index.htm,,"ct, vascular, echo",,Fairview Southdale Hospital Edina,"Nov 30, 2023","Coronary CTA, Coronary Calcium Scoring","Nov 30, 2024","Adult Stress, Adult Transesophageal, Adult Transthoracic",,,,,"Sep 30, 2024",Extracranial Cerebrovascular Testing,,,,,,,,,,,,,,
26,27,Grand Itasca Clinic and Hospital,47.221039,-93.554716,granted,1601 Golf Course Rd,,Grand Rapids,MN,55744,USA,,,,echo,www.google.com/search?q=Grand+Itasca+Clinic+and+Hospital,Grand Itasca Clinic and Hospital Grand Rapids,,,"Mar 31, 2025","Adult Stress, Adult Transthoracic",,,,,,,,,,,,,,,,,,,,
27,28,HealthEast Vascular Center - Maplewood,45.027986,-93.034998,granted,"2945 Hazelwood Street, Suite 200 A",,Maplewood,MN,55109,USA,,,,vascular,www.google.com/search?q=HealthEast+Vascular+Center+-+Maplewood,HealthEast Vascular Center - Maplewood Maplewood,,,,,,,,,"Dec 31, 2022","Extracranial Cerebrovascular Testing, Peripheral Arterial Testing, Peripheral Venous Testing",,,,,,,,,,,,,,
28,29,Healtheast Vascular Center - Woodbury,44.922465,-92.979087,granted,"1875 Woodwinds Drive, Suite 150",,Woodbury,MN,55125,USA,,,,vascular,www.google.com/search?q=Healtheast+Vascular+Center+-+Woodbury,Healtheast Vascular Center - Woodbury Woodbury,,,,,,,,,"Dec 31, 2022","Extracranial Cerebrovascular Testing, Peripheral Arterial Testing, Peripheral Venous Testing",,,,,,,,,,,,,,
29,30,HealthPartners Apple Valley Clinic,44.728986,-93.222687,granted,15290 Pennock Lane,,Apple Valley,MN,55124,USA,,,,echo,www.google.com/search?q=HealthPartners+Apple+Valley+Clinic,HealthPartners Apple Valley Clinic Apple Valley,,,"Jan 31, 2023",Adult Transthoracic,,,,,,,,,,,,,,,,,,,,
30,31,HealthPartners Arden Hills Clinic,45.05892,-93.151234,granted,3930 Northwoods Drive,,Arden Hills,MN,55112,USA,,,,echo,www.google.com/search?q=HealthPartners+Arden+Hills+Clinic,HealthPartners Arden Hills Clinic Arden Hills,,,"Jan 31, 2023",Adult Transthoracic,,,,,,,,,,,,,,,,,,,,
31,32,HealthPartners Bloomington Clinic,44.847413,-93.278416,granted,8600 Nicollet Avenue South,,Bloomington,MN,55420,USA,,,,echo,www.google.com/search?q=HealthPartners+Bloomington+Clinic,HealthPartners Bloomington Clinic Bloomington,,,"Jan 31, 2023",Adult Transthoracic,,,,,,,,,,,,,,,,,,,,
32,33,HealthPartners Inver Grove Heights Clinic,44.867148,-93.061679,granted,5625 Cenex Drive,,Inver Grove Heights,MN,55077,USA,,,,echo,www.google.com/search?q=HealthPartners+Inver+Grove+Heights+Clinic,HealthPartners Inver Grove Heights Clinic Inver Grove Heights,,,"Jan 31, 2023",Adult Transthoracic,,,,,,,,,,,,,,,,,,,,
33,34,HealthPartners Maplewood Clinic,45.007144,-93.0252,granted,2165 White Bear Avenue North,,Maplewood,MN,55109,USA,,,,echo,www.google.com/search?q=HealthPartners+Maplewood+Clinic,HealthPartners Maplewood Clinic Maplewood,,,"Jan 31, 2023",Adult Transthoracic,,,,,,,,,,,,,,,,,,,,
34,35,HealthPartners Medical Group,44.965179,-93.082556,granted,435 Phalen Boulevard,,St. Paul,MN,55130,USA,,,,ct,www.google.com/search?q=HealthPartners+Medical+Group,HealthPartners Medical Group St. Paul,"Sep 30, 2024",Body CT,,,,,,,,,,,,,,,,,,,,,,
35,36,HealthPartners Riverside,44.967286,-93.240356,granted,2220 Riverside Avenue,,Minneapolis,MN,55454,USA,,,,echo,www.google.com/search?q=HealthPartners+Riverside,HealthPartners Riverside Minneapolis,,,"Jan 31, 2023","Adult Stress, Adult Transthoracic",,,,,,,,,,,,,,,,,,,,
36,37,HealthPartners White Bear Lake Clinic,45.079164,-93.039916,granted,1430 Highway 96 East,,White Bear Lake,MN,55110,USA,,,,echo,www.google.com/search?q=HealthPartners+White+Bear+Lake+Clinic,HealthPartners White Bear Lake Clinic White Bear Lake,,,"Jan 31, 2023",Adult Transthoracic,,,,,,,,,,,,,,,,,,,,
37,38,HealthPartners Woodbury Clinic,44.935183,-92.935366,granted,8450 Seasons Parkway,,Woodbury,MN,55125,USA,,,,echo,www.google.com/search?q=HealthPartners+Woodbury+Clinic,HealthPartners Woodbury Clinic Woodbury,,,"Jan 31, 2023",Adult Transthoracic,,,,,,,,,,,,,,,,,,,,
38,39,Heart and Vascular Clinic,45.13334,-93.479469,granted,9825 Hospital Drive,Suite 200,Maple Grove,MN,55369,USA,,,,echo,www.google.com/search?q=Heart+and+Vascular+Clinic,Heart and Vascular Clinic Maple Grove,,,"Dec 31, 2023","Adult Stress, Adult Transthoracic",,,,,,,,,,,,,,,,,,,,
39,40,Heart and Vascular Clinic,45.300949,-93.780532,granted,1001 Hart Blvd,Suite 150,Monticello,MN,55362,USA,,,,echo,www.google.com/search?q=Heart+and+Vascular+Clinic,Heart and Vascular Clinic Monticello,,,"Dec 31, 2023","Adult Stress, Adult Transthoracic",,,,,,,,,,,,,,,,,,,,
40,41,Heart and Vascular Clinic,44.920898,-93.47597,granted,15450 Highway 7,Suite 225,Minnetonka,MN,55345,USA,,,,echo,www.google.com/search?q=Heart+and+Vascular+Clinic,Heart and Vascular Clinic Minnetonka,,,"Dec 31, 2023","Adult Stress, Adult Transthoracic",,,,,,,,,,,,,,,,,,,,
41,42,Heart and Vascular Clinic,45.196668,-93.871658,granted,1700 Hwy 25 North,,Buffalo,MN,55313,USA,,,,echo,www.google.com/search?q=Heart+and+Vascular+Clinic,Heart and Vascular Clinic Buffalo,,,"Dec 31, 2023","Adult Stress, Adult Transthoracic",,,,,,,,,,,,,,,,,,,,
42,43,HeartScan Minnesota,44.951953,-93.262294,granted,800 E. 28th Street,,Minneapolis,MN,55407,USA,,heartscanmn.com,,ct,,HeartScan Minnesota Minneapolis,"Jul 31, 2024","Coronary CTA, Vascular CTA, Coronary Calcium Scoring",,,,,,,,,,,,,,,,,,,,,,
43,44,"Hennepin Healthcare System, Inc",44.97285,-93.262707,granted,701 Park Avenue South,,Minneapolis,MN,55415,USA,,www.hcmc.org,,echo,,"Hennepin Healthcare System, Inc Minneapolis",,,"Dec 31, 2024","Adult Stress, Adult Transesophageal, Adult Transthoracic",,,,,,,,,,,,,,,,,,,,
44,45,Hibbing Family Medical Clinic,47.410273,-92.926267,granted,1120 E. 34th St,,Hibbing,MN,55746,USA,,,,echo,www.google.com/search?q=Hibbing+Family+Medical+Clinic,Hibbing Family Medical Clinic Hibbing,,,"Feb 29, 2024",Adult Transthoracic,,,,,,,,,,,,,,,,,,,,
45,46,Lake View Hospital,47.02965,-91.667156,granted,325 11th Ave,,Two Harbors,MN,55616,USA,,,,echo,www.google.com/search?q=Lake+View+Hospital,Lake View Hospital Two Harbors,,,"Feb 29, 2024",Adult Transthoracic,,,,,,,,,,,,,,,,,,,,
46,47,Lakeview Hospital,45.048126,-92.818489,granted,927 Churchill St. West,,Stillwater,MN,55082,USA,,,,echo,www.google.com/search?q=Lakeview+Hospital,Lakeview Hospital Stillwater,,,"Jan 31, 2023","Adult Stress, Adult Transesophageal, Adult Transthoracic",,,,,,,,,,,,,,,,,,,,
47,48,Lakeview Hospital,45.048126,-92.818489,granted,927 Churchill St W,,Stillwater,MN,55082,USA,,,,nuclear,www.google.com/search?q=Lakeview+Hospital,Lakeview Hospital Stillwater,,,,,,,"Jan 31, 2023",Myocardial Perfusion Imaging,,,,,,,,,,,,,,,,
48,49,Laurentian Medical Clinic,47.516938,-92.582127,granted,8373 Unity Dr.,,Mountain Iron,MN,55768,USA,,,,echo,www.google.com/search?q=Laurentian+Medical+Clinic,Laurentian Medical Clinic Mountain Iron,,,"Feb 29, 2024",Adult Transthoracic,,,,,,,,,,,,,,,,,,,,
49,50,M Health Fairview Vein Clinic- Maple Grove,45.098372,-93.441317,granted,12680 Arbor Lakes Parkway North,,Maple Grove,MN,55369,USA,,,,vein_center,www.google.com/search?q=M+Health+Fairview+Vein+Clinic-+Maple+Grove,M Health Fairview Vein Clinic- Maple Grove Maple Grove,,,,,,,,,,,,,,,,,"Jan 31, 2024",Superficial Venous Evaluation and Management,,,,,,
50,51,M Health Fairview Vein Clinic-Edina,44.884947,-93.328835,granted,6525 France Avenue  South,Suite 275,Edina,MN,55435,USA,,,,vein_center,www.google.com/search?q=M+Health+Fairview+Vein+Clinic-Edina,M Health Fairview Vein Clinic-Edina Edina,,,,,,,,,,,,,,,,,"Jan 31, 2024",Superficial Venous Evaluation and Management,,,,,,
51,52,M Health University of Minnesota Medical Center,44.971055,-93.230268,granted,500 Harvard Street SE,,Minneapolis,MN,55455,USA,,,,ct,www.google.com/search?q=M+Health+University+of+Minnesota+Medical+Center,M Health University of Minnesota Medical Center Minneapolis,"Nov 30, 2023","Coronary CTA, Coronary Calcium Scoring",,,,,,,,,,,,,,,,,,,,,,
52,53,Maple Grove,45.133081,-93.47932,granted,"9825 Hospital Drive, Suite 200",,Maple Grove,MN,55369,USA,,,,vascular,www.google.com/search?q=Maple+Grove,Maple Grove Maple Grove,,,,,,,,,"Feb 29, 2024","Extracranial Cerebrovascular Testing, Peripheral Arterial Testing, Peripheral Venous Testing",,,,,,,,,,,,,,
53,54,Maple Grove Hospital,45.133378,-93.479489,granted,9875 Hospital Drive,,Maple Grove,MN,55369,USA,,,,nuclear,www.google.com/search?q=Maple+Grove+Hospital,Maple Grove Hospital Maple Grove,,,,,,,"Sep 30, 2024",General Nuclear Medicine,,,,,,,,,,,,,,,,
54,55,Maple Grove Park Nicollet Clinic,45.126709,-93.481118,granted,9555 Upland Lane N,,Maple Grove,MN,55369,USA,,,,echo,www.google.com/search?q=Maple+Grove+Park+Nicollet+Clinic,Maple Grove Park Nicollet Clinic Maple Grove,,,"Jan 31, 2025","Adult Stress, Adult Transthoracic",,,,,,,,,,,,,,,,,,,,
55,56,Mayo Clinic Health System Fairmont,43.637688,-94.451728,granted,"800 Medical, Center Creek Drive",,Fairmont,MN,56031,USA,,,,echo,www.google.com/search?q=Mayo+Clinic+Health+System+Fairmont,Mayo Clinic Health System Fairmont Fairmont,,,"Jul 31, 2025",Adult Transthoracic,,,,,,,,,,,,,,,,,,,,
56,57,Mayo Clinic Health System in Albert Lea,43.651558,-93.372463,granted,404 Fountain Street West,,Albert Lea,MN,56007,USA,,,,echo,www.google.com/search?q=Mayo+Clinic+Health+System+in+Albert+Lea,Mayo Clinic Health System in Albert Lea Albert Lea,,,"Jul 31, 2025","Adult Stress, Adult Transesophageal, Adult Transthoracic",,,,,,,,,,,,,,,,,,,,
57,58,Mayo Clinic Health System in Austin,43.67487,-92.978773,granted,1000 First Drive North West,,Austin,MN,55912,USA,,,,echo,www.google.com/search?q=Mayo+Clinic+Health+System+in+Austin,Mayo Clinic Health System in Austin Austin,,,"Jul 31, 2025","Adult Stress, Adult Transesophageal, Adult Transthoracic",,,,,,,,,,,,,,,,,,,,
58,59,Mayo Clinic Health System in Owatonna,44.10971,-93.254356,granted,2200 26 Street North West,,Owatonna,MN,55060,USA,,,,echo,www.google.com/search?q=Mayo+Clinic+Health+System+in+Owatonna,Mayo Clinic Health System in Owatonna Owatonna,,,"Jul 31, 2025","Adult Stress, Adult Transthoracic",,,,,,,,,,,,,,,,,,,,
59,60,Mayo Clinic Health System in Red Wing,44.560496,-92.575204,granted,701 Hewitt Blvd,,Red Wing,MN,55066,USA,,,,echo,www.google.com/search?q=Mayo+Clinic+Health+System+in+Red+Wing,Mayo Clinic Health System in Red Wing Red Wing,,,"Jul 31, 2025","Adult Stress, Adult Transesophageal, Adult Transthoracic",,,,,,,,,,,,,,,,,,,,
60,61,Mayo Clinic Health System Mankato,44.16505,-93.983708,granted,1025 Marsh Street,,Mankato,MN,56001,USA,,mayoclinichealthsystem.org,,echo,,Mayo Clinic Health System Mankato Mankato,,,"Jul 31, 2025","Adult Stress, Adult Transesophageal, Adult Transthoracic",,,,,,,,,,,,,,,,,,,,
61,62,Mayo Clinic Health System New Prague,44.545847,-93.561557,granted,212 Tenth Ave SE NE,,New Prague,MN,56071,USA,,,,echo,www.google.com/search?q=Mayo+Clinic+Health+System+New+Prague,Mayo Clinic Health System New Prague New Prague,,,"Jul 31, 2025",Adult Transthoracic,,,,,,,,,,,,,,,,,,,,
62,63,Mayo Clinic Health System St. James,43.96949,-94.621515,granted,1101 Moulton and Parsons Drive,,St. James,MN,56081,USA,,,,echo,www.google.com/search?q=Mayo+Clinic+Health+System+St.+James,Mayo Clinic Health System St. James St. James,,,"Jul 31, 2025",Adult Transthoracic,,,,,,,,,,,,,,,,,,,,
63,64,Mayo Clinic Health System St. Peter,44.348066,-93.970873,granted,1900 N Sunrise Dr 200,,St. Peter,MN,56082,USA,,,,echo,www.google.com/search?q=Mayo+Clinic+Health+System+St.+Peter,Mayo Clinic Health System St. Peter St. Peter,,,"Jul 31, 2025",Adult Transthoracic,,,,,,,,,,,,,,,,,,,,
64,65,Mayo Clinic Health System Waseca,44.081594,-93.507297,granted,501 North State Street,,Waseca,MN,56093,USA,,,,echo,www.google.com/search?q=Mayo+Clinic+Health+System+Waseca,Mayo Clinic Health System Waseca Waseca,,,"Jul 31, 2025",Adult Transthoracic,,,,,,,,,,,,,,,,,,,,
65,66,"Mayo Clinic Hospital - Rochester, Saint Marys Campus",44.021643,-92.481355,granted,1216 2nd Street South West,,Rochester,MN,55902,USA,,,,pediatric_echo,"www.google.com/search?q=Mayo+Clinic+Hospital+-+Rochester,+Saint+Marys+Campus","Mayo Clinic Hospital - Rochester, Saint Marys Campus Rochester",,,"Jul 31, 2025","Adult Stress, Adult Transesophageal, Adult Transthoracic",,,,,,,"Sep 30, 2023","Pediatric Transesophageal, Pediatric Transthoracic",,,,,,,,,,,,
66,67,Mayo Clinic Rochester Cardiac Ultrasound Imaging and Hemodynamic Laboratory,44.022312,-92.467424,granted,200 First Street South West,Gonda 6,Rochester,MN,55905,USA,,,,pediatric_echo,www.google.com/search?q=Mayo+Clinic+Rochester+Cardiac+Ultrasound+Imaging+and+Hemodynamic+Laboratory,Mayo Clinic Rochester Cardiac Ultrasound Imaging and Hemodynamic Laboratory Rochester,,,"Jul 31, 2025","Adult Stress, Adult Transesophageal, Adult Transthoracic",,,,,,,"Sep 30, 2023","Pediatric Transesophageal, Pediatric Transthoracic, Fetal",,,,,,,,,,,,
67,68,Mayo Clinic Vein Center Rochester,44.022366,-92.467082,granted,200 First Street Southwest,,Rochester,MN,55905,USA,,,,vein_center,www.google.com/search?q=Mayo+Clinic+Vein+Center+Rochester,Mayo Clinic Vein Center Rochester Rochester,,,,,,,,,,,,,,,,,"Sep 30, 2023",Superficial Venous Evaluation and Management,,,,,,
68,69,Mayo Foundation Mayo Clinic Gonda Vascular Center,44.022312,-92.467424,granted,200 First Street South West,,Rochester,MN,55905,USA,,,,vascular,www.google.com/search?q=Mayo+Foundation+Mayo+Clinic+Gonda+Vascular+Center,Mayo Foundation Mayo Clinic Gonda Vascular Center Rochester,,,,,,,,,"Feb 28, 2023","Extracranial Cerebrovascular Testing, Peripheral Arterial Testing, Peripheral Venous Testing, Visceral Vascular Testing",,,,,,,,,,,,,,
69,70,Mercy Heart Center,45.183815,-93.368151,granted,4040 Coon Rapids Boulevard,Suite 008,Minneapolis,MN,55433,USA,,,,nuclear,www.google.com/search?q=Mercy+Heart+Center,Mercy Heart Center Minneapolis,,,,,,,"Mar 31, 2023",Myocardial Perfusion Imaging,,,,,,,,,,,,,,,,
70,71,Metropolitan Heart and Vascular Institute,45.183815,-93.368151,granted,4040 Coon Rapids Blvd Ste. 120,,Coon Rapids,MN,55433,USA,,mhvi.com,,vascular,,Metropolitan Heart and Vascular Institute Coon Rapids,,,,,,,,,"Mar 31, 2024",Extracranial Cerebrovascular Testing,,,,,,,,,,,,,,
71,72,Metropolitan Heart and Vascular Institute,45.183815,-93.368151,granted,4040 Coon Rapids Boulevard,Suite 120,Coon Rapids,MN,55433,USA,,,,echo,www.google.com/search?q=Metropolitan+Heart+and+Vascular+Institute,Metropolitan Heart and Vascular Institute Coon Rapids,,,"Jan 31, 2024","Adult Stress, Adult Transesophageal, Adult Transthoracic",,,,,,,,,,,,,,,,,,,,
72,73,Metropolitan Heart and Vascular Institute,45.1932,-93.87053,granted,303 Catlin Street,,Buffalo,MN,55313,USA,,,,vascular,www.google.com/search?q=Metropolitan+Heart+and+Vascular+Institute,Metropolitan Heart and Vascular Institute Buffalo,,,,,,,,,"Mar 31, 2024",Extracranial Cerebrovascular Testing,,,,,,,,,,,,,,
73,74,MHI at Allina Health-Bloomington,44.858317,-93.247982,granted,920 Old Cedar Avenue South,,Bloomginton,MN,55425,USA,,,,echo,www.google.com/search?q=MHI+at+Allina+Health-Bloomington,MHI at Allina Health-Bloomington Bloomginton,,,"Oct 30, 2022",Adult Transthoracic,,,,,,,,,,,,,,,,,,,,
74,75,MHI at Allina Health-Edina,44.907128,-93.357664,granted,5301 Vernon Avenue,,Edina,MN,55436,USA,,,,echo,www.google.com/search?q=MHI+at+Allina+Health-Edina,MHI at Allina Health-Edina Edina,,,"Oct 30, 2022",Adult Transthoracic,,,,,,,,,,,,,,,,,,,,
75,76,MHI at Allina Health-Faribault,44.289249,-93.256025,multigranted,100 State Avenue,,Faribault,MN,55021,USA,,,,"echo, vascular",www.google.com/search?q=MHI+at+Allina+Health-Faribault,MHI at Allina Health-Faribault Faribault,,,"Oct 30, 2022",Adult Transthoracic,,,,,"Apr 30, 2024","Extracranial Cerebrovascular Testing, Peripheral Arterial Testing, Peripheral Venous Testing",,,,,,,,,,,,,,
76,77,MHI at Allina Health-Northfield,44.444169,-93.173565,multigranted,1400 Jefferson Road,,Northfield,MN,55057,USA,,,,"echo, vascular",www.google.com/search?q=MHI+at+Allina+Health-Northfield,MHI at Allina Health-Northfield Northfield,,,"Oct 30, 2022","Adult Stress, Adult Transthoracic",,,,,"Apr 30, 2024","Peripheral Arterial Testing, Peripheral Venous Testing",,,,,,,,,,,,,,
77,78,MHI at Allina Health-Richfield Clinic,44.883345,-93.284957,granted,407 West 66th Street,,Richfield,MN,55423,USA,,,,echo,www.google.com/search?q=MHI+at+Allina+Health-Richfield+Clinic,MHI at Allina Health-Richfield Clinic Richfield,,,"Oct 30, 2022",Adult Transthoracic,,,,,,,,,,,,,,,,,,,,
78,79,MHI at Cambridge Medical Center,45.565587,-93.229247,multigranted,701 South Dellwood,,Cambridge,MN,55008,USA,,,,"echo, vascular",www.google.com/search?q=MHI+at+Cambridge+Medical+Center,MHI at Cambridge Medical Center Cambridge,,,"Oct 30, 2022","Adult Stress, Adult Transthoracic",,,,,"Apr 30, 2024","Extracranial Cerebrovascular Testing, Peripheral Arterial Testing, Peripheral Venous Testing",,,,,,,,,,,,,,
79,80,MHI at Cuyuna Regional Medical Center,46.482408,-93.94525,granted,320 East Main Street,,Crosby,MN,56441,USA,,,,echo,www.google.com/search?q=MHI+at+Cuyuna+Regional+Medical+Center,MHI at Cuyuna Regional Medical Center Crosby,,,"Oct 30, 2022","Adult Stress, Adult Transesophageal, Adult Transthoracic",,,,,,,,,,,,,,,,,,,,
80,81,MHI at Dulcimer Medical Center,43.672543,-94.44649,granted,1950 Center Creek Drive,,Fairmont,MN,56031,USA,,,,echo,www.google.com/search?q=MHI+at+Dulcimer+Medical+Center,MHI at Dulcimer Medical Center Fairmont,,,"Oct 30, 2022",Adult Transthoracic,,,,,,,,,,,,,,,,,,,,
81,82,MHI at Glencoe Regional Health Services,44.77755,-94.151714,granted,1805 Hennepin Avenue North,,Glencoe,MN,55336,USA,,,,echo,www.google.com/search?q=MHI+at+Glencoe+Regional+Health+Services,MHI at Glencoe Regional Health Services Glencoe,,,"Oct 30, 2022","Adult Stress, Adult Transthoracic",,,,,,,,,,,,,,,,,,,,
82,83,MHI at Lakeview Clinic,44.840805,-93.793623,multigranted,424 State Highway 5 West,,Waconia,MN,55387,USA,,,,"echo, vascular",www.google.com/search?q=MHI+at+Lakeview+Clinic,MHI at Lakeview Clinic Waconia,,,"Oct 30, 2022","Adult Stress, Adult Transthoracic",,,,,"Apr 30, 2024","Extracranial Cerebrovascular Testing, Peripheral Arterial Testing",,,,,,,,,,,,,,
83,84,MHI at Mankato Clinic,44.160642,-93.983329,granted,1230 East Main Street,,Mankato,MN,56002,USA,,,,echo,www.google.com/search?q=MHI+at+Mankato+Clinic,MHI at Mankato Clinic Mankato,,,"Oct 30, 2022","Adult Stress, Adult Transthoracic",,,,,,,,,,,,,,,,,,,,
84,85,MHI at Mayo Clinic Health System-New Prague,44.545926,-93.574903,granted,301 2nd Street Northeast,,New Prague,MN,56071,USA,,,,echo,www.google.com/search?q=MHI+at+Mayo+Clinic+Health+System-New+Prague,MHI at Mayo Clinic Health System-New Prague New Prague,,,"Oct 30, 2022","Adult Stress, Adult Transthoracic",,,,,,,,,,,,,,,,,,,,
85,86,"MHI at Minnesota Valley Health Center, Inc",44.453554,-93.916806,granted,621 South 4th Street,,Le Seuer,MN,56058,USA,,,,echo,"www.google.com/search?q=MHI+at+Minnesota+Valley+Health+Center,+Inc","MHI at Minnesota Valley Health Center, Inc Le Seuer",,,"Oct 30, 2022",Adult Transthoracic,,,,,,,,,,,,,,,,,,,,
86,87,MHI at New Ulm Medical Center,44.312552,-94.47507,multigranted,1324 Fifth Street North,,New Ulm,MN,56073,USA,,,,"echo, vascular",www.google.com/search?q=MHI+at+New+Ulm+Medical+Center,MHI at New Ulm Medical Center New Ulm,,,"Oct 30, 2022","Adult Stress, Adult Transthoracic",,,,,"Apr 30, 2024","Peripheral Arterial Testing, Peripheral Venous Testing",,,,,,,,,,,,,,
87,88,MHI at Northfield Hospital and Clinic,44.471386,-93.191159,granted,2000 North Avenue,,Northfield,MN,55057,USA,,,,echo,www.google.com/search?q=MHI+at+Northfield+Hospital+and+Clinic,MHI at Northfield Hospital and Clinic Northfield,,,"Oct 30, 2022","Adult Stress, Adult Transthoracic",,,,,,,,,,,,,,,,,,,,
88,89,MHI at Ridgeview Heart Center at 212 Medical Center,44.819651,-93.6008,multigranted,111 Hundertmark Road,Suite 430,Chaska,MN,55318,USA,,,,"echo, vascular",www.google.com/search?q=MHI+at+Ridgeview+Heart+Center+at+212+Medical+Center,MHI at Ridgeview Heart Center at 212 Medical Center Chaska,,,"Oct 30, 2022","Adult Stress, Adult Transthoracic",,,,,"Apr 30, 2024","Extracranial Cerebrovascular Testing, Peripheral Arterial Testing, Peripheral Venous Testing",,,,,,,,,,,,,,
89,90,MHI at Ridgeview Medical Center,44.843306,-93.790772,multigranted,500 South Maple,,Waconia,MN,55387,USA,,,,"echo, vascular",www.google.com/search?q=MHI+at+Ridgeview+Medical+Center,MHI at Ridgeview Medical Center Waconia,,,"Oct 30, 2022","Adult Stress, Adult Transesophageal, Adult Transthoracic",,,,,"Apr 30, 2024","Extracranial Cerebrovascular Testing, Peripheral Arterial Testing, Peripheral Venous Testing",,,,,,,,,,,,,,
90,91,MHI at Riverwood Healthcare,46.528354,-93.696772,granted,200 Bunker Hill Drive,,Aitkin,MN,56431,USA,,,,echo,www.google.com/search?q=MHI+at+Riverwood+Healthcare,MHI at Riverwood Healthcare Aitkin,,,"Oct 30, 2022","Adult Stress, Adult Transthoracic",,,,,,,,,,,,,,,,,,,,
91,92,MHI at Sibley Medical Center,44.609782,-94.084631,granted,601 West Chandler,,Arlington,MN,55307,USA,,,,echo,www.google.com/search?q=MHI+at+Sibley+Medical+Center,MHI at Sibley Medical Center Arlington,,,"Oct 30, 2022","Adult Stress, Adult Transthoracic",,,,,,,,,,,,,,,,,,,,
92,93,MHI at Sleepy Eye Medical Center,44.299319,-94.727315,granted,"400 Fourth Avenue, NW",,Sleepy Eye,MN,56085,USA,,,,echo,www.google.com/search?q=MHI+at+Sleepy+Eye+Medical+Center,MHI at Sleepy Eye Medical Center Sleepy Eye,,,"Oct 30, 2022",Adult Transthoracic,,,,,,,,,,,,,,,,,,,,
93,94,MHI at Stevens Community Medical Center,45.585436,-95.905063,granted,400 East First Street,,Morris,MN,56267,USA,,,,echo,www.google.com/search?q=MHI+at+Stevens+Community+Medical+Center,MHI at Stevens Community Medical Center Morris,,,"Oct 30, 2022","Adult Stress, Adult Transthoracic",,,,,,,,,,,,,,,,,,,,
94,95,MHI at United Hospital District,43.633841,-94.100876,granted,515 South Moore,,Blue Earth,MN,56013,USA,,,,echo,www.google.com/search?q=MHI+at+United+Hospital+District,MHI at United Hospital District Blue Earth,,,"Oct 30, 2022",Adult Transthoracic,,,,,,,,,,,,,,,,,,,,
95,96,MHI at Welia Health Mora,45.770349,-93.276181,granted,301 Highway 65,,Mora,MN,55051,USA,,,,echo,www.google.com/search?q=MHI+at+Welia+Health+Mora,MHI at Welia Health Mora Mora,,,"Oct 30, 2022","Adult Stress, Adult Transthoracic",,,,,,,,,,,,,,,,,,,,
96,97,Minneapolis Heart Institute-Brainerd Lakes,46.34555,-94.250854,multigranted,13205 Isle Drive,Suite 100,Baxter,MN,56425,USA,,,,"echo, nuclear, vascular, ct",www.google.com/search?q=Minneapolis+Heart+Institute-Brainerd+Lakes,Minneapolis Heart Institute-Brainerd Lakes Baxter,"Jul 31, 2024","Coronary CTA, Vascular CTA, Coronary Calcium Scoring","Oct 30, 2022","Adult Stress, Adult Transthoracic",,,"Apr 30, 2023","General Nuclear Medicine, Myocardial Perfusion Imaging, Other Cardiovascular Imaging","Apr 30, 2024","Extracranial Cerebrovascular Testing, Peripheral Arterial Testing",,,,,,,,,,,,,,
97,98,Minneapolis Heart Institute-Edina,44.869012,-93.328801,multigranted,7373 France Avenue South,,Edina,MN,55435,USA,,,,"echo, nuclear, vascular",www.google.com/search?q=Minneapolis+Heart+Institute-Edina,Minneapolis Heart Institute-Edina Edina,,,"Oct 30, 2022","Adult Stress, Adult Transthoracic",,,"Apr 30, 2023",Myocardial Perfusion Imaging,"Apr 30, 2024","Extracranial Cerebrovascular Testing, Peripheral Arterial Testing, Peripheral Venous Testing",,,,,,,,,,,,,,
98,99,Minneapolis Heart Institute-West Health,45.011739,-93.453047,multigranted,2805 Campus Drive Suite 125,,Plymouth,MN,55411,USA,,,,"echo, nuclear, vascular",www.google.com/search?q=Minneapolis+Heart+Institute-West+Health,Minneapolis Heart Institute-West Health Plymouth,,,"Oct 30, 2022","Adult Stress, Adult Transthoracic",,,"Apr 30, 2023","General Nuclear Medicine, Myocardial Perfusion Imaging","Apr 30, 2024","Extracranial Cerebrovascular Testing, Peripheral Arterial Testing, Peripheral Venous Testing",,,,,,,,,,,,,,
99,100,Minneapolis VA Health Care System Non-Invasive Vascular Lab,44.902458,-93.201963,granted,1 Veteran’s Drive,,Minneapolis,MN,55417,USA,,,,vascular,www.google.com/search?q=Minneapolis+VA+Health+Care+System+Non-Invasive+Vascular+Lab,Minneapolis VA Health Care System Non-Invasive Vascular Lab Minneapolis,,,,,,,,,"Mar 31, 2024","Extracranial Cerebrovascular Testing, Peripheral Arterial Testing, Peripheral Venous Testing",,,,,,,,,,,,,,
100,101,Minnesota Perinatal Physicians - Abbott Northwestern Hospital,44.955542,-93.261075,granted,902 East 26th Street,Suite 1700,Minneapolis,MN,55404,USA,,,,pediatric_echo,www.google.com/search?q=Minnesota+Perinatal+Physicians+-+Abbott+Northwestern+Hospital,Minnesota Perinatal Physicians - Abbott Northwestern Hospital Minneapolis,,,,,,,,,,,"Oct 31, 2022",Fetal,,,,,,,,,,,,
101,102,Minnesota Perinatal Physicians - United Hospital,44.94229,-93.10949,granted,347 Smith Avenue N,"Gardenview Medical Building, Suite 204",St. Paul,MN,55102,USA,,,,pediatric_echo,www.google.com/search?q=Minnesota+Perinatal+Physicians+-+United+Hospital,Minnesota Perinatal Physicians - United Hospital St. Paul,,,,,,,,,,,"Oct 31, 2022",Fetal,,,,,,,,,,,,
102,103,"Minnesota Urology, PA",44.867056,-93.328984,granted,7500 France Ave South,,Edina,MN,55435,USA,,,,ct,"www.google.com/search?q=Minnesota+Urology,+PA","Minnesota Urology, PA Edina","Apr 30, 2024",Body CT,,,,,,,,,,,,,,,,,,,,,,
103,104,Minnetonka Imaging MRI P.A.,45.130567,-93.339107,granted,4610 Oak Grove Parkway N.,,Brooklyn Park,MN,55443,USA,,www.minnetonkaimagingmri.com/,,mr,,Minnetonka Imaging MRI P.A. Brooklyn Park,,,,,"Sep 30, 2025","Musculoskeletal MRI, Neurological MRI",,,,,,,,,,,,,,,,,,
104,105,Minnetonka Medical Center,44.920944,-93.475681,granted,"15450 Highway 7, Suite 225",,Minnetonka,MN,55345,USA,,,,vascular,www.google.com/search?q=Minnetonka+Medical+Center,Minnetonka Medical Center Minnetonka,,,,,,,,,"Feb 29, 2024","Extracranial Cerebrovascular Testing, Peripheral Arterial Testing, Peripheral Venous Testing",,,,,,,,,,,,,,
105,106,MN Ear and Sinus Center,45.16361,-93.159287,granted,4365 Pheasant Ridge Drive,Suite 106,Blaine,MN,55449,USA,,www.mnearsinuscenter.com,,ct,,MN Ear and Sinus Center Blaine,"Jul 31, 2023",Maxillofacial CT,,,,,,,,,,,,,,,,,,,,,,
106,107,Monticello Clinic,45.300949,-93.780532,granted,"1001 Hart Boulevard, Suite 150",,Monticello,MN,55362,USA,,,,vascular,www.google.com/search?q=Monticello+Clinic,Monticello Clinic Monticello,,,,,,,,,"Feb 29, 2024","Extracranial Cerebrovascular Testing, Peripheral Arterial Testing, Peripheral Venous Testing",,,,,,,,,,,,,,
107,108,Nasseff Heart Center,44.941857,-93.108294,granted,333 N. Smith Ave.,,Saint Paul,MN,55102,USA,,,,nuclear,www.google.com/search?q=Nasseff+Heart+Center,Nasseff Heart Center Saint Paul,,,,,,,"Nov 30, 2024",Myocardial Perfusion Imaging,,,,,,,,,,,,,,,,
108,109,North Memorial Health Heart and Vascular Center,45.13334,-93.479469,granted,9825 Hospital Drive,Suite 200,Maple Grove,MN,55369,USA,,,,nuclear,www.google.com/search?q=North+Memorial+Health+Heart+and+Vascular+Center,North Memorial Health Heart and Vascular Center Maple Grove,,,,,,,"Oct 31, 2023",Myocardial Perfusion Imaging,,,,,,,,,,,,,,,,
109,110,North Memorial Health Heart and Vascular Center,45.014214,-93.321172,granted,3300 Oakdale Avenue North,Suite 200,Minneapolis,MN,55422,USA,,,,nuclear,www.google.com/search?q=North+Memorial+Health+Heart+and+Vascular+Center,North Memorial Health Heart and Vascular Center Minneapolis,,,,,,,"Oct 31, 2023",Myocardial Perfusion Imaging,,,,,,,,,,,,,,,,
110,111,North Memorial Heart and Vascular Institute,45.014214,-93.321172,granted,3300 Oakdale Ave N,Suite 200,Robbinsdale,MN,55422,USA,,,,echo,www.google.com/search?q=North+Memorial+Heart+and+Vascular+Institute,North Memorial Heart and Vascular Institute Robbinsdale,,,"Dec 31, 2023","Adult Stress, Adult Transesophageal, Adult Transthoracic",,,,,,,,,,,,,,,,,,,,
111,112,North Memorial Medical Center,45.014214,-93.321172,granted,3300 Oakdale Ave N  Suite 200,,Robbinsdale,MN,55422,USA,,,,vascular,www.google.com/search?q=North+Memorial+Medical+Center,North Memorial Medical Center Robbinsdale,,,,,,,,,"Feb 29, 2024","Extracranial Cerebrovascular Testing, Peripheral Arterial Testing, Peripheral Venous Testing",,,,,,,,,,,,,,
112,113,North Memorial Medical Center,45.014214,-93.321172,granted,3300 Oakdale Ave N,,Robbinsdale,MN,55422,USA,,www.northmemorial.com,,nuclear,,North Memorial Medical Center Robbinsdale,,,,,,,"Sep 30, 2024","General Nuclear Medicine, Positron Emission Tomography (PET)",,,,,,,,,,,,,,,,
113,114,North Memorial Outpatient Center,45.018877,-93.324901,granted,3435 West Broadway,,Robbinsdale,MN,55422,USA,,,,nuclear,www.google.com/search?q=North+Memorial+Outpatient+Center,North Memorial Outpatient Center Robbinsdale,,,,,,,"Sep 30, 2024","General Nuclear Medicine, Positron Emission Tomography (PET)",,,,,,,,,,,,,,,,
114,115,Oakdale Ear Nose and Throat Clinic - Maple Grove,45.133336,-93.479467,granted,9825 Hospital Drive  Suite 203,,Maple Grove,MN,55369,USA,,,,ct,www.google.com/search?q=Oakdale+Ear+Nose+and+Throat+Clinic+-+Maple+Grove,Oakdale Ear Nose and Throat Clinic - Maple Grove Maple Grove,"Mar 31, 2024",Maxillofacial CT,,,,,,,,,,,,,,,,,,,,,,
115,116,Oakdale Ear Nose and Throat Clinic - Robbinsdale,45.014369,-93.321638,granted,"3366 Oakdale Ave N, Suite 150",,Robbinsdale,MN,55422,USA,,www.oakdaleent.com,,ct,,Oakdale Ear Nose and Throat Clinic - Robbinsdale Robbinsdale,"Mar 31, 2024",Maxillofacial CT,,,,,,,,,,,,,,,,,,,,,,
116,117,Olmsted Medical Center,44.012577,-92.460112,granted,210 9th St SE,,Rochester,MN,55904,USA,,,,echo,www.google.com/search?q=Olmsted+Medical+Center,Olmsted Medical Center Rochester,,,"Oct 30, 2022","Adult Stress, Adult Transesophageal, Adult Transthoracic",,,,,,,,,,,,,,,,,,,,
117,118,Olmsted Medical Center - CF,44.523019,-92.910199,granted,1705 MN-20,,Cannon Falls,MN,55009,USA,,www.olmmed.org/,,echo,,Olmsted Medical Center - CF Cannon Falls,,,"Oct 30, 2022",Adult Transthoracic,,,,,,,,,,,,,,,,,,,,
118,119,Olmsted Medical Center - SPV,43.698008,-92.393391,granted,802 Memorial Dr,,Spring Valley,MN,55975,USA,,,,echo,www.google.com/search?q=Olmsted+Medical+Center+-+SPV,Olmsted Medical Center - SPV Spring Valley,,,"Oct 30, 2022",Adult Transthoracic,,,,,,,,,,,,,,,,,,,,
119,120,Olmsted Medical Hospital,44.020994,-92.439958,granted,1650 Fourth St SE,,Rochester,MN,55904,USA,,,,echo,www.google.com/search?q=Olmsted+Medical+Hospital,Olmsted Medical Hospital Rochester,,,"Oct 30, 2022","Adult Transesophageal, Adult Transthoracic",,,,,,,,,,,,,,,,,,,,
120,121,"Orthopaedic Asso. of Duluth, P.A.",46.797746,-92.086106,granted,1000 East First Street,Suite 400,Duluth,MN,55805,USA,,OADULUTH.com,,mr,,"Orthopaedic Asso. of Duluth, P.A. Duluth",,,,,"Aug 31, 2023","Musculoskeletal MRI, Neurological MRI",,,,,,,,,,,,,,,,,,
121,122,"Otolaryngology and Head and Neck Surgery, PA",45.028128,-93.031456,granted,3590 Arcade Street,,Vadnais Heights,MN,55127,USA,,,,ct,"www.google.com/search?q=Otolaryngology+and+Head+and+Neck+Surgery,+PA","Otolaryngology and Head and Neck Surgery, PA Vadnais Heights","May 31, 2023",Maxillofacial CT,,,,,,,,,,,,,,,,,,,,,,
122,123,"Otolaryngology Head and Neck Surgery, PA dba Midwest Ear, Nose and Throat",44.833677,-93.152942,granted,3460 Promenade Avenue,,Eagan,MN,55123,USA,,www.mwent.net,,ct,,"Otolaryngology Head and Neck Surgery, PA dba Midwest Ear, Nose and Throat Eagan","May 31, 2023",Maxillofacial CT,,,,,,,,,,,,,,,,,,,,,,
123,124,"Otolaryngology Head and Neck Surgery, PA dba Midwest Ear, Nose and Throat  Woodbury",44.945264,-92.934304,granted,217 Radio Drive,,Woodbury,MN,55125,United States,,www.mwent.net,,ct,,"Otolaryngology Head and Neck Surgery, PA dba Midwest Ear, Nose and Throat  Woodbury Woodbury","May 31, 2023",Maxillofacial CT,,,,,,,,,,,,,,,,,,,,,,
124,125,Owatonna Hospital,44.109713,-93.253176,granted,2250 26th St NW,,Owatonna,MN,55060,USA,,,,echo,www.google.com/search?q=Owatonna+Hospital,Owatonna Hospital Owatonna,,,"Jul 31, 2025","Adult Transesophageal, Adult Transthoracic",,,,,,,,,,,,,,,,,,,,
125,126,Park Nicollet Heart and Vascular Center,44.927047,-93.362087,granted,6500 Excelsior Blvd,,St. Louis Park,MN,55426,USA,,www.parknicollet.com,,nuclear,,Park Nicollet Heart and Vascular Center St. Louis Park,,,,,,,"Jul 31, 2024",Myocardial Perfusion Imaging,,,,,,,,,,,,,,,,
126,127,Park Nicollet Heart and Vascular Center,44.927047,-93.362087,multigranted,6500 Excelsior Boulevard,"3rd Floor, HVC",St. Louis Park,MN,55426,USA,,parknicollet.com,,"vein_center, vascular",,Park Nicollet Heart and Vascular Center St. Louis Park,,,,,,,,,"Sep 30, 2023","Extracranial Cerebrovascular Testing, Peripheral Arterial Testing, Peripheral Venous Testing, Visceral Vascular Testing",,,,,,,"Jun 30, 2023",Superficial Venous Evaluation and Management,,,,,,
127,128,Park Nicollet Heart and Vascular Center at Methodist Hospital,44.927047,-93.362087,granted,6500 Excelsior Boulevard,,St Louis Park,MN,55426,USA,,,,echo,www.google.com/search?q=Park+Nicollet+Heart+and+Vascular+Center+at+Methodist+Hospital,Park Nicollet Heart and Vascular Center at Methodist Hospital St Louis Park,,,"Jan 31, 2025","Adult Stress, Adult Transesophageal, Adult Transthoracic",,,,,,,,,,,,,,,,,,,,
128,129,Park Nicollet Vascular and Vein Center,45.125805,-93.4827,granted,9325 Upland Lane N,,Maple Grove,MN,55369,USA,,parknicollet.com,,vascular,,Park Nicollet Vascular and Vein Center Maple Grove,,,,,,,,,"Sep 30, 2023","Extracranial Cerebrovascular Testing, Peripheral Arterial Testing, Peripheral Venous Testing, Visceral Vascular Testing",,,,,,,,,,,,,,
129,130,Park Nicollet Vascular and Vein Center,44.748204,-93.274963,granted,14000 Fairview Dr,,Burnsville,MN,55337,USA,,parknicollet.com,,vascular,,Park Nicollet Vascular and Vein Center Burnsville,,,,,,,,,"Sep 30, 2023","Extracranial Cerebrovascular Testing, Peripheral Arterial Testing, Peripheral Venous Testing, Visceral Vascular Testing",,,,,,,,,,,,,,
130,131,Perham Health Clinic,46.592685,-95.595165,granted,1000 Coney Street W,,Perham,MN,56573,USA,,,,echo,www.google.com/search?q=Perham+Health+Clinic,Perham Health Clinic Perham,,,"Apr 30, 2025","Adult Stress, Adult Transthoracic",,,,,,,,,,,,,,,,,,,,
131,132,Physicians Vein Clinic,46.844013,-96.766854,granted,819 30th Ave South Suite 103,,Moorhead,MN,56560,USA,,physiciansveinclinics.com,,vascular,,Physicians Vein Clinic Moorhead,,,,,,,,,"May 31, 2025",Peripheral Venous Testing,,,,,,,,,,,,,,
132,133,Physicians Vein Clinics - Burnsville,44.769851,-93.286386,granted,550 Burnsville Parkway W Suite 201,,Burnsville,MN,55337,USA,,www.physiciansveinclinics.com,,vascular,,Physicians Vein Clinics - Burnsville Burnsville,,,,,,,,,"Oct 31, 2024",Peripheral Venous Testing,,,,,,,,,,,,,,
133,134,Physicians Vein Clinics - Eagan,44.831068,-93.154931,granted,"1215 Town Center Drive, Ste 120",,Eagan,MN,55123,USA,,www.physiciansveinclinics.com,,vascular,,Physicians Vein Clinics - Eagan Eagan,,,,,,,,,"Oct 31, 2024",Peripheral Venous Testing,,,,,,,,,,,,,,
134,135,Physicians Vein Clinics - Medina,45.088852,-93.43341,granted,"212 Clydesdale Trail, Suite 1030",,Medina,MN,55340,USA,,www.physiciansveinclinics.com,,vascular,,Physicians Vein Clinics - Medina Medina,,,,,,,,,"Oct 31, 2024",Peripheral Venous Testing,,,,,,,,,,,,,,
135,136,Physicians Vein Clinics - Woodbury,44.947374,-92.95042,granted,"7700 Hudson Road, Ste 100",,Woodbury,MN,55125,USA,,www.physiciansveinclinics.com,,vascular,,Physicians Vein Clinics - Woodbury Woodbury,,,,,,,,,"Oct 31, 2024",Peripheral Venous Testing,,,,,,,,,,,,,,
136,137,Pipestone County Medical Center and Family Clinic Avera,43.991082,-96.322107,granted,916 4th Avenue SW,,Pipestone,MN,56164,USA,,,,nuclear,www.google.com/search?q=Pipestone+County+Medical+Center+and+Family+Clinic+Avera,Pipestone County Medical Center and Family Clinic Avera Pipestone,,,,,,,"Nov 30, 2023",General Nuclear Medicine,,,,,,,,,,,,,,,,
137,138,Preventive Cardiology Clinic,44.884557,-93.328825,granted,4100 Minnesota Drive,Suite 310,Edina,MN,55435,USA,,www.pccmn.com,,echo,,Preventive Cardiology Clinic Edina,,,"Jun 30, 2024","Adult Stress, Adult Transthoracic",,,,,,,,,,,,,,,,,,,,
138,139,Regions Hospital Cardiology,44.955083,-93.096026,granted,640 Jackson Street,,St. Paul,MN,55101,USA,,,,echo,www.google.com/search?q=Regions+Hospital+Cardiology,Regions Hospital Cardiology St. Paul,,,"Jan 31, 2023","Adult Stress, Adult Transesophageal, Adult Transthoracic",,,,,,,,,,,,,,,,,,,,
139,140,Regions Hospital Cardiology,44.955338,-93.096277,granted,640 Jackson Street,,St. Paul,MN,55101,USA,,www.regionshospital.com,,nuclear,,Regions Hospital Cardiology St. Paul,,,,,,,"Jan 31, 2023",Myocardial Perfusion Imaging,,,,,,,,,,,,,,,,
140,141,Renew ENT,44.870464,-93.329016,granted,7300 France Ave S,Suite 420,Edina,MN,55435,USA,,www.enthc.com,,ct,,Renew ENT Edina,"Jul 31, 2023",Maxillofacial CT,,,,,,,,,,,,,,,,,,,,,,
141,142,Sanford Alexandria Clinic,45.874919,-95.377717,granted,1527 Broadway St.,,Alexandria,MN,56308,USA,,,,echo,www.google.com/search?q=Sanford+Alexandria+Clinic,Sanford Alexandria Clinic Alexandria,,,"Apr 30, 2025","Adult Stress, Adult Transthoracic",,,,,,,,,,,,,,,,,,,,
142,143,Sanford Health Detroit Lakes Clinic,46.809629,-95.845742,granted,1245 Washington Ave,,Detroit Lakes,MN,56501,USA,,,,echo,www.google.com/search?q=Sanford+Health+Detroit+Lakes+Clinic,Sanford Health Detroit Lakes Clinic Detroit Lakes,,,"Apr 30, 2025","Adult Stress, Adult Transthoracic",,,,,,,,,,,,,,,,,,,,
143,144,Sanford Health East Grand Forks,47.932001,-97.022854,granted,621 DeMers Ave,,East Grand Forks,MN,56721,USA,,,,echo,www.google.com/search?q=Sanford+Health+East+Grand+Forks,Sanford Health East Grand Forks East Grand Forks,,,"Apr 30, 2025","Adult Stress, Adult Transthoracic",,,,,,,,,,,,,,,,,,,,
144,145,Sanford Health Mahnomen Clinic,47.318421,-95.974704,granted,410 W 4th St,,Mahnomen,MN,56557,USA,,,,echo,www.google.com/search?q=Sanford+Health+Mahnomen+Clinic,Sanford Health Mahnomen Clinic Mahnomen,,,"Apr 30, 2025",Adult Transthoracic,,,,,,,,,,,,,,,,,,,,
145,146,Sanford Health of Northern Minnesota,47.505009,-94.898125,granted,1300 Anne Street NW,,Bemidji,MN,56601,USA,,,,echo,www.google.com/search?q=Sanford+Health+of+Northern+Minnesota,Sanford Health of Northern Minnesota Bemidji,,,"Aug 31, 2023","Adult Stress, Adult Transesophageal, Adult Transthoracic",,,,,,,,,,,,,,,,,,,,
146,147,Sanford Health of Northern Minnesota,47.505009,-94.898125,granted,1300 Anne Street NW,,Bemidji,MN,56601,USA,,www.sanfordhealth.org,,vascular,,Sanford Health of Northern Minnesota Bemidji,,,,,,,,,"Aug 31, 2023","Extracranial Cerebrovascular Testing, Peripheral Arterial Testing, Peripheral Venous Testing, Visceral Vascular Testing",,,,,,,,,,,,,,
147,148,Sanford Health Pelican Rapids Clinic,46.569374,-96.080343,granted,211 E Mill Street,,Pelican Rapids,MN,56572,USA,,,,echo,www.google.com/search?q=Sanford+Health+Pelican+Rapids+Clinic,Sanford Health Pelican Rapids Clinic Pelican Rapids,,,"Apr 30, 2025",Adult Transthoracic,,,,,,,,,,,,,,,,,,,,
148,149,Sanford Wheaton Medical Center,45.80901,-96.500504,granted,401 12th Street N,,Wheaton,MN,56296,USA,,,,echo,www.google.com/search?q=Sanford+Wheaton+Medical+Center,Sanford Wheaton Medical Center Wheaton,,,"Apr 30, 2025",Adult Transthoracic,,,,,,,,,,,,,,,,,,,,
149,150,SMDC Non-Invasive Vascular Laboratory,46.793206,-92.095953,multigranted,400 East 3rd Street,Duluth Clinic,Duluth,MN,55805,USA,,DuluthClinic.org,,"vascular, vein_center",,SMDC Non-Invasive Vascular Laboratory Duluth,,,,,,,,,"Dec 30, 2022","Extracranial Cerebrovascular Testing, Peripheral Arterial Testing, Peripheral Venous Testing, Visceral Vascular Testing",,,,,,,"Dec 31, 2023",Superficial Venous Evaluation and Management,,,,,,
150,151,"Southwest Minnesota Orthopedics and Sports Medicine, Inc.",44.438657,-95.767527,granted,1401 Nwakama Street,,Marshall,MN,56258,USA,,www.swm-ortho.com,,mr,,"Southwest Minnesota Orthopedics and Sports Medicine, Inc. Marshall",,,,,"Jan 31, 2024","Musculoskeletal MRI, Neurological MRI",,,,,,,,,,,,,,,,,,
151,152,Spine and Joint Imaging Center,44.956604,-93.118675,granted,485 Arundel Street Suite 102,,St. Paul,MN,55103,USA,,,,mr,www.google.com/search?q=Spine+and+Joint+Imaging+Center,Spine and Joint Imaging Center St. Paul,,,,,"Sep 30, 2025","Musculoskeletal MRI, Neurological MRI",,,,,,,,,,,,,,,,,,
152,153,St Paul Rheumatology P.A.,44.853732,-93.132314,granted,2854 Highway 55,Suite 190,Eagan,MN,55121,USA,,www.sprderm.com,,mr,,St Paul Rheumatology P.A. Eagan,,,,,"Apr 30, 2025",Musculoskeletal MRI,,,,,,,,,,,,,,,,,,
153,154,St. Cloud Ear Nose and Throat Clinic,45.579876,-94.18067,granted,1528 Northway Drive,,St Cloud,MN,56303,USA,,www.stcloudent.com,,ct,,St. Cloud Ear Nose and Throat Clinic St Cloud,"Jan 31, 2024",Maxillofacial CT,,,,,,,,,,,,,,,,,,,,,,
154,155,St. Francis Regional Medical Center,44.770074,-93.504013,granted,1455 St. Francis Ave.,,Shakopee,MN,55379,USA,,,,echo,www.google.com/search?q=St.+Francis+Regional+Medical+Center,St. Francis Regional Medical Center Shakopee,,,"Dec 31, 2022","Adult Stress, Adult Transthoracic",,,,,,,,,,,,,,,,,,,,
155,156,St. Francis Regional Medical Center - MHI - Shakopee,44.770078,-93.499636,granted,1601 St. Francis Avenue,,Shakopee,MN,55379,USA,,www.allinahealth.org,,vascular,,St. Francis Regional Medical Center - MHI - Shakopee Shakopee,,,,,,,,,"Apr 30, 2024","Extracranial Cerebrovascular Testing, Peripheral Arterial Testing, Peripheral Venous Testing",,,,,,,,,,,,,,
156,157,St. John’s Hospital,45.028131,-93.033508,granted,1575 Beam Avenue,,Maplewood,MN,55109,USA,,,,echo,www.google.com/search?q=St.+John’s+Hospital,St. John’s Hospital Maplewood,,,"Nov 29, 2022","Adult Stress, Adult Transesophageal, Adult Transthoracic",,,,,,,,,,,,,,,,,,,,
157,158,St. Joseph’s Hospital,44.949062,-93.100127,granted,45 West 10th Street,,Saint Paul,MN,55102,USA,,,,echo,www.google.com/search?q=St.+Joseph’s+Hospital,St. Joseph’s Hospital Saint Paul,,,"Nov 29, 2022","Adult Stress, Adult Transesophageal, Adult Transthoracic",,,,,,,,,,,,,,,,,,,,
158,159,St. Luke’s Hospital,46.796341,-92.087899,granted,915 E. 1st Street,,Duluth,MN,55805,USA,,www.slhduluth.com,,vascular,,St. Luke’s Hospital Duluth,,,,,,,,,"Oct 31, 2024","Extracranial Cerebrovascular Testing, Peripheral Arterial Testing, Peripheral Venous Testing",,,,,,,,,,,,,,
159,160,St. Luke’s Hospital,46.796341,-92.087899,granted,915 East First Street,,Duluth,MN,55805,USA,,,,echo,www.google.com/search?q=St.+Luke’s+Hospital,St. Luke’s Hospital Duluth,,,"Feb 29, 2024","Adult Stress, Adult Transesophageal, Adult Transthoracic",,,,,,,,,,,,,,,,,,,,
160,161,St. Luke’s Lakeview Clinic,46.796504,-92.085763,granted,1001 E. Superior Street,,Duluth,MN,55805,USA,,slhduluth.com,,vascular,,St. Luke’s Lakeview Clinic Duluth,,,,,,,,,"Oct 31, 2024","Extracranial Cerebrovascular Testing, Peripheral Venous Testing",,,,,,,,,,,,,,
161,162,St. Lukes Nuclear Cardiology Department,46.796576,-92.085663,granted,St. Luke’s Campus Building A,"1012 East Second Street, Floor 1",Duluth,MN,55805,USA,,www.slhduluth.com,,nuclear,,St. Lukes Nuclear Cardiology Department Duluth,,,,,,,"Mar 31, 2024","Equilibrium Radionuclide Angiography, Myocardial Perfusion Imaging",,,,,,,,,,,,,,,,
162,163,St. Mary’s Medical Center,46.792843,-92.096395,granted,407 East 3rd Street,,Duluth,MN,55805,USA,,,,echo,www.google.com/search?q=St.+Mary’s+Medical+Center,St. Mary’s Medical Center Duluth,,,"Dec 31, 2023","Adult Stress, Adult Transesophageal, Adult Transthoracic",,,,,,,,,,,,,,,,,,,,
163,164,St. Marys Medical Center,46.792843,-92.096395,granted,407 E 3rd Street,,Duluth,MN,55805,USA,,,,nuclear,www.google.com/search?q=St.+Marys+Medical+Center,St. Marys Medical Center Duluth,,,,,,,"Jan 31, 2023","Equilibrium Radionuclide Angiography, Myocardial Perfusion Imaging",,,,,,,,,,,,,,,,
164,165,Suburban Imaging Northwest,45.164438,-93.318292,granted,11850 Blackfoot St. NW,Mercy Specialty Center Suite 180,Coon Rapids,MN,55433,USA,,www.subrad.com,,nuclear,,Suburban Imaging Northwest Coon Rapids,,,,,,,"Oct 31, 2023","General Nuclear Medicine, Positron Emission Tomography (PET)",,,,,,,,,,,,,,,,
165,166,"Summit Orthopedics, Woodlake",44.917949,-92.980611,granted,2090 Woodwinds Dr.,,Woodbury,MN,55125,USA,,,,ct,"www.google.com/search?q=Summit+Orthopedics,+Woodlake","Summit Orthopedics, Woodlake Woodbury","Dec 31, 2022",Body CT,,,,,,,,,,,,,,,,,,,,,,
166,167,TCO Blaine,45.173822,-93.237511,granted,11225 Ulysses St NE,,Blaine,MN,55434,United States,,,,mr,www.google.com/search?q=TCO+Blaine,TCO Blaine Blaine,,,,,"Jul 31, 2023",Musculoskeletal MRI,,,,,,,,,,,,,,,,,,
167,168,TCO Coon Rapids,45.196058,-93.345065,granted,3111 124th Ave. NW,,Coon Rapids,MN,55433,USA,,www.tcomn.com,,mr,,TCO Coon Rapids Coon Rapids,,,,,"Jul 31, 2023",Musculoskeletal MRI,,,,,,,,,,,,,,,,,,
168,169,TCO Stillwater,45.032103,-92.854156,granted,5715 Memorial Ave N,,Stillwater,MN,55082,United States,,www.tcomn.com,,mr,,TCO Stillwater Stillwater,,,,,"Aug 31, 2023",Musculoskeletal MRI,,,,,,,,,,,,,,,,,,
169,170,Twin Cites Orthopedics - Maple Grove,45.129995,-93.483409,granted,9630 Grove Circle 104,,Maple Grove,MN,55369,USA,,,,ct,www.google.com/search?q=Twin+Cites+Orthopedics+-+Maple+Grove,Twin Cites Orthopedics - Maple Grove Maple Grove,"Jun 30, 2024",Body CT,,,,,,,,,,,,,,,,,,,,,,
170,171,Twin Cities Orthopedics,44.750232,-93.291576,granted,1000 W. 140th Street,,Burnsville,MN,55337,USA,,,,mr,www.google.com/search?q=Twin+Cities+Orthopedics,Twin Cities Orthopedics Burnsville,,,,,"Sep 30, 2024",Musculoskeletal MRI,,,,,,,,,,,,,,,,,,
171,172,Twin Cities Orthopedics - Eagan,44.857293,-93.127364,granted,2700 Vikings Circle,,Eagan,MN,55121,USA,,,,ct,www.google.com/search?q=Twin+Cities+Orthopedics+-+Eagan,Twin Cities Orthopedics - Eagan Eagan,"Feb 28, 2025",Body CT,,,,,,,,,,,,,,,,,,,,,,
172,173,Twin Cities Orthopedics - Edina,44.886008,-93.331792,multigranted,4010 West 65th Street,,Edina,MN,55435,USA,,,,"ct, mr",www.google.com/search?q=Twin+Cities+Orthopedics+-+Edina,Twin Cities Orthopedics - Edina Edina,"Dec 31, 2022",Body CT,,,"Oct 31, 2024",Musculoskeletal MRI,,,,,,,,,,,,,,,,,,
173,174,Twin Cities Orthopedics - Woodbury,44.889957,-92.944125,multigranted,4040 Radio Drive,,Woodbury,MN,55129,USA,,,,"mr, ct",www.google.com/search?q=Twin+Cities+Orthopedics+-+Woodbury,Twin Cities Orthopedics - Woodbury Woodbury,"Jan 31, 2025",Body CT,,,"Aug 31, 2023",Musculoskeletal MRI,,,,,,,,,,,,,,,,,,
174,175,United Heart and Vascular Imaging,44.94384,-93.105785,granted,"225 Smith Ave, N., Suite 100",,Saint Paul,MN,55102,USA,,,,nuclear,www.google.com/search?q=United+Heart+and+Vascular+Imaging,United Heart and Vascular Imaging Saint Paul,,,,,,,"Nov 30, 2024",Myocardial Perfusion Imaging,,,,,,,,,,,,,,,,
175,176,United Heart and Vascular Imaging,44.94384,-93.105785,granted,225 Smith Ave. N.,,St. Paul,MN,55102,USA,,,,echo,www.google.com/search?q=United+Heart+and+Vascular+Imaging,United Heart and Vascular Imaging St. Paul,,,"Dec 31, 2024","Adult Stress, Adult Transthoracic",,,,,,,,,,,,,,,,,,,,
176,177,United Hospital,44.941857,-93.108294,granted,333 Smith Ave. N.,,St. Paul,MN,55102,USA,,,,echo,www.google.com/search?q=United+Hospital,United Hospital St. Paul,,,"Dec 31, 2024","Adult Stress, Adult Transesophageal, Adult Transthoracic",,,,,,,,,,,,,,,,,,,,
177,178,United Hospital - UHVC,44.94185,-93.108302,granted,333 N Smith Ave,,St. Paul,MN,55102,USA,,,,ct,www.google.com/search?q=United+Hospital+-+UHVC,United Hospital - UHVC St. Paul,"Jun 30, 2024","Coronary CTA, Vascular CTA, Coronary Calcium Scoring",,,,,,,,,,,,,,,,,,,,,,
178,179,United Vascular Clinic,44.94393,-93.10567,granted,225 Smith Ave N,Suite 500,St Paul,MN,55102,USA,,www.allinahealth.org/United-Vascular-Clinic/,,vascular,,United Vascular Clinic St Paul,,,,,,,,,"Sep 30, 2024","Extracranial Cerebrovascular Testing, Peripheral Arterial Testing, Peripheral Venous Testing",,,,,,,,,,,,,,
179,180,Unity 3E,45.107852,-93.257176,granted,550 Osborne Road,,Fridley,MN,55432,USA,,,,nuclear,www.google.com/search?q=Unity+3E,Unity 3E Fridley,,,,,,,"Mar 31, 2023",Myocardial Perfusion Imaging,,,,,,,,,,,,,,,,
180,181,Unity Hospital,45.107862,-93.258062,granted,500 Osbourne Road,,Fridley,MN,55432,USA,,,,echo,www.google.com/search?q=Unity+Hospital,Unity Hospital Fridley,,,"Jan 31, 2024","Adult Stress, Adult Transesophageal, Adult Transthoracic",,,,,,,,,,,,,,,,,,,,
181,182,University of Minnesota Amplatz Childrens Hospital,44.966218,-93.237846,granted,2450 Riverside Avenue,,Minneapolis,MN,55454,USA,,www.uofmchildrenshospital.org,,pediatric_echo,,University of Minnesota Amplatz Childrens Hospital Minneapolis,,,,,,,,,,,"Jul 31, 2024","Pediatric Transthoracic, Fetal",,,,,,,,,,,,
182,183,University of Minnesota Health,44.970228,-93.225274,granted,909 Fulton St SE,,Minneapolis,MN,55455,USA,,,,echo,www.google.com/search?q=University+of+Minnesota+Health,University of Minnesota Health Minneapolis,,,"Mar 31, 2025",Adult Transthoracic,,,,,,,,,,,,,,,,,,,,
183,184,University of Minnesota Health Clinics and Surgery Center Noninvasive Vascular Lab,44.970276,-93.227806,granted,"909 Fulton Street, SE",Mail Code 2121AC,Minneapolis,MN,55455,USA,,,,vascular,www.google.com/search?q=University+of+Minnesota+Health+Clinics+and+Surgery+Center+Noninvasive+Vascular+Lab,University of Minnesota Health Clinics and Surgery Center Noninvasive Vascular Lab Minneapolis,,,,,,,,,"Oct 30, 2022","Extracranial Cerebrovascular Testing, Peripheral Arterial Testing, Peripheral Venous Testing",,,,,,,,,,,,,,
184,185,University of Minnesota Medical Center,44.971055,-93.230268,granted,500 Harvard Street SE,,Minneapolis,MN,55455,USA,,,,echo,www.google.com/search?q=University+of+Minnesota+Medical+Center,University of Minnesota Medical Center Minneapolis,,,"Mar 31, 2025","Adult Stress, Adult Transesophageal, Adult Transthoracic",,,,,,,,,,,,,,,,,,,,
185,186,Vascular Health Center Imaging at Fairview,44.886268,-93.328857,granted,6405 France Avenue South,Suite W340,Edina,MN,55435,USA,,,,vascular,www.google.com/search?q=Vascular+Health+Center+Imaging+at+Fairview,Vascular Health Center Imaging at Fairview Edina,,,,,,,,,"Sep 30, 2024","Extracranial Cerebrovascular Testing, Peripheral Arterial Testing, Peripheral Venous Testing",,,,,,,,,,,,,,
186,187,Vascular Interventional Experts,44.861974,-93.331582,multigranted,4100 Minnesota Drive,Suite 310,Edina,MN,55435,USA,,,,"ct, vascular",www.google.com/search?q=Vascular+Interventional+Experts,Vascular Interventional Experts Edina,"Jul 31, 2024","Body CT, Neurological CT, Vascular CTA",,,,,,,"Apr 30, 2025","Extracranial Cerebrovascular Testing, Peripheral Arterial Testing, Peripheral Venous Testing",,,,,,,,,,,,,,
187,188,Vein Clinics of America,44.941674,-92.938729,granted,8300 Tamarack Village,,Woodbury,MN,55125,USA,,www.veinclinics.com/clinic/woodbury-minnesota/,,vascular,,Vein Clinics of America Woodbury,,,,,,,,,"Nov 30, 2023",Peripheral Venous Testing,,,,,,,,,,,,,,
188,189,Vein Clinics of America,44.858818,-93.443639,granted,13300 Technology Drive 106,,Eden Prairie,MN,55344,USA,,www.veinclinics.com/clinic/eden-prairie-minnesota/,,vascular,,Vein Clinics of America Eden Prairie,,,,,,,,,"Nov 30, 2023",Peripheral Venous Testing,,,,,,,,,,,,,,
189,190,Vein Clinics of America,45.166043,-93.428012,granted,11672 Elm Creek Blvd.,,Maple Grove,MN,55369,USA,,www.veinclinics.com/clinic/maple-grove-minnesota/,,vascular,,Vein Clinics of America Maple Grove,,,,,,,,,"Nov 30, 2023",Peripheral Venous Testing,,,,,,,,,,,,,,
190,191,VeinSolutions Edina,44.884947,-93.328835,granted,6525 France Avenue North Suite 275,,Edina,MN,55435,USA,,,,vascular,www.google.com/search?q=VeinSolutions+Edina,VeinSolutions Edina Edina,,,,,,,,,"Jan 31, 2024",Peripheral Venous Testing,,,,,,,,,,,,,,
191,192,VeinSolutions Maple Grove,45.098372,-93.441317,granted,12680 Arbor Lakes Parkway North,,Maple Grove,MN,55369,USA,,,,vascular,www.google.com/search?q=VeinSolutions+Maple+Grove,VeinSolutions Maple Grove Maple Grove,,,,,,,,,"Jan 31, 2024",Peripheral Venous Testing,,,,,,,,,,,,,,
192,193,Woodwinds Health Campus,44.92351,-92.975353,granted,1925 Woodwinds Drive,,Woodbury,MN,55125,USA,,,,echo,www.google.com/search?q=Woodwinds+Health+Campus,Woodwinds Health Campus Woodbury,,,"Nov 29, 2022","Adult Stress, Adult Transesophageal, Adult Transthoracic",,,,,,,,,,,,,,,,,,,,
