,id,name,lat,lng,category,address,address2,city,state,postal,country,phone,web,features,modalities,searchGoogle,search,ct,ct_areas,echo,echo_areas,mr,mr_areas,nuclear,nuclear_areas,vascular,vascular_areas,pediatric_echo,pediatric_echo_areas,ct-dental,ct-dental_areas,stenting,stenting_areas,vein_center,vein_center_areas,cardiac_electrophysiology,cardiac_electrophysiology_areas,cardiovascular_catheterization,cardiovascular_catheterization_areas,jrcdms,jrcdms_areas
0,1,Advent Health Hendersonville,35.391908,-82.488057,granted,100 Hospital Drive,,Hendersonville,NC,28732,USA,,parkridgehealth.org,,echo,,Advent Health Hendersonville Hendersonville,,,"Dec 30, 2022",Adult Transthoracic,,,,,,,,,,,,,,,,,,,,
1,2,Advent Health Hendersonville,35.390369,-82.486831,granted,50 Hospital Drive,Suite 3-B,Hendersonville,NC,28732,USA,,,,echo,www.google.com/search?q=Advent+Health+Hendersonville,Advent Health Hendersonville Hendersonville,,,"Dec 30, 2022",Adult Transthoracic,,,,,,,,,,,,,,,,,,,,
2,3,"Alamance Ear, Nose and Throat, LLP",36.063636,-79.502685,granted,1248 Huffman Mill Road,Suite 200,Burlington,NC,27215,USA,,www.alamance-ent.com/,,ct,,"Alamance Ear, Nose and Throat, LLP Burlington","Oct 30, 2022",Maxillofacial CT,,,,,,,,,,,,,,,,,,,,,,
3,4,Alamance Vein and Vascular Surgery,36.06316,-79.495793,granted,2977 Crouse Lane,,Burlington,NC,27215,USA,,,,vascular,www.google.com/search?q=Alamance+Vein+and+Vascular+Surgery,Alamance Vein and Vascular Surgery Burlington,,,,,,,,,"Apr 30, 2024","Extracranial Cerebrovascular Testing, Peripheral Arterial Testing",,,,,,,,,,,,,,
4,5,Alliance Medical Associates,36.063123,-79.49546,granted,2961 Crouse Lane,Suite B,Burlington,NC,27215,USA,,www.alliancemedicalassociates.com,,nuclear,,Alliance Medical Associates Burlington,,,,,,,"May 31, 2023",Myocardial Perfusion Imaging,,,,,,,,,,,,,,,,
5,6,"Alliance Medical Associates, PLLC",36.06314,-79.497191,granted,2905 Crouse Lane,,Burlington,NC,27215,USA,,,,echo,"www.google.com/search?q=Alliance+Medical+Associates,+PLLC","Alliance Medical Associates, PLLC Burlington",,,"Jun 30, 2023",Adult Transthoracic,,,,,,,,,,,,,,,,,,,,
6,7,"Andre K. S. Tse, M.D., P.A.",34.765362,-77.385459,granted,158 Memorial Court,,Jacksonville,NC,28546,USA,,,,nuclear,"www.google.com/search?q=Andre+K.+S.+Tse,+M.D.,+P.A.","Andre K. S. Tse, M.D., P.A. Jacksonville",,,,,,,"Feb 29, 2024",Myocardial Perfusion Imaging,,,,,,,,,,,,,,,,
7,8,Angel Medical Center,35.184628,-83.37764,granted,120 Riverview street,,Franklin,NC,28734,USA,,,,echo,www.google.com/search?q=Angel+Medical+Center,Angel Medical Center Franklin,,,"Feb 28, 2023",Adult Transthoracic,,,,,,,,,,,,,,,,,,,,
8,9,Annie Penn Hospital,36.354961,-79.666191,granted,618 South Main Street,,Reidsville,NC,27320,USA,,,,echo,www.google.com/search?q=Annie+Penn+Hospital,Annie Penn Hospital Reidsville,,,"Jun 30, 2024",Adult Transthoracic,,,,,,,,,,,,,,,,,,,,
9,10,Asheville Cardiology Associates at Brevard,35.256336,-82.713048,granted,260 Hospital Drive,,Brevard,NC,28712,USA,,,,echo,www.google.com/search?q=Asheville+Cardiology+Associates+at+Brevard,Asheville Cardiology Associates at Brevard Brevard,,,"Feb 28, 2023",Adult Transthoracic,,,,,,,,,,,,,,,,,,,,
10,11,Asheville Head Neck and Ear Surgeons PA,35.537284,-82.52969,granted,1065 Hendersonville Road,,Asheville,NC,28803,USA,,ashevilleheadneckear.com,,ct,,Asheville Head Neck and Ear Surgeons PA Asheville,"Nov 30, 2023",Maxillofacial CT,,,,,,,,,,,,,,,,,,,,,,
11,12,Atrium Health University City,35.307836,-80.747985,granted,8800 North Tryon Street,,Charlotte,NC,28262,USA,,,,echo,www.google.com/search?q=Atrium+Health+University+City,Atrium Health University City Charlotte,,,"Sep 30, 2024","Adult Stress, Adult Transesophageal, Adult Transthoracic",,,,,,,,,,,,,,,,,,,,
12,13,"Blue Ridge Cardiology and Internal Medicine, PA",36.263956,-80.838913,granted,640 Parkwood Medical Park,,Elkin,NC,28621,USA,,www.blueridgemd.com,,echo,,"Blue Ridge Cardiology and Internal Medicine, PA Elkin",,,"Sep 29, 2022",Adult Transthoracic,,,,,,,,,,,,,,,,,,,,
13,14,"Blue Ridge Cardiology and Internal Medicine, PA",36.155754,-81.160741,granted,1909 West Park Drive,,North Wilkesboro,NC,28659,USA,,www.blueridgemd.com,,echo,,"Blue Ridge Cardiology and Internal Medicine, PA North Wilkesboro",,,"Sep 29, 2022",Adult Transthoracic,,,,,,,,,,,,,,,,,,,,
14,15,"Blue Ridge Cardiology and Internal Medicine, PA",36.488153,-80.61123,granted,905 Rockford Street,,Mt. Airy,NC,27030,USA,,www.blueridgemd.com,,echo,,"Blue Ridge Cardiology and Internal Medicine, PA Mt. Airy",,,"Sep 29, 2022",Adult Transthoracic,,,,,,,,,,,,,,,,,,,,
15,16,"Blue Ridge Ear, Nose and Throat, Inc.",36.203238,-81.657148,granted,870 State Farm Rd,Suite 101,Boone,NC,28607,USA,,www.blueridge-ent.com,,ct,,"Blue Ridge Ear, Nose and Throat, Inc. Boone","Nov 30, 2023",Maxillofacial CT,,,,,,,,,,,,,,,,,,,,,,
16,17,Blue Ridge ENT - Linville,36.061797,-81.888037,granted,436 Hospital Drive,Suite 240,Linville,NC,28646,USA,,,,ct,www.google.com/search?q=Blue+Ridge+ENT+-+Linville,Blue Ridge ENT - Linville Linville,"Nov 30, 2023",Maxillofacial CT,,,,,,,,,,,,,,,,,,,,,,
17,18,Blue Ridge Regional Hospital,35.911029,-82.064595,granted,125 Hospital Drive,,Spruce Pine,NC,28777,USA,,,,echo,www.google.com/search?q=Blue+Ridge+Regional+Hospital,Blue Ridge Regional Hospital Spruce Pine,,,"Feb 28, 2023",Adult Transthoracic,,,,,,,,,,,,,,,,,,,,
18,19,Boice-Willis Clinic,35.979721,-77.843316,granted,901 N. Winstead Avenue,PO Box 7200,Rocky Mount,NC,27804,USA,,,,echo,www.google.com/search?q=Boice-Willis+Clinic,Boice-Willis Clinic Rocky Mount,,,"Jun 30, 2023",Adult Transthoracic,,,,,,,,,,,,,,,,,,,,
19,20,"Campbell Ear, Nose, and Throat - Facial Plastic Surgery, PA",34.661671,-79.004827,granted,"4760 Independence Dr,",,Lumberton,NC,28358,USA,,,,ct,"www.google.com/search?q=Campbell+Ear,+Nose,+and+Throat+-+Facial+Plastic+Surgery,+PA","Campbell Ear, Nose, and Throat - Facial Plastic Surgery, PA Lumberton","Mar 31, 2025",Maxillofacial CT,,,,,,,,,,,,,,,,,,,,,,
20,21,Cannon Memorial Hospital,36.067483,-81.885678,granted,434 Hospital Dr.,,Linville,NC,28646,USA,,,,echo,www.google.com/search?q=Cannon+Memorial+Hospital,Cannon Memorial Hospital Linville,,,"Apr 30, 2025",Adult Transthoracic,,,,,,,,,,,,,,,,,,,,
21,22,"Cape Fear Cardiology Associates, P.A.",35.036616,-78.937441,granted,3634 Cape Center Drive,,Fayetteville,NC,28304,USA,,MAXALRUTHNC.RR.COM,,nuclear,,"Cape Fear Cardiology Associates, P.A. Fayetteville",,,,,,,"Mar 31, 2024","Equilibrium Radionuclide Angiography, Myocardial Perfusion Imaging",,,,,,,,,,,,,,,,
22,23,"Cape Fear Cardiology Associates, PA",35.036616,-78.937441,granted,3634 Cape Center Drive,,Fayetteville,NC,28304,USA,,,,echo,"www.google.com/search?q=Cape+Fear+Cardiology+Associates,+PA","Cape Fear Cardiology Associates, PA Fayetteville",,,"Feb 29, 2024",Adult Transthoracic,,,,,,,,,,,,,,,,,,,,
23,24,Cape Fear Valley Medical Center,35.032412,-78.931096,granted,1638 Owen Drive,,Fayetteville,NC,28304,USA,,www.capefearvalley.com/hospitals/cfvmc.html,,echo,,Cape Fear Valley Medical Center Fayetteville,,,"Jul 31, 2024",Adult Transthoracic,,,,,,,,,,,,,,,,,,,,
24,25,"Capital Heart Associates, P.A.",35.815452,-78.700242,granted,4201 Lake Boone Trail,Suite 104,Raleigh,NC,27607,USA,,capitalheart.com,,echo,,"Capital Heart Associates, P.A. Raleigh",,,"Jan 31, 2025","Adult Stress, Adult Transthoracic",,,,,,,,,,,,,,,,,,,,
25,26,Cardiac Diagnostic Unit - Vascular Laboratory - DUMC,36.005837,-78.940911,granted,"40 Medicine Circle, Clinic 2K",,Durham,NC,27710,USA,,,,vascular,www.google.com/search?q=Cardiac+Diagnostic+Unit+-+Vascular+Laboratory+-+DUMC,Cardiac Diagnostic Unit - Vascular Laboratory - DUMC Durham,,,,,,,,,"Sep 30, 2023","Extracranial Cerebrovascular Testing, Peripheral Arterial Testing",,,,,,,,,,,,,,
26,27,"Cardinal Heart and Vascular, PLLC",35.458067,-79.143133,granted,2609 South Horner Blvd.,,Sanford,NC,27331,USA,,,,nuclear,"www.google.com/search?q=Cardinal+Heart+and+Vascular,+PLLC","Cardinal Heart and Vascular, PLLC Sanford",,,,,,,"Feb 29, 2024",Myocardial Perfusion Imaging,,,,,,,,,,,,,,,,
27,28,"Cardiology Associates of The Carolinas, PA",35.729205,-81.652817,granted,505 East Parker Road,,Morganton,NC,28655,USA,,,,nuclear,"www.google.com/search?q=Cardiology+Associates+of+The+Carolinas,+PA","Cardiology Associates of The Carolinas, PA Morganton",,,,,,,"Mar 31, 2024",Myocardial Perfusion Imaging,,,,,,,,,,,,,,,,
28,29,"Cardiovascular Center, PA",34.766455,-77.384896,granted,264 Memorial Dr.,,Jacksonville,NC,28546,USA,,,,nuclear,"www.google.com/search?q=Cardiovascular+Center,+PA","Cardiovascular Center, PA Jacksonville",,,,,,,"Feb 29, 2024",Myocardial Perfusion Imaging,,,,,,,,,,,,,,,,
29,30,"Carolina Cardiology Sleep and Obesity Center, PC",34.76648,-77.385437,granted,260 Memorial Drive,Suite A,Jacksonville,NC,28146,USA,,,,nuclear,"www.google.com/search?q=Carolina+Cardiology+Sleep+and+Obesity+Center,+PC","Carolina Cardiology Sleep and Obesity Center, PC Jacksonville",,,,,,,"Feb 29, 2024",Myocardial Perfusion Imaging,,,,,,,,,,,,,,,,
30,31,"Carolina Ear, Nose and Throat Sinus and Allergy Center, P.A.",35.746658,-81.332637,granted,304 10th Ave NE,,Hickory,NC,28601,USA,,www.carolinaearnosethroat.com,,ct,,"Carolina Ear, Nose and Throat Sinus and Allergy Center, P.A. Hickory","Apr 30, 2024",Maxillofacial CT,,,,,,,,,,,,,,,,,,,,,,
31,32,Carolina Heart and Leg Diagnostic,35.037357,-78.937111,multigranted,704 Keystone Court,,Fayetteville,NC,28304,USA,,,,"vascular, echo",www.google.com/search?q=Carolina+Heart+and+Leg+Diagnostic,Carolina Heart and Leg Diagnostic Fayetteville,,,"Oct 31, 2024",Adult Transthoracic,,,,,"May 31, 2023","Extracranial Cerebrovascular Testing, Peripheral Arterial Testing",,,,,,,,,,,,,,
32,33,Carolina Internal Medicine Associates,35.555456,-82.54037,granted,4 Vanderbilt Park Drive,Suite 100,Asheville,NC,28803,USA,,,,nuclear,www.google.com/search?q=Carolina+Internal+Medicine+Associates,Carolina Internal Medicine Associates Asheville,,,,,,,"Jan 31, 2024",Myocardial Perfusion Imaging,,,,,,,,,,,,,,,,
33,34,Carolina Medical Associates,35.087022,-80.838159,granted,7108 Pineville Matthews Rd.,Suite 102,Charlotte,NC,28226,USA,,,,nuclear,www.google.com/search?q=Carolina+Medical+Associates,Carolina Medical Associates Charlotte,,,,,,,"Jan 31, 2024",Myocardial Perfusion Imaging,,,,,,,,,,,,,,,,
34,35,Carolina Vein Specialists,36.098992,-79.891801,multigranted,1130 New Garden Road,,Greensboro,NC,27410,USA,,www.carolinavein.com,,"vascular, vein_center",,Carolina Vein Specialists Greensboro,,,,,,,,,"Dec 31, 2024",Peripheral Venous Testing,,,,,,,"Dec 31, 2024",Superficial Venous Evaluation and Management,,,,,,
35,36,CarolinaEast Heart Center,35.107648,-77.092358,multigranted,1001 Newman Road,,New Bern,NC,28562,USA,,www.carolinaeastphysicians.com,,"nuclear, echo",,CarolinaEast Heart Center New Bern,,,"Jun 30, 2024",Adult Transthoracic,,,"Oct 31, 2023",Myocardial Perfusion Imaging,,,,,,,,,,,,,,,,
36,37,CarolinaEast Heart Center,34.728566,-76.773333,multigranted,4252 Arendell Street,Suite E,Morehead City,NC,28557,USA,,,,"nuclear, echo",www.google.com/search?q=CarolinaEast+Heart+Center,CarolinaEast Heart Center Morehead City,,,"Jun 30, 2024",Adult Transthoracic,,,"Oct 31, 2023",Myocardial Perfusion Imaging,,,,,,,,,,,,,,,,
37,38,CarolinaEast Internal Medicine,35.087718,-77.104605,granted,"2604 Dr. Martin Luther King, Jr. Blvd",,New bern,NC,28562,USA,,www.carolinaeastphysicians.com,,echo,,CarolinaEast Internal Medicine New bern,,,"Jun 30, 2024",Adult Transthoracic,,,,,,,,,,,,,,,,,,,,
38,39,"CarolinaEast Internal Medicine, PA",34.99925,-77.224956,multigranted,137 Medical Lane,,Pollocksville,NC,28573,USA,,www.carolinaeasthphysicians.com,,"nuclear, echo",,"CarolinaEast Internal Medicine, PA Pollocksville",,,"Jun 30, 2024",Adult Transthoracic,,,"Oct 31, 2023","General Nuclear Medicine, Myocardial Perfusion Imaging",,,,,,,,,,,,,,,,
39,40,CarolinaEast Physicians,34.80066,-77.419765,granted,4275 Western Blvd,,Jacksonville,NC,28546,USA,,,,echo,www.google.com/search?q=CarolinaEast+Physicians,CarolinaEast Physicians Jacksonville,,,"Jun 30, 2024",Adult Transthoracic,,,,,,,,,,,,,,,,,,,,
40,41,CaroMont Health,35.272903,-81.136086,granted,2555 Court Drive,,Gastonia,NC,28054,USA,,,,echo,www.google.com/search?q=CaroMont+Health,CaroMont Health Gastonia,,,"May 31, 2025",Adult Transthoracic,,,,,,,,,,,,,,,,,,,,
41,42,CaroMont Health,35.275296,-81.139339,granted,2525 Court Drive,,Gastonia,NC,28054,USA,,www.caromonthealth.org,,echo,,CaroMont Health Gastonia,,,"May 31, 2025",Adult Transthoracic,,,,,,,,,,,,,,,,,,,,
42,43,CaroMont Heart - Vascular Department,35.272903,-81.136086,granted,"2555 Court Drive, Suite 200",,Gastonia,NC,28054,USA,,,,vascular,www.google.com/search?q=CaroMont+Heart+-+Vascular+Department,CaroMont Heart - Vascular Department Gastonia,,,,,,,,,"Aug 31, 2023","Extracranial Cerebrovascular Testing, Peripheral Arterial Testing, Peripheral Venous Testing, Visceral Vascular Testing",,,,,,,,,,,,,,
43,44,"Caromont Medical Group, Inc.  D B A Caromont Heart and Vascular",35.273409,-81.136705,granted,2555 Court Drive,Suite 300,Gastonia,NC,28054,USA,,www.caromonthealth.org/facilities-and-locations/caromont-medical-group/caromont-specialty-ser,,nuclear,,"Caromont Medical Group, Inc.  D B A Caromont Heart and Vascular Gastonia",,,,,,,"Aug 31, 2023",Myocardial Perfusion Imaging,,,,,,,,,,,,,,,,
44,45,"Carteret Heart, PLLC",34.659695,-77.054629,granted,8914 A Reed Drive,,Emerald Isle,NC,28594,USA,,,,nuclear,"www.google.com/search?q=Carteret+Heart,+PLLC","Carteret Heart, PLLC Emerald Isle",,,,,,,"Feb 29, 2024",Myocardial Perfusion Imaging,,,,,,,,,,,,,,,,
45,46,"Cary Cardiology,LLC",35.741468,-78.778593,granted,300 Keisler Avenue,Suite 204,Cary,NC,27511,USA,,,,echo,"www.google.com/search?q=Cary+Cardiology,LLC","Cary Cardiology,LLC Cary",,,"Jun 30, 2024","Adult Stress, Adult Transthoracic",,,,,,,,,,,,,,,,,,,,
46,47,Catawba Valley Cardiology,35.714193,-81.262616,granted,3521 Graystone Pl Se,,Conover,NC,28613,USA,,,,echo,www.google.com/search?q=Catawba+Valley+Cardiology,Catawba Valley Cardiology Conover,,,"Jan 31, 2023",Adult Transthoracic,,,,,,,,,,,,,,,,,,,,
47,48,Catawba Valley Medical Center,35.6982,-81.261918,granted,810 Fairgrove Church Rd,,Hickory,NC,28602,USA,,,,echo,www.google.com/search?q=Catawba+Valley+Medical+Center,Catawba Valley Medical Center Hickory,,,"Jan 31, 2023",Adult Transthoracic,,,,,,,,,,,,,,,,,,,,
48,49,Champion Heart and Vascular,36.31321,-78.553332,granted,1614 Williamsboro Street,,Oxford,NC,27565,USA,,"Championheartandvascular,com",,nuclear,,Champion Heart and Vascular Oxford,,,,,,,"Jul 31, 2025",Myocardial Perfusion Imaging,,,,,,,,,,,,,,,,
49,50,"Champion Heart and Vascular Center, PA",35.314685,-78.629716,multigranted,710 Erwin Road,,Dunn,NC,28334,USA,,www.championvascularcare.com,,"vascular, nuclear",,"Champion Heart and Vascular Center, PA Dunn",,,,,,,"Jul 31, 2025",Myocardial Perfusion Imaging,"Feb 28, 2025","Peripheral Arterial Testing, Peripheral Venous Testing",,,,,,,,,,,,,,
50,51,"Charlotte Eye, Ear, Nose and Throat Associates",35.410365,-80.862858,granted,10305 Hamptons Park Drive,,Huntersville,NC,28078,USA,,www.goodsenses.com,,ct,,"Charlotte Eye, Ear, Nose and Throat Associates Huntersville","Jan 31, 2024",Maxillofacial CT,,,,,,,,,,,,,,,,,,,,,,
51,52,"Charlotte Eye, Ear, Nose and Throat Associates",35.454999,-80.589025,granted,645 Amalia St NE,,Concord,NC,28025,USA,,www.goodsenses.com,,ct,,"Charlotte Eye, Ear, Nose and Throat Associates Concord","Jan 31, 2024",Maxillofacial CT,,,,,,,,,,,,,,,,,,,,,,
52,53,"Charlotte Eye, Ear, Nose and Throat Associates",35.032283,-80.807072,granted,5933 Blakeney Park Dr.,Suite 201,Charlotte,NC,28277,USA,,www.ceenta.com,,ct,,"Charlotte Eye, Ear, Nose and Throat Associates Charlotte","Jan 31, 2024",Maxillofacial CT,,,,,,,,,,,,,,,,,,,,,,
53,54,"Charlotte Eye, Ear, Nose and Throat Associates",35.220756,-80.845538,granted,400 E Stonewall St,,Charlotte,NC,28202,USA,,www.ceenta.com,,ct,,"Charlotte Eye, Ear, Nose and Throat Associates Charlotte","Jan 31, 2024",Maxillofacial CT,,,,,,,,,,,,,,,,,,,,,,
54,55,"Charlotte Eye, Ear, Nose and Throat Associates",35.122098,-80.715762,granted,724 Aubrey Bell Dr.,,Matthews,NC,28105,USA,,,,ct,"www.google.com/search?q=Charlotte+Eye,+Ear,+Nose+and+Throat+Associates","Charlotte Eye, Ear, Nose and Throat Associates Matthews","Jan 31, 2024","Body CT, Neurological CT, Maxillofacial CT",,,,,,,,,,,,,,,,,,,,,,
55,56,"Charlotte Eye, Ear, Nose and Throat Associates",35.590252,-80.877723,granted,149 Plantation Ridge Drive,Suite 190,Mooresville,NC,28117,USA,,,,ct,"www.google.com/search?q=Charlotte+Eye,+Ear,+Nose+and+Throat+Associates","Charlotte Eye, Ear, Nose and Throat Associates Mooresville","Jan 31, 2024",Maxillofacial CT,,,,,,,,,,,,,,,,,,,,,,
56,57,"Charlotte Eye, Ear, Nose and Throat Associates",35.338767,-80.761003,granted,2325 West Arbors Dr. Suite 201,,Charlotte,NC,28262,USA,,,,ct,"www.google.com/search?q=Charlotte+Eye,+Ear,+Nose+and+Throat+Associates","Charlotte Eye, Ear, Nose and Throat Associates Charlotte","Jan 31, 2024",Maxillofacial CT,,,,,,,,,,,,,,,,,,,,,,
57,58,"Charlotte Eye, Ear, Nose and Throat Associates",35.151152,-80.838255,granted,6035 Fairview Road,,Charlotte,NC,28210,USA,,,,ct,"www.google.com/search?q=Charlotte+Eye,+Ear,+Nose+and+Throat+Associates","Charlotte Eye, Ear, Nose and Throat Associates Charlotte","Jan 31, 2024","Body CT, Neurological CT, Vascular CTA, Maxillofacial CT",,,,,,,,,,,,,,,,,,,,,,
58,59,"Charlotte Eye, Ear, Nose, and Throat Associates",35.643391,-80.490921,granted,530 Corporate Circle,,Salisbury,NC,28147,USA,,,,ct,"www.google.com/search?q=Charlotte+Eye,+Ear,+Nose,+and+Throat+Associates","Charlotte Eye, Ear, Nose, and Throat Associates Salisbury","Jan 31, 2024",Maxillofacial CT,,,,,,,,,,,,,,,,,,,,,,
59,60,Chowan Heart Center,36.071775,-76.610375,granted,222 Virginia Road,,Edenton,NC,27932,USA,,,,echo,www.google.com/search?q=Chowan+Heart+Center,Chowan Heart Center Edenton,,,"Feb 28, 2025",Adult Transthoracic,,,,,,,,,,,,,,,,,,,,
60,61,Clemmons Medical Center,36.028222,-80.399083,granted,6915 Village Medical Circle,,Clemmons,NC,27012,USA,,,,echo,www.google.com/search?q=Clemmons+Medical+Center,Clemmons Medical Center Clemmons,,,"Nov 30, 2024",Adult Transthoracic,,,,,,,,,,,,,,,,,,,,
61,62,Clinton Medical Clinic,35.013396,-78.327568,granted,404 Fairview Street,,Clinton,NC,28328,USA,,,,nuclear,www.google.com/search?q=Clinton+Medical+Clinic,Clinton Medical Clinic Clinton,,,,,,,"Jul 31, 2023",Myocardial Perfusion Imaging,,,,,,,,,,,,,,,,
62,63,Clinton Medical Clinic Echocardiography Lab,35.013575,-78.3269,granted,403 Fairview Street,,Clinton,NC,28328,USA,,,,echo,www.google.com/search?q=Clinton+Medical+Clinic+Echocardiography+Lab,Clinton Medical Clinic Echocardiography Lab Clinton,,,"Jan 31, 2025",Adult Transthoracic,,,,,,,,,,,,,,,,,,,,
63,64,"Coastal Carolina ENT, DO, PA",34.345428,-78.710392,granted,302 Liberty Street,,Whiteville,NC,28472,USA,,,,ct,"www.google.com/search?q=Coastal+Carolina+ENT,+DO,+PA","Coastal Carolina ENT, DO, PA Whiteville","Aug 31, 2023",Maxillofacial CT,,,,,,,,,,,,,,,,,,,,,,
64,65,"Coastal Carolina Health Care, PA",35.106166,-77.092936,granted,1030 Medical Park Avenue,,New Bern,NC,28562,USA,,,,echo,"www.google.com/search?q=Coastal+Carolina+Health+Care,+PA","Coastal Carolina Health Care, PA New Bern",,,"Dec 31, 2023",Adult Transthoracic,,,,,,,,,,,,,,,,,,,,
65,66,"Coastal Carolina Health Care, PA",35.108705,-77.094189,granted,941 Newman Road,,New Bern,NC,28562,USA,,,,echo,"www.google.com/search?q=Coastal+Carolina+Health+Care,+PA","Coastal Carolina Health Care, PA New Bern",,,"Dec 31, 2023",Adult Transthoracic,,,,,,,,,,,,,,,,,,,,
66,67,"Coastal Carolina Surgical Associates, PA",34.19829,-77.928957,granted,1411 Physicians Drive,,Wilmington,NC,28401,USA,,,,vascular,"www.google.com/search?q=Coastal+Carolina+Surgical+Associates,+PA","Coastal Carolina Surgical Associates, PA Wilmington",,,,,,,,,"Sep 30, 2023","Extracranial Cerebrovascular Testing, Peripheral Arterial Testing, Peripheral Venous Testing, Visceral Vascular Testing",,,,,,,,,,,,,,
67,68,Cone Health,36.090652,-79.788815,granted,1200 N. Elm Street,,Greensboro,NC,27401,USA,,,,echo,www.google.com/search?q=Cone+Health,Cone Health Greensboro,,,"Jun 30, 2024","Adult Transesophageal, Adult Transthoracic",,,,,,,,,,,,,,,,,,,,
68,69,Cone Health Cardiovascular Imaging at Henry Street,36.115196,-79.783437,granted,2704 Henry Street,,Greensboro,NC,27405,USA,,,,vascular,www.google.com/search?q=Cone+Health+Cardiovascular+Imaging+at+Henry+Street,Cone Health Cardiovascular Imaging at Henry Street Greensboro,,,,,,,,,"Jan 31, 2023","Extracranial Cerebrovascular Testing, Peripheral Arterial Testing, Peripheral Venous Testing",,,,,,,,,,,,,,
69,70,Cone Health Cardiovascular Imaging at North Church Street,36.092518,-79.783576,granted,1126 North Church Street,Suite 300,Greensboro,NC,27401,USA,,www.conehealth.com,,nuclear,,Cone Health Cardiovascular Imaging at North Church Street Greensboro,,,,,,,"Jan 29, 2023",Myocardial Perfusion Imaging,,,,,,,,,,,,,,,,
70,71,Cone Health Cardiovascular Imaging at North Church Street,36.092518,-79.783576,granted,1126 North Church Street,Suite 300,Greensboro,NC,27401,USA,,,,echo,www.google.com/search?q=Cone+Health+Cardiovascular+Imaging+at+North+Church+Street,Cone Health Cardiovascular Imaging at North Church Street Greensboro,,,"Nov 30, 2023","Adult Stress, Adult Transthoracic",,,,,,,,,,,,,,,,,,,,
71,72,Cone Health Cardiovascular Imaging Northline,36.08796,-79.83416,granted,3200 Northline Avenue,,Greensboro,NC,27408,USA,,,,vascular,www.google.com/search?q=Cone+Health+Cardiovascular+Imaging+Northline,Cone Health Cardiovascular Imaging Northline Greensboro,,,,,,,,,"Sep 29, 2022 | Jul 31, 2025","Extracranial Cerebrovascular Testing, Peripheral Arterial Testing, Peripheral Venous Testing, Visceral Vascular Testing | Screening",,,,,,,,,,,,,,
72,73,Cone Health Cardiovascular Imaging Northline,36.08796,-79.83416,granted,3200 Northline Avenue,,Greensboro,NC,27408,USA,,,,nuclear,www.google.com/search?q=Cone+Health+Cardiovascular+Imaging+Northline,Cone Health Cardiovascular Imaging Northline Greensboro,,,,,,,"Jan 29, 2023",Myocardial Perfusion Imaging,,,,,,,,,,,,,,,,
73,74,Cone Health HeartCare Asheboro Nuclear Imaging,35.713698,-79.814635,granted,542 White Oak Street,,Asheboro,NC,27203,,,,,nuclear,www.google.com/search?q=Cone+Health+HeartCare+Asheboro+Nuclear+Imaging,Cone Health HeartCare Asheboro Nuclear Imaging Asheboro,,,,,,,"Jan 29, 2023",Myocardial Perfusion Imaging,,,,,,,,,,,,,,,,
74,75,Cone Health Medical Group HeartCare,36.476456,-79.737334,granted,110 South Park Terrace,Suite A,Eden,NC,27288,USA,,www.conehealthmedicalgroup.com/chmg/medical-services/heart-care/,,echo,,Cone Health Medical Group HeartCare Eden,,,"Jul 31, 2023",Adult Transthoracic,,,,,,,,,,,,,,,,,,,,
75,76,Cone Health Medical Group HeartCare,36.064577,-79.501479,granted,1236 Huffman Mill Road,Suite 130,Burlington,NC,27215,USA,,www.conehealthmedicalgroup.com/chmg/medical-services/heart-care/,,echo,,Cone Health Medical Group HeartCare Burlington,,,"Jul 31, 2023",Adult Transthoracic,,,,,,,,,,,,,,,,,,,,
76,77,Cone Health Medical Group HeartCare at Asheboro,35.713698,-79.814635,granted,542 White Oak Street,,Asheboro,NC,27203,USA,,,,echo,www.google.com/search?q=Cone+Health+Medical+Group+HeartCare+at+Asheboro,Cone Health Medical Group HeartCare at Asheboro Asheboro,,,"Jun 30, 2024",Adult Transthoracic,,,,,,,,,,,,,,,,,,,,
77,78,Cone Health Medical Group HeartCare-Burlington,36.064577,-79.50148,granted,1236 Huffman Mill Road,Suite 130,Burlington,NC,27215,USA,,www.chmgheartcare.com,,vascular,,Cone Health Medical Group HeartCare-Burlington Burlington,,,,,,,,,"Sep 29, 2022 | Jul 31, 2025","Extracranial Cerebrovascular Testing, Peripheral Arterial Testing, Peripheral Venous Testing, Visceral Vascular Testing | Screening",,,,,,,,,,,,,,
78,79,Cone Health Medical Group HeartCare-Eden,36.495155,-79.741064,granted,110 S. Park Terrace,Suite A,Eden,NC,27288,USA,,www.chmgheartcare.com,,vascular,,Cone Health Medical Group HeartCare-Eden Eden,,,,,,,,,"Sep 29, 2022","Extracranial Cerebrovascular Testing, Peripheral Arterial Testing, Peripheral Venous Testing, Visceral Vascular Testing",,,,,,,,,,,,,,
79,80,"Cornerstone Ear, Nose and Throat",35.024494,-80.578257,granted,8035 Providence Road,Suite 320,Charlotte,NC,28277,USA,,www.cornerstoneent.com,,ct,,"Cornerstone Ear, Nose and Throat Charlotte","Feb 29, 2024",Maxillofacial CT,,,,,,,,,,,,,,,,,,,,,,
80,81,"Cross River Cardiology, PLLC",35.91914,-81.526534,granted,224 Sharon Avenue,,Lenoir,NC,28645,USA,,,,nuclear,"www.google.com/search?q=Cross+River+Cardiology,+PLLC","Cross River Cardiology, PLLC Lenoir",,,,,,,"Mar 31, 2024",Myocardial Perfusion Imaging,,,,,,,,,,,,,,,,
81,82,"Cross River Cardiology, PLLC",35.908205,-81.531954,granted,224 Sharon Ave. N. W.,,Lenoir,NC,28645,USA,,,,echo,"www.google.com/search?q=Cross+River+Cardiology,+PLLC","Cross River Cardiology, PLLC Lenoir",,,"Dec 31, 2024",Adult Transthoracic,,,,,,,,,,,,,,,,,,,,
82,83,Davie Medical Center,35.999014,-80.436224,granted,313 NC-801,,Bermuda Run,NC,27006,USA,,,,echo,www.google.com/search?q=Davie+Medical+Center,Davie Medical Center Bermuda Run,,,"Nov 30, 2023","Adult Stress, Adult Transthoracic",,,,,,,,,,,,,,,,,,,,
83,84,"Dermatology, Laser, and Vein Specialists of the Carolinas",35.210402,-80.824231,granted,1918 Randolph Road,Suite 550,Charlotte,NC,28207,USA,,www.carolinaskin.com,,vascular,,"Dermatology, Laser, and Vein Specialists of the Carolinas Charlotte",,,,,,,,,"May 31, 2024",Peripheral Venous Testing,,,,,,,,,,,,,,
84,85,"Direct Diagnostic Services, LLC",35.747684,-81.709478,granted,125A Wamsutta Mill Road,,Morganton,NC,28655,USA,,,,nuclear,"www.google.com/search?q=Direct+Diagnostic+Services,+LLC","Direct Diagnostic Services, LLC Morganton",,,,,,,"Jan 31, 2024",Myocardial Perfusion Imaging,,,,,,,,,,,,,,,,
85,86,"DLP Frye Medical Group, LLC dba FryeCare Cardiology",36.2153555,-81.6692567,granted,178 Highway 105 Extension,,Boone,NC,28607,USA,,,,echo,"www.google.com/search?q=DLP+Frye+Medical+Group,+LLC+dba+FryeCare+Cardiology","DLP Frye Medical Group, LLC dba FryeCare Cardiology Boone",,,"Dec 30, 2022",Adult Transthoracic,,,,,,,,,,,,,,,,,,,,
86,87,"DLP Frye Medical Group, LLC dba FryeCare Cardiology",35.909763,-81.534525,granted,721 Malcolm Boulevard,,Rutherford College,NC,28671,USA,,,,echo,"www.google.com/search?q=DLP+Frye+Medical+Group,+LLC+dba+FryeCare+Cardiology","DLP Frye Medical Group, LLC dba FryeCare Cardiology Rutherford College",,,"Dec 30, 2022",Adult Transthoracic,,,,,,,,,,,,,,,,,,,,
87,88,"DLP Frye Medical Group, LLC dba FryeCare Cardiology",35.909674,-81.535061,granted,602 Morganton Blvd. SW,,Lenoir,NC,28645,USA,,,,echo,"www.google.com/search?q=DLP+Frye+Medical+Group,+LLC+dba+FryeCare+Cardiology","DLP Frye Medical Group, LLC dba FryeCare Cardiology Lenoir",,,"Dec 30, 2022",Adult Transthoracic,,,,,,,,,,,,,,,,,,,,
88,89,"DLP Frye Regional Medical Center, LLC",35.722898,-81.282071,multigranted,"2660 Tate Boulevard, SE Suite 101",,Hickory,NC,28602,USA,,,,"echo, vascular","www.google.com/search?q=DLP+Frye+Regional+Medical+Center,+LLC","DLP Frye Regional Medical Center, LLC Hickory",,,"Dec 30, 2022",Adult Transthoracic,,,,,"Aug 31, 2023","Extracranial Cerebrovascular Testing, Peripheral Arterial Testing, Visceral Vascular Testing",,,,,,,,,,,,,,
89,90,"DLP Frye Regional Medical Center, LLC",35.737175,-81.337778,granted,420 N. Center Street,,Hickory,NC,28601,USA,,,,echo,"www.google.com/search?q=DLP+Frye+Regional+Medical+Center,+LLC","DLP Frye Regional Medical Center, LLC Hickory",,,"Dec 30, 2022",Adult Transthoracic,,,,,,,,,,,,,,,,,,,,
90,91,Duke Cardiology of Raleigh,35.828292,-78.619897,granted,3320 Wake Forest Road,Suite 200,Raleigh,NC,27609,USA,,,,nuclear,www.google.com/search?q=Duke+Cardiology+of+Raleigh,Duke Cardiology of Raleigh Raleigh,,,,,,,"Feb 28, 2023",Myocardial Perfusion Imaging,,,,,,,,,,,,,,,,
91,92,Duke Cardiovascular Magnetic Resonance Center,36.00542,-78.93519,granted,10 Duke Medicine Circle,Room 1E50x,Durham,NC,27710,USA,,medicine.duke.edu/divisions/cardiology/patient-care/duke-cardiovascular-magnetic-resonance-c,,mr,,Duke Cardiovascular Magnetic Resonance Center Durham,,,,,"Jul 31, 2025","Cardiovascular MRI, MRA",,,,,,,,,,,,,,,,,,
92,93,Duke Children’s of Apex,35.737727,-78.776185,granted,1545 Orchard Villa Ave,Suite 110,Apex,NC,27502,USA,,,,pediatric_echo,www.google.com/search?q=Duke+Children’s+of+Apex,Duke Children’s of Apex Apex,,,,,,,,,,,"Dec 30, 2022","Pediatric Transthoracic, Fetal",,,,,,,,,,,,
93,94,Duke Children’s Specialty Clinic Creekstone,35.786503,-78.585919,granted,4709 Creekstone Drive,Suite 300,Durham,NC,27703,USA,,,,pediatric_echo,www.google.com/search?q=Duke+Children’s+Specialty+Clinic+Creekstone,Duke Children’s Specialty Clinic Creekstone Durham,,,,,,,,,,,"Dec 30, 2022","Pediatric Transthoracic, Fetal",,,,,,,,,,,,
94,95,Duke Children’s Specialty Services of Fayetteville,35.037103,-78.918341,granted,1991 Fordham Drive,Suite 200,Fayetteville,NC,28304,USA,,,,pediatric_echo,www.google.com/search?q=Duke+Children’s+Specialty+Services+of+Fayetteville,Duke Children’s Specialty Services of Fayetteville Fayetteville,,,,,,,,,,,"Dec 30, 2022","Pediatric Transthoracic, Fetal",,,,,,,,,,,,
95,96,Duke Children’s Specialty Services of Greensboro,36.092518,-79.783576,granted,1126 North Church Street,Suite 203,Greensboro,NC,27408,USA,,,,pediatric_echo,www.google.com/search?q=Duke+Children’s+Specialty+Services+of+Greensboro,Duke Children’s Specialty Services of Greensboro Greensboro,,,,,,,,,,,"Dec 30, 2022","Pediatric Transthoracic, Fetal",,,,,,,,,,,,
96,97,Duke Health System,36.008168,-78.936676,granted,2301 Erwin Road,Box 3090,Durham,NC,27710,USA,,,,pediatric_echo,www.google.com/search?q=Duke+Health+System,Duke Health System Durham,,,,,,,,,,,"Dec 30, 2022","Pediatric Transesophageal, Pediatric Transthoracic, Fetal",,,,,,,,,,,,
97,98,Duke Imaging Arringdon,35.88234,-78.84537,granted,5601 Arringdon Park Dr,Suite 110,Durham,NC,27560-5643,USA,,www.dukehealth.org/locations/duke-imaging-arringdon,,ct,,Duke Imaging Arringdon Durham,"Jan 31, 2023",Body CT,,,,,,,,,,,,,,,,,,,,,,
98,99,Duke Raleigh Hospital,35.829159,-78.619473,granted,3400 Wake Forest Road,,Raleigh,NC,27609,USA,,,,echo,www.google.com/search?q=Duke+Raleigh+Hospital,Duke Raleigh Hospital Raleigh,,,"Mar 31, 2024","Adult Stress, Adult Transesophageal, Adult Transthoracic",,,,,,,,,,,,,,,,,,,,
99,100,Duke Regional Hospital - Adult Echo Laboratory,36.037439,-78.897037,granted,3643 North Roxboro Road,,Durham,NC,27704,USA,,,,echo,www.google.com/search?q=Duke+Regional+Hospital+-+Adult+Echo+Laboratory,Duke Regional Hospital - Adult Echo Laboratory Durham,,,"Sep 30, 2023",Adult Transthoracic,,,,,,,,,,,,,,,,,,,,
100,101,Duke Regional Vascular Lab,36.038889,-78.904139,granted,407 Crutchfield Street,,Durham,NC,27704,USA,,,,vascular,www.google.com/search?q=Duke+Regional+Vascular+Lab,Duke Regional Vascular Lab Durham,,,,,,,,,"Feb 29, 2024","Extracranial Cerebrovascular Testing, Peripheral Arterial Testing, Peripheral Venous Testing",,,,,,,,,,,,,,
101,102,Duke University Hospital Neurovascular Laboratory,36.005837,-78.940911,granted,2301 Erwin Road Box 100404,Duke North Room 4254,Durham,NC,27710,USA,,,,vascular,www.google.com/search?q=Duke+University+Hospital+Neurovascular+Laboratory,Duke University Hospital Neurovascular Laboratory Durham,,,,,,,,,"Jul 31, 2025","Extracranial Cerebrovascular Testing, Intracranial Cerebrovascular Testing",,,,,,,,,,,,,,
102,103,Duke University Hospital Vascular Laboratory,35.901633,-78.800915,granted,10207 Cerny Street,Suite 312 A & B,Raleigh,NC,27617,USA,,,,vascular,www.google.com/search?q=Duke+University+Hospital+Vascular+Laboratory,Duke University Hospital Vascular Laboratory Raleigh,,,,,,,,,"Feb 29, 2024","Extracranial Cerebrovascular Testing, Peripheral Arterial Testing, Peripheral Venous Testing",,,,,,,,,,,,,,
103,104,Duke University Medical Center,36.005837,-78.940911,granted,"40 Medicine Circle, Clinic 2K",DUMC Box 3297,Durham,NC,27710,USA,,,,echo,www.google.com/search?q=Duke+University+Medical+Center,Duke University Medical Center Durham,,,"Jul 31, 2023","Adult Stress, Adult Transesophageal, Adult Transthoracic",,,,,,,,,,,,,,,,,,,,
104,105,Duke Vascular Specialists of Raleigh,35.826732,-78.618588,granted,3300 Executive Drive,Suite 304,Raleigh,NC,27609,USA,,,,vascular,www.google.com/search?q=Duke+Vascular+Specialists+of+Raleigh,Duke Vascular Specialists of Raleigh Raleigh,,,,,,,,,"Feb 29, 2024","Extracranial Cerebrovascular Testing, Peripheral Arterial Testing, Peripheral Venous Testing",,,,,,,,,,,,,,
105,106,Ear Nose Throat and Audiology Associates,35.087909,-80.836915,granted,7006 Shannon Willow Road,,Charlotte,NC,28226,USA,,,,ct,www.google.com/search?q=Ear+Nose+Throat+and+Audiology+Associates,Ear Nose Throat and Audiology Associates Charlotte,"Jul 31, 2024",Maxillofacial CT,,,,,,,,,,,,,,,,,,,,,,
106,107,Ear Nose Throat and Audiology Associates Concord,35.442719,-80.595415,granted,s 1018 Lee-Ann Drive Northeast,,Concord,NC,28025,USA,,,,ct,www.google.com/search?q=Ear+Nose+Throat+and+Audiology+Associates+Concord,Ear Nose Throat and Audiology Associates Concord Concord,"Jul 31, 2024",Maxillofacial CT,,,,,,,,,,,,,,,,,,,,,,
107,108,East Carolina Heart Institute East Carolina University,35.609393,-77.407737,multigranted,115 Heart Drive,,Greenville,NC,27834,USA,,www.ecu.edu,,"nuclear, ct, echo, vascular",,East Carolina Heart Institute East Carolina University Greenville,"Nov 30, 2023","Body CT, Coronary CTA, Neurological CT, Vascular CTA | Coronary Calcium Scoring","Nov 30, 2023",Adult Transthoracic,,,"Apr 30, 2023","Equilibrium Radionuclide Angiography, Myocardial Perfusion Imaging","Nov 30, 2023","Extracranial Cerebrovascular Testing, Peripheral Arterial Testing, Peripheral Venous Testing, Visceral Vascular Testing",,,,,,,,,,,,,,
108,109,"Eastern Cardiology, P.A.",35.601122,-77.410276,granted,2090-B West Arlington Blvd,,Greenville,NC,27834,USA,,,,nuclear,"www.google.com/search?q=Eastern+Cardiology,+P.A.","Eastern Cardiology, P.A. Greenville",,,,,,,"Feb 29, 2024",Myocardial Perfusion Imaging,,,,,,,,,,,,,,,,
109,110,"Eastern Cardiology, PA",35.60099,-77.410134,granted,2090 West Arlington Boulevard,Suite B,Greenville,NC,27834,USA,,,,echo,"www.google.com/search?q=Eastern+Cardiology,+PA","Eastern Cardiology, PA Greenville",,,"Aug 31, 2023",Adult Transthoracic,,,,,,,,,,,,,,,,,,,,
110,111,"Eastern Carolina Cardiovascular, PA",36.32029,-76.21916,granted,1134 North Road Street,,Elizabeth City,NC,27909,USA,,,,echo,"www.google.com/search?q=Eastern+Carolina+Cardiovascular,+PA","Eastern Carolina Cardiovascular, PA Elizabeth City",,,"Feb 28, 2025",Adult Transthoracic,,,,,,,,,,,,,,,,,,,,
111,112,Eastern Carolina ENT Head and Neck Surgery,35.716549,-77.95545,granted,2801 Wooten Blvd,,Wilson,NC,27893,USA,,easterncarolinaent.com,,ct,,Eastern Carolina ENT Head and Neck Surgery Wilson,"Sep 30, 2024",Maxillofacial CT,,,,,,,,,,,,,,,,,,,,,,
112,113,Eastern Carolina ENT Head and Neck Surgery,35.602475,-77.415289,granted,850 Johns Hopkins Dr,,Greenville,NC,27835,USA,,www.easterncarolinaent.com,,ct,,Eastern Carolina ENT Head and Neck Surgery Greenville,"Sep 30, 2024",Maxillofacial CT,,,,,,,,,,,,,,,,,,,,,,
113,114,Eastern Carolina Medical Center,35.389569,-78.542792,multigranted,One Medical Drive,,Benson,NC,27504,USA,,ecmedcenter.com,,"echo, nuclear, ct",,Eastern Carolina Medical Center Benson,"Oct 31, 2023","Body CT, Neurological CT, Vascular CTA, Maxillofacial CT","Sep 30, 2023",Adult Transthoracic,,,"Sep 30, 2023",Myocardial Perfusion Imaging,,,,,,,,,,,,,,,,
114,115,"Eastern Carolina Medical Technologies, LLC",36.320523,-76.2193,granted,1134 N. Road St.,Bldg. 9,Elizabeth City,NC,27909,USA,,,,nuclear,"www.google.com/search?q=Eastern+Carolina+Medical+Technologies,+LLC","Eastern Carolina Medical Technologies, LLC Elizabeth City",,,,,,,"Jul 31, 2023",Myocardial Perfusion Imaging,,,,,,,,,,,,,,,,
115,116,"Eastern Carolina Medical Technologies, LLC",36.071775,-76.610375,granted,222-A Virginia Rd.,,Edenton,NC,27932,USA,,,,nuclear,"www.google.com/search?q=Eastern+Carolina+Medical+Technologies,+LLC","Eastern Carolina Medical Technologies, LLC Edenton",,,,,,,"Jul 31, 2023",Myocardial Perfusion Imaging,,,,,,,,,,,,,,,,
116,117,EmergeOrtho,35.451226,-82.509611,granted,2585 Hendersonville Rd.,,Arden,NC,28704,USA,,,,ct,www.google.com/search?q=EmergeOrtho,EmergeOrtho Arden,"Feb 28, 2025",Body CT,,,,,,,,,,,,,,,,,,,,,,
117,118,ENT Carolina,35.268736,-81.133013,granted,2520 Aberdeen Blvd.,,Gastonia,NC,28054,USA,,www.entcarolina.com/index.php,,ct,,ENT Carolina Gastonia,"Mar 31, 2023",Maxillofacial CT,,,,,,,,,,,,,,,,,,,,,,
118,119,ENT Carolina,35.301757,-81.508664,granted,1180 Wyke Rd.,,Shelby,NC,28150,USA,,www.entcarolina.com/index.php,,ct,,ENT Carolina Shelby,"Mar 31, 2023",Maxillofacial CT,,,,,,,,,,,,,,,,,,,,,,
119,120,Erlanger Murphy Medical Center,35.072589,-83.964915,granted,3990 East US Highway 64 Alt,,Murphy,NC,28906,USA,, Murphy Medical Center,,echo,,Erlanger Murphy Medical Center Murphy,,,"Jul 31, 2023",Adult Transthoracic,,,,,,,,,,,,,,,,,,,,
120,121,"Faith Medical Center, P.C.",35.196162,-80.797639,granted,3626 Latrobe Dr.,,Charlotte,NC,28211,USA,,,,nuclear,"www.google.com/search?q=Faith+Medical+Center,+P.C.","Faith Medical Center, P.C. Charlotte",,,,,,,"Mar 31, 2024",Myocardial Perfusion Imaging,,,,,,,,,,,,,,,,
121,122,"Fayetteville Heart Center, PC",35.043463,-78.917292,granted,2301 Robeson Street,Ste 301,Fayetteville,NC,28305,USA,,,,nuclear,"www.google.com/search?q=Fayetteville+Heart+Center,+PC","Fayetteville Heart Center, PC Fayetteville",,,,,,,"Apr 30, 2024","Equilibrium Radionuclide Angiography, Myocardial Perfusion Imaging",,,,,,,,,,,,,,,,
122,123,"Fayetteville Otolaryngology Head and Neck Surgery, PA",35.0301,-78.924366,granted,1839 Quiet Cove,,Fayetteville,NC,28304,USA,,,,ct,"www.google.com/search?q=Fayetteville+Otolaryngology+Head+and+Neck+Surgery,+PA","Fayetteville Otolaryngology Head and Neck Surgery, PA Fayetteville","Aug 31, 2024",Maxillofacial CT,,,,,,,,,,,,,,,,,,,,,,
123,124,FirstHealth Vascular and Vein,35.207613,-79.457365,granted,5 First Village Drive,,Pinehurst,NC,28374,USA,,pinehurstsurgicalclinic.com,,vascular,,FirstHealth Vascular and Vein Pinehurst,,,,,,,,,"Jul 31, 2024","Extracranial Cerebrovascular Testing, Peripheral Arterial Testing, Peripheral Venous Testing",,,,,,,,,,,,,,
124,125,"Foothills Imaging, LLC",35.816564,-81.267125,granted,1910 North Church Street,,Greensboro,NC,27405,USA,,,,nuclear,"www.google.com/search?q=Foothills+Imaging,+LLC","Foothills Imaging, LLC Greensboro",,,,,,,"Mar 31, 2024",Myocardial Perfusion Imaging,,,,,,,,,,,,,,,,
125,126,"Forsyth Heart and Wellness, Heart Failure Clinic",36.073942,-80.298565,granted,3333 Silas Creek Parkway,,Winston-Salem,NC,27103,USA,,,,echo,"www.google.com/search?q=Forsyth+Heart+and+Wellness,+Heart+Failure+Clinic","Forsyth Heart and Wellness, Heart Failure Clinic Winston-Salem",,,"Nov 30, 2024",Adult Transthoracic,,,,,,,,,,,,,,,,,,,,
126,127,FryeCare Vascular Services,35.737947,-81.337756,granted,415 N Center Street Suite 203,,Hickory,NC,28601,USA,,,,vascular,www.google.com/search?q=FryeCare+Vascular+Services,FryeCare Vascular Services Hickory,,,,,,,,,"Oct 31, 2023",Extracranial Cerebrovascular Testing,,,,,,,,,,,,,,
127,128,"Guilford Neurologic Associates, Inc. MRI Department",36.088879,-79.779242,granted,912 Third Street,Suite 101,Greensboro,NC,27405,USA,,www.guilfordneurologic.com,,mr,,"Guilford Neurologic Associates, Inc. MRI Department Greensboro",,,,,"Mar 31, 2024","Neurological MRI, MRA",,,,,,,,,,,,,,,,,,
128,129,Harris Regional Hospital,35.383702,-83.202627,granted,68 Hospital Road,,Sylva,NC,28779,USA,,,,echo,www.google.com/search?q=Harris+Regional+Hospital,Harris Regional Hospital Sylva,,,"May 31, 2024","Adult Stress, Adult Transthoracic",,,,,,,,,,,,,,,,,,,,
129,130,Haywood Regional Medical Center,35.527857,-82.945437,granted,262 Leroy George Drive,,Clyde,NC,28721,USA,,www.haymed.org,,echo,,Haywood Regional Medical Center Clyde,,,"Jul 31, 2024","Adult Stress, Adult Transesophageal, Adult Transthoracic",,,,,,,,,,,,,,,,,,,,
130,131,Heart Center of Wilkes Regional,36.158121,-81.158011,granted,1370 West D Street,,North Wilkesboro,NC,28659,USA,,,,echo,www.google.com/search?q=Heart+Center+of+Wilkes+Regional,Heart Center of Wilkes Regional North Wilkesboro,,,"Jun 30, 2025",Adult Transthoracic,,,,,,,,,,,,,,,,,,,,
131,132,Hendersonville Cardiology,35.320202,-82.478576,granted,691 Blythe Street Court,,Hendersonville,NC,28739,USA,,,,nuclear,www.google.com/search?q=Hendersonville+Cardiology,Hendersonville Cardiology Hendersonville,,,,,,,"May 31, 2024","Equilibrium Radionuclide Angiography, Myocardial Perfusion Imaging",,,,,,,,,,,,,,,,
132,133,Hendersonville Cardiology Associates,35.320202,-82.478576,granted,691 Blythe Street Court,,Hendersonville,NC,28739,USA,,,,echo,www.google.com/search?q=Hendersonville+Cardiology+Associates,Hendersonville Cardiology Associates Hendersonville,,,"Feb 28, 2023","Adult Stress, Adult Transthoracic",,,,,,,,,,,,,,,,,,,,
133,134,Hickory Allergy and Asthma Clinic,35.730996,-81.306827,granted,220 18th Street Circle South East,,Hickory,NC,28602,USA,,www.wheezy.com,,ct,,Hickory Allergy and Asthma Clinic Hickory,"Feb 28, 2023",Maxillofacial CT,,,,,,,,,,,,,,,,,,,,,,
134,135,High Point Regional Health System,35.962476,-80.012027,granted,601 North Elm Street,PO Box HP 5,High Point,NC,27261,USA,,,,echo,www.google.com/search?q=High+Point+Regional+Health+System,High Point Regional Health System High Point,,,"Apr 30, 2024","Adult Stress, Adult Transthoracic",,,,,,,,,,,,,,,,,,,,
135,136,"Hormoze A Goudarzi, MD, PA",34.213112,-77.923414,granted,1721 New Hanover Medical Park Drive,,Wilmington,NC,28403,USA,,www.spotlessveincare.com,,vascular,,"Hormoze A Goudarzi, MD, PA Wilmington",,,,,,,,,"Feb 28, 2023","Extracranial Cerebrovascular Testing, Peripheral Venous Testing",,,,,,,,,,,,,,
136,137,"Insight Imaging, LLC dba Videre Diagnostics",35.155727,-80.830148,granted,"6101 Carnegie Blvd, Suite 355",,Charlotte,NC,28209,USA,,www.videre.com,,echo,,"Insight Imaging, LLC dba Videre Diagnostics Charlotte",,,"Oct 31, 2024",Adult Transthoracic,,,,,,,,,,,,,,,,,,,,
137,138,Island Cardiology,34.050379,-77.899777,granted,1328 North Lake Park Blvd.,Suite 103,Carolina Beach,NC,28428,USA,,,,nuclear,www.google.com/search?q=Island+Cardiology,Island Cardiology Carolina Beach,,,,,,,"Feb 29, 2024",Myocardial Perfusion Imaging,,,,,,,,,,,,,,,,
138,139,"Island Cardiology, PLLC",34.03456,-77.89433,granted,1328 N Lake Park BLVD,#103,Carolina Beach,NC,28428,USA,,islandcardiology.net,,echo,,"Island Cardiology, PLLC Carolina Beach",,,"Mar 31, 2025",Adult Transthoracic,,,,,,,,,,,,,,,,,,,,
139,140,"Kamran Goudarzi Surgical Practice, PC",34.216481,-78.020943,multigranted,509 Olde Waterford Way,Suite 103,Leland,NC,28451,USA,,,,"vascular, vein_center","www.google.com/search?q=Kamran+Goudarzi+Surgical+Practice,+PC","Kamran Goudarzi Surgical Practice, PC Leland",,,,,,,,,"Apr 30, 2024",Peripheral Venous Testing,,,,,,,"Oct 31, 2024",Superficial Venous Evaluation and Management,,,,,,
140,141,"Mann Ear, Nose and Throat Clinic",35.741453,-78.776228,granted,601 Keisler Drive,Suite 104,Cary,NC,27518,USA,,www.entman.com,,ct,,"Mann Ear, Nose and Throat Clinic Cary","Feb 28, 2025",Maxillofacial CT,,,,,,,,,,,,,,,,,,,,,,
141,142,"MCPC S, LLC dba First Health Cardiology",34.751319,-79.463316,granted,705-B Lauchwood Drive,,Laurinburg,NC,28352,USA,,,,nuclear,"www.google.com/search?q=MCPC+S,+LLC+dba+First+Health+Cardiology","MCPC S, LLC dba First Health Cardiology Laurinburg",,,,,,,"Feb 29, 2024",Myocardial Perfusion Imaging,,,,,,,,,,,,,,,,
142,143,Meadowmont Heart and Vascular,35.9045,-79.01123,granted,300 Meadowmont Village Circle,"Building 300, Suite 310",Chapel Hill,NC,27517,USA,,,,vascular,www.google.com/search?q=Meadowmont+Heart+and+Vascular,Meadowmont Heart and Vascular Chapel Hill,,,,,,,,,"Jul 31, 2024","Extracranial Cerebrovascular Testing, Peripheral Arterial Testing, Peripheral Venous Testing, Visceral Vascular Testing",,,,,,,,,,,,,,
143,144,Mecklenburg Heart Specialists,35.200129,-80.813462,granted,2711 Randolph Road,Suite 305,Charlotte,NC,28207,USA,,www.meckheart.com,,nuclear,,Mecklenburg Heart Specialists Charlotte,,,,,,,"Mar 31, 2024",Myocardial Perfusion Imaging,,,,,,,,,,,,,,,,
144,145,MedCenter High Point,36.045276,-79.966954,granted,2630 Willard Dairy Road,,High Point,NC,27265,USA,,,,echo,www.google.com/search?q=MedCenter+High+Point,MedCenter High Point High Point,,,"Jun 30, 2024",Adult Transthoracic,,,,,,,,,,,,,,,,,,,,
145,146,"Metrolina Surgical Specialists, PLLC",35.189002,-80.804978,granted,485 N Wendover Rd,,Charlotte,NC,28211,USA,,www.metrolinasurgical.com,,vascular,,"Metrolina Surgical Specialists, PLLC Charlotte",,,,,,,,,"Sep 30, 2023","Extracranial Cerebrovascular Testing, Peripheral Arterial Testing, Peripheral Venous Testing",,,,,,,,,,,,,,
146,147,"Metroview Vascular and Surgical Specialist, PA",35.189002,-80.804978,granted,411 WENDOVER ROAD,,CHARLOTTE,NC,28211,USA,,,,vascular,"www.google.com/search?q=Metroview+Vascular+and+Surgical+Specialist,+PA","Metroview Vascular and Surgical Specialist, PA CHARLOTTE",,,,,,,,,"Jan 31, 2023","Extracranial Cerebrovascular Testing, Peripheral Arterial Testing, Peripheral Venous Testing, Screening",,,,,,,,,,,,,,
147,148,"Metroview Vascular and Surgical Specialists, PA",35.252134,-81.156269,granted,825 Majestic Court,Suite F.,Gastonia,NC,28054,USA,,,,vascular,"www.google.com/search?q=Metroview+Vascular+and+Surgical+Specialists,+PA","Metroview Vascular and Surgical Specialists, PA Gastonia",,,,,,,,,"Jan 31, 2023","Extracranial Cerebrovascular Testing, Peripheral Arterial Testing, Peripheral Venous Testing, Screening",,,,,,,,,,,,,,
148,149,"Millennia Cardiovascular, PA",35.51234,-78.348704,granted,101 East Market St.,,Smithfield,NC,27577,USA,,,,nuclear,"www.google.com/search?q=Millennia+Cardiovascular,+PA","Millennia Cardiovascular, PA Smithfield",,,,,,,"Feb 29, 2024",Myocardial Perfusion Imaging,,,,,,,,,,,,,,,,
149,150,Mission Cardiovascular Diagnostics,35.556259,-82.541243,granted,5 Vanderbilt Park Drive,,Asheville,NC,28803,USA,,,,vascular,www.google.com/search?q=Mission+Cardiovascular+Diagnostics,Mission Cardiovascular Diagnostics Asheville,,,,,,,,,"Nov 30, 2023",Extracranial Cerebrovascular Testing,,,,,,,,,,,,,,
150,151,Mission Cardiovascular Diagnostics,35.556259,-82.541243,granted,5 Vanderbilt Park Drive,,Asheville,NC,28803,USA,,www.avlcard.com,,echo,,Mission Cardiovascular Diagnostics Asheville,,,"Feb 28, 2023","Adult Stress, Adult Transesophageal, Adult Transthoracic",,,,,,,,,,,,,,,,,,,,
151,152,Mission Hospital,35.577942,-82.54837,granted,509 Biltmore Avenue,,Asheville,NC,28801,USA,,,,echo,www.google.com/search?q=Mission+Hospital,Mission Hospital Asheville,,,"Feb 28, 2023","Adult Stress, Adult Transesophageal, Adult Transthoracic",,,,,,,,,,,,,,,,,,,,
152,153,Mission Hospital,35.585348,-82.556211,granted,222 Asheland Avenue,,Asheville,NC,28801,USA,,www.mission-health.org,,vascular,,Mission Hospital Asheville,,,,,,,,,"Jan 29, 2023","Extracranial Cerebrovascular Testing, Visceral Vascular Testing",,,,,,,,,,,,,,
153,154,"Mission Hospital, Inc",35.556259,-82.541243,granted,5 Vanderbilt Park Drive,,Asheville,NC,28803,USA,,,,pediatric_echo,"www.google.com/search?q=Mission+Hospital,+Inc","Mission Hospital, Inc Asheville",,,,,,,,,,,"Feb 28, 2023","Pediatric Transthoracic, Fetal",,,,,,,,,,,,
154,155,"Mission Hospital, Inc.",35.556259,-82.541243,granted,5 Vanderbilt Park Drive,,Asheville,NC,28803,USA,,,,nuclear,"www.google.com/search?q=Mission+Hospital,+Inc.","Mission Hospital, Inc. Asheville",,,,,,,"May 31, 2024","Equilibrium Radionuclide Angiography, Myocardial Perfusion Imaging",,,,,,,,,,,,,,,,
155,156,"Mission Hospital, Inc.",35.577942,-82.54837,granted,509 Biltmore Avenue,,Asheville,NC,28801,USA,,,,pediatric_echo,"www.google.com/search?q=Mission+Hospital,+Inc.","Mission Hospital, Inc. Asheville",,,,,,,,,,,"Feb 28, 2023",Pediatric Transthoracic,,,,,,,,,,,,
156,157,Moses Cone Hospital,36.090652,-79.788815,granted,1200 North Elm Street,,Greensboro,NC,27401,USA,,,,vascular,www.google.com/search?q=Moses+Cone+Hospital,Moses Cone Hospital Greensboro,,,,,,,,,"Apr 30, 2025","Extracranial Cerebrovascular Testing, Intracranial Cerebrovascular Testing, Peripheral Arterial Testing, Peripheral Venous Testing",,,,,,,,,,,,,,
157,158,Mountain Ear Nose and Throat Associates,35.498287,-82.523336,granted,7 Walden Ridge Drive,Suite 200,Asheville,NC,28803,USA,,www.mountainent.com,,ct,,Mountain Ear Nose and Throat Associates Asheville,"Jun 30, 2023",Maxillofacial CT,,,,,,,,,,,,,,,,,,,,,,
158,159,Mountain Ear Nose and Throat Associates,35.383262,-83.201732,granted,38 The Village Overlook,,Sylva,NC,28779,USA,,www.mountainent.com,,ct,,Mountain Ear Nose and Throat Associates Sylva,"Jun 30, 2023",Maxillofacial CT,,,,,,,,,,,,,,,,,,,,,,
159,160,"Mountain Ear, Nose and Throat Associates",35.184688,-83.355607,granted,166 Holly Springs Park Drive,,Franklin,NC,28734,USA,,,,ct,"www.google.com/search?q=Mountain+Ear,+Nose+and+Throat+Associates","Mountain Ear, Nose and Throat Associates Franklin","Jun 30, 2023",Maxillofacial CT,,,,,,,,,,,,,,,,,,,,,,
160,161,"Mountain Kidney and Hypertension Associates, PA Vascular Laboratory",35.582947,-82.554894,granted,10 McDowell Street,,Asheville,NC,28801,USA,,www.mtnkidney.com,,vascular,,"Mountain Kidney and Hypertension Associates, PA Vascular Laboratory Asheville",,,,,,,,,"Dec 31, 2023",Visceral Vascular Testing,,,,,,,,,,,,,,
161,162,"Mountain Kidney and Hypertension Associates, PA Vascular Laboratory",35.388669,-83.199619,granted,655 Asheville Road,,Sylva,NC,28779,USA,,www.mtnkidney.com,,vascular,,"Mountain Kidney and Hypertension Associates, PA Vascular Laboratory Sylva",,,,,,,,,"Dec 31, 2023",Visceral Vascular Testing,,,,,,,,,,,,,,
162,163,"Mountain Kidney and Hypertension Associates, PA Vascular Laboratory",35.321748,-82.466221,granted,840 Fleming St.,,Hendersonville,NC,28792,USA,,www.mtnkidney.com,,vascular,,"Mountain Kidney and Hypertension Associates, PA Vascular Laboratory Hendersonville",,,,,,,,,"Dec 31, 2023",Visceral Vascular Testing,,,,,,,,,,,,,,
163,164,Nash UNC Health Care,35.973443,-77.848919,granted,2460 Curtis Ellis Drive,,Rocky Mount,NC,27804,USA,,,,echo,www.google.com/search?q=Nash+UNC+Health+Care,Nash UNC Health Care Rocky Mount,,,"Apr 30, 2023",Adult Transthoracic,,,,,,,,,,,,,,,,,,,,
164,165,Neuroultrasound Laboratory Wake Forest Baptist Health,36.090138,-80.271527,granted,Medical Center Boulevard,,Winston-Salem,NC,27157,USA,,,,vascular,www.google.com/search?q=Neuroultrasound+Laboratory+Wake+Forest+Baptist+Health,Neuroultrasound Laboratory Wake Forest Baptist Health Winston-Salem,,,,,,,,,"Jan 31, 2025","Extracranial Cerebrovascular Testing, Intracranial Cerebrovascular Testing",,,,,,,,,,,,,,
165,166,New Hanover Regional Medical Center,34.206162,-77.924175,granted,2131 South 17th Street,,Wilmington,NC,28401,USA,,,,vascular,www.google.com/search?q=New+Hanover+Regional+Medical+Center,New Hanover Regional Medical Center Wilmington,,,,,,,,,"Jan 31, 2023","Extracranial Cerebrovascular Testing, Peripheral Venous Testing",,,,,,,,,,,,,,
166,167,New Hanover Regional Medical Center,34.206162,-77.924175,granted,2131 South 17th Street,PO Box 9000,Wilmington,NC,28402,USA,,,,pediatric_echo,www.google.com/search?q=New+Hanover+Regional+Medical+Center,New Hanover Regional Medical Center Wilmington,,,"Mar 31, 2024","Adult Stress, Adult Transesophageal, Adult Transthoracic",,,,,,,"Jun 30, 2023",Pediatric Transthoracic,,,,,,,,,,,,
167,168,New Hanover Regional Medical Center Cardiac Imaging,34.198553,-77.926532,granted,1415 Physicians Drive,,Wilmington,NC,28402,USA,,www.nhrmc.org,,echo,,New Hanover Regional Medical Center Cardiac Imaging Wilmington,,,"Mar 31, 2024","Adult Stress, Adult Transthoracic",,,,,,,,,,,,,,,,,,,,
168,169,New Hanover Regional Medical Center Cardiac Imaging,34.198601,-77.926402,granted,1415 Physicians Drive,,Wilmington,NC,28401,US,,,,vascular,www.google.com/search?q=New+Hanover+Regional+Medical+Center+Cardiac+Imaging,New Hanover Regional Medical Center Cardiac Imaging Wilmington,,,,,,,,,"Jan 31, 2023",Extracranial Cerebrovascular Testing,,,,,,,,,,,,,,
169,170,North Carolina Heart and Vascular Briercreek,35.901803,-78.800853,granted,10208 Cerney Street,Suite 106,Raleigh,NC,27617,USA,,ncheartandvascular.com,,echo,,North Carolina Heart and Vascular Briercreek Raleigh,,,"Jan 31, 2025","Adult Stress, Adult Transthoracic",,,,,,,,,,,,,,,,,,,,
170,171,North Carolina Heart and Vascular Cary,35.75492,-78.809378,granted,1505 SW Cary Parkway,Suite 300,Cary,NC,27511,USA,,ncheartvascular.com/,,vascular,,North Carolina Heart and Vascular Cary Cary,,,,,,,,,"Jun 30, 2025","Extracranial Cerebrovascular Testing, Peripheral Arterial Testing",,,,,,,,,,,,,,
171,172,North Carolina Heart and Vascular Clayton,35.630243,-78.501068,granted,2076 Hwy 42 West,Suite 200,Clayton,NC,27520,USA,,,,vascular,www.google.com/search?q=North+Carolina+Heart+and+Vascular+Clayton,North Carolina Heart and Vascular Clayton Clayton,,,,,,,,,"Jun 30, 2025","Extracranial Cerebrovascular Testing, Peripheral Arterial Testing",,,,,,,,,,,,,,
172,173,North Carolina Heart and Vascular Garner,35.685611,-78.575782,granted,400 Health Park Dr Suite 120,,Garner,NC,27529,USA,,ncheartvascular.com/,,vascular,,North Carolina Heart and Vascular Garner Garner,,,,,,,,,"Jun 30, 2025","Extracranial Cerebrovascular Testing, Peripheral Arterial Testing, Peripheral Venous Testing",,,,,,,,,,,,,,
173,174,North Carolina Heart and Vascular Goldsboro,35.404421,-77.953904,granted,2615 N Hospital Rd,Suite 300,Goldsboro,NC,27534,USA,,,,vascular,www.google.com/search?q=North+Carolina+Heart+and+Vascular+Goldsboro,North Carolina Heart and Vascular Goldsboro Goldsboro,,,,,,,,,"Jun 30, 2025","Extracranial Cerebrovascular Testing, Peripheral Arterial Testing",,,,,,,,,,,,,,
174,175,North Carolina Heart and Vascular Holly Springs,35.643485,-78.838014,granted,781 Avent Ferry Rd,Suite 212,Holly Springs,NC,27540,USA,,,,vascular,www.google.com/search?q=North+Carolina+Heart+and+Vascular+Holly+Springs,North Carolina Heart and Vascular Holly Springs Holly Springs,,,,,,,,,"Jun 30, 2025","Extracranial Cerebrovascular Testing, Peripheral Arterial Testing, Peripheral Venous Testing",,,,,,,,,,,,,,
175,176,North Carolina Heart and Vascular Lillington,35.421455,-78.805999,granted,110 Pine State St,,Lillington,NC,27547,USA,,,,vascular,www.google.com/search?q=North+Carolina+Heart+and+Vascular+Lillington,North Carolina Heart and Vascular Lillington Lillington,,,,,,,,,"Jun 30, 2025",Extracranial Cerebrovascular Testing,,,,,,,,,,,,,,
176,177,North Carolina Heart and Vascular Raleigh,35.818862,-78.70485,granted,2800 Blue Ridge Rd,Suite 400,Raleigh,NC,27607,USA,,www.ncheartvascular.com,,vascular,,North Carolina Heart and Vascular Raleigh Raleigh,,,,,,,,,"Jun 30, 2025","Extracranial Cerebrovascular Testing, Peripheral Arterial Testing, Peripheral Venous Testing",,,,,,,,,,,,,,
177,178,North Carolina Heart and Vascular Smithfield,35.518772,-78.325594,granted,910 Berkshire Rd,,Smithfield,NC,27577,USA,,,,vascular,www.google.com/search?q=North+Carolina+Heart+and+Vascular+Smithfield,North Carolina Heart and Vascular Smithfield Smithfield,,,,,,,,,"Jun 30, 2025","Extracranial Cerebrovascular Testing, Peripheral Arterial Testing, Peripheral Venous Testing",,,,,,,,,,,,,,
178,179,North Carolina Heart and Vascular Wakefield,35.948225,-78.541374,granted,"11200 Governor Manly Way, Suite 303A",,Raleigh,NC,27614,USA,,ncheartvascular.com/,,vascular,,North Carolina Heart and Vascular Wakefield Raleigh,,,,,,,,,"Jun 30, 2025","Extracranial Cerebrovascular Testing, Peripheral Arterial Testing, Peripheral Venous Testing",,,,,,,,,,,,,,
179,180,North Carolina Heart and Vascular Wilson,35.716347,-77.952248,granted,2605 Forest Hills Rd. SW,Suite D,Wilson,NC,27893,USA,,,,vascular,www.google.com/search?q=North+Carolina+Heart+and+Vascular+Wilson,North Carolina Heart and Vascular Wilson Wilson,,,,,,,,,"Jun 30, 2025","Extracranial Cerebrovascular Testing, Peripheral Arterial Testing",,,,,,,,,,,,,,
180,181,"North Carolina Heart and Vascular, Holly Springs",35.643485,-78.838014,granted,781 Avent Ferry Rd,Suite 212,Holly Springs,NC,27540,USA,,ncheartvascular.com/appointments-locations/holly-springs/,,echo,,"North Carolina Heart and Vascular, Holly Springs Holly Springs",,,"Jan 31, 2025","Adult Stress, Adult Transthoracic",,,,,,,,,,,,,,,,,,,,
181,182,Northern Regional Hospital,36.488351,-80.611193,granted,830 Rockford Street,,Mt. Airy,NC,27030,USA,,www.choosenorthern.org,,echo,,Northern Regional Hospital Mt. Airy,,,"Nov 30, 2023",Adult Transthoracic,,,,,,,,,,,,,,,,,,,,
182,183,"Northwest Ear, Nose, and Throat, PA",36.266169,-80.837235,granted,250 Johnson ridge medical park drive,,Elkin,NC,28621,USA,,,,ct,"www.google.com/search?q=Northwest+Ear,+Nose,+and+Throat,+PA","Northwest Ear, Nose, and Throat, PA Elkin","Feb 28, 2025",Maxillofacial CT,,,,,,,,,,,,,,,,,,,,,,
183,184,Novant Health,36.092931,-80.043647,granted,1710 Kernersville Medical Parkway,Suite 202,Kernersville,NC,27284,USA,,www.nhvasculardiagnostics.org,,vascular,,Novant Health Kernersville,,,,,,,,,"Dec 31, 2022","Extracranial Cerebrovascular Testing, Peripheral Arterial Testing",,,,,,,,,,,,,,
184,185,Novant Health,36.079067,-80.289871,granted,2827 Lyndhurst Avenue,Suite 201,Winston-Salem,NC,27103,USA,,www.nhvasculardiagnostics.org,,vascular,,Novant Health Winston-Salem,,,,,,,,,"Dec 31, 2022","Extracranial Cerebrovascular Testing, Peripheral Arterial Testing, Peripheral Venous Testing, Visceral Vascular Testing",,,,,,,,,,,,,,
185,186,Novant Health Cardiology - Clemmons,36.028804,-80.399273,granted,7114 Village Medical Circle,,Clemmons,NC,27012,USA,,,,echo,www.google.com/search?q=Novant+Health+Cardiology+-+Clemmons,Novant Health Cardiology - Clemmons Clemmons,,,"Nov 30, 2024","Adult Stress, Adult Transthoracic",,,,,,,,,,,,,,,,,,,,
186,187,Novant Health Cardiology - Elkin,36.267108,-80.836547,granted,189 Samaritan’s Ridge Road,,Elkin,NC,28621,USA,,,,echo,www.google.com/search?q=Novant+Health+Cardiology+-+Elkin,Novant Health Cardiology - Elkin Elkin,,,"Nov 30, 2024","Adult Stress, Adult Transthoracic",,,,,,,,,,,,,,,,,,,,
187,188,Novant Health Cardiology - Kernersville,36.092931,-80.043647,granted,1710 Kernersville Medical Parkway,Suite 205,Kernersville,NC,27284,USA,,,,echo,www.google.com/search?q=Novant+Health+Cardiology+-+Kernersville,Novant Health Cardiology - Kernersville Kernersville,,,"Nov 30, 2024","Adult Stress, Adult Transthoracic",,,,,,,,,,,,,,,,,,,,
188,189,Novant Health Cardiology - Mt. Airy,36.51842,-80.593978,granted,694 Riverside Drive,,Mt Airy,NC,27030,USA,,,,echo,www.google.com/search?q=Novant+Health+Cardiology+-+Mt.+Airy,Novant Health Cardiology - Mt. Airy Mt Airy,,,"Nov 30, 2024","Adult Stress, Adult Transthoracic",,,,,,,,,,,,,,,,,,,,
189,190,Novant Health Cardiology - Winston-Salem,36.057883,-80.301698,granted,186 Kimel Park Drive,,Winston Salem,NC,27103,USA,,,,echo,www.google.com/search?q=Novant+Health+Cardiology+-+Winston-Salem,Novant Health Cardiology - Winston-Salem Winston Salem,,,"Nov 30, 2024","Adult Stress, Adult Transthoracic",,,,,,,,,,,,,,,,,,,,
190,191,Novant Health Cardiology Greensboro,36.113809,-79.878024,granted,1622 Highwoods Blvd G105,,Greensboro,NC,27410,USA,,,,echo,www.google.com/search?q=Novant+Health+Cardiology+Greensboro,Novant Health Cardiology Greensboro Greensboro,,,"Nov 30, 2024","Adult Stress, Adult Transthoracic",,,,,,,,,,,,,,,,,,,,
191,192,Novant Health Cardiology Mount Airy,36.518421,-80.593977,granted,694 Riverside Drive,,Mt. Airy,NC,27030,USA,,,,vascular,www.google.com/search?q=Novant+Health+Cardiology+Mount+Airy,Novant Health Cardiology Mount Airy Mt. Airy,,,,,,,,,"Sep 30, 2023",Extracranial Cerebrovascular Testing,,,,,,,,,,,,,,
192,193,Novant Health Cardiology Mount Airy,36.51842,-80.593978,granted,694 Riverside Drive,,Mt. Airy,NC,27030,USA,,,,nuclear,www.google.com/search?q=Novant+Health+Cardiology+Mount+Airy,Novant Health Cardiology Mount Airy Mt. Airy,,,,,,,"Dec 30, 2022",Myocardial Perfusion Imaging,,,,,,,,,,,,,,,,
193,194,Novant Health Cardiology Thomasville,35.88223,-80.111835,granted,211 Old Lexington Road,,Thomasville,NC,27360,USA,,www.nhdavidsoncardiology.org,,nuclear,,Novant Health Cardiology Thomasville Thomasville,,,,,,,"Jan 31, 2023",Myocardial Perfusion Imaging,,,,,,,,,,,,,,,,
194,195,Novant Health Cardiology Thomasville,35.88223,-80.111835,granted,211 0ld Lexington Road,,Thomasville,NC,27360,USA,,,,echo,www.google.com/search?q=Novant+Health+Cardiology+Thomasville,Novant Health Cardiology Thomasville Thomasville,,,"Jan 31, 2025",Adult Transthoracic,,,,,,,,,,,,,,,,,,,,
195,196,Novant Health Cardiology Winston-Salem,36.057883,-80.301698,granted,186 Kimel Park Drive,,Winston-Salem,NC,27103,USA,,nhcardiology.org,,nuclear,,Novant Health Cardiology Winston-Salem Winston-Salem,,,,,,,"Dec 30, 2022",Myocardial Perfusion Imaging,,,,,,,,,,,,,,,,
196,197,Novant Health Cardiology Winston-Salem,36.057883,-80.301698,granted,186 Kimel Park Drive,,Winston-Salem,NC,27103,USA,,www.winstonsalemcardiology.com,,vascular,,Novant Health Cardiology Winston-Salem Winston-Salem,,,,,,,,,"Sep 30, 2023",Extracranial Cerebrovascular Testing,,,,,,,,,,,,,,
197,198,Novant Health Forsyth Medical Center,36.073942,-80.298565,granted,3333 Silas Creek Parkway,,Winston-Salem,NC,27103,USA,,,,echo,www.google.com/search?q=Novant+Health+Forsyth+Medical+Center,Novant Health Forsyth Medical Center Winston-Salem,,,"Nov 30, 2024","Adult Stress, Adult Transthoracic",,,,,,,,,,,,,,,,,,,,
198,199,Novant Health Heart and Vascular Institute,35.21146,-80.825534,granted,125 Queens Rd,Suite 200,Charlotte,NC,28204,USA,,,,nuclear,www.google.com/search?q=Novant+Health+Heart+and+Vascular+Institute,Novant Health Heart and Vascular Institute Charlotte,,,,,,,"Nov 29, 2022",Myocardial Perfusion Imaging,,,,,,,,,,,,,,,,
199,200,Novant Health Heart and Vascular Institute,35.682669,-80.469586,granted,401 Mocksville Avenue,Suite 200,Salisbury,NC,28144,USA,,,,vascular,www.google.com/search?q=Novant+Health+Heart+and+Vascular+Institute,Novant Health Heart and Vascular Institute Salisbury,,,,,,,,,"Jan 31, 2023","Extracranial Cerebrovascular Testing, Peripheral Arterial Testing, Peripheral Venous Testing, Visceral Vascular Testing",,,,,,,,,,,,,,
200,201,Novant Health Heart and Vascular Institute,35.407691,-80.861297,granted,10030 Gilead Road,Suite 201,Huntersville,NC,28078,USA,,,,vascular,www.google.com/search?q=Novant+Health+Heart+and+Vascular+Institute,Novant Health Heart and Vascular Institute Huntersville,,,,,,,,,"Jan 31, 2023","Extracranial Cerebrovascular Testing, Peripheral Arterial Testing, Peripheral Venous Testing, Visceral Vascular Testing",,,,,,,,,,,,,,
201,202,Novant Health Heart and Vascular Institute,35.121861,-80.713989,granted,1450 Matthews Township Parkway,Suite 380,Matthews,NC,28105,USA,,,,vascular,www.google.com/search?q=Novant+Health+Heart+and+Vascular+Institute,Novant Health Heart and Vascular Institute Matthews,,,,,,,,,"Jan 31, 2023","Extracranial Cerebrovascular Testing, Peripheral Arterial Testing, Peripheral Venous Testing, Visceral Vascular Testing",,,,,,,,,,,,,,
202,203,Novant Health Heart and Vascular Institute,35.21146,-80.825534,granted,1718 E 4th Street,Suite 501,Charlotte,NC,28204,USA,,,,echo,www.google.com/search?q=Novant+Health+Heart+and+Vascular+Institute,Novant Health Heart and Vascular Institute Charlotte,,,"Dec 31, 2023","Adult Stress, Adult Transesophageal, Adult Transthoracic",,,,,,,,,,,,,,,,,,,,
203,204,Novant Health Heart and Vascular Institute,35.407691,-80.861297,granted,10030 Gilead Road,Suite 201,Huntersville,NC,28078,USA,,,,echo,www.google.com/search?q=Novant+Health+Heart+and+Vascular+Institute,Novant Health Heart and Vascular Institute Huntersville,,,"Dec 31, 2023","Adult Stress, Adult Transthoracic",,,,,,,,,,,,,,,,,,,,
204,205,Novant Health Heart and Vascular Institute,35.12199,-80.714893,granted,1401 Matthews Township Pkwy,Suite 110,Matthews,NC,28105,USA,,,,echo,www.google.com/search?q=Novant+Health+Heart+and+Vascular+Institute,Novant Health Heart and Vascular Institute Matthews,,,"Dec 31, 2023","Adult Stress, Adult Transthoracic",,,,,,,,,,,,,,,,,,,,
205,206,Novant Health Heart and Vascular Institute,34.973241,-80.512825,granted,1640 East Roosevelt Boulevard,,Monroe,NC,28122,USA,,,,echo,www.google.com/search?q=Novant+Health+Heart+and+Vascular+Institute,Novant Health Heart and Vascular Institute Monroe,,,"Dec 31, 2023","Adult Stress, Adult Transthoracic",,,,,,,,,,,,,,,,,,,,
206,207,Novant Health Heart and Vascular Institute,35.682669,-80.469586,granted,401 Mocksville Ave,2nd Floor,Salisbury,NC,28144,USA,,,,echo,www.google.com/search?q=Novant+Health+Heart+and+Vascular+Institute,Novant Health Heart and Vascular Institute Salisbury,,,"Dec 31, 2023","Adult Stress, Adult Transthoracic",,,,,,,,,,,,,,,,,,,,
207,208,Novant Health Heart and Vascular Institute,35.214148,-80.824086,granted,125 Queens Road,Suite 250,Charlotte,NC,28204,USA,,www.nhheartandvascularinstitutehawthorne.org/,,vascular,,Novant Health Heart and Vascular Institute Charlotte,,,,,,,,,"Jan 31, 2023","Extracranial Cerebrovascular Testing, Peripheral Arterial Testing, Peripheral Venous Testing, Visceral Vascular Testing",,,,,,,,,,,,,,
208,209,Novant Health Heart and Vascular Institute,34.973722,-80.511276,granted,1640 E Roosevelt Blvd,,Monroe,NC,28112,USA,,,,vascular,www.google.com/search?q=Novant+Health+Heart+and+Vascular+Institute,Novant Health Heart and Vascular Institute Monroe,,,,,,,,,"Jan 31, 2023","Extracranial Cerebrovascular Testing, Peripheral Arterial Testing, Peripheral Venous Testing, Visceral Vascular Testing",,,,,,,,,,,,,,
209,210,Novant Health Heart and Vascular Institute High Point,35.994295,-79.996872,granted,1226 Eastchester Drive Suite 100,,High Point,NC,27265,USA,,,,echo,www.google.com/search?q=Novant+Health+Heart+and+Vascular+Institute+High+Point,Novant Health Heart and Vascular Institute High Point High Point,,,"Nov 30, 2024","Adult Stress, Adult Transthoracic",,,,,,,,,,,,,,,,,,,,
210,211,Novant Health Heart and Vascular Institute-Huntersville,35.407691,-80.861297,granted,10030 Gilead Road,,Huntersville,NC,28078,USA,,,,nuclear,www.google.com/search?q=Novant+Health+Heart+and+Vascular+Institute-Huntersville,Novant Health Heart and Vascular Institute-Huntersville Huntersville,,,,,,,"Nov 29, 2022",Myocardial Perfusion Imaging,,,,,,,,,,,,,,,,
211,212,Novant Health Heart and Vascular Institute-Matthews,35.12199,-80.714893,granted,1401 Matthews Township Parkway,Suite 110,Matthews,NC,28105,USA,,,,nuclear,www.google.com/search?q=Novant+Health+Heart+and+Vascular+Institute-Matthews,Novant Health Heart and Vascular Institute-Matthews Matthews,,,,,,,"Nov 29, 2022",Myocardial Perfusion Imaging,,,,,,,,,,,,,,,,
212,213,Novant Health Heart and Vascular Institute-Monroe,34.973722,-80.511276,granted,1640 E. Roosevelt Blvd,,Monroe,NC,28112,USA,,,,nuclear,www.google.com/search?q=Novant+Health+Heart+and+Vascular+Institute-Monroe,Novant Health Heart and Vascular Institute-Monroe Monroe,,,,,,,"Nov 29, 2022",Myocardial Perfusion Imaging,,,,,,,,,,,,,,,,
213,214,Novant Health Heart and Vascular Institute-Salisbury,35.682669,-80.469586,granted,401 Mocksville Ave.,2nd Floor,Salisbury,NC,28144,USA,,,,nuclear,www.google.com/search?q=Novant+Health+Heart+and+Vascular+Institute-Salisbury,Novant Health Heart and Vascular Institute-Salisbury Salisbury,,,,,,,"Nov 29, 2022",Myocardial Perfusion Imaging,,,,,,,,,,,,,,,,
214,215,Novant Health Heart and Vascular Institute-Wilmington Main,34.198553,-77.926532,granted,1415 Physician’s Drive,,Wilmington,NC,28401,USA,,,,nuclear,www.google.com/search?q=Novant+Health+Heart+and+Vascular+Institute-Wilmington+Main,Novant Health Heart and Vascular Institute-Wilmington Main Wilmington,,,,,,,"Sep 30, 2024","Equilibrium Radionuclide Angiography, Myocardial Perfusion Imaging",,,,,,,,,,,,,,,,
215,216,Novant Health Huntersville Medical Center,35.407691,-80.861297,granted,10030 Gilead Road,,Huntersville,NC,28078,USA,,,,echo,www.google.com/search?q=Novant+Health+Huntersville+Medical+Center,Novant Health Huntersville Medical Center Huntersville,,,"Dec 31, 2023","Adult Stress, Adult Transesophageal, Adult Transthoracic",,,,,,,,,,,,,,,,,,,,
216,217,Novant Health Kernersville Medical Center,36.093943,-80.041928,granted,1750 Kernersville Medical Parkway,,Kernersville,NC,27284,USA,,,,echo,www.google.com/search?q=Novant+Health+Kernersville+Medical+Center,Novant Health Kernersville Medical Center Kernersville,,,"Nov 30, 2024","Adult Stress, Adult Transthoracic",,,,,,,,,,,,,,,,,,,,
217,218,Novant Health Matthews Medical Center,35.121871,-80.71327,granted,1500 Matthews Township Parkway,,Matthews,NC,28015,USA,,,,echo,www.google.com/search?q=Novant+Health+Matthews+Medical+Center,Novant Health Matthews Medical Center Matthews,,,"Dec 31, 2023","Adult Stress, Adult Transesophageal, Adult Transthoracic",,,,,,,,,,,,,,,,,,,,
218,219,"Novant Health Medical Group Coastal Region, LLC dba Novant Health Heart and Vascular Institute",34.798421,-77.411979,granted,2000 Brabham Ave,,Jacksonville,NC,28546,USA,,www.nhrmc.org/physician-group/locations/cape-fear-heart-associates,,nuclear,,"Novant Health Medical Group Coastal Region, LLC dba Novant Health Heart and Vascular Institute Jacksonville",,,,,,,"Feb 28, 2025",Myocardial Perfusion Imaging,,,,,,,,,,,,,,,,
219,220,"Novant Health Medical Group Coastal Region, LLC dba Novant Health Heart and Vascular Institute",34.339285,-78.686371,granted,800 Jefferson Street,Suite 112,Whiteville,NC,28472,USA,,www.nhrmc.org/physician-group/locations/cape-fear-heart-associates,,nuclear,,"Novant Health Medical Group Coastal Region, LLC dba Novant Health Heart and Vascular Institute Whiteville",,,,,,,"Feb 28, 2025",Myocardial Perfusion Imaging,,,,,,,,,,,,,,,,
220,221,"Novant Health Medical Group Coastal Region, LLC dba Novant Health Heart and Vascular Institute",33.955991,-78.137664,granted,3009 Medical Plaza Ln SE,,Southport,NC,28461,USA,,www.nhrmc.org/physician-group/locations/cape-fear-heart-associates,,nuclear,,"Novant Health Medical Group Coastal Region, LLC dba Novant Health Heart and Vascular Institute Southport",,,,,,,"Feb 28, 2025",Myocardial Perfusion Imaging,,,,,,,,,,,,,,,,
221,222,"Novant Health Medical Group Coastal Region, LLC dba Novant Health Heart and Vascular Institute",34.032205,-78.258839,granted,584 Hospital Drive,,Bolivia,NC,28422,USA,,www.nhrmc.org/physician-group/locations/cape-fear-heart-associates,,nuclear,,"Novant Health Medical Group Coastal Region, LLC dba Novant Health Heart and Vascular Institute Bolivia",,,,,,,"Feb 28, 2025",Myocardial Perfusion Imaging,,,,,,,,,,,,,,,,
222,223,"Novant Health Medical Group Coastal Region, LLC dba Novant Health New Hanover Primary Care",34.146958,-77.892296,granted,5145 S. College Rd,,Wilmington,NC,28412,USA,,www.nhrmc.org/physician-group/locations/new-hanover-medical-group,,nuclear,,"Novant Health Medical Group Coastal Region, LLC dba Novant Health New Hanover Primary Care Wilmington",,,,,,,"Feb 28, 2025",Myocardial Perfusion Imaging,,,,,,,,,,,,,,,,
223,224,"Novant Health Medical Group, LLC dba Novant Health Heart & Vascular Institute",33.978703,-78.042162,granted,3009 Medical Plaza Ln,,Southport,NC,28461,USA,,,,echo,"www.google.com/search?q=Novant+Health+Medical+Group,+LLC+dba+Novant+Health+Heart+&+Vascular+Institute","Novant Health Medical Group, LLC dba Novant Health Heart & Vascular Institute Southport",,,"Feb 28, 2025",Adult Transthoracic,,,,,,,,,,,,,,,,,,,,
224,225,"Novant Health Medical Group, LLC dba Novant Health Heart & Vascular Institute",34.798421,-77.411979,granted,2000 Brabham Ln,,Jacksonville,NC,28546,USA,,,,echo,"www.google.com/search?q=Novant+Health+Medical+Group,+LLC+dba+Novant+Health+Heart+&+Vascular+Institute","Novant Health Medical Group, LLC dba Novant Health Heart & Vascular Institute Jacksonville",,,"Feb 28, 2025",Adult Transthoracic,,,,,,,,,,,,,,,,,,,,
225,226,"Novant Health Medical Group, LLC dba Novant Health Heart & Vascular Institute",34.0325,-78.260434,granted,584 Hospital Dr,Suite E,Bolivia,NC,28422,USA,,,,echo,"www.google.com/search?q=Novant+Health+Medical+Group,+LLC+dba+Novant+Health+Heart+&+Vascular+Institute","Novant Health Medical Group, LLC dba Novant Health Heart & Vascular Institute Bolivia",,,"Feb 28, 2025",Adult Transthoracic,,,,,,,,,,,,,,,,,,,,
226,227,"Novant Health Medical Group, LLC dba Novant Health Heart & Vascular Institute",34.339275,-78.686577,granted,800 Jefferson St Suite 112,,Whiteville,NC,28472,USA,,,,echo,"www.google.com/search?q=Novant+Health+Medical+Group,+LLC+dba+Novant+Health+Heart+&+Vascular+Institute","Novant Health Medical Group, LLC dba Novant Health Heart & Vascular Institute Whiteville",,,"Feb 28, 2025",Adult Transthoracic,,,,,,,,,,,,,,,,,,,,
227,228,Novant Health Mint Hill Medical Center,35.222049,-80.646893,granted,8110 Healthcare Loop,,Mint Hill,NC,28215,USA,,www.novanthealth.org/mint-hill-medical-center,,echo,,Novant Health Mint Hill Medical Center Mint Hill,,,"Dec 31, 2023","Adult Stress, Adult Transesophageal, Adult Transthoracic",,,,,,,,,,,,,,,,,,,,
228,229,Novant Health New Hanover Primary Care,34.279649,-77.81263,multigranted,7420 Market Street,,Wilmington,NC,28401,USA,,www.nhmg.com,,"vascular, echo",,Novant Health New Hanover Primary Care Wilmington,,,"Jul 31, 2024",Adult Transthoracic,,,,,"Sep 30, 2023",Extracranial Cerebrovascular Testing,,,,,,,,,,,,,,
229,230,Novant Health New Hanover Primary Care,34.146958,-77.892296,multigranted,5145 South College Road,,Wilmington,NC,28412,USA,,www.nhmg.com,,"vascular, echo",,Novant Health New Hanover Primary Care Wilmington,,,"Jul 31, 2024",Adult Transthoracic,,,,,"Sep 30, 2023",Extracranial Cerebrovascular Testing,,,,,,,,,,,,,,
230,231,Novant Health Presbyterian Medical Center,35.212879,-80.825614,granted,200 Hawthorne Lane,,Charlotte,NC,28204,USA,,,,echo,www.google.com/search?q=Novant+Health+Presbyterian+Medical+Center,Novant Health Presbyterian Medical Center Charlotte,,,"Dec 31, 2023","Adult Stress, Adult Transesophageal, Adult Transthoracic",,,,,,,,,,,,,,,,,,,,
231,232,Novant Health Rowan Medical Center,35.682214,-80.471436,granted,612 Mocksville Avenue,,Salisbury,NC,28144,USA,,www.rowan.org,,echo,,Novant Health Rowan Medical Center Salisbury,,,"Dec 31, 2023","Adult Stress, Adult Transesophageal, Adult Transthoracic",,,,,,,,,,,,,,,,,,,,
232,233,Novant Healthcare,35.21146,-80.825534,granted,1718 East 4th Street,Suite 605,Charlotte,NC,28204,USA,,,,pediatric_echo,www.google.com/search?q=Novant+Healthcare,Novant Healthcare Charlotte,,,,,,,,,,,"Dec 31, 2023",Pediatric Transthoracic,,,,,,,,,,,,
233,234,Nunnelee Pediatric Specialty Clinics - Autumn Hall,34.237379,-77.849369,granted,510 Carolina Bay Drive,Suite 200,Wilmington,NC,28403,USA,,,,pediatric_echo,www.google.com/search?q=Nunnelee+Pediatric+Specialty+Clinics+-+Autumn+Hall,Nunnelee Pediatric Specialty Clinics - Autumn Hall Wilmington,,,,,,,,,,,"Jun 30, 2023",Pediatric Transthoracic,,,,,,,,,,,,
234,235,OrthoCarolina - Hand Center,35.209484,-80.823358,granted,1915 Randolph Rd.,,Charlotte,NC,28207,USA,,www.orthocarolina.com,,ct,,OrthoCarolina - Hand Center Charlotte,"Dec 31, 2023",Body CT,,,,,,,,,,,,,,,,,,,,,,
235,236,OrthoCarolina Foot Ankle Institute,35.20972,-80.821747,granted,2001 Vail Ave. Suite 200 B,,Charlotte,NC,28207,USA,,,,ct,www.google.com/search?q=OrthoCarolina+Foot+Ankle+Institute,OrthoCarolina Foot Ankle Institute Charlotte,"Dec 31, 2023",Body CT,,,,,,,,,,,,,,,,,,,,,,
236,237,OrthoCarolina Winston Salem,36.058182,-80.298196,granted,170 Kimel Park,,Winston-Salem,NC,27103,USA,,www.orthocarolina.com ,,ct,,OrthoCarolina Winston Salem Winston-Salem,"Dec 31, 2023",Body CT,,,,,,,,,,,,,,,,,,,,,,
237,238,Outer Banks Heart Center,35.940765,-75.61687,granted,4810 S. Croatan Highway,,Naga Head,NC,27959,USA,,,,echo,www.google.com/search?q=Outer+Banks+Heart+Center,Outer Banks Heart Center Naga Head,,,"Feb 28, 2025",Adult Transthoracic,,,,,,,,,,,,,,,,,,,,
238,239,Pardee UNC Health,35.320814,-82.468153,granted,800 North Justice Street,,Hendersonville,NC,28791,USA,,pardeehospital.org,,echo,,Pardee UNC Health Hendersonville,,,"Sep 30, 2023",Adult Transthoracic,,,,,,,,,,,,,,,,,,,,
239,240,Peak Cardiology,35.745313,-78.872182,multigranted,"1071 Pemberton Hill Road, Suite 102",,Apex,NC,27502,USA,,www.peakcardiology.com,,"nuclear, echo",,Peak Cardiology Apex,,,"Aug 31, 2024","Adult Stress, Adult Transthoracic",,,"Apr 30, 2024",Myocardial Perfusion Imaging,,,,,,,,,,,,,,,,
240,241,Physicians East,35.597467,-77.406046,granted,1850 West Arlington Boulevard,,Greenville,NC,27834,USA,,,,echo,www.google.com/search?q=Physicians+East,Physicians East Greenville,,,"Dec 31, 2024",Adult Transthoracic,,,,,,,,,,,,,,,,,,,,
241,242,Piedmont Cardiovascular,36.092475,-79.783585,granted,1910 North Church Street,,Greeensboro,NC,27405,USA,,,,nuclear,www.google.com/search?q=Piedmont+Cardiovascular,Piedmont Cardiovascular Greeensboro,,,,,,,"Mar 31, 2024",Myocardial Perfusion Imaging,,,,,,,,,,,,,,,,
242,243,Piedmont Ear Nose Throat Associates,36.491476,-80.613966,granted,708 S South St,Ste 300,Mt. Airy,NC,27030,USA,,piedmontent.com/locations/,,ct,,Piedmont Ear Nose Throat Associates Mt. Airy,"Jan 31, 2024",Maxillofacial CT,,,,,,,,,,,,,,,,,,,,,,
243,244,Piedmont Ear Nose Throat Associates,36.084546,-80.303104,granted,110 Charlois Boulevard,,Winston Salem,NC,27103,USA,,,,ct,www.google.com/search?q=Piedmont+Ear+Nose+Throat+Associates,Piedmont Ear Nose Throat Associates Winston Salem,"Jan 31, 2024",Maxillofacial CT,,,,,,,,,,,,,,,,,,,,,,
244,245,PIedmont ENT Associates,36.113599,-80.071841,granted,280 Broad St,,Kernersville,NC,27284,,,,,ct,www.google.com/search?q=PIedmont+ENT+Associates,PIedmont ENT Associates Kernersville,"Jan 31, 2024",Maxillofacial CT,,,,,,,,,,,,,,,,,,,,,,
245,246,Pinehurst Medical Clinic,35.206797,-79.452996,granted,205 Page Road,,Pinehurst,NC,28374,USA,,pinehurstmedical.org,,nuclear,,Pinehurst Medical Clinic Pinehurst,,,,,,,"Jul 31, 2023",Myocardial Perfusion Imaging,,,,,,,,,,,,,,,,
246,247,Pinehurst Medical Clinic,35.467877,-79.188004,granted,110 Fields Drive,,Sanford,NC,27330,USA,,,,echo,www.google.com/search?q=Pinehurst+Medical+Clinic,Pinehurst Medical Clinic Sanford,,,"Feb 29, 2024",Adult Transthoracic,,,,,,,,,,,,,,,,,,,,
247,248,"Pinehurst Medical Clinic, Inc",35.206797,-79.452996,granted,205 Page Road,,Pinehurst,NC,28374,USA,,,,echo,"www.google.com/search?q=Pinehurst+Medical+Clinic,+Inc","Pinehurst Medical Clinic, Inc Pinehurst",,,"Feb 29, 2024","Adult Stress, Adult Transthoracic",,,,,,,,,,,,,,,,,,,,
248,249,PrimeCare Medical Center,35.283857,-80.857735,granted,3627 Beatties Ford Road,,Charlotte,NC,28216,USA,,www.primecaremed.org,,vascular,,PrimeCare Medical Center Charlotte,,,,,,,,,"Aug 31, 2022","Extracranial Cerebrovascular Testing, Peripheral Arterial Testing, Peripheral Venous Testing, Visceral Vascular Testing",,,,,,,,,,,,,,
249,250,"Private Diagnostic Clinic, PLLC dba Kernodle Clinic West",36.064477,-79.501593,granted,1234 Huffman Mill Road,,Burlington,NC,27215,USA,,,,echo,"www.google.com/search?q=Private+Diagnostic+Clinic,+PLLC+dba+Kernodle+Clinic+West","Private Diagnostic Clinic, PLLC dba Kernodle Clinic West Burlington",,,"Nov 30, 2023","Adult Stress, Adult Transthoracic",,,,,,,,,,,,,,,,,,,,
250,251,"Private Diagnostic Clinic, PLLC dba Kernodle Clinic West",36.064477,-79.501593,granted,1234 Huffman Mill Road,,Burlington,NC,27215,USA,,www.kernodle.com,,nuclear,,"Private Diagnostic Clinic, PLLC dba Kernodle Clinic West Burlington",,,,,,,"Jun 30, 2023",Myocardial Perfusion Imaging,,,,,,,,,,,,,,,,
251,252,"Private Diagnostic Clinics, PLLC dba Duke Cardiology of Raleigh",35.828292,-78.619897,multigranted,3320 Wake Forest Road,Suite 200,Raleigh,NC,27609,USA,,,,"echo, vascular","www.google.com/search?q=Private+Diagnostic+Clinics,+PLLC+dba+Duke+Cardiology+of+Raleigh","Private Diagnostic Clinics, PLLC dba Duke Cardiology of Raleigh Raleigh",,,"Mar 31, 2023","Adult Stress, Adult Transthoracic",,,,,"May 31, 2024",Extracranial Cerebrovascular Testing,,,,,,,,,,,,,,
252,253,"Private Diagnostic Clinics, PLLC dba Duke Cardiology of Raleigh",35.854543,-78.842403,multigranted,10950 Chapel Hill Road,,Morrisville,NC,27650,USA,,,,"echo, vascular","www.google.com/search?q=Private+Diagnostic+Clinics,+PLLC+dba+Duke+Cardiology+of+Raleigh","Private Diagnostic Clinics, PLLC dba Duke Cardiology of Raleigh Morrisville",,,"Mar 31, 2023","Adult Stress, Adult Transthoracic",,,,,"May 31, 2024",Extracranial Cerebrovascular Testing,,,,,,,,,,,,,,
253,254,Queen City Ear Nose and Throat,35.032568,-80.809585,granted,8924 Blakeney Professional Drive,,Charlotte,NC,28277,USA,,www.QueenCity-ENT.com,,ct,,Queen City Ear Nose and Throat Charlotte,"Jun 30, 2023",Maxillofacial CT,,,,,,,,,,,,,,,,,,,,,,
254,255,"Rafael M. Moreschi, MD, PA",35.769425,-78.782807,granted,105 A Kilmayne Drive,,Cary,NC,27511,USA,,,,echo,"www.google.com/search?q=Rafael+M.+Moreschi,+MD,+PA","Rafael M. Moreschi, MD, PA Cary",,,"Jun 30, 2024","Adult Stress, Adult Transthoracic",,,,,,,,,,,,,,,,,,,,
255,256,"Raleigh Capitol Ear, Nose and Throat",35.822718,-78.632828,granted,3010 Anderson Drive,,Raleigh,NC,27609,USA,,www.raleighcapitolent.com,,ct,,"Raleigh Capitol Ear, Nose and Throat Raleigh","Jan 31, 2023",Maxillofacial CT,,,,,,,,,,,,,,,,,,,,,,
256,257,Randolph Health,35.711581,-79.814922,granted,364 White Oak Street,,Asheboro,NC,27203,USA,,,,echo,www.google.com/search?q=Randolph+Health,Randolph Health Asheboro,,,"Jul 31, 2024","Adult Stress, Adult Transthoracic",,,,,,,,,,,,,,,,,,,,
257,258,"RDMG Associates, PA",35.091586,-80.869385,granted,10620 Park Road,Suite 128,Charlotte,NC,28210,USA,,www.directdiagnosticservices.com,,nuclear,,"RDMG Associates, PA Charlotte",,,,,,,"Jan 31, 2024",Myocardial Perfusion Imaging,,,,,,,,,,,,,,,,
258,259,Rex Healthcare Vascular Diagnostic Center,35.815458,-78.705032,granted,4420 Lake Boone Trail,,Raleigh,NC,27607,USA,,,,vascular,www.google.com/search?q=Rex+Healthcare+Vascular+Diagnostic+Center,Rex Healthcare Vascular Diagnostic Center Raleigh,,,,,,,,,"Feb 29, 2024","Extracranial Cerebrovascular Testing, Peripheral Arterial Testing, Peripheral Venous Testing, Visceral Vascular Testing",,,,,,,,,,,,,,
259,260,"Rex Hospital Inc, dba North Carolina Heart and Vascular, Smithfield",35.518835,-78.325525,granted,910 Berkshire Road,,Smithfield,NC,27577,USA,,,,echo,"www.google.com/search?q=Rex+Hospital+Inc,+dba+North+Carolina+Heart+and+Vascular,+Smithfield","Rex Hospital Inc, dba North Carolina Heart and Vascular, Smithfield Smithfield",,,"Jan 31, 2025","Adult Stress, Adult Transthoracic",,,,,,,,,,,,,,,,,,,,
260,261,"Rex Hospital, Inc. dba North Carolina Heart and Vascular",35.518835,-78.325525,granted,910 Berkshire Road,,Smithfield,NC,27577,USA,,,,nuclear,"www.google.com/search?q=Rex+Hospital,+Inc.+dba+North+Carolina+Heart+and+Vascular","Rex Hospital, Inc. dba North Carolina Heart and Vascular Smithfield",,,,,,,"Apr 30, 2023",Myocardial Perfusion Imaging,,,,,,,,,,,,,,,,
261,262,"Rex Hospital, Inc. dba North Carolina Heart and Vascular",35.796099,-78.508459,granted,6602 Knightdale Blvd,Suite 205,Knightdale,NC,27545,USA,,,,nuclear,"www.google.com/search?q=Rex+Hospital,+Inc.+dba+North+Carolina+Heart+and+Vascular","Rex Hospital, Inc. dba North Carolina Heart and Vascular Knightdale",,,,,,,"Apr 30, 2023",Myocardial Perfusion Imaging,,,,,,,,,,,,,,,,
262,263,"Rex Hospital, Inc. dba North Carolina Heart and Vascular",35.818862,-78.70485,granted,2800 Blue Ridge Road,Suite 550,Raleigh,NC,27607,USA,,,,nuclear,"www.google.com/search?q=Rex+Hospital,+Inc.+dba+North+Carolina+Heart+and+Vascular","Rex Hospital, Inc. dba North Carolina Heart and Vascular Raleigh",,,,,,,"Apr 30, 2023",Myocardial Perfusion Imaging,,,,,,,,,,,,,,,,
263,264,"Rex Hospital, Inc. dba North Carolina Heart and Vascular",35.627237,-78.505327,granted,2076 Highway 42 West,,Clayton,NC,27520,USA,,,,nuclear,"www.google.com/search?q=Rex+Hospital,+Inc.+dba+North+Carolina+Heart+and+Vascular","Rex Hospital, Inc. dba North Carolina Heart and Vascular Clayton",,,,,,,"Apr 30, 2023",Myocardial Perfusion Imaging,,,,,,,,,,,,,,,,
264,265,"Rex Hospital, Inc. dba North Carolina Heart and Vascular",35.748391,-77.951449,granted,2605 Forest Hills Road,,Wilson,NC,27896,USA,,,,nuclear,"www.google.com/search?q=Rex+Hospital,+Inc.+dba+North+Carolina+Heart+and+Vascular","Rex Hospital, Inc. dba North Carolina Heart and Vascular Wilson",,,,,,,"Apr 30, 2023",Myocardial Perfusion Imaging,,,,,,,,,,,,,,,,
265,266,"Rex Hospital, Inc. dba North Carolina Heart and Vascular",35.399687,-78.815806,granted,701 S. Main Street,,Lillington,NC,27549,USA,,,,nuclear,"www.google.com/search?q=Rex+Hospital,+Inc.+dba+North+Carolina+Heart+and+Vascular","Rex Hospital, Inc. dba North Carolina Heart and Vascular Lillington",,,,,,,"Feb 29, 2024",Myocardial Perfusion Imaging,,,,,,,,,,,,,,,,
266,267,"Rex Hospital, Inc. dba North Carolina Heart and Vascular",35.948225,-78.541374,granted,"11200 Governor Manly Way, Suite 303A",,Raleigh,NC,27614,USA,,www.rexheartvascular.com,,nuclear,,"Rex Hospital, Inc. dba North Carolina Heart and Vascular Raleigh",,,,,,,"Apr 30, 2023",Myocardial Perfusion Imaging,,,,,,,,,,,,,,,,
267,268,"Rex Hospital, Inc. dba North Carolina Heart and Vascular",35.404366,-77.953945,granted,"2615 Hospital Road, Suite 300",,Goldsboro,NC,27534,USA,,,,nuclear,"www.google.com/search?q=Rex+Hospital,+Inc.+dba+North+Carolina+Heart+and+Vascular","Rex Hospital, Inc. dba North Carolina Heart and Vascular Goldsboro",,,,,,,"Apr 30, 2023",Myocardial Perfusion Imaging,,,,,,,,,,,,,,,,
268,269,"Rex Hospital, Inc. dba North Carolina Heart and Vascular",35.830444,-78.878433,granted,"6715 McCrimmon Pkwy, Suite 300",,Cary,NC,27519,,,,,nuclear,"www.google.com/search?q=Rex+Hospital,+Inc.+dba+North+Carolina+Heart+and+Vascular","Rex Hospital, Inc. dba North Carolina Heart and Vascular Cary",,,,,,,"Apr 30, 2023",Myocardial Perfusion Imaging,,,,,,,,,,,,,,,,
269,270,"Rex Hospital, Inc. dba North Carolina Heart and Vascular",35.643485,-78.838014,granted,781 Avent Ferry Road,Suite 212,Holly Springs,NC,27540,USA,,,,nuclear,"www.google.com/search?q=Rex+Hospital,+Inc.+dba+North+Carolina+Heart+and+Vascular","Rex Hospital, Inc. dba North Carolina Heart and Vascular Holly Springs",,,,,,,"Feb 29, 2024",Myocardial Perfusion Imaging,,,,,,,,,,,,,,,,
270,271,"Rex Hospital, Inc. dba North Carolina Heart and Vascular",35.81545,-78.700215,granted,"4201 Lake Boone Trail, Suite 104",,Raleigh,NC,27607,,,,,nuclear,"www.google.com/search?q=Rex+Hospital,+Inc.+dba+North+Carolina+Heart+and+Vascular","Rex Hospital, Inc. dba North Carolina Heart and Vascular Raleigh",,,,,,,"Apr 30, 2023",Myocardial Perfusion Imaging,,,,,,,,,,,,,,,,
271,272,Rex Vascular Specialists,35.815489,-78.701014,granted,4414 Lake Boone Trail,Suite 108,Raleigh,NC,27607,USA,,,,vascular,www.google.com/search?q=Rex+Vascular+Specialists,Rex Vascular Specialists Raleigh,,,,,,,,,"Feb 29, 2024","Extracranial Cerebrovascular Testing, Peripheral Arterial Testing, Peripheral Venous Testing, Visceral Vascular Testing",,,,,,,,,,,,,,
272,273,Rex Vascular Specialists Cary,35.75431,-78.80944,granted,1505 SW Cary Parkway,"Rex Healthcare of Cary, Suite 210",Cary,NC,27511,USA,,,,vascular,www.google.com/search?q=Rex+Vascular+Specialists+Cary,Rex Vascular Specialists Cary Cary,,,,,,,,,"Feb 29, 2024","Extracranial Cerebrovascular Testing, Peripheral Arterial Testing, Peripheral Venous Testing",,,,,,,,,,,,,,
273,274,Rex Vascular Specialists Holly Springs,35.64287,-78.8372,granted,781 Avent Ferry Road,"Rex Healthcare of Holly Springs, Suite 106",Holly Springs,NC,27540,USA,,,,vascular,www.google.com/search?q=Rex+Vascular+Specialists+Holly+Springs,Rex Vascular Specialists Holly Springs Holly Springs,,,,,,,,,"Feb 29, 2024","Extracranial Cerebrovascular Testing, Peripheral Arterial Testing, Peripheral Venous Testing",,,,,,,,,,,,,,
274,275,Rex Vascular Specialists Wakefield,35.948042,-78.541838,granted,11200 Governor Manly Way,Suite 305,Raleigh,NC,27614,USA,,,,vascular,www.google.com/search?q=Rex+Vascular+Specialists+Wakefield,Rex Vascular Specialists Wakefield Raleigh,,,,,,,,,"Feb 29, 2024","Extracranial Cerebrovascular Testing, Peripheral Arterial Testing, Peripheral Venous Testing",,,,,,,,,,,,,,
275,276,Rocky Mount Urology Associates,35.965448,-77.839273,granted,180 Foy Drive,,Rocky Mount,NC,27804,USA,,rockymounturology.com,,ct,,Rocky Mount Urology Associates Rocky Mount,"Nov 30, 2023",Body CT,,,,,,,,,,,,,,,,,,,,,,
276,277,Sampson Regional Medical Center,35.007981,-78.323712,granted,607 Beaman Street,PO Box 261,Clinton,NC,28328,USA,,,,echo,www.google.com/search?q=Sampson+Regional+Medical+Center,Sampson Regional Medical Center Clinton,,,"Aug 31, 2023",Adult Transthoracic,,,,,,,,,,,,,,,,,,,,
277,278,Sanford Cardiology,35.467877,-79.188004,granted,"110 Fields Dr., Suite A",,Sanford,NC,27330,USA,,,,nuclear,www.google.com/search?q=Sanford+Cardiology,Sanford Cardiology Sanford,,,,,,,"Jul 31, 2023",Myocardial Perfusion Imaging,,,,,,,,,,,,,,,,
278,279,Sanford Specialty Clinic-Cardiology,35.466087,-79.185605,granted,1301 Central Drive,,Sanford,NC,27330,USA,,,,nuclear,www.google.com/search?q=Sanford+Specialty+Clinic-Cardiology,Sanford Specialty Clinic-Cardiology Sanford,,,,,,,"Feb 29, 2024",Myocardial Perfusion Imaging,,,,,,,,,,,,,,,,
279,280,"Sanger Heart  and Vascular Institute,Carolinas HealthCare System at Pineville",35.090225,-80.870177,granted,10650 Park Road,Suite 220,Charlotte,NC,28210,USA,,,,vascular,"www.google.com/search?q=Sanger+Heart++and+Vascular+Institute,Carolinas+HealthCare+System+at+Pineville","Sanger Heart  and Vascular Institute,Carolinas HealthCare System at Pineville Charlotte",,,,,,,,,"Aug 31, 2024","Extracranial Cerebrovascular Testing, Peripheral Arterial Testing, Peripheral Venous Testing, Visceral Vascular Testing",,,,,,,,,,,,,,
280,281,Sanger Heart and Vascular Institue  CMC,35.204983,-80.839846,granted,1000 Blythe Blvd,,Charlotte,NC,28320,USA,,,,echo,www.google.com/search?q=Sanger+Heart+and+Vascular+Institue++CMC,Sanger Heart and Vascular Institue  CMC Charlotte,,,"Sep 30, 2024","Adult Stress, Adult Transesophageal, Adult Transthoracic",,,,,,,,,,,,,,,,,,,,
281,282,Sanger Heart and Vascular Institute,35.434313,-80.603088,granted,920 Church Street North,,Concord,NC,28025,USA,,,,echo,www.google.com/search?q=Sanger+Heart+and+Vascular+Institute,Sanger Heart and Vascular Institute Concord,,,"Sep 30, 2024","Adult Stress, Adult Transesophageal, Adult Transthoracic",,,,,,,,,,,,,,,,,,,,
282,283,Sanger Heart and Vascular Institute,35.488459,-81.201213,granted,433 McAlister Road,P.O.Box 677,Lincolnton,NC,28093,USA,,,,echo,www.google.com/search?q=Sanger+Heart+and+Vascular+Institute,Sanger Heart and Vascular Institute Lincolnton,,,"Sep 30, 2024",Adult Transthoracic,,,,,,,,,,,,,,,,,,,,
283,284,Sanger Heart and Vascular Institute,35.052865,-80.846589,granted,15110 John J. Delaney Drive,Suite 200,Charlotte,NC,28277,USA,,,,echo,www.google.com/search?q=Sanger+Heart+and+Vascular+Institute,Sanger Heart and Vascular Institute Charlotte,,,"Sep 30, 2024","Adult Stress, Adult Transthoracic",,,,,,,,,,,,,,,,,,,,
284,285,Sanger Heart and Vascular Institute,35.240871,-81.356017,granted,706 West Kings Street,,Kings Mountain,NC,28086,USA,,,,echo,www.google.com/search?q=Sanger+Heart+and+Vascular+Institute,Sanger Heart and Vascular Institute Kings Mountain,,,"Sep 30, 2024",Adult Transthoracic,,,,,,,,,,,,,,,,,,,,
285,286,Sanger Heart and Vascular Institute,35.301837,-81.535343,granted,201 E. Grover Street,,Shelby,NC,28150,USA,,,,echo,www.google.com/search?q=Sanger+Heart+and+Vascular+Institute,Sanger Heart and Vascular Institute Shelby,,,"Sep 30, 2024",Adult Transthoracic,,,,,,,,,,,,,,,,,,,,
286,287,Sanger Heart and Vascular Institute,35.362606,-80.194398,granted,301 Yadkin Street,,Albermarle,NC,28001,USA,,,,echo,www.google.com/search?q=Sanger+Heart+and+Vascular+Institute,Sanger Heart and Vascular Institute Albermarle,,,"Sep 30, 2024","Adult Stress, Adult Transesophageal, Adult Transthoracic",,,,,,,,,,,,,,,,,,,,
287,288,Sanger Heart And Vascular Institute,35.204578,-80.838168,granted,1001 Blythe Boulevard,Suite 200-D,Charlotte,NC,28203,USA,,,,pediatric_echo,www.google.com/search?q=Sanger+Heart+And+Vascular+Institute,Sanger Heart And Vascular Institute Charlotte,,,,,,,,,,,"Sep 30, 2023","Pediatric Transesophageal, Pediatric Transthoracic, Fetal",,,,,,,,,,,,
288,289,Sanger Heart and Vascular Institute,35.169619,-80.661861,granted,11304 Hawthorne Drive,Suite 100,Mint Hill,NC,28227,USA,,,,echo,www.google.com/search?q=Sanger+Heart+and+Vascular+Institute,Sanger Heart and Vascular Institute Mint Hill,,,"Sep 30, 2024","Adult Stress, Adult Transthoracic",,,,,,,,,,,,,,,,,,,,
289,290,Sanger Heart and Vascular Institute,34.978535,-80.108269,granted,2301 U.S. HIGHWAY 74 W,,Wadesboro,NC,28170,USA,,,,echo,www.google.com/search?q=Sanger+Heart+and+Vascular+Institute,Sanger Heart and Vascular Institute Wadesboro,,,"Sep 30, 2024",Adult Transthoracic,,,,,,,,,,,,,,,,,,,,
290,291,Sanger Heart and Vascular Institute,35.550666,-80.852774,granted,134 Medical Park Road,Suite 111,Mooresville,NC,28117,USA,,,,echo,www.google.com/search?q=Sanger+Heart+and+Vascular+Institute,Sanger Heart and Vascular Institute Mooresville,,,"Sep 30, 2024","Adult Stress, Adult Transthoracic",,,,,,,,,,,,,,,,,,,,
291,292,Sanger Heart and Vascular Institute,35.439027,-80.865388,granted,447 McAlister Rd,Suite 3200,Lincolnton,NC,28092,USA,,,,echo,www.google.com/search?q=Sanger+Heart+and+Vascular+Institute,Sanger Heart and Vascular Institute Lincolnton,,,"Sep 30, 2024",Adult Transthoracic,,,,,,,,,,,,,,,,,,,,
292,293,Sanger Heart and Vascular Institute,35.370597,-81.956458,granted,111 W Grover St,,Shelby,NC,28150,USA,,,,echo,www.google.com/search?q=Sanger+Heart+and+Vascular+Institute,Sanger Heart and Vascular Institute Shelby,,,"Sep 30, 2024",Adult Transthoracic,,,,,,,,,,,,,,,,,,,,
293,294,Sanger Heart and Vascular Institute,35.27374,-81.136987,granted,2680 Aberdeen Blvd,,Gastonia,NC,28054,USA,,,,echo,www.google.com/search?q=Sanger+Heart+and+Vascular+Institute,Sanger Heart and Vascular Institute Gastonia,,,"Sep 30, 2024","Adult Stress, Adult Transthoracic",,,,,,,,,,,,,,,,,,,,
294,295,Sanger Heart and Vascular Institute  AH Kenilworth Imaging,35.201264,-80.834698,granted,1237 Harding Place,Suite 2100,Charlotte,NC,28204,USA,,,,echo,www.google.com/search?q=Sanger+Heart+and+Vascular+Institute++AH+Kenilworth+Imaging,Sanger Heart and Vascular Institute  AH Kenilworth Imaging Charlotte,,,"Sep 30, 2024","Adult Stress, Adult Transthoracic",,,,,,,,,,,,,,,,,,,,
295,296,Sanger Heart and Vascular Institute - Ballantyne,35.090387,-80.870092,granted,15110 John J Delaney Dr.,,Charlotte,NC,28277,USA,,,,nuclear,www.google.com/search?q=Sanger+Heart+and+Vascular+Institute+-+Ballantyne,Sanger Heart and Vascular Institute - Ballantyne Charlotte,,,,,,,"Oct 30, 2022",Myocardial Perfusion Imaging,,,,,,,,,,,,,,,,
296,297,Sanger Heart And Vascular Institute - Concord Pediatric Cardiology,35.437579,-80.603432,granted,100 Medical Park Drive,Pavilion Building  Suite 310,Concord,NC,28025,USA,,,,pediatric_echo,www.google.com/search?q=Sanger+Heart+And+Vascular+Institute+-+Concord+Pediatric+Cardiology,Sanger Heart And Vascular Institute - Concord Pediatric Cardiology Concord,,,,,,,,,,,"Sep 30, 2023","Pediatric Transesophageal, Pediatric Transthoracic, Fetal",,,,,,,,,,,,
297,298,Sanger Heart and Vascular Institute - Gastonia,35.274536,-81.147988,granted,2250 Court Drive,Suite 202,Gastonia,NC,28054,USA,,www.carolinashealthcare.org,,nuclear,,Sanger Heart and Vascular Institute - Gastonia Gastonia,,,,,,,"Oct 30, 2022",Myocardial Perfusion Imaging,,,,,,,,,,,,,,,,
298,299,Sanger Heart And Vascular Institute - Hickory Pediatric Cardiology,35.729277,-81.31079,granted,1781 Tate Boulevard SE,Suite 203,Hickory,NC,28602,USA,,,,pediatric_echo,www.google.com/search?q=Sanger+Heart+And+Vascular+Institute+-+Hickory+Pediatric+Cardiology,Sanger Heart And Vascular Institute - Hickory Pediatric Cardiology Hickory,,,,,,,,,,,"Sep 30, 2023","Pediatric Transthoracic, Fetal",,,,,,,,,,,,
299,300,Sanger Heart and Vascular Institute - Lake Norman,35.550666,-80.852774,granted,134 Medical Park Drive,,Morresville,NC,28117,USA,,,,nuclear,www.google.com/search?q=Sanger+Heart+and+Vascular+Institute+-+Lake+Norman,Sanger Heart and Vascular Institute - Lake Norman Morresville,,,,,,,"Oct 30, 2022",Myocardial Perfusion Imaging,,,,,,,,,,,,,,,,
300,301,Sanger Heart and Vascular Institute at CHS Mercy,35.20972,-80.821747,granted,2001 Vail Avenue,,Charlotte,NC,28207,USA,,,,echo,www.google.com/search?q=Sanger+Heart+and+Vascular+Institute+at+CHS+Mercy,Sanger Heart and Vascular Institute at CHS Mercy Charlotte,,,"Sep 30, 2024","Adult Stress, Adult Transesophageal, Adult Transthoracic",,,,,,,,,,,,,,,,,,,,
301,302,Sanger Heart and Vascular Institute at CHS Pineville,35.091285,-80.869569,granted,10628 Park Road,,Charlotte,NC,28210,USA,,,,echo,www.google.com/search?q=Sanger+Heart+and+Vascular+Institute+at+CHS+Pineville,Sanger Heart and Vascular Institute at CHS Pineville Charlotte,,,"Sep 30, 2024","Adult Stress, Adult Transesophageal, Adult Transthoracic",,,,,,,,,,,,,,,,,,,,
302,303,Sanger Heart and Vascular Institute at CHS Union,34.973975,-80.52248,granted,600 Hospital Drive,,Monroe,NC,28112,USA,,,,echo,www.google.com/search?q=Sanger+Heart+and+Vascular+Institute+at+CHS+Union,Sanger Heart and Vascular Institute at CHS Union Monroe,,,"Sep 30, 2024","Adult Stress, Adult Transthoracic",,,,,,,,,,,,,,,,,,,,
303,304,Sanger Heart and Vascular Institute University City Office,35.304418,-80.748247,granted,101 W.T. Harris Boulevard,"Building 1000, Suite 1213",Charlotte,NC,28262,USA,,,,echo,www.google.com/search?q=Sanger+Heart+and+Vascular+Institute+University+City+Office,Sanger Heart and Vascular Institute University City Office Charlotte,,,"Sep 30, 2024","Adult Stress, Adult Transthoracic",,,,,,,,,,,,,,,,,,,,
304,305,"Sanger Heart and vascular Institute, Carolinas Healthcare System at Ballantyne",35.052865,-80.846589,granted,15110 John J Delaney Dr,,Charlotte,NC,28277,USA,,,,vascular,"www.google.com/search?q=Sanger+Heart+and+vascular+Institute,+Carolinas+Healthcare+System+at+Ballantyne","Sanger Heart and vascular Institute, Carolinas Healthcare System at Ballantyne Charlotte",,,,,,,,,"Aug 31, 2024",Peripheral Venous Testing,,,,,,,,,,,,,,
305,306,"Sanger Heart and Vascular Institute, Carolinas HealthCare System at Charlotte",35.20448,-80.837962,granted,1237 Harding Pl,Suite 4400,Charlotte,NC,28204,USA,,,,vascular,"www.google.com/search?q=Sanger+Heart+and+Vascular+Institute,+Carolinas+HealthCare+System+at+Charlotte","Sanger Heart and Vascular Institute, Carolinas HealthCare System at Charlotte Charlotte",,,,,,,,,"Aug 31, 2024","Extracranial Cerebrovascular Testing, Peripheral Arterial Testing, Peripheral Venous Testing, Visceral Vascular Testing",,,,,,,,,,,,,,
306,307,"Sanger Heart and Vascular Institute, Carolinas Healthcare System at Lake Norman",35.550594,-80.85283,granted,146 Medical Park Dr,suite 206,Mooresville,NC,28117,USA,,,,vascular,"www.google.com/search?q=Sanger+Heart+and+Vascular+Institute,+Carolinas+Healthcare+System+at+Lake+Norman","Sanger Heart and Vascular Institute, Carolinas Healthcare System at Lake Norman Mooresville",,,,,,,,,"Aug 31, 2024","Extracranial Cerebrovascular Testing, Peripheral Arterial Testing, Peripheral Venous Testing",,,,,,,,,,,,,,
307,308,"Sanger Heart and Vascular Institute, Carolinas HealthCare System at Monroe",34.974214,-80.520393,granted,1550 Faulk Street,Suite 300,Monroe,NC,28112,USA,,,,vascular,"www.google.com/search?q=Sanger+Heart+and+Vascular+Institute,+Carolinas+HealthCare+System+at+Monroe","Sanger Heart and Vascular Institute, Carolinas HealthCare System at Monroe Monroe",,,,,,,,,"Aug 31, 2024","Extracranial Cerebrovascular Testing, Peripheral Arterial Testing",,,,,,,,,,,,,,
308,309,"Sanger Heart and Vascular Institute, Carolinas Healthcare System of Concod",35.437337,-80.603057,granted,100 Medical Park Dr,Suite 210,Concord,NC,28025,USA,,,,vascular,"www.google.com/search?q=Sanger+Heart+and+Vascular+Institute,+Carolinas+Healthcare+System+of+Concod","Sanger Heart and Vascular Institute, Carolinas Healthcare System of Concod Concord",,,,,,,,,"Aug 31, 2024","Extracranial Cerebrovascular Testing, Peripheral Arterial Testing, Peripheral Venous Testing, Visceral Vascular Testing",,,,,,,,,,,,,,
309,310,"Sanger Heart and Vascular Institute, Venous and Lymphatic Institute",35.052865,-80.846589,granted,15110 John J Delaney Dr,Suite 200,Charlotte,NC,28277,USA,,,,vein_center,"www.google.com/search?q=Sanger+Heart+and+Vascular+Institute,+Venous+and+Lymphatic+Institute","Sanger Heart and Vascular Institute, Venous and Lymphatic Institute Charlotte",,,,,,,,,,,,,,,,,"Aug 31, 2023",Superficial Venous Evaluation and Management,,,,,,
310,311,Sentara Albemarle Medical Center,36.32153,-76.22002,granted,1144 North Road Street,,Elizabeth City,NC,27909,USA,,,,echo,www.google.com/search?q=Sentara+Albemarle+Medical+Center,Sentara Albemarle Medical Center Elizabeth City,,,"Sep 30, 2024","Adult Stress, Adult Transesophageal, Adult Transthoracic",,,,,,,,,,,,,,,,,,,,
311,312,SHVI Huntersville Office,35.439027,-80.865388,granted,16455 Statesville Rd,Suite 490,Huntersville,NC,28078,USA,,,,echo,www.google.com/search?q=SHVI+Huntersville+Office,SHVI Huntersville Office Huntersville,,,"Sep 30, 2024",Adult Transthoracic,,,,,,,,,,,,,,,,,,,,
312,313,South Charlotte Cardiology,35.058666,-80.817173,granted,11220 Elm Lane,Suite 200,Charlotte,NC,28277,USA,,,,nuclear,www.google.com/search?q=South+Charlotte+Cardiology,South Charlotte Cardiology Charlotte,,,,,,,"Jan 31, 2024",Myocardial Perfusion Imaging,,,,,,,,,,,,,,,,
313,314,South Charlotte General and Vascular Surgery,35.091961,-80.869155,granted,10512 Park Road,Suite 111,Charlotte,NC,28210,USA,,,,vascular,www.google.com/search?q=South+Charlotte+General+and+Vascular+Surgery,South Charlotte General and Vascular Surgery Charlotte,,,,,,,,,"Apr 30, 2024","Extracranial Cerebrovascular Testing, Peripheral Arterial Testing, Peripheral Venous Testing",,,,,,,,,,,,,,
314,315,Surgical Specialists of Charlotte - Huntersville,35.407899,-80.860744,granted,"10030 Gilead Rd., Ste. 245",,Huntersville,NC,28078,USA,,www.ssclt.com,,vascular,,Surgical Specialists of Charlotte - Huntersville Huntersville,,,,,,,,,"Aug 31, 2023",Peripheral Venous Testing,,,,,,,,,,,,,,
315,316,Surgical Specialists of Charlotte - Matthews,35.121861,-80.713989,granted,1450 Matthews Township Parkway,Suite 250,Matthews,NC,28105,USA,,,,vascular,www.google.com/search?q=Surgical+Specialists+of+Charlotte+-+Matthews,Surgical Specialists of Charlotte - Matthews Matthews,,,,,,,,,"Aug 31, 2023",Peripheral Venous Testing,,,,,,,,,,,,,,
316,317,Surgical Specialists of Charlotte - Pineville,35.091961,-80.869155,granted,"10512 Park Rd., Ste. 101",,Charlotte,NC,28210,USA,,www.ssclt.com,,vascular,,Surgical Specialists of Charlotte - Pineville Charlotte,,,,,,,,,"Aug 31, 2023",Peripheral Venous Testing,,,,,,,,,,,,,,
317,318,"Surgical Specialists of Charlotte, P.A.",35.20972,-80.821747,granted,"2001 Vail Avenue, Suite 320",,Charlotte,NC,28207,USA,,www.ssclt.com,,vascular,,"Surgical Specialists of Charlotte, P.A. Charlotte",,,,,,,,,"Aug 31, 2023","Extracranial Cerebrovascular Testing, Peripheral Arterial Testing, Peripheral Venous Testing",,,,,,,,,,,,,,
318,319,The Bone and Joint Surgery Clinic,35.828245,-78.617064,granted,3801 Wake Forest Road,Ste 220,Raleigh,NC,27609,USA,,www.RaleighBoneandJoint.net,,mr,,The Bone and Joint Surgery Clinic Raleigh,,,,,"Jan 31, 2023",Musculoskeletal MRI,,,,,,,,,,,,,,,,,,
319,320,The Echo Lab at CarolinaEast Medical Center,35.111893,-77.066216,granted,2000 Neuse Boulevard,,New Bern,NC,28561,USA,,,,echo,www.google.com/search?q=The+Echo+Lab+at+CarolinaEast+Medical+Center,The Echo Lab at CarolinaEast Medical Center New Bern,,,"Jun 30, 2024",Adult Transthoracic,,,,,,,,,,,,,,,,,,,,
320,321,The McDowell Hospital,35.665186,-82.02177,granted,430 Rankin Drive,,Marion,NC,28752,USA,,www.mcdowellhospital.org,,echo,,The McDowell Hospital Marion,,,"Feb 28, 2023","Adult Stress, Adult Transthoracic",,,,,,,,,,,,,,,,,,,,
321,322,The Sanger Heart and Vascular Institute - Kenilworth,35.20131,-80.83508,granted,1237 Harding Place,"MOB 1, Nuclear Cardiology Lab",Charlotte,NC,28204,USA,,,,nuclear,www.google.com/search?q=The+Sanger+Heart+and+Vascular+Institute+-+Kenilworth,The Sanger Heart and Vascular Institute - Kenilworth Charlotte,,,,,,,"Oct 30, 2022",Myocardial Perfusion Imaging,,,,,,,,,,,,,,,,
322,323,The Vascular Laboratory at Carolina East Medical Center,35.111893,-77.066216,granted,2000 Neuse Boulevard,,New Bern,NC,28561,USA,,,,vascular,www.google.com/search?q=The+Vascular+Laboratory+at+Carolina+East+Medical+Center,The Vascular Laboratory at Carolina East Medical Center New Bern,,,,,,,,,"Nov 30, 2022","Extracranial Cerebrovascular Testing, Peripheral Arterial Testing, Peripheral Venous Testing",,,,,,,,,,,,,,
323,324,The Vein Specialists of Carolina Vascular,35.480674,-82.549767,granted,310 Long Shoals Road,,Arden,NC,28704,USA,,www.theveinspecialists.com,,vascular,,The Vein Specialists of Carolina Vascular Arden,,,,,,,,,"Mar 31, 2025",Peripheral Venous Testing,,,,,,,,,,,,,,
324,325,Thomasville Medical Center,35.882029,-80.11138,granted,207 Old Lexington Road,,Thomasville,NC,27360,USA,,,,echo,www.google.com/search?q=Thomasville+Medical+Center,Thomasville Medical Center Thomasville,,,"Jan 31, 2025",Adult Transthoracic,,,,,,,,,,,,,,,,,,,,
325,326,Triad Interventional Radiology Clinic,36.078139,-80.294804,granted,3015 Maplewood Ave,Suite 200,Winston-Salem,NC,27103,USA,,,,vascular,www.google.com/search?q=Triad+Interventional+Radiology+Clinic,Triad Interventional Radiology Clinic Winston-Salem,,,,,,,,,"Jul 31, 2023",Extracranial Cerebrovascular Testing,,,,,,,,,,,,,,
326,327,Triangle Heart Associates,36.031681,-78.935767,multigranted,1821 Hillandale Rd.,Suite 25C,Durham,NC,27705,USA,,www.dukehealth.org/locations/triangle-heart-associates/location_details,,"echo, nuclear",,Triangle Heart Associates Durham,,,"May 31, 2024","Adult Stress, Adult Transthoracic",,,"Jun 30, 2024",Myocardial Perfusion Imaging,,,,,,,,,,,,,,,,
327,328,Triangle Sinus Center,35.90972,-78.599004,granted,10010 Falls of Neuse Rd Suite 012,,Raleigh,NC,27614,USA,,www.trianglesinuscenter.com/,,ct,,Triangle Sinus Center Raleigh,"Jul 31, 2025",Maxillofacial CT,,,,,,,,,,,,,,,,,,,,,,
328,329,"Triangle Urology Associates, PA",36.042896,-78.903144,granted,205 Frasier Street,,Durham,NC,27704,USA,,triangleurologync.com,,ct,,"Triangle Urology Associates, PA Durham","Aug 31, 2023",Body CT,,,,,,,,,,,,,,,,,,,,,,
329,330,Triangle Vein Clinic,35.73466,-78.779176,granted,115 Crescent Commons Drive,Suite 200,Cary,NC,27518,USA,,,,vein_center,www.google.com/search?q=Triangle+Vein+Clinic,Triangle Vein Clinic Cary,,,,,,,,,,,,,,,,,"May 31, 2023",Superficial Venous Evaluation and Management,,,,,,
330,331,Tryon Medical Partners,35.201264,-80.834698,granted,6060 Piedmont Row Drive South Floor 10,,Charlotte,NC,28210,USA,,tryonmed.com,,nuclear,,Tryon Medical Partners Charlotte,,,,,,,"Nov 30, 2022",Myocardial Perfusion Imaging,,,,,,,,,,,,,,,,
331,332,Tryon Medical Partners,35.052857,-80.846597,granted,16817 Marvin Road,,Charlotte,NC,28277,USA,,,,nuclear,www.google.com/search?q=Tryon+Medical+Partners,Tryon Medical Partners Charlotte,,,,,,,"Nov 30, 2022",Myocardial Perfusion Imaging,,,,,,,,,,,,,,,,
332,333,Tryon Medical Partners Cardiovascular Services,35.201264,-80.834698,granted,6060 Piedmont Row Drive South,,Charlotte,NC,28210,USA,,,,vascular,www.google.com/search?q=Tryon+Medical+Partners+Cardiovascular+Services,Tryon Medical Partners Cardiovascular Services Charlotte,,,,,,,,,"Oct 30, 2022","Extracranial Cerebrovascular Testing, Peripheral Venous Testing",,,,,,,,,,,,,,
333,334,Tryon Medical Partners Cardiovascular Services,35.201264,-80.834698,granted,6060 Piedmont Row Drive South,,Charlotte,NC,28210,USA,,,,echo,www.google.com/search?q=Tryon+Medical+Partners+Cardiovascular+Services,Tryon Medical Partners Cardiovascular Services Charlotte,,,"Jul 31, 2025","Adult Stress, Adult Transthoracic",,,,,,,,,,,,,,,,,,,,
334,335,Tryon Medical Partners Cardiovascular Services,35.052857,-80.846597,granted,16817 Marvin Rd,,Charlotte,NC,28277,USA,,,,echo,www.google.com/search?q=Tryon+Medical+Partners+Cardiovascular+Services,Tryon Medical Partners Cardiovascular Services Charlotte,,,"Jul 31, 2025","Adult Stress, Adult Transthoracic",,,,,,,,,,,,,,,,,,,,
335,336,Tryon Medical Partners Cardiovascular Services - Ballantyne,35.052857,-80.846597,granted,16817 Marvin Road,,Charlotte,NC,28277,USA,,,,vascular,www.google.com/search?q=Tryon+Medical+Partners+Cardiovascular+Services+-+Ballantyne,Tryon Medical Partners Cardiovascular Services - Ballantyne Charlotte,,,,,,,,,"Oct 30, 2022","Extracranial Cerebrovascular Testing, Peripheral Venous Testing",,,,,,,,,,,,,,
336,337,UNC Cardiology at Lenoir,35.290752,-77.580386,granted,2503 Queen St.,,Kinston,NC,28501,USA,,,,nuclear,www.google.com/search?q=UNC+Cardiology+at+Lenoir,UNC Cardiology at Lenoir Kinston,,,,,,,"Feb 29, 2024",Myocardial Perfusion Imaging,,,,,,,,,,,,,,,,
337,338,UNC Cardiology at Roxboro,36.409414,-78.983684,granted,718 Ridge Rd.,,Roxboro,NC,27573,USA,,,,nuclear,www.google.com/search?q=UNC+Cardiology+at+Roxboro,UNC Cardiology at Roxboro Roxboro,,,,,,,"Feb 29, 2024",Myocardial Perfusion Imaging,,,,,,,,,,,,,,,,
338,339,UNC Cardiology Lumberton,34.635566,-79.008067,granted,2610 North Elm St.,,Lumberton,NC,28358,USA,,,,nuclear,www.google.com/search?q=UNC+Cardiology+Lumberton,UNC Cardiology Lumberton Lumberton,,,,,,,"Feb 29, 2024",Myocardial Perfusion Imaging,,,,,,,,,,,,,,,,
339,340,UNC Ear Nose and Throat at Carolina Pointe I,35.910787,-78.986698,granted,2226 Nelson Hwy,Suite 101,Chapel Hill,NC,27517,USA,,,,ct,www.google.com/search?q=UNC+Ear+Nose+and+Throat+at+Carolina+Pointe+I,UNC Ear Nose and Throat at Carolina Pointe I Chapel Hill,"Aug 31, 2024",Maxillofacial CT,,,,,,,,,,,,,,,,,,,,,,
340,341,UNC Heart and Vascular Center at Meadowmont,35.9045,-79.01123,granted,300 Meadowmont Village Circle,,Chapel Hill,NC,27517,USA,,,,echo,www.google.com/search?q=UNC+Heart+and+Vascular+Center+at+Meadowmont,UNC Heart and Vascular Center at Meadowmont Chapel Hill,,,"Dec 31, 2023",Adult Transthoracic,,,,,,,,,,,,,,,,,,,,
341,342,UNC Hospitals Hillsborough Campus,36.03865,-79.090731,granted,430 Waterstone Dr,,Hillsborough,NC,27278,USA,,,,echo,www.google.com/search?q=UNC+Hospitals+Hillsborough+Campus,UNC Hospitals Hillsborough Campus Hillsborough,,,"Dec 31, 2023",Adult Transthoracic,,,,,,,,,,,,,,,,,,,,
342,343,"UNC North  Carolina Heart and VAscular, Blue Ridge Road",35.818862,-78.70485,granted,2800 Blue Ridge Road,Suite 500,Raleigh,NC,27607,USA,,,,echo,"www.google.com/search?q=UNC+North++Carolina+Heart+and+VAscular,+Blue+Ridge+Road","UNC North  Carolina Heart and VAscular, Blue Ridge Road Raleigh",,,"Jan 31, 2025","Adult Stress, Adult Transthoracic",,,,,,,,,,,,,,,,,,,,
343,344,UNC North Carolina Heart and Vascular,35.829806,-78.879246,granted,6715 McCrimmon Parkway,,Cary,NC,27519,USA,,rexhealth.com,,echo,,UNC North Carolina Heart and Vascular Cary,,,"Jan 31, 2025","Adult Stress, Adult Transthoracic",,,,,,,,,,,,,,,,,,,,
344,345,"UNC North Carolina Heart and Vascular , Wakefield",35.948225,-78.541374,granted,11200 Govenor Manley Way,Suite 303A,Raleigh,NC,27614,USA,,www.rexheartvascular.com,,echo,,"UNC North Carolina Heart and Vascular , Wakefield Raleigh",,,"Jan 31, 2025","Adult Stress, Adult Transthoracic",,,,,,,,,,,,,,,,,,,,
345,346,UNC North Carolina Heart and Vascular Clayton,35.627237,-78.505327,granted,2076 Highway 42 West,,Clayton,NC,27520,USA,,,,echo,www.google.com/search?q=UNC+North+Carolina+Heart+and+Vascular+Clayton,UNC North Carolina Heart and Vascular Clayton Clayton,,,"Jan 31, 2025","Adult Stress, Adult Transthoracic",,,,,,,,,,,,,,,,,,,,
346,347,UNC North Carolina Heart and Vascular Lillington,35.399687,-78.815806,granted,701 S. Main Street,,Lillington,NC,27546,USA,,Rexhealth.com,,echo,,UNC North Carolina Heart and Vascular Lillington Lillington,,,"Jan 31, 2025","Adult Stress, Adult Transthoracic",,,,,,,,,,,,,,,,,,,,
347,348,UNC North Carolina Heart and Vascular Louisburg,36.096133,-78.292643,granted,500 Redwood Lane,,Louisburg,NC,27549,USA,,,,echo,www.google.com/search?q=UNC+North+Carolina+Heart+and+Vascular+Louisburg,UNC North Carolina Heart and Vascular Louisburg Louisburg,,,"Jan 31, 2025","Adult Stress, Adult Transthoracic",,,,,,,,,,,,,,,,,,,,
348,349,"UNC North Carolina Heart and Vascular, Garner",35.685439,-78.576126,granted,300 Health Park Drive,Suite 200,Garner,NC,27529,USA,,,,echo,"www.google.com/search?q=UNC+North+Carolina+Heart+and+Vascular,+Garner","UNC North Carolina Heart and Vascular, Garner Garner",,,"Jan 31, 2025","Adult Stress, Adult Transthoracic",,,,,,,,,,,,,,,,,,,,
349,350,"UNC North Carolina Heart and Vascular, Goldsboro",35.401342,-77.954304,granted,2609 Medical Office Place,,Goldsboro,NC,27534,USA,,,,echo,"www.google.com/search?q=UNC+North+Carolina+Heart+and+Vascular,+Goldsboro","UNC North Carolina Heart and Vascular, Goldsboro Goldsboro",,,"Jan 31, 2025",Adult Transthoracic,,,,,,,,,,,,,,,,,,,,
350,351,"UNC North Carolina Heart and Vascular, Knightdale",35.799101,-78.495846,granted,6905 Knightdale Boulevard,,Knightdale,NC,27545,USA,,,,echo,"www.google.com/search?q=UNC+North+Carolina+Heart+and+Vascular,+Knightdale","UNC North Carolina Heart and Vascular, Knightdale Knightdale",,,"Jan 31, 2025","Adult Stress, Adult Transthoracic",,,,,,,,,,,,,,,,,,,,
351,352,"UNC North Carolina Heart and Vascular, Wilson",35.716347,-77.952248,granted,2605 Forest Hills Road SW,,Wilson,NC,27893,USA,,,,echo,"www.google.com/search?q=UNC+North+Carolina+Heart+and+Vascular,+Wilson","UNC North Carolina Heart and Vascular, Wilson Wilson",,,"Jan 31, 2025","Adult Stress, Adult Transthoracic",,,,,,,,,,,,,,,,,,,,
352,353,UNC Pediatric Cardiology - Cary,35.7393,-78.785523,granted,300 Asheville Avenue,Suite 307,Cary,NC,27511,USA,,pediatrics.med.unc.edu/specialties/cardiology,,pediatric_echo,,UNC Pediatric Cardiology - Cary Cary,,,,,,,,,,,"Jan 31, 2024",Pediatric Transthoracic,,,,,,,,,,,,
353,354,UNC Pediatric Cardiology - Greensboro,36.087905,-79.785924,granted,301 E. Wendover Avenue,Suite 311,Greensboro,NC,27401,USA,,pediatrics.med.unc.edu/specialties/cardiology,,pediatric_echo,,UNC Pediatric Cardiology - Greensboro Greensboro,,,,,,,,,,,"Jan 31, 2024",Pediatric Transthoracic,,,,,,,,,,,,
354,355,UNC Pediatric Cardiology - Raleigh,35.818865,-78.704979,granted,2801 Blue Ridge Road,,Raleigh,NC,27607,USA,,pediatrics.med.unc.edu/specialties/cardiology,,pediatric_echo,,UNC Pediatric Cardiology - Raleigh Raleigh,,,,,,,,,,,"Jan 31, 2024",Pediatric Transthoracic,,,,,,,,,,,,
355,356,"UNC Physicians Network Group Practices, LLC dba Boylan Healthcare",35.830937,-78.632762,multigranted,3900 Browning Place,Suite 101,Raleigh,NC,27609,USA,,www.boylanhealthcare.com,,"echo, nuclear",,"UNC Physicians Network Group Practices, LLC dba Boylan Healthcare Raleigh",,,"Jan 29, 2023",Adult Transthoracic,,,"Apr 30, 2023",Myocardial Perfusion Imaging,,,,,,,,,,,,,,,,
356,357,"UNC Physicians Network, LLC dba UNC Cardiology at Lumberton",34.635566,-79.008067,granted,2610 North Elm Street,,Lumberton,NC,28358,USA,,maarnettencrrbiz.com,,echo,,"UNC Physicians Network, LLC dba UNC Cardiology at Lumberton Lumberton",,,"Apr 30, 2025",Adult Transthoracic,,,,,,,,,,,,,,,,,,,,
357,358,UNC Rex Healthcare,35.815458,-78.705032,granted,4420 Lake Boone Trail,Room 1400,Raleigh,NC,27607,USA,,,,echo,www.google.com/search?q=UNC+Rex+Healthcare,UNC Rex Healthcare Raleigh,,,"Jan 31, 2025","Adult Stress, Adult Transesophageal, Adult Transthoracic",,,,,,,,,,,,,,,,,,,,
358,359,UNC Rex Healthcare Structural Heart,35.818827,-78.704854,granted,2800 Blue Ridge Road Suite 201,,Raleigh,NC,27607,USA,,UNC REX Healthcare,,echo,,UNC Rex Healthcare Structural Heart Raleigh,,,"Jan 31, 2025",Adult Transthoracic,,,,,,,,,,,,,,,,,,,,
359,360,"UNCH North Carolina Heart and Vascular, Cary",35.754977,-78.80992,granted,1501 SW Cary Parkway,Suite 300,Cary,NC,27511,USA,,www.rexheartvascular.com,,echo,,"UNCH North Carolina Heart and Vascular, Cary Cary",,,"Jan 31, 2025","Adult Stress, Adult Transthoracic",,,,,,,,,,,,,,,,,,,,
360,361,University of North Carolina at Chapel Hill,35.903551,-79.051894,granted,"101 Manning Drive, CB 7232",Ground Floor- Room MG 140,Chapel Hill,NC,27599,USA,,pediatrics.med.unc.edu/specialties/cardiology,,pediatric_echo,,University of North Carolina at Chapel Hill Chapel Hill,,,,,,,,,,,"Jan 31, 2024",Pediatric Transthoracic,,,,,,,,,,,,
361,362,University of North Carolina Hospitals,35.903551,-79.051894,granted,101 Manning Drive Campus Box 7600,UNC Health Care System,Chapel Hill,NC,27514,USA,,www.unchealthcare.org,,vascular,,University of North Carolina Hospitals Chapel Hill,,,,,,,,,"Jul 31, 2024","Extracranial Cerebrovascular Testing, Peripheral Arterial Testing, Peripheral Venous Testing, Visceral Vascular Testing",,,,,,,,,,,,,,
362,363,University of North Carolina Hospitals,35.876044,-79.079563,granted,101 Manning Drive,2nd floor West Wing,Chapel Hill,NC,27514,USA,,,,echo,www.google.com/search?q=University+of+North+Carolina+Hospitals,University of North Carolina Hospitals Chapel Hill,,,"Dec 31, 2023",Adult Transthoracic,,,,,,,,,,,,,,,,,,,,
363,364,"Valley Cardiology, PA",35.036593,-78.939389,granted,3656 Cape Center Dr.,,Fayetteville,NC,28304,USA,,,,nuclear,"www.google.com/search?q=Valley+Cardiology,+PA","Valley Cardiology, PA Fayetteville",,,,,,,"Mar 31, 2024","Equilibrium Radionuclide Angiography, Myocardial Perfusion Imaging",,,,,,,,,,,,,,,,
364,365,"Valley Cardiology, PA",34.66307,-79.005854,granted,210 liberty hill rd,,lumberton,NC,28358,USA,,,,nuclear,"www.google.com/search?q=Valley+Cardiology,+PA","Valley Cardiology, PA lumberton",,,,,,,"Mar 31, 2024","Equilibrium Radionuclide Angiography, Myocardial Perfusion Imaging",,,,,,,,,,,,,,,,
365,366,Vascular Solutions,35.100718,-80.778968,granted,7800 Providence Road,Suite 209,Charlotte,NC,28226,USA,,www.veinscharlotte.com,,vascular,,Vascular Solutions Charlotte,,,,,,,,,"Dec 31, 2023",Peripheral Venous Testing,,,,,,,,,,,,,,
366,367,Vein Clinics of America,33.983159,-78.370911,granted,20 Medical Campus Dr Suite 207,,Supply,NC,28462,USA,,www.veinclinics.com/clinic/shallotte-north-carolina/,,vascular,,Vein Clinics of America Supply,,,,,,,,,"Nov 30, 2023",Peripheral Venous Testing,,,,,,,,,,,,,,
367,368,Vein Clinics of America,35.589249,-80.878231,granted,"206 Joe Knox Avenue, Suite H",,Mooresville,NC,28117,USA,,www.veinclinics.com/clinic/mooresville-north-carolina/,,vascular,,Vein Clinics of America Mooresville,,,,,,,,,"Nov 30, 2023",Peripheral Venous Testing,,,,,,,,,,,,,,
368,369,Vein Clinics of America,34.237018,-77.833163,granted,"6752 Rock Spring Road, Ste 200",,Wilmington,NC,28405,USA,,www.veinclinics.com/clinic/wilmington-north-carolina/,,vascular,,Vein Clinics of America Wilmington,,,,,,,,,"Nov 30, 2023",Peripheral Venous Testing,,,,,,,,,,,,,,
369,370,Vein Clinics of America,35.760953,-78.740206,granted,232 Crossroads Blvd,,Cary,NC,27518,USA,,www.veinclinics.com/clinic/cary-north-carolina/,,vascular,,Vein Clinics of America Cary,,,,,,,,,"Nov 30, 2023",Peripheral Venous Testing,,,,,,,,,,,,,,
370,371,Vein Specialists of the Carolinas,35.057555,-80.853723,granted,15825 Ballantyne Medical Place  Suite 240,,Charlotte,NC,28277,USA,,,,vascular,www.google.com/search?q=Vein+Specialists+of+the+Carolinas,Vein Specialists of the Carolinas Charlotte,,,,,,,,,"Jan 31, 2024",Peripheral Venous Testing,,,,,,,,,,,,,,
371,372,Vein Specialists of the Carolinas,35.272903,-81.136086,granted,860 Summit Crossing Place,Ste 120,Gastonia,NC,28054,USA,,www.veinscarolina.com,,vascular,,Vein Specialists of the Carolinas Gastonia,,,,,,,,,"Jan 31, 2024",Peripheral Venous Testing,,,,,,,,,,,,,,
372,373,Vidant Cardiology,35.601085,-77.403289,granted,850 W. H. Smith Boulevard,,Greenville,NC,27834,USA,,www.vidanthealth.com/heart/,,echo,,Vidant Cardiology Greenville,,,"May 31, 2024","Adult Stress, Adult Transthoracic",,,,,,,,,,,,,,,,,,,,
373,374,Vidant Cardiology,35.601085,-77.403289,granted,850 W H Smith Blvd,,Greenville,NC,27834,USA,,,,vascular,www.google.com/search?q=Vidant+Cardiology,Vidant Cardiology Greenville,,,,,,,,,"Sep 30, 2024","Extracranial Cerebrovascular Testing, Peripheral Arterial Testing",,,,,,,,,,,,,,
374,375,Vidant Cardiology Kenansville,34.952624,-77.950721,granted,748 S. Kenansville Bypass,,Kenansville,NC,28349,USA,,,,nuclear,www.google.com/search?q=Vidant+Cardiology+Kenansville,Vidant Cardiology Kenansville Kenansville,,,,,,,"Feb 29, 2024",Myocardial Perfusion Imaging,,,,,,,,,,,,,,,,
375,376,Vidant Heart and Vascular Care,36.441849,-77.63931,multigranted,220 Smith Church Road,,Roanoke Rapids,NC,27870,USA,,,,"echo, nuclear",www.google.com/search?q=Vidant+Heart+and+Vascular+Care,Vidant Heart and Vascular Care Roanoke Rapids,,,"Aug 31, 2023",Adult Transthoracic,,,"Apr 30, 2024",Myocardial Perfusion Imaging,,,,,,,,,,,,,,,,
376,377,Vidant Heart and Vascular Care,35.601085,-77.403289,granted,850 WH Smith Boulevard,,Greenville,NC,27834,USA,,www.vidanthealth.com,,nuclear,,Vidant Heart and Vascular Care Greenville,,,,,,,"Aug 31, 2023","Equilibrium Radionuclide Angiography, Myocardial Perfusion Imaging",,,,,,,,,,,,,,,,
377,378,Vidant Medical Center,35.605475,-77.404218,multigranted,2100 Stantonsburg Road,PO Box 6028,Greenville,NC,27835,USA,,www.uheast.com,,"echo, pediatric_echo",,Vidant Medical Center Greenville,,,"Sep 30, 2023","Adult Stress, Adult Transesophageal, Adult Transthoracic",,,,,,,"Sep 30, 2023",Pediatric Transthoracic,,,,,,,,,,,,
378,379,Vidant Multispecialty Clinic - Tarboro,35.924193,-77.555365,granted,101 Clinic Drive,,Tarboro,NC,27886,USA,,,,echo,www.google.com/search?q=Vidant+Multispecialty+Clinic+-+Tarboro,Vidant Multispecialty Clinic - Tarboro Tarboro,,,"May 31, 2024",Adult Transthoracic,,,,,,,,,,,,,,,,,,,,
379,380,Vidant Multispecialty Clinic Kinston,35.290323,-77.58576,multigranted,701 Doctors Drive,Suite N,Kinston,NC,28501,USA,,,,"vascular, echo",www.google.com/search?q=Vidant+Multispecialty+Clinic+Kinston,Vidant Multispecialty Clinic Kinston Kinston,,,"Jun 30, 2024",Adult Transthoracic,,,,,"Dec 31, 2023",Extracranial Cerebrovascular Testing,,,,,,,,,,,,,,
380,381,Vidant Roanoke Chowan Hospital,36.285024,-76.994075,granted,500 South Academy Street,,Ahoskie,NC,27910,USA,,,,echo,www.google.com/search?q=Vidant+Roanoke+Chowan+Hospital,Vidant Roanoke Chowan Hospital Ahoskie,,,"Oct 31, 2023",Adult Transthoracic,,,,,,,,,,,,,,,,,,,,
381,382,Wake Forest Baptist Health,36.090002,-80.271474,granted,Medical Center Boulevard,,Winston Salem,NC,27157,USA,,wakehealth.edu,,vascular,,Wake Forest Baptist Health Winston Salem,,,,,,,,,"Apr 30, 2023","Extracranial Cerebrovascular Testing, Peripheral Arterial Testing, Peripheral Venous Testing, Visceral Vascular Testing",,,,,,,,,,,,,,
382,383,Wake Forest Baptist Health,36.090002,-80.271474,granted,Medical Center Boulevard,,Winston-Salem,NC,27157,USA,,,,pediatric_echo,www.google.com/search?q=Wake+Forest+Baptist+Health,Wake Forest Baptist Health Winston-Salem,,,"Nov 30, 2023","Adult Stress, Adult Transesophageal, Adult Transthoracic",,,,,,,"Dec 31, 2022","Pediatric Transthoracic, Fetal",,,,,,,,,,,,
383,384,Wake Forest Baptist Health,36.079225,-80.3332,granted,4610 Country Club Road,,Winston Salem,NC,27104,USA,,,,echo,www.google.com/search?q=Wake+Forest+Baptist+Health,Wake Forest Baptist Health Winston Salem,,,"Nov 30, 2023","Adult Stress, Adult Transthoracic",,,,,,,,,,,,,,,,,,,,
384,385,Wake Forest Baptist Health Heart and Vascular Asheboro,35.714571,-79.807487,granted,311 East Presnell Street,,Asheboro,NC,27203,USA,,,,echo,www.google.com/search?q=Wake+Forest+Baptist+Health+Heart+and+Vascular+Asheboro,Wake Forest Baptist Health Heart and Vascular Asheboro Asheboro,,,"Apr 30, 2024","Adult Stress, Adult Transthoracic",,,,,,,,,,,,,,,,,,,,
385,386,Wake Forest Baptist Health High Point Medical Center,35.959956,-80.014267,granted,306 Westwood Avenue,Suite 401,High Point,NC,27262,USA,,wakehealth.edu,,vascular,,Wake Forest Baptist Health High Point Medical Center High Point,,,,,,,,,"Apr 30, 2023","Extracranial Cerebrovascular Testing, Peripheral Arterial Testing, Peripheral Venous Testing, Visceral Vascular Testing",,,,,,,,,,,,,,
386,387,Wake Forest Baptist Health High Point Medical Center,35.962476,-80.012027,granted,601 North Elm Street,,High Point,NC,27261,USA,,www.wakehealth.edu,,vascular,,Wake Forest Baptist Health High Point Medical Center High Point,,,,,,,,,"Feb 29, 2024","Extracranial Cerebrovascular Testing, Peripheral Arterial Testing, Peripheral Venous Testing",,,,,,,,,,,,,,
387,388,Wake Forest Baptist Health-Lexington Medical Center,35.802754,-80.287224,granted,250 Hospital Drive,,Lexington,NC,27293,USA,,lexingtonmemorial.com,,echo,,Wake Forest Baptist Health-Lexington Medical Center Lexington,,,"Dec 31, 2023","Adult Stress, Adult Transthoracic",,,,,,,,,,,,,,,,,,,,
388,389,Wake Forest Heart and Vascular of Asheboro,35.714836,-79.817376,granted,311 Presnell Street,,Asheboro,NC,27203,USA,,,,nuclear,www.google.com/search?q=Wake+Forest+Heart+and+Vascular+of+Asheboro,Wake Forest Heart and Vascular of Asheboro Asheboro,,,,,,,"Jan 31, 2024",Myocardial Perfusion Imaging,,,,,,,,,,,,,,,,
389,390,"Wake Internal Medicine Consultants, Inc.",35.821447,-78.704109,granted,3100 Blue Ridge Road,Suite 300,Raleigh,NC,27612,USA,,www.wakeinternalmedicine.com,,echo,,"Wake Internal Medicine Consultants, Inc. Raleigh",,,"Dec 30, 2022","Adult Stress, Adult Transthoracic",,,,,,,,,,,,,,,,,,,,
390,391,"Wake Internal Medicine Consultants, Inc.",35.821447,-78.704109,granted,3100 Blue Ridge Road,,Raleigh,NC,27612,USA,,,,nuclear,"www.google.com/search?q=Wake+Internal+Medicine+Consultants,+Inc.","Wake Internal Medicine Consultants, Inc. Raleigh",,,,,,,"May 31, 2023",Myocardial Perfusion Imaging,,,,,,,,,,,,,,,,
391,392,WakeMed,35.786057,-78.589155,multigranted,3000 New Bern Avenue,,Raleigh,NC,27610,USA,,,,"vascular, echo",www.google.com/search?q=WakeMed,WakeMed Raleigh,,,"Jun 30, 2024","Adult Stress, Adult Transesophageal, Adult Transthoracic",,,,,"Oct 30, 2022","Extracranial Cerebrovascular Testing, Peripheral Arterial Testing, Peripheral Venous Testing, Visceral Vascular Testing",,,,,,,,,,,,,,
392,393,WakeMed Cary Hospital,35.740936,-78.780053,granted,1900 Kildaire Farm Road,,Cary,NC,27518,USA,,,,vascular,www.google.com/search?q=WakeMed+Cary+Hospital,WakeMed Cary Hospital Cary,,,,,,,,,"Mar 31, 2025","Extracranial Cerebrovascular Testing, Peripheral Venous Testing",,,,,,,,,,,,,,
393,394,WakeMed Cary Hospital,35.740188,-78.779918,granted,1900 Kildaire Farm Road,,Cary,NC,27518,USA,,,,echo,www.google.com/search?q=WakeMed+Cary+Hospital,WakeMed Cary Hospital Cary,,,"Jun 30, 2024",Adult Transthoracic,,,,,,,,,,,,,,,,,,,,
394,395,WakeMed Heart and Vascular Cardiology,35.91865,-78.783748,granted,8001 T.W. Alexander Drive,Suite 220,Raleigh,NC,27617,USA,,,,vascular,www.google.com/search?q=WakeMed+Heart+and+Vascular+Cardiology,WakeMed Heart and Vascular Cardiology Raleigh,,,,,,,,,"Jan 31, 2024","Extracranial Cerebrovascular Testing, Peripheral Arterial Testing",,,,,,,,,,,,,,
395,396,WakeMed Heart and Vascular Physician Cardiology,35.739147,-78.86895,granted,120 Healthplex Way,,Suite 210,NC,27502,USA,,WakeMed.org,,echo,,WakeMed Heart and Vascular Physician Cardiology Suite 210,,,"Jun 30, 2024",Adult Transthoracic,,,,,,,,,,,,,,,,,,,,
396,397,WakeMed Heart and Vascular Physicians,35.739147,-78.86895,granted,120 Healthplex Way,Suite 210,Apex,NC,27502,USA,,,,vascular,www.google.com/search?q=WakeMed+Heart+and+Vascular+Physicians,WakeMed Heart and Vascular Physicians Apex,,,,,,,,,"Jan 31, 2024","Extracranial Cerebrovascular Testing, Peripheral Arterial Testing",,,,,,,,,,,,,,
397,398,WakeMed Heart and Vascular Physicians Cardilogy,35.628523,-78.505712,granted,"166 Springbrook Ave., Suite 205",,Clayton,NC,27520,USA,,,,vascular,www.google.com/search?q=WakeMed+Heart+and+Vascular+Physicians+Cardilogy,WakeMed Heart and Vascular Physicians Cardilogy Clayton,,,,,,,,,"Jan 31, 2024","Extracranial Cerebrovascular Testing, Peripheral Arterial Testing",,,,,,,,,,,,,,
398,399,WakeMed Heart and Vascular Physicians Cardilogy,35.628938,-78.506149,granted,"166 Springbrook Ave., Suite 205",,Clayton,NC,27520,USA,,,,echo,www.google.com/search?q=WakeMed+Heart+and+Vascular+Physicians+Cardilogy,WakeMed Heart and Vascular Physicians Cardilogy Clayton,,,"Jun 30, 2024","Adult Stress, Adult Transthoracic",,,,,,,,,,,,,,,,,,,,
399,400,WakeMed Heart and Vascular Physicians Cardiology,35.826226,-78.633826,granted,3324 Six Forks Road,,Raleigh,NC,27609,USA,,,,vascular,www.google.com/search?q=WakeMed+Heart+and+Vascular+Physicians+Cardiology,WakeMed Heart and Vascular Physicians Cardiology Raleigh,,,,,,,,,"Jan 31, 2024","Extracranial Cerebrovascular Testing, Peripheral Arterial Testing",,,,,,,,,,,,,,
400,401,WakeMed Heart and Vascular Physicians Cardiology,35.826226,-78.633826,granted,3324 Six Forks Road,,Raleigh,NC,27609,USA,,,,echo,www.google.com/search?q=WakeMed+Heart+and+Vascular+Physicians+Cardiology,WakeMed Heart and Vascular Physicians Cardiology Raleigh,,,"Jun 30, 2024","Adult Stress, Adult Transthoracic",,,,,,,,,,,,,,,,,,,,
401,402,WakeMed Heart and Vascular Physicians Cardiology,35.786139,-78.589067,granted,3000 New Bern Avenue  Suite G100,,Raleigh,NC,27610,USA,,,,echo,www.google.com/search?q=WakeMed+Heart+and+Vascular+Physicians+Cardiology,WakeMed Heart and Vascular Physicians Cardiology Raleigh,,,"Jun 30, 2024","Adult Stress, Adult Transthoracic",,,,,,,,,,,,,,,,,,,,
402,403,WakeMed Heart and Vascular Physicians Cardiology,35.918574,-78.783907,granted,8001 T.W. Alexander Drive,,Raleigh,NC,77617,USA,,,,echo,www.google.com/search?q=WakeMed+Heart+and+Vascular+Physicians+Cardiology,WakeMed Heart and Vascular Physicians Cardiology Raleigh,,,"Jun 30, 2024",Adult Transthoracic,,,,,,,,,,,,,,,,,,,,
403,404,WakeMed Heart and Vascular Physicians Cardiology,35.740886,-78.77599,granted,210 Ashville Ave,First floor,Cary,NC,27518,USA,,,,echo,www.google.com/search?q=WakeMed+Heart+and+Vascular+Physicians+Cardiology,WakeMed Heart and Vascular Physicians Cardiology Cary,,,"Jun 30, 2024","Adult Stress, Adult Transthoracic",,,,,,,,,,,,,,,,,,,,
404,405,WakeMed Heart and Vascular Physicians Cardiology,35.909199,-78.599548,granted,"10010 Falls of Neuse Rd., Suite 307",,Raleigh,NC,27614,USA,,,,vascular,www.google.com/search?q=WakeMed+Heart+and+Vascular+Physicians+Cardiology,WakeMed Heart and Vascular Physicians Cardiology Raleigh,,,,,,,,,"Jan 31, 2024","Extracranial Cerebrovascular Testing, Peripheral Arterial Testing",,,,,,,,,,,,,,
405,406,WakeMed Heart and Vascular Physicians Cardiology,35.90972,-78.599004,granted,"10010 Falls of Neuse Rd., Suite 307",,Raleigh,NC,27614,USA,,,,echo,www.google.com/search?q=WakeMed+Heart+and+Vascular+Physicians+Cardiology,WakeMed Heart and Vascular Physicians Cardiology Raleigh,,,"Jun 30, 2024","Adult Stress, Adult Transthoracic",,,,,,,,,,,,,,,,,,,,
406,407,WakeMed Heart and Vascular Physicians Cardiology,35.699695,-78.595278,granted,400 US Hwy 70 East,Suite200,Garner,NC,27529,USA,,,,vascular,www.google.com/search?q=WakeMed+Heart+and+Vascular+Physicians+Cardiology,WakeMed Heart and Vascular Physicians Cardiology Garner,,,,,,,,,"Jan 31, 2024","Extracranial Cerebrovascular Testing, Peripheral Arterial Testing",,,,,,,,,,,,,,
407,408,WakeMed Heart and Vascular Physicians Cardiology,35.69853,-78.59571,granted,400 US Hwy 70 East,Suite200,Garner,NC,27529,USA,,,,echo,www.google.com/search?q=WakeMed+Heart+and+Vascular+Physicians+Cardiology,WakeMed Heart and Vascular Physicians Cardiology Garner,,,"Jun 30, 2024","Adult Stress, Adult Transthoracic",,,,,,,,,,,,,,,,,,,,
408,409,Watauga Medical Center,36.198753,-81.652423,granted,336 Deerfield Road,,Boone,NC,28607,USA,,,,echo,www.google.com/search?q=Watauga+Medical+Center,Watauga Medical Center Boone,,,"Apr 30, 2025",Adult Transthoracic,,,,,,,,,,,,,,,,,,,,
409,410,Wesley Long Community Hospital,36.082903,-79.825152,granted,501 N. Elam Ave.,,Greensboro,NC,27403,USA,,,,echo,www.google.com/search?q=Wesley+Long+Community+Hospital,Wesley Long Community Hospital Greensboro,,,"Jun 30, 2024",Adult Transthoracic,,,,,,,,,,,,,,,,,,,,
410,411,Wesley Long Hospital,36.082903,-79.825152,granted,501 North Elam Avenue,,Greensboro,NC,27403,USA,,,,vascular,www.google.com/search?q=Wesley+Long+Hospital,Wesley Long Hospital Greensboro,,,,,,,,,"Apr 30, 2025","Extracranial Cerebrovascular Testing, Peripheral Arterial Testing, Peripheral Venous Testing",,,,,,,,,,,,,,
411,412,Western Carolina Cardiology,35.527162,-82.940673,granted,19 Physician Drive,,Clyde,NC,28721,USA,,www.wccards.org,,echo,,Western Carolina Cardiology Clyde,,,"Jul 31, 2024","Adult Stress, Adult Transthoracic",,,,,,,,,,,,,,,,,,,,
412,413,"Western Carolina Cardiology, a Department of Haywood Regional Medical Center",35.526919,-82.940676,granted,32 Physician Drive,,Clyde,NC,28721,USA,,,,nuclear,"www.google.com/search?q=Western+Carolina+Cardiology,+a+Department+of+Haywood+Regional+Medical+Center","Western Carolina Cardiology, a Department of Haywood Regional Medical Center Clyde",,,,,,,"Oct 31, 2023","Equilibrium Radionuclide Angiography, Myocardial Perfusion Imaging",,,,,,,,,,,,,,,,
413,414,Weston Medsurg Center,35.147727,-80.92914,granted,2540 W. Arrowood Rd.,100,Charlotte,NC,28273,USA,,,,vascular,www.google.com/search?q=Weston+Medsurg+Center,Weston Medsurg Center Charlotte,,,,,,,,,"Jun 30, 2025","Peripheral Arterial Testing, Peripheral Venous Testing",,,,,,,,,,,,,,
414,415,Weston Medsurg Center,35.199284,-81.157535,granted,1105 Spruce St  Suite100,,Belmont,NC,28012,USA,,,,vascular,www.google.com/search?q=Weston+Medsurg+Center,Weston Medsurg Center Belmont,,,,,,,,,"Jun 30, 2025","Peripheral Arterial Testing, Peripheral Venous Testing",,,,,,,,,,,,,,
415,416,WFBH Heart and Vascular High Point,35.960967,-80.012608,granted,306 Westwood Avenue,,High Point,NC,27262,USA,,cornerstonehealth.com,,echo,,WFBH Heart and Vascular High Point High Point,,,"Apr 30, 2024","Adult Stress, Adult Transthoracic",,,,,,,,,,,,,,,,,,,,
416,417,"Wilmington Ear and Nose and Throat Associates, P.A.",34.201312,-77.921302,granted,2311 Delaney Avenue,,Wilmington,NC,28403,USA,,,,ct,"www.google.com/search?q=Wilmington+Ear+and+Nose+and+Throat+Associates,+P.A.","Wilmington Ear and Nose and Throat Associates, P.A. Wilmington","Feb 28, 2023",Maxillofacial CT,,,,,,,,,,,,,,,,,,,,,,
417,418,Wilmington Health,34.202496,-77.929419,granted,1202 Medical Center Drive,,Wilmington,NC,28401,USA,,www.wilmingtonhealth.com,,nuclear,,Wilmington Health Wilmington,,,,,,,"May 31, 2023","Equilibrium Radionuclide Angiography, Myocardial Perfusion Imaging",,,,,,,,,,,,,,,,
418,419,Wilmington Health Porters Neck,34.294781,-77.795591,granted,8090 Market Street,,Wilmington,NC,28411,,,,,ct,www.google.com/search?q=Wilmington+Health+Porters+Neck,Wilmington Health Porters Neck Wilmington,"Jan 31, 2024","Body CT, Neurological CT, Vascular CTA, Coronary Calcium Scoring, Maxillofacial CT",,,,,,,,,,,,,,,,,,,,,,
419,420,"Wilmington Health, PLLC",34.202496,-77.929419,multigranted,1202 Medical Center Drive,,Wilmington,NC,28401,USA,,wilmingtonhealth.com,,"ct, mr",,"Wilmington Health, PLLC Wilmington","Jan 31, 2024","Body CT, Coronary CTA, Neurological CT, Vascular CTA, Coronary Calcium Scoring, Maxillofacial CT",,,"Feb 29, 2024","Body MRI, Cardiovascular MRI, Musculoskeletal MRI, Neurological MRI, Breast MRI, MRA",,,,,,,,,,,,,,,,,,
420,421,"Wilmington Health, PLLC",34.202496,-77.929419,granted,1202 Medical Center Drive,3RD Floor,Wilmington,NC,28401,USA,,,,echo,"www.google.com/search?q=Wilmington+Health,+PLLC","Wilmington Health, PLLC Wilmington",,,"Jul 31, 2024",Adult Transthoracic,,,,,,,,,,,,,,,,,,,,
421,422,Wilmington Health-Porters Neck,34.29632,-77.794039,granted,8090 Market Street,,Wilmington,NC,28411,USA,,,,mr,www.google.com/search?q=Wilmington+Health-Porters+Neck,Wilmington Health-Porters Neck Wilmington,,,,,"Feb 29, 2024","Body MRI, Cardiovascular MRI, Musculoskeletal MRI, Neurological MRI, Breast MRI, MRA",,,,,,,,,,,,,,,,,,
422,423,Wilmington Vascular Center,34.204229,-77.926512,granted,1414 Medical Center Drive,,Wilmington,NC,28401,USA,,,,vascular,www.google.com/search?q=Wilmington+Vascular+Center,Wilmington Vascular Center Wilmington,,,,,,,,,"Apr 30, 2025","Extracranial Cerebrovascular Testing, Peripheral Arterial Testing, Peripheral Venous Testing",,,,,,,,,,,,,,
