,id,name,lat,lng,category,address,address2,city,state,postal,country,phone,web,features,modalities,searchGoogle,search,ct,ct_areas,echo,echo_areas,mr,mr_areas,nuclear,nuclear_areas,vascular,vascular_areas,pediatric_echo,pediatric_echo_areas,ct-dental,ct-dental_areas,stenting,stenting_areas,vein_center,vein_center_areas,cardiac_electrophysiology,cardiac_electrophysiology_areas,cardiovascular_catheterization,cardiovascular_catheterization_areas,jrcdms,jrcdms_areas
0,1,Adena Greenfield Medical Center,39.349351,-83.387839,multigranted,550 Mirabeau Street,,Greenfield,OH,45123,USA,,,,"echo, vascular, nuclear",www.google.com/search?q=Adena+Greenfield+Medical+Center,Adena Greenfield Medical Center Greenfield,,,"Aug 31, 2023",Adult Transthoracic,,,"Feb 28, 2025",Myocardial Perfusion Imaging,"Jul 31, 2024","Extracranial Cerebrovascular Testing, Peripheral Arterial Testing, Peripheral Venous Testing",,,,,,,,,,,,,,
1,2,Adena Health Center Jackson,39.032939,-82.618688,multigranted,1000 Veterans Drive,,Jackson,OH,45640,USA,,adena.org,,"echo, vascular, nuclear",,Adena Health Center Jackson Jackson,,,"Aug 31, 2023",Adult Transthoracic,,,"Feb 28, 2025",Myocardial Perfusion Imaging,"Jul 31, 2024","Extracranial Cerebrovascular Testing, Peripheral Arterial Testing, Peripheral Venous Testing",,,,,,,,,,,,,,
2,3,Adena Health Center Waverly,39.117785,-82.997966,multigranted,12340 State Route 104,,Waverly,OH,45690,USA,,adena.org,,"echo, vascular, nuclear",,Adena Health Center Waverly Waverly,,,"Aug 31, 2023",Adult Transthoracic,,,"Feb 28, 2025",Myocardial Perfusion Imaging,"Jul 31, 2024","Extracranial Cerebrovascular Testing, Peripheral Arterial Testing, Peripheral Venous Testing",,,,,,,,,,,,,,
3,4,Adena Health System Chillicothe,39.39458,-82.969767,multigranted,272 Hospital Road,,Chillicothe,OH,45601,USA,,www.adena.org,,"echo, vascular, nuclear",,Adena Health System Chillicothe Chillicothe,,,"Aug 31, 2023",Adult Transthoracic,,,"Feb 28, 2025",Myocardial Perfusion Imaging,"Jul 31, 2024","Extracranial Cerebrovascular Testing, Peripheral Arterial Testing, Peripheral Venous Testing",,,,,,,,,,,,,,
4,5,Adena Health System Western Avenue,39.331683,-83.016128,multigranted,55 Centennial Blvd.,,Chillicothe,OH,45601,USA,,,,"echo, vascular",www.google.com/search?q=Adena+Health+System+Western+Avenue,Adena Health System Western Avenue Chillicothe,,,"Aug 31, 2023",Adult Transthoracic,,,,,"Jul 31, 2024","Extracranial Cerebrovascular Testing, Peripheral Arterial Testing, Peripheral Venous Testing",,,,,,,,,,,,,,
5,6,Adena Pike Medical Center,39.117279,-83.006369,multigranted,100 Dawn Lane,,Waverly,OH,45690,USA,,,,"echo, vascular",www.google.com/search?q=Adena+Pike+Medical+Center,Adena Pike Medical Center Waverly,,,"Aug 31, 2023",Adult Transthoracic,,,,,"Jul 31, 2024","Extracranial Cerebrovascular Testing, Peripheral Venous Testing",,,,,,,,,,,,,,
6,7,Advanced Cardiovascular Care,39.563984,-84.232212,granted,325 North Main Street Suite 206,,Springboro,OH,45065,USA,,www.micmos.com,,nuclear,,Advanced Cardiovascular Care Springboro,,,,,,,"Oct 31, 2023",Myocardial Perfusion Imaging,,,,,,,,,,,,,,,,
7,8,"Advanced Cardiovascular Consultants, Inc.",41.878871,-80.753433,granted,3315 N. Ridge Rd East,Suite 600,Ashtabula,OH,44004,USA,,,,vascular,"www.google.com/search?q=Advanced+Cardiovascular+Consultants,+Inc.","Advanced Cardiovascular Consultants, Inc. Ashtabula",,,,,,,,,"Feb 29, 2024",Extracranial Cerebrovascular Testing,,,,,,,,,,,,,,
8,9,"Advanced Cardiovascular Consultants, Inc.",41.589303,-81.22142,granted,531 Fifth Avenue,,Chardon,OH,44024,USA,,,,echo,"www.google.com/search?q=Advanced+Cardiovascular+Consultants,+Inc.","Advanced Cardiovascular Consultants, Inc. Chardon",,,"Dec 30, 2022",Adult Transthoracic,,,,,,,,,,,,,,,,,,,,
9,10,"Advanced Cardiovascular Consultants, Inc.",41.589303,-81.22142,granted,531 fifth Avenue,,Chardon,OH,44024,USA,,,,vascular,"www.google.com/search?q=Advanced+Cardiovascular+Consultants,+Inc.","Advanced Cardiovascular Consultants, Inc. Chardon",,,,,,,,,"Feb 29, 2024",Extracranial Cerebrovascular Testing,,,,,,,,,,,,,,
10,11,"Advanced Cardiovascular Consultants, Inc.",41.88289,-80.799456,granted,3315 North Ridge East,Suite 600,Ashtabula,OH,44004,USA,,,,echo,"www.google.com/search?q=Advanced+Cardiovascular+Consultants,+Inc.","Advanced Cardiovascular Consultants, Inc. Ashtabula",,,"Dec 30, 2022",Adult Transthoracic,,,,,,,,,,,,,,,,,,,,
11,12,Akron Children’s Hospital Mahoning Valley,41.029452,-80.66571,granted,6505 Market Street,Building A,Boardman,OH,44512,USA,,www.akronchildrens.org,,pediatric_echo,,Akron Children’s Hospital Mahoning Valley Boardman,,,,,,,,,,,"Apr 30, 2024","Pediatric Transthoracic, Fetal",,,,,,,,,,,,
12,13,Akron Children’s Hospital North Canton,40.869552,-81.422239,granted,6076 Whipple Avenue NW,,North Canton,OH,44720,USA,,,,pediatric_echo,www.google.com/search?q=Akron+Children’s+Hospital+North+Canton,Akron Children’s Hospital North Canton North Canton,,,,,,,,,,,"Apr 30, 2024","Pediatric Transthoracic, Fetal",,,,,,,,,,,,
13,14,"American Diagnostics Services, Inc. - Midwest",40.091561,-82.998281,granted,6185 Huntley Road,Suite Q,Columbus,OH,43229,USA,,,,echo,"www.google.com/search?q=American+Diagnostics+Services,+Inc.+-+Midwest","American Diagnostics Services, Inc. - Midwest Columbus",,,"May 31, 2024",Adult Transthoracic,,,,,,,,,,,,,,,,,,,,
14,15,Arrowsprings CardioVascular,39.395998,-84.208227,granted,100 Arrowsprings Blvd,,Lebanon,OH,45036,USA,,,,echo,www.google.com/search?q=Arrowsprings+CardioVascular,Arrowsprings CardioVascular Lebanon,,,"Mar 31, 2025","Adult Stress, Adult Transthoracic",,,,,,,,,,,,,,,,,,,,
15,16,Ashtabula Medical Center,41.880148,-80.795673,granted,2420 Lake Avenue,Room 101,Ashtabula,OH,44004,USA,,,,pediatric_echo,www.google.com/search?q=Ashtabula+Medical+Center,Ashtabula Medical Center Ashtabula,,,,,,,,,,,"Aug 31, 2023",Pediatric Transthoracic,,,,,,,,,,,,
16,17,Atrium Health Center,39.480174,-84.48975,granted,3590 Busenbark Rd,,Trenton,OH,45067,USA,,,,echo,www.google.com/search?q=Atrium+Health+Center,Atrium Health Center Trenton,,,"Sep 30, 2022",Adult Transthoracic,,,,,,,,,,,,,,,,,,,,
17,18,Atrium Medical Center,39.49844,-84.315485,granted,One Medical Center Drive,,Middletown,OH,45005,USA,,,,echo,www.google.com/search?q=Atrium+Medical+Center,Atrium Medical Center Middletown,,,"Sep 30, 2022",Adult Transthoracic,,,,,,,,,,,,,,,,,,,,
18,19,Aultman Deuble Heart and Vascular Hospital DBA Cardiovascular Consultants,40.516426,-81.455712,granted,400 Medical Park Drive,Suite 101,Dover,OH,44622,USA,,,,echo,www.google.com/search?q=Aultman+Deuble+Heart+and+Vascular+Hospital+DBA+Cardiovascular+Consultants,Aultman Deuble Heart and Vascular Hospital DBA Cardiovascular Consultants Dover,,,"Oct 31, 2022",Adult Transthoracic,,,,,,,,,,,,,,,,,,,,
19,20,Aultman Deuble Heart and Vascular Hospital DBA Cardiovascular Consultants,40.821769,-81.503035,granted,2037 Wales Road NW,Suite 120,Massillon,OH,44646,USA,,,,nuclear,www.google.com/search?q=Aultman+Deuble+Heart+and+Vascular+Hospital+DBA+Cardiovascular+Consultants,Aultman Deuble Heart and Vascular Hospital DBA Cardiovascular Consultants Massillon,,,,,,,"Jan 31, 2024","Equilibrium Radionuclide Angiography, Myocardial Perfusion Imaging",,,,,,,,,,,,,,,,
20,21,Aultman Deuble Heart and Vascular Hospital DBA Cardiovascular Consultants,40.516426,-81.455712,granted,400 Medical Park Drive,Suite 101,Dover,OH,44622,USA,,,,nuclear,www.google.com/search?q=Aultman+Deuble+Heart+and+Vascular+Hospital+DBA+Cardiovascular+Consultants,Aultman Deuble Heart and Vascular Hospital DBA Cardiovascular Consultants Dover,,,,,,,"Jan 31, 2024","Equilibrium Radionuclide Angiography, Myocardial Perfusion Imaging",,,,,,,,,,,,,,,,
21,22,Aultman Hospital,40.804498,-81.403071,granted,2600 6th St NW,,Canton,OH,44710,USA,,,,echo,www.google.com/search?q=Aultman+Hospital,Aultman Hospital Canton,,,"Nov 29, 2022","Adult Transesophageal, Adult Transthoracic",,,,,,,,,,,,,,,,,,,,
22,23,Aultman Hospital,40.796852,-81.403575,granted,2600 6th Street South West,,Canton,OH,44710,USA,,www.aultman.org/ourservices/Additional-Aultman-Programs-and-Services/additionalprogramsandser,,vascular,,Aultman Hospital Canton,,,,,,,,,"Nov 29, 2022","Extracranial Cerebrovascular Testing, Peripheral Arterial Testing, Peripheral Venous Testing, Visceral Vascular Testing",,,,,,,,,,,,,,
23,24,Aultman Orrville Hospital,40.831714,-81.764592,multigranted,832 South Main Street,,Orrville,OH,44667,USA,,,,"echo, vascular",www.google.com/search?q=Aultman+Orrville+Hospital,Aultman Orrville Hospital Orrville,,,"Feb 28, 2025",Adult Transthoracic,,,,,"Feb 28, 2025","Extracranial Cerebrovascular Testing, Peripheral Venous Testing",,,,,,,,,,,,,,
24,25,Aultman Woodlawn,40.830848,-81.434014,granted,2821 Woodlawn Ave NW,,Canton,OH,44708,USA,,,,vascular,www.google.com/search?q=Aultman+Woodlawn,Aultman Woodlawn Canton,,,,,,,,,"Nov 29, 2022",Peripheral Venous Testing,,,,,,,,,,,,,,
25,26,Avita Health System,40.772408,-82.59326,granted,715 Richland Mall,,Mansfield,OH,44906,USA,,,,echo,www.google.com/search?q=Avita+Health+System,Avita Health System Mansfield,,,"Apr 30, 2024",Adult Transthoracic,,,,,,,,,,,,,,,,,,,,
26,27,Avita Health System,40.731143,-82.803296,granted,269 Portland Way S,,Galion,OH,44833,USA,,,,echo,www.google.com/search?q=Avita+Health+System,Avita Health System Galion,,,"Apr 30, 2024",Adult Transthoracic,,,,,,,,,,,,,,,,,,,,
27,28,Avita Health System,40.815698,-82.975604,granted,629 N Sandusky Ave,,Bucyrus,OH,44820,USA,,,,echo,www.google.com/search?q=Avita+Health+System,Avita Health System Bucyrus,,,"Apr 30, 2024",Adult Transthoracic,,,,,,,,,,,,,,,,,,,,
28,29,Avon Hospital at Richard E Jacobs Campus,41.468423,-81.982086,granted,33300 Cleveland Clinic Blvd,Cardiovascular Imaging,Avon,OH,44011,USA,,,,echo,www.google.com/search?q=Avon+Hospital+at+Richard+E+Jacobs+Campus,Avon Hospital at Richard E Jacobs Campus Avon,,,"Apr 30, 2024",Adult Transthoracic,,,,,,,,,,,,,,,,,,,,
29,30,Avon Hospital Vascular Laboratory,41.468423,-81.982086,granted,33300 Cleveland Clinic Blvd.,,Avon,OH,44011,USA,,,,vascular,www.google.com/search?q=Avon+Hospital+Vascular+Laboratory,Avon Hospital Vascular Laboratory Avon,,,,,,,,,"Apr 30, 2024","Extracranial Cerebrovascular Testing, Peripheral Arterial Testing, Peripheral Venous Testing, Visceral Vascular Testing",,,,,,,,,,,,,,
30,31,Avon- Richard E. Jacob Health Center,41.465855,-82.02957,granted,33100 Cleveland Clinic Boulevard,,Avon,OH,44011,USA,,,,echo,www.google.com/search?q=Avon-+Richard+E.+Jacob+Health+Center,Avon- Richard E. Jacob Health Center Avon,,,"Apr 30, 2024","Adult Stress, Adult Transthoracic",,,,,,,,,,,,,,,,,,,,
31,32,Belpre Medical Campus,39.283024,-81.610793,granted,807 Farson Street,,Belpre,OH,45714,USA,,www.mmhospital.org/,,vascular,,Belpre Medical Campus Belpre,,,,,,,,,"Jan 31, 2025","Extracranial Cerebrovascular Testing, Peripheral Arterial Testing, Peripheral Venous Testing",,,,,,,,,,,,,,
32,33,Bethesda Butler County,39.379069,-84.514958,granted,3125 Hamilton Mason Rd.,,Hamilton,OH,45011,USA,,,,vascular,www.google.com/search?q=Bethesda+Butler+County,Bethesda Butler County Hamilton,,,,,,,,,"Feb 28, 2025","Extracranial Cerebrovascular Testing, Peripheral Arterial Testing, Peripheral Venous Testing",,,,,,,,,,,,,,
33,34,Bethesda Cardiac Testing - Thomas Center,39.25132,-84.344191,granted,10506A Montgomery Road,,Cincinnati,OH,45242,USA,,,,vascular,www.google.com/search?q=Bethesda+Cardiac+Testing+-+Thomas+Center,Bethesda Cardiac Testing - Thomas Center Cincinnati,,,,,,,,,"Feb 28, 2025","Extracranial Cerebrovascular Testing, Peripheral Arterial Testing, Peripheral Venous Testing",,,,,,,,,,,,,,
34,35,Bethesda Cardiac Testing-Thomas Center,39.25132,-84.344191,granted,10506A Montgomery Road,,Cincinnati,OH,45242,USA,,,,nuclear,www.google.com/search?q=Bethesda+Cardiac+Testing-Thomas+Center,Bethesda Cardiac Testing-Thomas Center Cincinnati,,,,,,,"Aug 31, 2024",Myocardial Perfusion Imaging,,,,,,,,,,,,,,,,
35,36,Bethesda Cardiovascular Testing Kenwood,39.206185,-84.371228,granted,8240 Northcreek Dr.,Suite 4200,Cincinnati,OH,45236,USA,,,,vascular,www.google.com/search?q=Bethesda+Cardiovascular+Testing+Kenwood,Bethesda Cardiovascular Testing Kenwood Cincinnati,,,,,,,,,"Feb 28, 2025","Extracranial Cerebrovascular Testing, Peripheral Arterial Testing, Peripheral Venous Testing",,,,,,,,,,,,,,
36,37,Bethesda Kenwood Cardiovascular Testing,39.206185,-84.371228,granted,8240 Northcreek Dr.,Suite #4200,Cincinnati,OH,45236,USA,,,,echo,www.google.com/search?q=Bethesda+Kenwood+Cardiovascular+Testing,Bethesda Kenwood Cardiovascular Testing Cincinnati,,,"Mar 31, 2025","Adult Stress, Adult Transthoracic",,,,,,,,,,,,,,,,,,,,
37,38,Bethesda Medical Center Arrow Springs,39.395998,-84.208227,granted,100 Arrow Springs Boulevard,,Lebanon,OH,45036,USA,,,,vascular,www.google.com/search?q=Bethesda+Medical+Center+Arrow+Springs,Bethesda Medical Center Arrow Springs Lebanon,,,,,,,,,"Feb 28, 2025","Extracranial Cerebrovascular Testing, Peripheral Arterial Testing, Peripheral Venous Testing",,,,,,,,,,,,,,
38,39,Bethesda North Cardiac Testing - Thomas Center,39.253447,-84.343736,granted,10506A Montgomery Road,Suite 201,Cincinnati,OH,45242,USA,,,,echo,www.google.com/search?q=Bethesda+North+Cardiac+Testing+-+Thomas+Center,Bethesda North Cardiac Testing - Thomas Center Cincinnati,,,"Mar 31, 2025","Adult Stress, Adult Transthoracic",,,,,,,,,,,,,,,,,,,,
39,40,Bethesda North Cardiac Testing Kenwood,39.206185,-84.371228,granted,8240 North Creek Drive,Suite 4200,Cincinnati,OH,45236,USA,,,,nuclear,www.google.com/search?q=Bethesda+North+Cardiac+Testing+Kenwood,Bethesda North Cardiac Testing Kenwood Cincinnati,,,,,,,"Aug 31, 2024",Myocardial Perfusion Imaging,,,,,,,,,,,,,,,,
40,41,Bethesda North Hospital,39.251968,-84.343986,granted,10500 Montgomery Road,,Cincinnati,OH,45242,USA,,,,echo,www.google.com/search?q=Bethesda+North+Hospital,Bethesda North Hospital Cincinnati,,,"Mar 31, 2025","Adult Stress, Adult Transthoracic",,,,,,,,,,,,,,,,,,,,
41,42,Bethesda North Hospital,39.251968,-84.343986,granted,10500 Montgomery Road,,Cincinnati,OH,45242,USA,,,,vascular,www.google.com/search?q=Bethesda+North+Hospital,Bethesda North Hospital Cincinnati,,,,,,,,,"Feb 28, 2025","Extracranial Cerebrovascular Testing, Peripheral Arterial Testing, Peripheral Venous Testing",,,,,,,,,,,,,,
42,43,Blanchard Valley Hospital,41.016873,-83.650343,granted,1900 South Main Street,,Findlay,OH,45840,USA,,,,vascular,www.google.com/search?q=Blanchard+Valley+Hospital,Blanchard Valley Hospital Findlay,,,,,,,,,"Feb 28, 2023","Extracranial Cerebrovascular Testing, Peripheral Arterial Testing, Peripheral Venous Testing",,,,,,,,,,,,,,
43,44,Blanchard Valley Hospital,41.016873,-83.650343,granted,1900 South Main Street,,Findlay,OH,45840,USA,,www.bvhealthsystem.org,,echo,,Blanchard Valley Hospital Findlay,,,"Mar 31, 2023","Adult Transesophageal, Adult Transthoracic",,,,,,,,,,,,,,,,,,,,
44,45,Blanchard Valley Medical Associates,41.018435,-83.653894,multigranted,200 W. Pearl Street,,Findlay,OH,45840,USA,,,,"echo, nuclear",www.google.com/search?q=Blanchard+Valley+Medical+Associates,Blanchard Valley Medical Associates Findlay,,,"May 31, 2023",Adult Transthoracic,,,"Aug 31, 2025",Myocardial Perfusion Imaging,,,,,,,,,,,,,,,,
45,46,Bluffton Hospital,40.887115,-83.897538,granted,139 Garau Street,,Bluffton,OH,45817,USA,,bvhealthsystem.org,,echo,,Bluffton Hospital Bluffton,,,"Mar 31, 2023",Adult Transthoracic,,,,,,,,,,,,,,,,,,,,
46,47,Brunswick Medical Center,41.238277,-81.832217,granted,4065 Center Road,,Brunswick,OH,44212,USA,,,,vascular,www.google.com/search?q=Brunswick+Medical+Center,Brunswick Medical Center Brunswick,,,,,,,,,"Mar 31, 2024","Extracranial Cerebrovascular Testing, Peripheral Arterial Testing, Peripheral Venous Testing",,,,,,,,,,,,,,
47,48,Buckeye Heart and Vascular Institute,39.820752,-84.234662,multigranted,5538 Philadelphia Drive,,Dayton,OH,45415,USA,,,,"vascular, echo",www.google.com/search?q=Buckeye+Heart+and+Vascular+Institute,Buckeye Heart and Vascular Institute Dayton,,,"Nov 30, 2024","Adult Stress, Adult Transthoracic",,,,,"May 31, 2024","Extracranial Cerebrovascular Testing, Peripheral Arterial Testing",,,,,,,,,,,,,,
48,49,Captive Radiology,40.87189,-81.441609,granted,6273 Frank Ave NW,,North Canton,OH,44720,USA,,,,mr,www.google.com/search?q=Captive+Radiology,Captive Radiology North Canton,,,,,"Aug 31, 2025",Musculoskeletal MRI,,,,,,,,,,,,,,,,,,
49,50,"Cardio Terra, Ltd",40.530814,-84.644392,granted,4112 Monroe Road,,Celina,OH,45822,USA,,www.cardioterra.com,,echo,,"Cardio Terra, Ltd Celina",,,"Oct 31, 2023",Adult Transthoracic,,,,,,,,,,,,,,,,,,,,
50,51,"Cardiologists of Greene County, LLC",39.758442,-84.056053,granted,"2365 Lakeview Drive, Suite D",,Beavercreek,OH,45431,USA,,,,echo,"www.google.com/search?q=Cardiologists+of+Greene+County,+LLC","Cardiologists of Greene County, LLC Beavercreek",,,"Aug 31, 2024",Adult Transthoracic,,,,,,,,,,,,,,,,,,,,
51,52,"Cardiologists of Greene County, LLC",39.681967,-83.948515,granted,1099 West 2nd Street,,Xenia,OH,45385,USA,,,,echo,"www.google.com/search?q=Cardiologists+of+Greene+County,+LLC","Cardiologists of Greene County, LLC Xenia",,,"Aug 31, 2024",Adult Transthoracic,,,,,,,,,,,,,,,,,,,,
52,53,"Cardiology Care Associates, Inc.",41.688882,-83.635696,granted,3840 Woodley Road,Suite B,Toledo,OH,43606,USA,,,,nuclear,"www.google.com/search?q=Cardiology+Care+Associates,+Inc.","Cardiology Care Associates, Inc. Toledo",,,,,,,"Jan 31, 2023",Myocardial Perfusion Imaging,,,,,,,,,,,,,,,,
53,54,Cardiovascular Associates,41.112717,-80.655409,granted,1001 Belmont Avenue,,Youngstown,OH,44504,USA,,,,nuclear,www.google.com/search?q=Cardiovascular+Associates,Cardiovascular Associates Youngstown,,,,,,,"Feb 28, 2023",Myocardial Perfusion Imaging,,,,,,,,,,,,,,,,
54,55,Cardiovascular Associates,41.231211,-80.778351,granted,"627 Eastland Avenue, Suite 101",,Warren,OH,44484,USA,,,,nuclear,www.google.com/search?q=Cardiovascular+Associates,Cardiovascular Associates Warren,,,,,,,"Feb 28, 2023",Myocardial Perfusion Imaging,,,,,,,,,,,,,,,,
55,56,"Cardiovascular Medicine Associates, Inc",41.370195,-81.833613,multigranted,7255 Old Oak Blvd.,C208,Middleburg Heights,OH,44130,USA,,,,"nuclear, echo, vascular","www.google.com/search?q=Cardiovascular+Medicine+Associates,+Inc","Cardiovascular Medicine Associates, Inc Middleburg Heights",,,"Sep 30, 2023","Adult Stress, Adult Transthoracic",,,"Jan 31, 2023",Myocardial Perfusion Imaging,"Mar 31, 2025",Extracranial Cerebrovascular Testing,,,,,,,,,,,,,,
56,57,"Cardiovascular Medicine Associates, Inc",41.382753,-81.730861,granted,6707 Powers Boulevard,Suite 308,Parma,OH,44129,USA,,,,echo,"www.google.com/search?q=Cardiovascular+Medicine+Associates,+Inc","Cardiovascular Medicine Associates, Inc Parma",,,"Sep 30, 2023",Adult Transthoracic,,,,,,,,,,,,,,,,,,,,
57,58,"CardioVascular Specialists, LLC",39.719125,-82.578182,multigranted,618 Pleasantville Road,Suite 101,Lancaster,OH,43130,USA,,,,"echo, vein_center, nuclear, vascular","www.google.com/search?q=CardioVascular+Specialists,+LLC","CardioVascular Specialists, LLC Lancaster",,,"Jun 30, 2023",Adult Transthoracic,,,"Mar 31, 2025",Myocardial Perfusion Imaging,"Jun 30, 2025","Extracranial Cerebrovascular Testing, Peripheral Arterial Testing, Peripheral Venous Testing, Visceral Vascular Testing",,,,,,,"Aug 31, 2023",Superficial Venous Evaluation and Management,,,,,,
58,59,"Central Ohio Primary Care Physicians, Inc.",40.060134,-83.035529,granted,4885 Olentangy River Road,Suite 130,Columbus,OH,43214,USA,,,,echo,"www.google.com/search?q=Central+Ohio+Primary+Care+Physicians,+Inc.","Central Ohio Primary Care Physicians, Inc. Columbus",,,"Jan 31, 2024","Adult Stress, Adult Transthoracic",,,,,,,,,,,,,,,,,,,,
59,60,"Central Ohio Primary Care Physicians, Inc.",40.110234,-82.935677,granted,625 Africa Rd,Suite 150,Westerville,OH,43082,USA,,,,echo,"www.google.com/search?q=Central+Ohio+Primary+Care+Physicians,+Inc.","Central Ohio Primary Care Physicians, Inc. Westerville",,,"Jan 31, 2024","Adult Stress, Adult Transthoracic",,,,,,,,,,,,,,,,,,,,
60,61,Children’s Hospital at Cleveland Clinic,41.503438,-81.621528,granted,9500 Euclid Avenue,Desk M41,Cleveland,OH,44195,USA,,,,pediatric_echo,www.google.com/search?q=Children’s+Hospital+at+Cleveland+Clinic,Children’s Hospital at Cleveland Clinic Cleveland,,,,,,,,,,,"Aug 31, 2023","Pediatric Transesophageal, Pediatric Transthoracic, Fetal",,,,,,,,,,,,
61,62,Children’s Hospital Medical Center of Akron,41.078874,-81.525109,granted,One Perkins Square,,Akron,OH,44308,USA,,www.akronchildrens.org,,pediatric_echo,,Children’s Hospital Medical Center of Akron Akron,,,,,,,,,,,"Apr 30, 2024","Pediatric Transesophageal, Pediatric Transthoracic, Fetal",,,,,,,,,,,,
62,63,Cincinnati Children’s Hospital Echocardiography Laboratory,39.140947,-84.500392,granted,3333 Burnet Avenue,MLC 2003,Cincinnati,OH,45229,USA,,,,pediatric_echo,www.google.com/search?q=Cincinnati+Children’s+Hospital+Echocardiography+Laboratory,Cincinnati Children’s Hospital Echocardiography Laboratory Cincinnati,,,,,,,,,,,"Aug 31, 2023","Pediatric Transesophageal, Pediatric Transthoracic, Fetal",,,,,,,,,,,,
63,64,Cleveland Clinic,41.503438,-81.621528,granted,9500 Euclid Avenue,J1-5,Cleveland,OH,44195,USA,,,,echo,www.google.com/search?q=Cleveland+Clinic,Cleveland Clinic Cleveland,,,"Apr 30, 2024","Adult Stress, Adult Transesophageal, Adult Transthoracic",,,,,,,,,,,,,,,,,,,,
64,65,Cleveland Clinic,41.503438,-81.621528,granted,9500 Euclid Avenue,"Section of Vascular Medicine, Desk J3-5",Cleveland,OH,44195,USA,,,,vein_center,www.google.com/search?q=Cleveland+Clinic,Cleveland Clinic Cleveland,,,,,,,,,,,,,,,,,"Dec 31, 2022",Superficial Venous Evaluation and Management,,,,,,
65,66,Cleveland Clinic Akron General,41.077859,-81.532787,granted,1 Akron General Avenue.,,Akron,OH,44307,USA,,akrongeneral.org,,echo,,Cleveland Clinic Akron General Akron,,,"Apr 30, 2024",Adult Transthoracic,,,,,,,,,,,,,,,,,,,,
66,67,Cleveland Clinic Akron General,41.077853,-81.532772,granted,1 Akron General Ave.,,Akron,OH,44307,USA,,,,vascular,www.google.com/search?q=Cleveland+Clinic+Akron+General,Cleveland Clinic Akron General Akron,,,,,,,,,"Apr 30, 2024","Extracranial Cerebrovascular Testing, Intracranial Cerebrovascular Testing, Peripheral Arterial Testing",,,,,,,,,,,,,,
67,68,"Cleveland Clinic Akron General, Health and Wellness Center Green, Cardiac Testing Department",40.950648,-81.464523,granted,1940 Town Park Blvd.,,Uniontown,OH,44685,USA,,,,echo,"www.google.com/search?q=Cleveland+Clinic+Akron+General,+Health+and+Wellness+Center+Green,+Cardiac+Testing+Department","Cleveland Clinic Akron General, Health and Wellness Center Green, Cardiac Testing Department Uniontown",,,"Apr 30, 2024",Adult Transthoracic,,,,,,,,,,,,,,,,,,,,
68,69,"Cleveland Clinic Akron General, Health and Wellness Center North, Cardiac Testing Department",41.184542,-81.473943,granted,4300 Allen Road,,Stow,OH,44224,USA,,,,echo,"www.google.com/search?q=Cleveland+Clinic+Akron+General,+Health+and+Wellness+Center+North,+Cardiac+Testing+Department","Cleveland Clinic Akron General, Health and Wellness Center North, Cardiac Testing Department Stow",,,"Apr 30, 2024",Adult Transthoracic,,,,,,,,,,,,,,,,,,,,
69,70,"Cleveland Clinic Akron General, Health and Wellness Center West, Cardiac Testing Department",41.136002,-81.659734,granted,4125 Medina Road,,Akron,OH,44333,USA,,,,echo,"www.google.com/search?q=Cleveland+Clinic+Akron+General,+Health+and+Wellness+Center+West,+Cardiac+Testing+Department","Cleveland Clinic Akron General, Health and Wellness Center West, Cardiac Testing Department Akron",,,"Apr 30, 2024",Adult Transthoracic,,,,,,,,,,,,,,,,,,,,
70,71,Cleveland Clinic Beachwood Family Health and Surgery Center,41.50125,-81.495197,granted,26900 Cedar Road,,Beachwood,OH,44122,USA,,,,echo,www.google.com/search?q=Cleveland+Clinic+Beachwood+Family+Health+and+Surgery+Center,Cleveland Clinic Beachwood Family Health and Surgery Center Beachwood,,,"Apr 30, 2024","Adult Stress, Adult Transthoracic",,,,,,,,,,,,,,,,,,,,
71,72,Cleveland Clinic Heart and Vascular Institute Non-Invasive Vascular Laboratory,41.503438,-81.621528,granted,9500 Euclid Avenue,,Cleveland,OH,44195,USA,,,,vascular,www.google.com/search?q=Cleveland+Clinic+Heart+and+Vascular+Institute+Non-Invasive+Vascular+Laboratory,Cleveland Clinic Heart and Vascular Institute Non-Invasive Vascular Laboratory Cleveland,,,,,,,,,"Oct 31, 2023","Extracranial Cerebrovascular Testing, Peripheral Arterial Testing, Peripheral Venous Testing, Visceral Vascular Testing, Screening",,,,,,,,,,,,,,
72,73,Cleveland Clinic Independence Family Health Center,41.397436,-81.655716,granted,5001 Rockside,Crown Center II,Independence,OH,44131,USA,,,,echo,www.google.com/search?q=Cleveland+Clinic+Independence+Family+Health+Center,Cleveland Clinic Independence Family Health Center Independence,,,"Apr 30, 2024","Adult Stress, Adult Transthoracic",,,,,,,,,,,,,,,,,,,,
73,74,Cleveland Clinic Medina Hospital,41.13733,-81.83899,granted,1000 East Washington Street,,Medina,OH,44256,USA,,,,pediatric_echo,www.google.com/search?q=Cleveland+Clinic+Medina+Hospital,Cleveland Clinic Medina Hospital Medina,,,,,,,,,,,"Aug 31, 2023",Pediatric Transthoracic,,,,,,,,,,,,
74,75,Cleveland Clinic Non-Invasive Vascular Laboratory - Columbia Road Vascular Surgery Office,41.475042,-81.901469,granted,850 Columbia Road,Suite 102,Westlake,OH,44145,USA,,,,vascular,www.google.com/search?q=Cleveland+Clinic+Non-Invasive+Vascular+Laboratory+-+Columbia+Road+Vascular+Surgery+Office,Cleveland Clinic Non-Invasive Vascular Laboratory - Columbia Road Vascular Surgery Office Westlake,,,,,,,,,"Oct 31, 2023",Peripheral Venous Testing,,,,,,,,,,,,,,
75,76,Cleveland Clinic Non-Invasive Vascular Laboratory - Fairview Park Cardiovascular Medicine Office,41.448312,-81.846096,granted,20455 Lorain Rd,,Fairview Park,OH,44126,USA,,,,vascular,www.google.com/search?q=Cleveland+Clinic+Non-Invasive+Vascular+Laboratory+-+Fairview+Park+Cardiovascular+Medicine+Office,Cleveland Clinic Non-Invasive Vascular Laboratory - Fairview Park Cardiovascular Medicine Office Fairview Park,,,,,,,,,"Oct 31, 2023","Extracranial Cerebrovascular Testing, Peripheral Arterial Testing, Peripheral Venous Testing, Visceral Vascular Testing",,,,,,,,,,,,,,
76,77,Cleveland Clinic Non-Invasive Vascular Laboratory - Hillcrest Medical Building,41.520136,-81.433553,granted,6801 Mayfield Road,"Medical Bldg 2, Suite 146",Mayfield Heights,OH,44124,USA,,,,vascular,www.google.com/search?q=Cleveland+Clinic+Non-Invasive+Vascular+Laboratory+-+Hillcrest+Medical+Building,Cleveland Clinic Non-Invasive Vascular Laboratory - Hillcrest Medical Building Mayfield Heights,,,,,,,,,"Oct 31, 2023","Extracranial Cerebrovascular Testing, Peripheral Arterial Testing, Peripheral Venous Testing, Visceral Vascular Testing",,,,,,,,,,,,,,
77,78,Cleveland Clinic Non-Invasive Vascular Laboratory - Independence Family Health Center,41.384363,-81.658408,granted,Crown II,5001 Rockside Road,Independence,OH,44131,USA,,,,vascular,www.google.com/search?q=Cleveland+Clinic+Non-Invasive+Vascular+Laboratory+-+Independence+Family+Health+Center,Cleveland Clinic Non-Invasive Vascular Laboratory - Independence Family Health Center Independence,,,,,,,,,"Oct 31, 2023","Extracranial Cerebrovascular Testing, Peripheral Arterial Testing, Peripheral Venous Testing, Visceral Vascular Testing",,,,,,,,,,,,,,
78,79,Cleveland Clinic Non-Invasive Vascular Laboratory - Lorain Family Health Center,41.411747,-82.236214,granted,5700 Cooper Foster Park Road,,Lorain,OH,44053,USA,,,,vascular,www.google.com/search?q=Cleveland+Clinic+Non-Invasive+Vascular+Laboratory+-+Lorain+Family+Health+Center,Cleveland Clinic Non-Invasive Vascular Laboratory - Lorain Family Health Center Lorain,,,,,,,,,"Oct 31, 2023","Extracranial Cerebrovascular Testing, Peripheral Arterial Testing, Peripheral Venous Testing, Visceral Vascular Testing",,,,,,,,,,,,,,
79,80,Cleveland Clinic Non-Invasive Vascular Laboratory - Marymount Vascular Surgery Office,41.422416,-81.599022,granted,12000 Mc Cracken Road,Suite 351,Garfield Heights,OH,44125,USA,,,,vascular,www.google.com/search?q=Cleveland+Clinic+Non-Invasive+Vascular+Laboratory+-+Marymount+Vascular+Surgery+Office,Cleveland Clinic Non-Invasive Vascular Laboratory - Marymount Vascular Surgery Office Garfield Heights,,,,,,,,,"Oct 31, 2023","Extracranial Cerebrovascular Testing, Peripheral Arterial Testing, Peripheral Venous Testing, Visceral Vascular Testing",,,,,,,,,,,,,,
80,81,Cleveland Clinic Non-Invasive Vascular Laboratory - Medina Vascular Surgery Office,41.139103,-81.838915,granted,970 E. Washington St.,,Medina,OH,44256,USA,,,,vascular,www.google.com/search?q=Cleveland+Clinic+Non-Invasive+Vascular+Laboratory+-+Medina+Vascular+Surgery+Office,Cleveland Clinic Non-Invasive Vascular Laboratory - Medina Vascular Surgery Office Medina,,,,,,,,,"Oct 31, 2023","Extracranial Cerebrovascular Testing, Peripheral Arterial Testing, Peripheral Venous Testing, Visceral Vascular Testing",,,,,,,,,,,,,,
81,82,Cleveland Clinic Non-Invasive Vascular Laboratory - Richard E Jacobs Health Center,41.468458,-81.982031,granted,33100 Cleveland Clinic Blvd,,Avon,OH,44011,USA,,,,vascular,www.google.com/search?q=Cleveland+Clinic+Non-Invasive+Vascular+Laboratory+-+Richard+E+Jacobs+Health+Center,Cleveland Clinic Non-Invasive Vascular Laboratory - Richard E Jacobs Health Center Avon,,,,,,,,,"Oct 31, 2023","Extracranial Cerebrovascular Testing, Peripheral Arterial Testing, Peripheral Venous Testing, Visceral Vascular Testing",,,,,,,,,,,,,,
82,83,Cleveland Clinic Non-Invasive Vascular Laboratory - Strongsville Family Health Center,41.310816,-81.817932,granted,16761 South Park Center,,Strongsville,OH,44136,USA,,,,vascular,www.google.com/search?q=Cleveland+Clinic+Non-Invasive+Vascular+Laboratory+-+Strongsville+Family+Health+Center,Cleveland Clinic Non-Invasive Vascular Laboratory - Strongsville Family Health Center Strongsville,,,,,,,,,"Oct 31, 2023","Extracranial Cerebrovascular Testing, Peripheral Arterial Testing, Peripheral Venous Testing, Visceral Vascular Testing",,,,,,,,,,,,,,
83,84,Cleveland Clinic Non-Invasive Vascular Laboratory - Twinsburg Family Health Center,41.322584,-81.44901,granted,Twinsburg Medical Building,8701 Darrow Rd.,Twinsburg,OH,44087,USA,,,,vascular,www.google.com/search?q=Cleveland+Clinic+Non-Invasive+Vascular+Laboratory+-+Twinsburg+Family+Health+Center,Cleveland Clinic Non-Invasive Vascular Laboratory - Twinsburg Family Health Center Twinsburg,,,,,,,,,"Oct 31, 2023","Extracranial Cerebrovascular Testing, Peripheral Arterial Testing, Peripheral Venous Testing, Visceral Vascular Testing",,,,,,,,,,,,,,
84,85,Cleveland Clinic Non-Invasive Vascular Laboratory - Willoughby Hills Family Health Center,41.598167,-81.440497,granted,2550 SOM Ctr Rd,,Willoughby Hills,OH,44094,USA,,,,vascular,www.google.com/search?q=Cleveland+Clinic+Non-Invasive+Vascular+Laboratory+-+Willoughby+Hills+Family+Health+Center,Cleveland Clinic Non-Invasive Vascular Laboratory - Willoughby Hills Family Health Center Willoughby Hills,,,,,,,,,"Oct 31, 2023","Extracranial Cerebrovascular Testing, Peripheral Arterial Testing, Peripheral Venous Testing, Visceral Vascular Testing",,,,,,,,,,,,,,
85,86,Cleveland Clinic Non-Invasive Vascular Laboratory - Wooster Family Health Center,40.841702,-81.931711,granted,721 E Milltown Rd,,Wooster,OH,44691,USA,,,,vascular,www.google.com/search?q=Cleveland+Clinic+Non-Invasive+Vascular+Laboratory+-+Wooster+Family+Health+Center,Cleveland Clinic Non-Invasive Vascular Laboratory - Wooster Family Health Center Wooster,,,,,,,,,"Oct 31, 2023","Extracranial Cerebrovascular Testing, Peripheral Arterial Testing, Peripheral Venous Testing, Visceral Vascular Testing",,,,,,,,,,,,,,
86,87,Cleveland Clinic Non-Invasive Vascular Laboratory – Beachwood Family Health Center,41.4913,-81.48806,granted,26900 Cedar Road,Suite 18-North,Beachwood,OH,44122,USA,,,,vascular,www.google.com/search?q=Cleveland+Clinic+Non-Invasive+Vascular+Laboratory+–+Beachwood+Family+Health+Center,Cleveland Clinic Non-Invasive Vascular Laboratory – Beachwood Family Health Center Beachwood,,,,,,,,,"Oct 31, 2023","Extracranial Cerebrovascular Testing, Peripheral Arterial Testing, Peripheral Venous Testing, Visceral Vascular Testing",,,,,,,,,,,,,,
87,88,Cleveland Clinic Strongsville Family Heath and Surgery Center,41.310816,-81.817932,granted,16761 Southpark Center,,Strongsville,OH,44136,USA,,,,echo,www.google.com/search?q=Cleveland+Clinic+Strongsville+Family+Heath+and+Surgery+Center,Cleveland Clinic Strongsville Family Heath and Surgery Center Strongsville,,,"Apr 30, 2024","Adult Stress, Adult Transthoracic",,,,,,,,,,,,,,,,,,,,
88,89,Cleveland Clinic Union Hospital,40.514832,-81.458439,granted,659 Boulevard,,Dover,OH,44622,USA,,,,echo,www.google.com/search?q=Cleveland+Clinic+Union+Hospital,Cleveland Clinic Union Hospital Dover,,,"Aug 31, 2024",Adult Transthoracic,,,,,,,,,,,,,,,,,,,,
89,90,Cleveland Clinic Union Hospital Vascular Laboratory,40.514832,-81.458439,granted,659 Boulevard,,Dover,OH,44622,USA,,,,vascular,www.google.com/search?q=Cleveland+Clinic+Union+Hospital+Vascular+Laboratory,Cleveland Clinic Union Hospital Vascular Laboratory Dover,,,,,,,,,"Sep 30, 2023","Extracranial Cerebrovascular Testing, Peripheral Arterial Testing, Peripheral Venous Testing, Visceral Vascular Testing, Screening",,,,,,,,,,,,,,
90,91,Cleveland Clinic Willoughby Family Health Center,41.597876,-81.440594,granted,2570  SOM Center Road,,Willoughby Hills,OH,44094,USA,,,,echo,www.google.com/search?q=Cleveland+Clinic+Willoughby+Family+Health+Center,Cleveland Clinic Willoughby Family Health Center Willoughby Hills,,,"Apr 30, 2024","Adult Stress, Adult Transthoracic",,,,,,,,,,,,,,,,,,,,
91,92,Cleveland Clinic Wooster Family Health Center,40.82008,-81.935564,granted,1740 Cleveland Road,,Wooster,OH,44691,USA,,,,echo,www.google.com/search?q=Cleveland+Clinic+Wooster+Family+Health+Center,Cleveland Clinic Wooster Family Health Center Wooster,,,"Apr 30, 2024",Adult Transthoracic,,,,,,,,,,,,,,,,,,,,
92,93,Cleveland Endovascular Institute,41.436834,-81.941906,granted,29101 Health Campus Drive,Suite 155,Westlake,OH,44145,USA,,,,vascular,www.google.com/search?q=Cleveland+Endovascular+Institute,Cleveland Endovascular Institute Westlake,,,,,,,,,"Feb 28, 2023",Peripheral Venous Testing,,,,,,,,,,,,,,
93,94,"Columbus Arthritis Center, Inc.",39.975039,-83.054333,granted,1211 Dublin Road,,Columbus,OH,43215,USA,,www.columbusarthritis.com,,mr,,"Columbus Arthritis Center, Inc. Columbus",,,,,"Jan 31, 2024",Musculoskeletal MRI,,,,,,,,,,,,,,,,,,
94,95,Coshocton Regional Medical Center Vascular Lab,40.270456,-81.847928,granted,1460 Orange Street,,Coshocton,OH,43821,USA,,,,vascular,www.google.com/search?q=Coshocton+Regional+Medical+Center+Vascular+Lab,Coshocton Regional Medical Center Vascular Lab Coshocton,,,,,,,,,"Nov 30, 2022","Extracranial Cerebrovascular Testing, Peripheral Arterial Testing, Peripheral Venous Testing",,,,,,,,,,,,,,
95,96,"Crystal Arthritis Center, Inc",41.148283,-81.637134,granted,471 North Cleveland Massillon Road,,Akron,OH,44333,USA,,www.crystalarthritiscenter.com,,mr,,"Crystal Arthritis Center, Inc Akron",,,,,"Mar 31, 2024",Musculoskeletal MRI,,,,,,,,,,,,,,,,,,
96,97,Dayton Children’s,39.773265,-84.167931,granted,One Children’s Plaza,,Dayton,OH,45404,USA,,www.childrensdayton.org,,pediatric_echo,,Dayton Children’s Dayton,,,,,,,,,,,"Dec 31, 2024","Pediatric Transesophageal, Pediatric Transthoracic, Fetal",,,,,,,,,,,,
97,98,"Dayton Children’s Outpatient Care Center, Troy",40.028533,-84.223407,granted,865 W. Market Street,,Troy,OH,45373,USA,,,,pediatric_echo,"www.google.com/search?q=Dayton+Children’s+Outpatient+Care+Center,+Troy","Dayton Children’s Outpatient Care Center, Troy Troy",,,,,,,,,,,"Dec 31, 2024","Pediatric Transthoracic, Fetal",,,,,,,,,,,,
98,99,Dayton Children’s South Campus,39.588755,-84.236167,granted,3333 West Tech Road,,Miamisburg,OH,45342,USA,,,,pediatric_echo,www.google.com/search?q=Dayton+Children’s+South+Campus,Dayton Children’s South Campus Miamisburg,,,,,,,,,,,"Dec 31, 2024","Pediatric Transthoracic, Fetal",,,,,,,,,,,,
99,100,Doctors Hospital OhioHealth,39.951923,-83.137597,granted,5100 West Broad Street,,Columbus,OH,43228,USA,,,,echo,www.google.com/search?q=Doctors+Hospital+OhioHealth,Doctors Hospital OhioHealth Columbus,,,"Jun 30, 2025","Adult Stress, Adult Transesophageal, Adult Transthoracic",,,,,,,,,,,,,,,,,,,,
100,101,Dr. Michael Kalus,41.445168,-81.536087,granted,4200 Warrensville Center Road,#403,Warrensville Heights,OH,44122,USA,,,,echo,www.google.com/search?q=Dr.+Michael+Kalus,Dr. Michael Kalus Warrensville Heights,,,"Oct 31, 2022",Adult Transthoracic,,,,,,,,,,,,,,,,,,,,
101,102,Dublin Methodist Hospital Echocardiography Lab,40.099991,-83.167937,granted,7500 Hospital Drive,,Dublin,OH,43016,USA,,,,echo,www.google.com/search?q=Dublin+Methodist+Hospital+Echocardiography+Lab,Dublin Methodist Hospital Echocardiography Lab Dublin,,,"Aug 31, 2025","Adult Stress, Adult Transthoracic",,,,,,,,,,,,,,,,,,,,
102,103,"Ear Nose and Throat of Springfield, Inc.",39.915811,-83.770327,granted,435 S. Burnett Rd,,Springfield,OH,45505,USA,,,,ct,"www.google.com/search?q=Ear+Nose+and+Throat+of+Springfield,+Inc.","Ear Nose and Throat of Springfield, Inc. Springfield","Mar 31, 2024",Maxillofacial CT,,,,,,,,,,,,,,,,,,,,,,
103,104,Elyria Family Health Center,41.345206,-82.06666,granted,303 Chestnut Commons Dr.,,Elyria,OH,44035,USA,,,,echo,www.google.com/search?q=Elyria+Family+Health+Center,Elyria Family Health Center Elyria,,,"Apr 30, 2024",Adult Transthoracic,,,,,,,,,,,,,,,,,,,,
104,105,ENT and Sinus Institue of Ohio,40.075712,-83.158188,granted,5378 Avery Road,,Dublin,OH,43016,USA,,www.ohiosinus.com,,ct,,ENT and Sinus Institue of Ohio Dublin,"Jul 31, 2025",Maxillofacial CT,,,,,,,,,,,,,,,,,,,,,,
105,106,EPI,40.020724,-82.919467,multigranted,3433 Agler Road,Suite 2400,Columbus,OH,43219,USA,,www.epiohio.com,,"nuclear, echo",,EPI Columbus,,,"Aug 31, 2023",Adult Transthoracic,,,"Jun 30, 2023",Myocardial Perfusion Imaging,,,,,,,,,,,,,,,,
106,107,Euclid Health Center,41.61579,-81.5152,granted,18599 Lakeshore Blvd,Euclid Health Center,Euclid,OH,44119,USA,,,,vascular,www.google.com/search?q=Euclid+Health+Center,Euclid Health Center Euclid,,,,,,,,,"Aug 29, 2022",Peripheral Arterial Testing,,,,,,,,,,,,,,
107,108,"Euclid Hospital, a Cleveland Clinic hospital",41.596734,-81.547421,granted,18901 Lakeshore Blvd,,Euclid,OH,44119,USA,,euclidhospital.org,,echo,,"Euclid Hospital, a Cleveland Clinic hospital Euclid",,,"Apr 30, 2024",Adult Transthoracic,,,,,,,,,,,,,,,,,,,,
108,109,Fairfield Medical Center,39.717197,-82.576653,granted,401 N. Ewing Street,,Lancaster,OH,43130,USA,,,,vascular,www.google.com/search?q=Fairfield+Medical+Center,Fairfield Medical Center Lancaster,,,,,,,,,"Dec 31, 2022","Extracranial Cerebrovascular Testing, Peripheral Arterial Testing, Peripheral Venous Testing, Visceral Vascular Testing",,,,,,,,,,,,,,
109,110,Fairfield Medical Center Echocardiography Lab,39.717197,-82.576653,granted,401 N. Ewing Street,,Lancaster,OH,43130,USA,,www.fmchealth.org,,echo,,Fairfield Medical Center Echocardiography Lab Lancaster,,,"Nov 30, 2023",Adult Transthoracic,,,,,,,,,,,,,,,,,,,,
110,111,Fairview  Hospital,41.450069,-81.820996,granted,18101 Lorain Avenue,,Cleveland,OH,44111,USA,,,,vascular,www.google.com/search?q=Fairview++Hospital,Fairview  Hospital Cleveland,,,,,,,,,"Apr 30, 2024","Extracranial Cerebrovascular Testing, Peripheral Arterial Testing, Peripheral Venous Testing, Visceral Vascular Testing",,,,,,,,,,,,,,
111,112,Fairview Hospital Echocardiology Laboratory,41.450069,-81.820996,granted,18101 Lorain Avenue,,Cleveland,OH,44111,USA,,,,echo,www.google.com/search?q=Fairview+Hospital+Echocardiology+Laboratory,Fairview Hospital Echocardiology Laboratory Cleveland,,,"Apr 30, 2024",Adult Transthoracic,,,,,,,,,,,,,,,,,,,,
112,113,Fairview Medical Office,41.450067,-81.820992,granted,18099 Lorain Ave,Suite 233B,Cleveland,OH,44111,USA,,,,pediatric_echo,www.google.com/search?q=Fairview+Medical+Office,Fairview Medical Office Cleveland,,,,,,,,,,,"Aug 31, 2023",Pediatric Transthoracic,,,,,,,,,,,,
113,114,Fairview Park Cardiovascular Medical Office,41.448312,-81.846096,granted,20455 Lorain Road,,Fairview Park,OH,44126,USA,,,,echo,www.google.com/search?q=Fairview+Park+Cardiovascular+Medical+Office,Fairview Park Cardiovascular Medical Office Fairview Park,,,"Apr 30, 2024","Adult Stress, Adult Transthoracic",,,,,,,,,,,,,,,,,,,,
114,115,Firelands Regional Medical Center,41.445875,-82.708925,granted,1111 Hayes Avenue,,Sandusky,OH,44870,USA,,,,echo,www.google.com/search?q=Firelands+Regional+Medical+Center,Firelands Regional Medical Center Sandusky,,,"Jul 31, 2025",Adult Transthoracic,,,,,,,,,,,,,,,,,,,,
115,116,Firelands Regional Medical Center,41.445875,-82.708925,granted,1111 Hayes Avenue,,Sandusky,OH,44870,USA,,www.firelands.com,,vascular,,Firelands Regional Medical Center Sandusky,,,,,,,,,"Aug 31, 2025","Extracranial Cerebrovascular Testing, Peripheral Arterial Testing, Peripheral Venous Testing",,,,,,,,,,,,,,
116,117,"First Settlement Orthopaedics, Inc.",39.285407,-81.606138,granted,2434 Richmiller Lane,,Belpre,OH,45714,USA,,visitfso.com,,mr,,"First Settlement Orthopaedics, Inc. Belpre",,,,,"Aug 31, 2023",Musculoskeletal MRI,,,,,,,,,,,,,,,,,,
117,118,"First-Settlement Orthopaedics, Inc",39.422151,-81.461642,granted,611 2nd St,,Marietta,OH,45750,USA,,,,mr,"www.google.com/search?q=First-Settlement+Orthopaedics,+Inc","First-Settlement Orthopaedics, Inc Marietta",,,,,"Aug 31, 2023",Musculoskeletal MRI,,,,,,,,,,,,,,,,,,
118,119,Fisher Titus Medical Center,41.226034,-82.602008,granted,272 Benedict Avenue,,Norwalk,OH,44857,USA,,,,vascular,www.google.com/search?q=Fisher+Titus+Medical+Center,Fisher Titus Medical Center Norwalk,,,,,,,,,"Aug 31, 2023","Extracranial Cerebrovascular Testing, Peripheral Venous Testing",,,,,,,,,,,,,,
119,120,Fisher-Titus Medical Center,41.226034,-82.602008,granted,272 Bendict Avenue,,Norwalk,OH,44857,USA,,,,echo,www.google.com/search?q=Fisher-Titus+Medical+Center,Fisher-Titus Medical Center Norwalk,,,"Sep 30, 2024",Adult Transthoracic,,,,,,,,,,,,,,,,,,,,
120,121,Flower Hospital A Division of Toledo Hospital,41.711013,-83.69442,granted,5200 Harroun Rd.,,Sylvania,OH,43560,USA,,,,echo,www.google.com/search?q=Flower+Hospital+A+Division+of+Toledo+Hospital,Flower Hospital A Division of Toledo Hospital Sylvania,,,"Jan 31, 2023",Adult Transthoracic,,,,,,,,,,,,,,,,,,,,
121,122,Garfield Heights Cardiovascular Medicine Office,41.422416,-81.599022,granted,12000 McCracken Road,Suite 460,Garfield Heights,OH,44125,USA,,,,echo,www.google.com/search?q=Garfield+Heights+Cardiovascular+Medicine+Office,Garfield Heights Cardiovascular Medicine Office Garfield Heights,,,"Apr 30, 2024",Adult Transthoracic,,,,,,,,,,,,,,,,,,,,
122,123,Genesis Healthcare System,39.975378,-82.013639,granted,2951 Maple Avenue,,Zanesville,OH,43701,USA,,,,echo,www.google.com/search?q=Genesis+Healthcare+System,Genesis Healthcare System Zanesville,,,"Dec 31, 2024","Adult Stress, Adult Transesophageal, Adult Transthoracic",,,,,,,,,,,,,,,,,,,,
123,124,Genesis HealthCare System - Maple Avenue Campus,39.975378,-82.013639,granted,2951 Maple Avenue,,Zanesville,OH,43701,USA,,,,vascular,www.google.com/search?q=Genesis+HealthCare+System+-+Maple+Avenue+Campus,Genesis HealthCare System - Maple Avenue Campus Zanesville,,,,,,,,,"Jun 30, 2025","Extracranial Cerebrovascular Testing, Peripheral Arterial Testing, Peripheral Venous Testing",,,,,,,,,,,,,,
124,125,Genesis Vein Center,39.973314,-82.016284,granted,930 Bethesda Dr. Suite 1,,Zanesville,OH,43701,USA,,,,vascular,www.google.com/search?q=Genesis+Vein+Center,Genesis Vein Center Zanesville,,,,,,,,,"Jun 30, 2025",Peripheral Venous Testing,,,,,,,,,,,,,,
125,126,"George T. Maly, M.D., LLC",41.690825,-83.631551,granted,"3949 Sunforest Court, Suite 201",,Toledo,OH,43623,USA,,,,nuclear,"www.google.com/search?q=George+T.+Maly,+M.D.,+LLC","George T. Maly, M.D., LLC Toledo",,,,,,,"Jan 31, 2023",Myocardial Perfusion Imaging,,,,,,,,,,,,,,,,
126,127,Good Samaritan,39.140339,-84.519576,granted,3219 Clifton Ave. Suite 400B,,Cincinnati,OH,45220,USA,,,,vascular,www.google.com/search?q=Good+Samaritan,Good Samaritan Cincinnati,,,,,,,,,"Feb 28, 2025","Extracranial Cerebrovascular Testing, Peripheral Arterial Testing, Peripheral Venous Testing",,,,,,,,,,,,,,
127,128,Good Samaritan Cardiac and Vascular Testing Anderson,39.072715,-84.342224,granted,7777 Beechmont Ave.,Suite 200,Cincinnati,OH,45255,USA,,,,vascular,www.google.com/search?q=Good+Samaritan+Cardiac+and+Vascular+Testing+Anderson,Good Samaritan Cardiac and Vascular Testing Anderson Cincinnati,,,,,,,,,"Feb 28, 2025","Extracranial Cerebrovascular Testing, Peripheral Arterial Testing, Peripheral Venous Testing",,,,,,,,,,,,,,
128,129,Good Samaritan Cardiac Testing - Anderson,39.072715,-84.342224,granted,"7777 Beechmont Avenue, Suite 200",,Cincinnati,OH,45255,USA,,,,echo,www.google.com/search?q=Good+Samaritan+Cardiac+Testing+-+Anderson,Good Samaritan Cardiac Testing - Anderson Cincinnati,,,"Mar 31, 2025","Adult Stress, Adult Transthoracic",,,,,,,,,,,,,,,,,,,,
129,130,Good Samaritan Cardiac Testing - Clifton,39.140335,-84.519577,granted,"3219 Clifton Avenue, Suite 400B",,Cincinnati,OH,45220,USA,,,,echo,www.google.com/search?q=Good+Samaritan+Cardiac+Testing+-+Clifton,Good Samaritan Cardiac Testing - Clifton Cincinnati,,,"Mar 31, 2025","Adult Stress, Adult Transthoracic",,,,,,,,,,,,,,,,,,,,
130,131,Good Samaritan Cardiac Testing - Western Ridge,39.202831,-84.671107,granted,6949 Good Samaritan Dr.,Suite #240,Cincinnati,OH,45247,USA,,,,echo,www.google.com/search?q=Good+Samaritan+Cardiac+Testing+-+Western+Ridge,Good Samaritan Cardiac Testing - Western Ridge Cincinnati,,,"Mar 31, 2025","Adult Stress, Adult Transthoracic",,,,,,,,,,,,,,,,,,,,
131,132,Good Samaritan Cardiac Testing Anderson,39.072715,-84.342224,granted,7777 Beechmont Ave Suite 200,,Cincinnati,OH,45255,USA,,,,nuclear,www.google.com/search?q=Good+Samaritan+Cardiac+Testing+Anderson,Good Samaritan Cardiac Testing Anderson Cincinnati,,,,,,,"Aug 31, 2024",Myocardial Perfusion Imaging,,,,,,,,,,,,,,,,
132,133,Good Samaritan Cardiac Testing Clifton,39.140335,-84.519577,granted,3219 Clifton Avenue Suite 400B,,Cincinnati,OH,45220,USA,,,,nuclear,www.google.com/search?q=Good+Samaritan+Cardiac+Testing+Clifton,Good Samaritan Cardiac Testing Clifton Cincinnati,,,,,,,"Aug 31, 2024",Myocardial Perfusion Imaging,,,,,,,,,,,,,,,,
133,134,Good Samaritan Cardiac Testing-Western Ridge,39.202831,-84.671107,granted,6949 Good Samaritan Dr. Suite 240,,Cincinnati,OH,45247,USA,,,,nuclear,www.google.com/search?q=Good+Samaritan+Cardiac+Testing-Western+Ridge,Good Samaritan Cardiac Testing-Western Ridge Cincinnati,,,,,,,"Aug 31, 2024",Myocardial Perfusion Imaging,,,,,,,,,,,,,,,,
134,135,Good Samaritan Hospital,39.140612,-84.52227,granted,375 Dixmyth Avenue,,Cincinnati,OH,45220,USA,,,,echo,www.google.com/search?q=Good+Samaritan+Hospital,Good Samaritan Hospital Cincinnati,,,"Mar 31, 2025","Adult Stress, Adult Transthoracic",,,,,,,,,,,,,,,,,,,,
135,136,Grady Memorial Hospital Ohio Health,40.306038,-83.088815,granted,561 West Central Avenue,,Delaware,OH,43015,USA,,,,echo,www.google.com/search?q=Grady+Memorial+Hospital+Ohio+Health,Grady Memorial Hospital Ohio Health Delaware,,,"Jun 30, 2025","Adult Stress, Adult Transesophageal, Adult Transthoracic",,,,,,,,,,,,,,,,,,,,
136,137,Grant Medical Center,39.960866,-82.990621,granted,111 South Grant Avenue,,Columbus,OH,43215,USA,,,,echo,www.google.com/search?q=Grant+Medical+Center,Grant Medical Center Columbus,,,"Feb 29, 2024","Adult Stress, Adult Transesophageal, Adult Transthoracic",,,,,,,,,,,,,,,,,,,,
137,138,GV Diagnostic Cardiology at Little York Road,39.855047,-84.186646,granted,4160 Little York Road,,Dayton,OH,45414,USA,,,,nuclear,www.google.com/search?q=GV+Diagnostic+Cardiology+at+Little+York+Road,GV Diagnostic Cardiology at Little York Road Dayton,,,,,,,"Apr 30, 2024","Equilibrium Radionuclide Angiography, Myocardial Perfusion Imaging",,,,,,,,,,,,,,,,
138,139,Hand and Microsurgery Associates Inc,40.148387,-82.985298,granted,1210 Gemini Place,Suite 200,Columbus,OH,43240,USA,,www.handandmicro.com,,mr,,Hand and Microsurgery Associates Inc Columbus,,,,,"Apr 30, 2025",Musculoskeletal MRI,,,,,,,,,,,,,,,,,,
139,140,Hardin Memorial Hospital,33.737801,-87.252502,granted,921 East Franklin Street,,Kenton,OH,43326,USA,,,,echo,www.google.com/search?q=Hardin+Memorial+Hospital,Hardin Memorial Hospital Kenton,,,"Jan 31, 2025",Adult Transthoracic,,,,,,,,,,,,,,,,,,,,
140,141,Heart and Vascular Clinic,41.236441,-80.80012,granted,1353 East Market Street,,Warren,OH,44483,USA,,,,nuclear,www.google.com/search?q=Heart+and+Vascular+Clinic,Heart and Vascular Clinic Warren,,,,,,,"Nov 30, 2024",Myocardial Perfusion Imaging,,,,,,,,,,,,,,,,
141,142,Hillcrest Hospital,41.520129,-81.435341,granted,6801 Mayfield Rd,,Mayfield Heights,OH,44124,USA,,,,pediatric_echo,www.google.com/search?q=Hillcrest+Hospital,Hillcrest Hospital Mayfield Heights,,,,,,,,,,,"Aug 31, 2023",Pediatric Transthoracic,,,,,,,,,,,,
142,143,"Hillcrest Hospital, a Cleveland Clinic hospital",41.520133,-81.434345,granted,6780 Mayfield Rd,,Mayfield Hts,OH,44124,USA,,,,echo,"www.google.com/search?q=Hillcrest+Hospital,+a+Cleveland+Clinic+hospital","Hillcrest Hospital, a Cleveland Clinic hospital Mayfield Hts",,,"Apr 30, 2024",Adult Transthoracic,,,,,,,,,,,,,,,,,,,,
143,144,Indu and Raj Soin Medical Center,39.771947,-84.06271,granted,3535 Pentagon Blvd.,,Beavercreek,OH,45431,USA,,,,echo,www.google.com/search?q=Indu+and+Raj+Soin+Medical+Center,Indu and Raj Soin Medical Center Beavercreek,,,"Jun 30, 2024",Adult Transthoracic,,,,,,,,,,,,,,,,,,,,
144,145,Jobst Center for Venous and Lymphatic Disease,41.709542,-83.676117,granted,5700 Monroe Street,Suite 309,Sylvania,OH,43560,USA,,,,vein_center,www.google.com/search?q=Jobst+Center+for+Venous+and+Lymphatic+Disease,Jobst Center for Venous and Lymphatic Disease Sylvania,,,,,,,,,,,,,,,,,"Feb 29, 2024",Superficial Venous Evaluation and Management,,,,,,
145,146,Kettering Health Dayton,39.768985,-84.202998,granted,405 Grand Avenue,,Dayton,OH,45405,USA,,,,echo,www.google.com/search?q=Kettering+Health+Dayton,Kettering Health Dayton Dayton,,,"May 31, 2024",Adult Transthoracic,,,,,,,,,,,,,,,,,,,,
146,147,Kettering Health Dayton,39.768985,-84.202998,granted,405 West Grand Avenue,,Dayton,OH,45405,USA,,ketteringhealth.org,,vascular,,Kettering Health Dayton Dayton,,,,,,,,,"Mar 01, 2023","Extracranial Cerebrovascular Testing, Peripheral Arterial Testing, Peripheral Venous Testing, Visceral Vascular Testing",,,,,,,,,,,,,,
147,148,Kettering Health Dayton,39.768985,-84.202998,granted,405 W. Grand Ave.,,Dayton,OH,45405,USA,,www.KHNetwork.org,,nuclear,,Kettering Health Dayton Dayton,,,,,,,"Apr 30, 2024","Equilibrium Radionuclide Angiography, General Nuclear Medicine, Myocardial Perfusion Imaging",,,,,,,,,,,,,,,,
148,149,Kettering Health Dayton - Beavercreek Health Center,39.761561,-84.058472,granted,2510 Commons Blvd. Suite 120,,Beavercreek,OH,45431,USA,,www.ketteringhealth.org,,vascular,,Kettering Health Dayton - Beavercreek Health Center Beavercreek,,,,,,,,,"Aug 31, 2023","Extracranial Cerebrovascular Testing, Peripheral Arterial Testing, Peripheral Venous Testing",,,,,,,,,,,,,,
149,150,Kettering Health Dayton - Little York,39.855051,-84.186759,granted,4160 Little York Road,,Vandalia,OH,45414,USA,,,,echo,www.google.com/search?q=Kettering+Health+Dayton+-+Little+York,Kettering Health Dayton - Little York Vandalia,,,"May 31, 2024",Adult Transthoracic,,,,,,,,,,,,,,,,,,,,
150,151,Kettering Health Dayton - Sugarcreek,39.641937,-84.110762,granted,6438 Wilmington Pike Suite 120,,Dayton,OH,45459,USA,,www.ketteringhealth.org,,vascular,,Kettering Health Dayton - Sugarcreek Dayton,,,,,,,,,"Aug 31, 2023","Extracranial Cerebrovascular Testing, Peripheral Venous Testing",,,,,,,,,,,,,,
151,152,Kettering Health Dayton - Vandalia,39.890721,-84.199845,granted,113 W National Rd,,Vandalia,OH,45377,USA,,www.ketteringhealth.org,,vascular,,Kettering Health Dayton - Vandalia Vandalia,,,,,,,,,"Aug 31, 2023","Extracranial Cerebrovascular Testing, Peripheral Arterial Testing, Peripheral Venous Testing",,,,,,,,,,,,,,
152,153,Kettering Health Franklin,39.561752,-84.275387,granted,100 Kettering Way,,Franklin,OH,45005,USA,,www.ketteringhealth.org/emergency/franklin,,vascular,,Kettering Health Franklin Franklin,,,,,,,,,"Aug 31, 2023","Extracranial Cerebrovascular Testing, Peripheral Venous Testing",,,,,,,,,,,,,,
153,154,Kettering Health Greene Memorial,39.700288,-83.928781,granted,1141 N Monroe Dr,,Xenia,OH,45385,USA,,www.ketteringhealth.org/greene/,,vascular,,Kettering Health Greene Memorial Xenia,,,,,,,,,"Aug 31, 2023","Extracranial Cerebrovascular Testing, Peripheral Arterial Testing, Peripheral Venous Testing",,,,,,,,,,,,,,
154,155,Kettering Health Greene Memorial,39.700458,-83.928815,granted,1141 N. Monroe Dr.,,Xenia,OH,45385,USA,,www.KHNetwork.org,,nuclear,,Kettering Health Greene Memorial Xenia,,,,,,,"Apr 30, 2024","Equilibrium Radionuclide Angiography, General Nuclear Medicine, Myocardial Perfusion Imaging",,,,,,,,,,,,,,,,
155,156,Kettering Health Greene Memorial,39.700458,-83.928815,granted,1141 North Monroe Drive,,Xenia,OH,45385,USA,,,,echo,www.google.com/search?q=Kettering+Health+Greene+Memorial,Kettering Health Greene Memorial Xenia,,,"Jun 30, 2024",Adult Transthoracic,,,,,,,,,,,,,,,,,,,,
156,157,Kettering Health Hamilton Vascular Lab,39.415153,-84.573822,granted,630 Eaton Avenue,,Hamilton,OH,45013,USA,,,,vascular,www.google.com/search?q=Kettering+Health+Hamilton+Vascular+Lab,Kettering Health Hamilton Vascular Lab Hamilton,,,,,,,,,"May 31, 2025","Extracranial Cerebrovascular Testing, Peripheral Arterial Testing, Peripheral Venous Testing",,,,,,,,,,,,,,
157,158,Kettering Health Huber,39.878796,-84.136708,granted,8701 Old Troy Pike,,Huber Heights,OH,45424,USA,,www.ketteringhealth.org,,vascular,,Kettering Health Huber Huber Heights,,,,,,,,,"Aug 31, 2023","Extracranial Cerebrovascular Testing, Peripheral Arterial Testing, Peripheral Venous Testing",,,,,,,,,,,,,,
158,159,Kettering Health Main Campus,39.695524,-84.191013,granted,3535 Southern Blvd.,,Kettering,OH,45429,USA,,www.KHNetwork.org,,nuclear,,Kettering Health Main Campus Kettering,,,,,,,"Apr 30, 2024","Equilibrium Radionuclide Angiography, General Nuclear Medicine, Myocardial Perfusion Imaging, Positron Emission Tomography (PET)",,,,,,,,,,,,,,,,
159,160,Kettering Health Main Campus,39.695524,-84.191013,granted,3535 Southern Boulevard,,Kettering,OH,45429,USA,,www.ketteringhealth.org/kettering,,vascular,,Kettering Health Main Campus Kettering,,,,,,,,,"Aug 31, 2023","Extracranial Cerebrovascular Testing, Peripheral Arterial Testing, Peripheral Venous Testing",,,,,,,,,,,,,,
160,161,Kettering Health Miamisburg,39.63982,-84.25126,granted,4000 Miamisburg-Centerville Road,,Miamisburg,OH,45342,USA,,www.ketteringhealth.org/sycamore,,vascular,,Kettering Health Miamisburg Miamisburg,,,,,,,,,"Aug 31, 2023","Extracranial Cerebrovascular Testing, Peripheral Arterial Testing, Peripheral Venous Testing",,,,,,,,,,,,,,
161,162,Kettering Health Miamisburg,39.63982,-84.25126,granted,4000 Miamisburg-Centerville Rd.,,Miamisburg,OH,45342,USA,,www.KHNetwork.org,,nuclear,,Kettering Health Miamisburg Miamisburg,,,,,,,"Apr 30, 2024","Equilibrium Radionuclide Angiography, General Nuclear Medicine, Myocardial Perfusion Imaging",,,,,,,,,,,,,,,,
162,163,Kettering Health Middletown,39.493072,-84.320416,granted,6147 State Route 122,,Middletown,OH,45005,USA,,www.ketteringhealth.org/middletown,,vascular,,Kettering Health Middletown Middletown,,,,,,,,,"Aug 31, 2023","Extracranial Cerebrovascular Testing, Peripheral Arterial Testing, Peripheral Venous Testing",,,,,,,,,,,,,,
163,164,Kettering Health Middletown,39.49292,-84.320194,granted,6147 West Ohio-122,,Middletown,OH,45005,USA,,www.ketteringhealth.org/middletown/,,nuclear,,Kettering Health Middletown Middletown,,,,,,,"Apr 30, 2024",Myocardial Perfusion Imaging,,,,,,,,,,,,,,,,
164,165,Kettering Health Preble,39.765768,-84.646443,granted,450-B Washington-Jackson Rd,,Eaton,OH,45320,USA,,www.ketteringhealth.org,,vascular,,Kettering Health Preble Eaton,,,,,,,,,"Aug 31, 2023","Extracranial Cerebrovascular Testing, Peripheral Arterial Testing, Peripheral Venous Testing",,,,,,,,,,,,,,
165,166,Kettering Health Troy,40.042199,-84.209228,granted,600 West Main Street,,Troy,OH,45373,USA,,ketteringhealth.org/troy/,,nuclear,,Kettering Health Troy Troy,,,,,,,"Apr 30, 2024","Equilibrium Radionuclide Angiography, General Nuclear Medicine, Myocardial Perfusion Imaging",,,,,,,,,,,,,,,,
166,167,Kettering Health Troy,40.042199,-84.209228,granted,600 W. Main Street,,Troy,OH,45373,USA,,www.ketteringhealth.org/troy/,,vascular,,Kettering Health Troy Troy,,,,,,,,,"Aug 31, 2023","Extracranial Cerebrovascular Testing, Peripheral Venous Testing",,,,,,,,,,,,,,
167,168,Kettering Health Washington Township,39.633769,-84.206231,granted,1997 Miamisburg-Centerville Road,,Centerville,OH,45459,USA,,khnetwork.org,,vascular,,Kettering Health Washington Township Centerville,,,,,,,,,"Mar 01, 2023","Extracranial Cerebrovascular Testing, Peripheral Arterial Testing, Peripheral Venous Testing, Visceral Vascular Testing",,,,,,,,,,,,,,
168,169,Kettering Health Washington Township,39.633769,-84.206231,granted,1997 Miamisburg-Centerville Rd.,,Dayton,OH,45459,USA,,www.KHNetwork.org,,nuclear,,Kettering Health Washington Township Dayton,,,,,,,"Apr 30, 2024","Equilibrium Radionuclide Angiography, General Nuclear Medicine, Myocardial Perfusion Imaging",,,,,,,,,,,,,,,,
169,170,Kettering Health Washington Township,39.633769,-84.206231,granted,1997 Miamisburg Centerville Road,,Dayton,OH,45429,USA,,,,echo,www.google.com/search?q=Kettering+Health+Washington+Township,Kettering Health Washington Township Dayton,,,"May 31, 2024",Adult Transthoracic,,,,,,,,,,,,,,,,,,,,
170,171,Kettering Health Washington Township - Yankee,39.636,-84.199613,granted,"7677 Yankee Street, Suite 140",,Centerville,OH,45459,USA,,,,echo,www.google.com/search?q=Kettering+Health+Washington+Township+-+Yankee,Kettering Health Washington Township - Yankee Centerville,,,"May 31, 2024",Adult Transthoracic,,,,,,,,,,,,,,,,,,,,
171,172,Kettering Medical Center,39.695524,-84.191013,granted,3535 Southern Boulevard,,Kettering,OH,45429,USA,,,,echo,www.google.com/search?q=Kettering+Medical+Center,Kettering Medical Center Kettering,,,"Sep 30, 2023",Adult Transthoracic,,,,,,,,,,,,,,,,,,,,
172,173,Kettering Medical Center Diagnostic Cardiology,39.696669,-84.159392,granted,540 Linclon Park Boulevard,Suite 200,Kettering,OH,45429,USA,,,,echo,www.google.com/search?q=Kettering+Medical+Center+Diagnostic+Cardiology,Kettering Medical Center Diagnostic Cardiology Kettering,,,"Sep 30, 2023",Adult Transthoracic,,,,,,,,,,,,,,,,,,,,
173,174,Kettering Medical Center Diagnostic Cardiology,39.628289,-84.196923,granted,6147 State Route 122,,Middletown,OH,45005,USA,,,,echo,www.google.com/search?q=Kettering+Medical+Center+Diagnostic+Cardiology,Kettering Medical Center Diagnostic Cardiology Middletown,,,"Sep 30, 2023",Adult Transthoracic,,,,,,,,,,,,,,,,,,,,
174,175,Kettering Medical Center Diagnostic Cardiology,39.688536,-84.141554,granted,1380 East Stroop Road,,Kettering,OH,45429,USA,,,,echo,www.google.com/search?q=Kettering+Medical+Center+Diagnostic+Cardiology,Kettering Medical Center Diagnostic Cardiology Kettering,,,"Sep 30, 2023",Adult Transthoracic,,,,,,,,,,,,,,,,,,,,
175,176,Kettering Medical Center Diagnostic Cardiology,39.696669,-84.159392,granted,540 Lincoln Park Blvd.,Suite 200,Kettering,OH,45429,USA,,,,vascular,www.google.com/search?q=Kettering+Medical+Center+Diagnostic+Cardiology,Kettering Medical Center Diagnostic Cardiology Kettering,,,,,,,,,"Oct 31, 2024","Extracranial Cerebrovascular Testing, Peripheral Arterial Testing, Peripheral Venous Testing, Visceral Vascular Testing",,,,,,,,,,,,,,
176,177,Kettering Medical Center Diagnostic Cardiology-Stroop,39.688536,-84.141554,granted,1380 Stroop Road,,Kettering,OH,45429,USA,,,,vascular,www.google.com/search?q=Kettering+Medical+Center+Diagnostic+Cardiology-Stroop,Kettering Medical Center Diagnostic Cardiology-Stroop Kettering,,,,,,,,,"Oct 31, 2024","Extracranial Cerebrovascular Testing, Peripheral Arterial Testing, Peripheral Venous Testing, Visceral Vascular Testing",,,,,,,,,,,,,,
177,178,King’s Daughters Medical Center - Ohio,38.7481,-82.992167,granted,2001 Scioto Trail,,Portsmouth,OH,45662,USA,,,,echo,www.google.com/search?q=King’s+Daughters+Medical+Center+-+Ohio,King’s Daughters Medical Center - Ohio Portsmouth,,,"Feb 28, 2025",Adult Transthoracic,,,,,,,,,,,,,,,,,,,,
178,179,KMC Diagnostic Cardiology at Lincoln Park,39.696669,-84.159392,granted,540 Lincoln Park Blvd.,Ste. 200,Kettering,OH,45429,USA,,www.KHNetwork.org,,nuclear,,KMC Diagnostic Cardiology at Lincoln Park Kettering,,,,,,,"Apr 30, 2024","Equilibrium Radionuclide Angiography, Myocardial Perfusion Imaging",,,,,,,,,,,,,,,,
179,180,KMC Diagnostic Cardiology at Stroop Road,39.688536,-84.141554,granted,1380 Stroop Rd.,,Kettering,OH,45429,USA,,www.KHNetwork.org,,nuclear,,KMC Diagnostic Cardiology at Stroop Road Kettering,,,,,,,"Apr 30, 2024","Equilibrium Radionuclide Angiography, Myocardial Perfusion Imaging",,,,,,,,,,,,,,,,
180,181,"Knox Diagnostic Imaging Center, LLC",40.402482,-82.447579,granted,1330 Coshocton Road,,Mount Vernon,OH,43050,USA,,,,echo,"www.google.com/search?q=Knox+Diagnostic+Imaging+Center,+LLC","Knox Diagnostic Imaging Center, LLC Mount Vernon",,,"Feb 28, 2025",Adult Transthoracic,,,,,,,,,,,,,,,,,,,,
181,182,"Knox Diagnostic Imaging Center, LLC",40.402482,-82.447579,granted,1330 Coshocton Road,,Mount Vernon,OH,43050,USA,,,,vascular,"www.google.com/search?q=Knox+Diagnostic+Imaging+Center,+LLC","Knox Diagnostic Imaging Center, LLC Mount Vernon",,,,,,,,,"Oct 31, 2023","Extracranial Cerebrovascular Testing, Peripheral Arterial Testing, Peripheral Venous Testing, Visceral Vascular Testing",,,,,,,,,,,,,,
182,183,"Kurt C Garren, MD, Inc",40.509234,-81.466843,granted,515 Union Ave. Ste. 157,,Dover,OH,44622,USA,,www.kurtgarrenmd.com,,ct,,"Kurt C Garren, MD, Inc Dover","Jun 30, 2023",Maxillofacial CT,,,,,,,,,,,,,,,,,,,,,,
183,184,"Lake Health, Lake West Medical Center",41.626567,-81.432128,granted,36000 Euclid Avenue,,Willoughby,OH,44094,USA,,,,echo,"www.google.com/search?q=Lake+Health,+Lake+West+Medical+Center","Lake Health, Lake West Medical Center Willoughby",,,"Aug 31, 2024",Adult Transthoracic,,,,,,,,,,,,,,,,,,,,
184,185,"Lake Health, TriPoint Medical Center",41.664251,-81.24466,granted,7590 Auburn Road,,Concord,OH,44077,USA,,,,echo,"www.google.com/search?q=Lake+Health,+TriPoint+Medical+Center","Lake Health, TriPoint Medical Center Concord",,,"Aug 31, 2024",Adult Transthoracic,,,,,,,,,,,,,,,,,,,,
185,186,Lakewood Family Health Center,41.48525,-81.797306,granted,14601 Detroit Avenue,,Lakewood,OH,44107,USA,,,,echo,www.google.com/search?q=Lakewood+Family+Health+Center,Lakewood Family Health Center Lakewood,,,"Apr 30, 2024",Adult Transthoracic,,,,,,,,,,,,,,,,,,,,
186,187,Licking Memorial Hospital,40.046907,-82.45039,granted,1320 West Main Street,,Newark,OH,43055,USA,,,,echo,www.google.com/search?q=Licking+Memorial+Hospital,Licking Memorial Hospital Newark,,,"Apr 30, 2024","Adult Stress, Adult Transthoracic",,,,,,,,,,,,,,,,,,,,
187,188,Licking Memorial Hospital,40.046907,-82.45039,granted,1320 West Main Street,,Newark,OH,43055,USA,,www.lmhealth.org,,vascular,,Licking Memorial Hospital Newark,,,,,,,,,"May 31, 2025","Extracranial Cerebrovascular Testing, Peripheral Arterial Testing, Peripheral Venous Testing, Visceral Vascular Testing, Screening",,,,,,,,,,,,,,
188,189,Lima Memorial Health System,40.735602,-84.087713,granted,1001 Bellefontaine Avenue,,Lima,OH,45804,USA,,,,echo,www.google.com/search?q=Lima+Memorial+Health+System,Lima Memorial Health System Lima,,,"Nov 30, 2023",Adult Transthoracic,,,,,,,,,,,,,,,,,,,,
189,190,Lorain Family Health and Surgery Center,41.411747,-82.236214,granted,5700 Cooper Foster Road,,Lorain,OH,44053,USA,,,,pediatric_echo,www.google.com/search?q=Lorain+Family+Health+and+Surgery+Center,Lorain Family Health and Surgery Center Lorain,,,,,,,,,,,"Aug 31, 2023",Pediatric Transthoracic,,,,,,,,,,,,
190,191,Lorain Family Health Center,41.411747,-82.236214,granted,5700 Cooper Foster Road,,Lorain,OH,44053,USA,,,,echo,www.google.com/search?q=Lorain+Family+Health+Center,Lorain Family Health Center Lorain,,,"Apr 30, 2024","Adult Stress, Adult Transthoracic",,,,,,,,,,,,,,,,,,,,
191,192,Lutheran Hospital,41.487243,-81.705834,granted,1730 West 25th Street,,Cleveland,OH,44113,USA,,,,echo,www.google.com/search?q=Lutheran+Hospital,Lutheran Hospital Cleveland,,,"Apr 30, 2024",Adult Transthoracic,,,,,,,,,,,,,,,,,,,,
192,193,Lutheran Hospital Vascular Laboratory,41.487243,-81.705834,granted,1730 W. 25th Street,,Cleveland,OH,44113,USA,,,,vascular,www.google.com/search?q=Lutheran+Hospital+Vascular+Laboratory,Lutheran Hospital Vascular Laboratory Cleveland,,,,,,,,,"Apr 30, 2024","Extracranial Cerebrovascular Testing, Peripheral Arterial Testing, Peripheral Venous Testing, Visceral Vascular Testing",,,,,,,,,,,,,,
193,194,Marietta Memorial Hospital,39.431621,-81.464717,granted,401 Matthew St,,Marietta,OH,45750,USA,,www.mhsystem.org,,echo,,Marietta Memorial Hospital Marietta,,,"Dec 31, 2023",Adult Transthoracic,,,,,,,,,,,,,,,,,,,,
194,195,Marion General Hospital,40.571602,-83.128048,granted,1000 McKinley Park Drive,,Marion,OH,43302,USA,,schelbkohiohealth.com,,echo,,Marion General Hospital Marion,,,"Jan 31, 2025",Adult Transthoracic,,,,,,,,,,,,,,,,,,,,
195,196,Marion General Hospital Outpatient Services,40.570306,-83.122627,granted,1040 Delaware Avenue,,Marion,OH,43302,USA,,,,echo,www.google.com/search?q=Marion+General+Hospital+Outpatient+Services,Marion General Hospital Outpatient Services Marion,,,"Jan 31, 2025",Adult Transthoracic,,,,,,,,,,,,,,,,,,,,
196,197,Mary Rutan Hospital,40.368961,-83.756834,multigranted,205 Palmer Avenue,,Bellefontaine,OH,43311,USA,,maryrutan.org,,"nuclear, vascular, echo",,Mary Rutan Hospital Bellefontaine,,,"Jul 31, 2025","Adult Stress, Adult Transesophageal, Adult Transthoracic",,,"Aug 31, 2023",Myocardial Perfusion Imaging,"Oct 31, 2024","Extracranial Cerebrovascular Testing, Peripheral Arterial Testing, Peripheral Venous Testing",,,,,,,,,,,,,,
197,198,Marymount Hospital,41.422416,-81.598271,granted,12300 McCracken Rd,,Garfield Hts,OH,44125,USA,,,,echo,www.google.com/search?q=Marymount+Hospital,Marymount Hospital Garfield Hts,,,"Apr 30, 2024",Adult Transthoracic,,,,,,,,,,,,,,,,,,,,
198,199,Mayfield Heights Cardiovascular Medicine Office,41.520136,-81.433553,granted,6801 Mayfield Road,Suite 444,Mayfield Heights,OH,44124,USA,,,,echo,www.google.com/search?q=Mayfield+Heights+Cardiovascular+Medicine+Office,Mayfield Heights Cardiovascular Medicine Office Mayfield Heights,,,"Apr 30, 2024","Adult Stress, Adult Transthoracic",,,,,,,,,,,,,,,,,,,,
199,200,McCullough - Hyde Memorial Hospital,39.512037,-84.740814,granted,110 North Poplar Street,,Oxford,OH,45056,USA,,,,echo,www.google.com/search?q=McCullough+-+Hyde+Memorial+Hospital,McCullough - Hyde Memorial Hospital Oxford,,,"Mar 31, 2025","Adult Stress, Adult Transthoracic",,,,,,,,,,,,,,,,,,,,
200,201,Medical Arts Building,39.136728,-84.502562,granted,234 Goodman Ave.,,Cincinnati,OH,45219,USA,,,,vascular,www.google.com/search?q=Medical+Arts+Building,Medical Arts Building Cincinnati,,,,,,,,,"Sep 30, 2023","Extracranial Cerebrovascular Testing, Peripheral Arterial Testing, Peripheral Venous Testing",,,,,,,,,,,,,,
201,202,Medina Cardiovascular Medicine Office,41.138871,-81.836825,granted,9700 East Washington Street,,Medina,OH,44256,USA,,,,echo,www.google.com/search?q=Medina+Cardiovascular+Medicine+Office,Medina Cardiovascular Medicine Office Medina,,,"Apr 30, 2024",Adult Transthoracic,,,,,,,,,,,,,,,,,,,,
202,203,Medina Hospital,41.138885,-81.836933,granted,1000 East Washington Street,,Medina,OH,44256,USA,,,,echo,www.google.com/search?q=Medina+Hospital,Medina Hospital Medina,,,"Apr 30, 2024",Adult Transthoracic,,,,,,,,,,,,,,,,,,,,
203,204,Memorial Hospital of Union County,40.229372,-83.369545,granted,500 London Ave.,,Marysville,OH,43040,USA,,,,nuclear,www.google.com/search?q=Memorial+Hospital+of+Union+County,Memorial Hospital of Union County Marysville,,,,,,,"Jun 30, 2024",Myocardial Perfusion Imaging,,,,,,,,,,,,,,,,
204,205,Memorial Hospital of Union County,40.229372,-83.369545,multigranted,500 London Avenue,,Marysville,OH,43040,USA,,,,"vascular, echo",www.google.com/search?q=Memorial+Hospital+of+Union+County,Memorial Hospital of Union County Marysville,,,"Aug 31, 2023",Adult Transthoracic,,,,,"Nov 30, 2022","Extracranial Cerebrovascular Testing, Peripheral Arterial Testing, Peripheral Venous Testing",,,,,,,,,,,,,,
205,206,Mercy Allen Hospital,41.29422,-82.224474,granted,200 W. Lorain Street,,Oberlin,OH,44074,USA,,,,echo,www.google.com/search?q=Mercy+Allen+Hospital,Mercy Allen Hospital Oberlin,,,"Jan 31, 2023",Adult Transthoracic,,,,,,,,,,,,,,,,,,,,
206,207,Mercy Diagnostics Center South,41.363629,-82.074409,granted,1120 E. Broad Street,,Elyria,OH,44035,USA,,,,echo,www.google.com/search?q=Mercy+Diagnostics+Center+South,Mercy Diagnostics Center South Elyria,,,"Jan 31, 2023",Adult Transthoracic,,,,,,,,,,,,,,,,,,,,
207,208,Mercy Health - Fairfield Hospital,39.310902,-84.519501,granted,3000 Mack Road,,Fairfield,OH,45014,USA,,,,vascular,www.google.com/search?q=Mercy+Health+-+Fairfield+Hospital,Mercy Health - Fairfield Hospital Fairfield,,,,,,,,,"May 31, 2025","Extracranial Cerebrovascular Testing, Peripheral Arterial Testing, Peripheral Venous Testing",,,,,,,,,,,,,,
208,209,Mercy Health - Vascular and Endovascular Surgeons,39.206848,-84.381154,granted,4750 E. Galbraith Rd.,Suite 215,Cincinnati,OH,45236,USA,,www.mercy.com,,vascular,,Mercy Health - Vascular and Endovascular Surgeons Cincinnati,,,,,,,,,"Sep 30, 2024","Extracranial Cerebrovascular Testing, Peripheral Arterial Testing, Peripheral Venous Testing",,,,,,,,,,,,,,
209,210,Mercy Health - West Hospital,39.180884,-84.595394,granted,3300 Mercy Health Blvd.,,Cincinnati,OH,45211,USA,,,,vascular,www.google.com/search?q=Mercy+Health+-+West+Hospital,Mercy Health - West Hospital Cincinnati,,,,,,,,,"Oct 31, 2023","Extracranial Cerebrovascular Testing, Peripheral Arterial Testing, Peripheral Venous Testing",,,,,,,,,,,,,,
210,211,Mercy Health Anderson,39.084376,-84.349243,granted,7500 State Road,,Cincinnati,OH,45255,USA,,,,vascular,www.google.com/search?q=Mercy+Health+Anderson,Mercy Health Anderson Cincinnati,,,,,,,,,"Jul 31, 2023","Extracranial Cerebrovascular Testing, Peripheral Arterial Testing, Peripheral Venous Testing",,,,,,,,,,,,,,
211,212,Mercy Health Clermont,39.078309,-84.144986,granted,3000 Hospital Drive,,Batavia,OH,45103,USA,,,,vascular,www.google.com/search?q=Mercy+Health+Clermont,Mercy Health Clermont Batavia,,,,,,,,,"Jul 31, 2023","Extracranial Cerebrovascular Testing, Peripheral Arterial Testing, Peripheral Venous Testing",,,,,,,,,,,,,,
212,213,Mercy Health Springfield Heart House,39.921395,-83.780988,granted,100 W. McCreight Ave.,Suite 150,Springfield,OH,45504,USA,,,,nuclear,www.google.com/search?q=Mercy+Health+Springfield+Heart+House,Mercy Health Springfield Heart House Springfield,,,,,,,"Jul 31, 2023","Equilibrium Radionuclide Angiography, Myocardial Perfusion Imaging",,,,,,,,,,,,,,,,
213,214,Mercy Health Springfield Heart House,39.938838,-83.810766,multigranted,100 West McCreight Avenue,Suite 150,Springfield,OH,45504,USA,,,,"vascular, echo",www.google.com/search?q=Mercy+Health+Springfield+Heart+House,Mercy Health Springfield Heart House Springfield,,,"Dec 31, 2022",Adult Transthoracic,,,,,"Nov 30, 2022","Extracranial Cerebrovascular Testing, Peripheral Arterial Testing",,,,,,,,,,,,,,
214,215,Mercy Health Urbana Heart House,40.107896,-83.731966,multigranted,900 East Court Street,,Urbana,OH,43078,USA,,,,"vascular, echo",www.google.com/search?q=Mercy+Health+Urbana+Heart+House,Mercy Health Urbana Heart House Urbana,,,"Dec 31, 2022",Adult Transthoracic,,,,,"Nov 30, 2022","Extracranial Cerebrovascular Testing, Peripheral Arterial Testing",,,,,,,,,,,,,,
215,216,Mercy Health Urbana Heart House,40.107896,-83.731966,granted,900 East Court Street,,Urbana,OH,43078,USA,,,,nuclear,www.google.com/search?q=Mercy+Health+Urbana+Heart+House,Mercy Health Urbana Heart House Urbana,,,,,,,"Jul 31, 2023","Equilibrium Radionuclide Angiography, Myocardial Perfusion Imaging",,,,,,,,,,,,,,,,
216,217,Mercy Health Urbana Hospital,40.106731,-83.73031,granted,904 Scioto St,,Urbana,OH,43078,,,,,echo,www.google.com/search?q=Mercy+Health+Urbana+Hospital,Mercy Health Urbana Hospital Urbana,,,"Aug 31, 2024",Adult Transthoracic,,,,,,,,,,,,,,,,,,,,
217,218,Mercy Health- Fairfield Hospital,39.310902,-84.519501,granted,3000 Mack Road,Suite 100,Fairfield,OH,45014,USA,,,,nuclear,www.google.com/search?q=Mercy+Health-+Fairfield+Hospital,Mercy Health- Fairfield Hospital Fairfield,,,,,,,"Jan 31, 2023","Equilibrium Radionuclide Angiography, Myocardial Perfusion Imaging",,,,,,,,,,,,,,,,
218,219,Mercy Health- Lorain Hospital,41.436002,-82.235212,granted,3700 Kolbe Rd.,,Lorain,OH,44053,USA,,,,echo,www.google.com/search?q=Mercy+Health-+Lorain+Hospital,Mercy Health- Lorain Hospital Lorain,,,"Jan 31, 2023",Adult Transthoracic,,,,,,,,,,,,,,,,,,,,
219,220,Mercy Health-Clermont Hospital,39.08007,-84.146559,granted,3000 Hospital Drive,,Batavia,OH,45103,USA,,,,echo,www.google.com/search?q=Mercy+Health-Clermont+Hospital,Mercy Health-Clermont Hospital Batavia,,,"Dec 31, 2024","Adult Stress, Adult Transthoracic",,,,,,,,,,,,,,,,,,,,
220,221,Mercy Health-Fairfield Hospital,39.310902,-84.519501,granted,3000 Mack Road,,Fairfield,OH,45014,USA,,,,echo,www.google.com/search?q=Mercy+Health-Fairfield+Hospital,Mercy Health-Fairfield Hospital Fairfield,,,"Nov 30, 2022","Adult Stress, Adult Transthoracic",,,,,,,,,,,,,,,,,,,,
221,222,Mercy Health-Fairfield Hospital Outpatient Testing Hamilton,39.426593,-84.591108,granted,870 N W Washington Blvd,Suite D,Hamilton,OH,45013,USA,,,,echo,www.google.com/search?q=Mercy+Health-Fairfield+Hospital+Outpatient+Testing+Hamilton,Mercy Health-Fairfield Hospital Outpatient Testing Hamilton Hamilton,,,"Nov 30, 2022",Adult Transthoracic,,,,,,,,,,,,,,,,,,,,
222,223,Mercy Health-West Hospital,39.180884,-84.595394,granted,3300 Mercy Health Blvd.,,Cincinnati,OH,45211,USA,,,,echo,www.google.com/search?q=Mercy+Health-West+Hospital,Mercy Health-West Hospital Cincinnati,,,"Aug 31, 2025",Adult Transthoracic,,,,,,,,,,,,,,,,,,,,
223,224,Mercy Heart Institute of Mercy Hospital Anderson,39.084368,-84.349128,granted,"7502 State Rd, Suite 2210",,Cincinnati,OH,45255,USA,,,,echo,www.google.com/search?q=Mercy+Heart+Institute+of+Mercy+Hospital+Anderson,Mercy Heart Institute of Mercy Hospital Anderson Cincinnati,,,"Dec 31, 2024","Adult Stress, Adult Transthoracic",,,,,,,,,,,,,,,,,,,,
224,225,Mercy Hospital Anderson,39.084376,-84.349243,granted,7500 State Road,,Cincinnati,OH,45255,USA,,,,echo,www.google.com/search?q=Mercy+Hospital+Anderson,Mercy Hospital Anderson Cincinnati,,,"Dec 31, 2024","Adult Stress, Adult Transthoracic",,,,,,,,,,,,,,,,,,,,
225,226,Mercy Medical Center,40.812321,-81.397069,granted,1320 Mercy Drive Northwest,,Canton,OH,44708,USA,,www.cantonmercy.com,,echo,,Mercy Medical Center Canton,,,"Mar 31, 2025",Adult Transthoracic,,,,,,,,,,,,,,,,,,,,
226,227,Mercy Medical Center,40.812321,-81.397069,granted,1320 Mercy Drive NW,,Canton,OH,44708,USA,,www.cantonmercy.com,,vascular,,Mercy Medical Center Canton,,,,,,,,,"Mar 31, 2025","Extracranial Cerebrovascular Testing, Peripheral Arterial Testing, Peripheral Venous Testing, Visceral Vascular Testing",,,,,,,,,,,,,,
227,228,Metrohealth Medical Center,41.462386,-81.698756,granted,2500 Metrohealth Drive,,Cleveland,OH,44109,USA,,MetroHealth.org,,vascular,,Metrohealth Medical Center Cleveland,,,,,,,,,"Nov 30, 2024","Extracranial Cerebrovascular Testing, Peripheral Arterial Testing, Peripheral Venous Testing",,,,,,,,,,,,,,
228,229,MetroHealth Medical Center Beachwood Noninvasive Echocardiography Laboratory,41.461855,-81.494061,granted,3609 Park East Drive,Suite 300,Beachwood,OH,44133,USA,,,,echo,www.google.com/search?q=MetroHealth+Medical+Center+Beachwood+Noninvasive+Echocardiography+Laboratory,MetroHealth Medical Center Beachwood Noninvasive Echocardiography Laboratory Beachwood,,,"Jan 31, 2023",Adult Transthoracic,,,,,,,,,,,,,,,,,,,,
229,230,MetroHealth Medical Center Brecksville Noninvasive Echocardiography Laboratory,41.306722,-81.623387,granted,9200Treeworth Boulevard,,Brecksville,OH,44141,USA,,,,echo,www.google.com/search?q=MetroHealth+Medical+Center+Brecksville+Noninvasive+Echocardiography+Laboratory,MetroHealth Medical Center Brecksville Noninvasive Echocardiography Laboratory Brecksville,,,"Jan 31, 2023",Adult Transthoracic,,,,,,,,,,,,,,,,,,,,
230,231,MetroHealth Medical Center Cleveland Heights Noninvasive Echocardiography Laboratory,41.514505,-81.55078,granted,10 Severance Circle,,Cleveland Heights,OH,44118,USA,,,,echo,www.google.com/search?q=MetroHealth+Medical+Center+Cleveland+Heights+Noninvasive+Echocardiography+Laboratory,MetroHealth Medical Center Cleveland Heights Noninvasive Echocardiography Laboratory Cleveland Heights,,,"Jan 31, 2023","Adult Stress, Adult Transthoracic",,,,,,,,,,,,,,,,,,,,
231,232,MetroHealth Medical Center Middleburg Heights Noninvasive Echocardiography Laboratory,41.353423,-81.8204,granted,7800 Pearl Road,,Middleburg Heights,OH,44130,USA,,,,echo,www.google.com/search?q=MetroHealth+Medical+Center+Middleburg+Heights+Noninvasive+Echocardiography+Laboratory,MetroHealth Medical Center Middleburg Heights Noninvasive Echocardiography Laboratory Middleburg Heights,,,"Jan 31, 2023","Adult Stress, Adult Transthoracic",,,,,,,,,,,,,,,,,,,,
232,233,MetroHealth Medical Center Noninvasive Echocardiography Laboratory,41.462386,-81.698756,granted,2500 MetroHealth Drive,,Cleveland,OH,44109,USA,,,,echo,www.google.com/search?q=MetroHealth+Medical+Center+Noninvasive+Echocardiography+Laboratory,MetroHealth Medical Center Noninvasive Echocardiography Laboratory Cleveland,,,"Jan 31, 2023","Adult Stress, Adult Transesophageal, Adult Transthoracic",,,,,,,,,,,,,,,,,,,,
233,234,MetroHealth Medical Center Parma Echocardiography Laboratory,41.4051,-81.774,granted,12301 Snow Road,,Parma Heights,OH,44130,USA,,,,echo,www.google.com/search?q=MetroHealth+Medical+Center+Parma+Echocardiography+Laboratory,MetroHealth Medical Center Parma Echocardiography Laboratory Parma Heights,,,"Jan 31, 2023","Adult Stress, Adult Transthoracic",,,,,,,,,,,,,,,,,,,,
234,235,Miami Valley Hospital,39.743709,-84.187486,granted,1 Wyoming St.,,Dayton,OH,45409,USA,,,,echo,www.google.com/search?q=Miami+Valley+Hospital,Miami Valley Hospital Dayton,,,"Sep 30, 2024",Adult Transthoracic,,,,,,,,,,,,,,,,,,,,
235,236,Miami Valley Hospital South,39.652916,-84.111678,granted,2400 Miami Valley Dr.,,Centerville,OH,45459,USA,,,,echo,www.google.com/search?q=Miami+Valley+Hospital+South,Miami Valley Hospital South Centerville,,,"Sep 30, 2024",Adult Transthoracic,,,,,,,,,,,,,,,,,,,,
236,237,"Midwest Community Health Associates, Inc.",41.474611,-84.557282,granted,442 W. High St.,,Bryan,OH,43506,USA,,,,nuclear,"www.google.com/search?q=Midwest+Community+Health+Associates,+Inc.","Midwest Community Health Associates, Inc. Bryan",,,,,,,"Jan 31, 2024","General Nuclear Medicine, Myocardial Perfusion Imaging",,,,,,,,,,,,,,,,
237,238,Midwest Modern Imaging,41.688501,-83.727381,granted,7640 Sylvania Avenue,,Sylvania,OH,43560,USA,,,,echo,www.google.com/search?q=Midwest+Modern+Imaging,Midwest Modern Imaging Sylvania,,,"May 31, 2023",Adult Transthoracic,,,,,,,,,,,,,,,,,,,,
238,239,Morrow County Hospital,40.549216,-82.849154,granted,651 West Marion Road,,Mt. Gilead,OH,43338,USA,,www.Morrowcountyhospital.com,,echo,,Morrow County Hospital Mt. Gilead,,,"Jan 31, 2025",Adult Transthoracic,,,,,,,,,,,,,,,,,,,,
239,240,Mount Carmel Cardiovascular Imaging Services - Diley Road,39.849591,-82.781142,granted,7901 Diley Road,Suite 230,Canal Winchester,OH,43110,USA,,,,vascular,www.google.com/search?q=Mount+Carmel+Cardiovascular+Imaging+Services+-+Diley+Road,Mount Carmel Cardiovascular Imaging Services - Diley Road Canal Winchester,,,,,,,,,"Jun 30, 2023","Extracranial Cerebrovascular Testing, Peripheral Arterial Testing, Peripheral Venous Testing",,,,,,,,,,,,,,
240,241,Mount Carmel Cardiovascular Imaging Services - Grove City,39.852823,-83.078158,granted,5300 North Meadows Drive,Suite 260,Grove City,OH,43123,USA,,,,vascular,www.google.com/search?q=Mount+Carmel+Cardiovascular+Imaging+Services+-+Grove+City,Mount Carmel Cardiovascular Imaging Services - Grove City Grove City,,,,,,,,,"Jun 30, 2023","Extracranial Cerebrovascular Testing, Peripheral Arterial Testing, Peripheral Venous Testing",,,,,,,,,,,,,,
241,242,Mount Carmel Cardiovascular Imaging Services - Hilliard,40.048591,-83.133699,granted,4674 Britton Parkway,,Hilliard,OH,43023,USA,,,,vascular,www.google.com/search?q=Mount+Carmel+Cardiovascular+Imaging+Services+-+Hilliard,Mount Carmel Cardiovascular Imaging Services - Hilliard Hilliard,,,,,,,,,"Jun 30, 2023","Extracranial Cerebrovascular Testing, Peripheral Arterial Testing, Peripheral Venous Testing",,,,,,,,,,,,,,
242,243,Mount Carmel Cardiovascular Imaging Services - Lewis Center,40.189834,-83.022134,granted,7100 Graphics Way,Suite 1550,Lewis Center,OH,43035,USA,,,,vascular,www.google.com/search?q=Mount+Carmel+Cardiovascular+Imaging+Services+-+Lewis+Center,Mount Carmel Cardiovascular Imaging Services - Lewis Center Lewis Center,,,,,,,,,"Jun 30, 2023","Extracranial Cerebrovascular Testing, Peripheral Arterial Testing, Peripheral Venous Testing",,,,,,,,,,,,,,
243,244,Mount Carmel Cardiovascular Imaging Services - McNaughten Rd,39.978122,-82.836383,granted,85 McNaughton Road,Suite 300,Columbus,OH,43213,USA,,,,vascular,www.google.com/search?q=Mount+Carmel+Cardiovascular+Imaging+Services+-+McNaughten+Rd,Mount Carmel Cardiovascular Imaging Services - McNaughten Rd Columbus,,,,,,,,,"Jun 30, 2023","Extracranial Cerebrovascular Testing, Peripheral Arterial Testing, Peripheral Venous Testing",,,,,,,,,,,,,,
244,245,Mount Carmel Cardiovascular Imaging Services at Cooper Road,40.114494,-82.941887,granted,477 Cooper Rd,Suite 200,Westerville,OH,43081,USA,,www.mountcarmelhealth.com,,echo,,Mount Carmel Cardiovascular Imaging Services at Cooper Road Westerville,,,"Jul 31, 2023","Adult Stress, Adult Transthoracic",,,,,,,,,,,,,,,,,,,,
245,246,Mount Carmel Cardiovascular Imaging Services at Cooper Road,40.113502,-82.942638,granted,477 Cooper Rd,Suite 200,Westerville,OH,43081,USA,,www.mountcarmelhealth.com,,nuclear,,Mount Carmel Cardiovascular Imaging Services at Cooper Road Westerville,,,,,,,"Nov 29, 2022",Myocardial Perfusion Imaging,,,,,,,,,,,,,,,,
246,247,Mount Carmel Cardiovascular Imaging Services at Diley Ridge,39.849591,-82.781142,granted,7901 Diley Road,Suite 230,Canal Winchester,OH,43110,USA,,www.mountcarmelhealth.com,,echo,,Mount Carmel Cardiovascular Imaging Services at Diley Ridge Canal Winchester,,,"Jul 31, 2023","Adult Stress, Adult Transthoracic",,,,,,,,,,,,,,,,,,,,
247,248,Mount Carmel Cardiovascular Imaging Services at Grove City,39.852823,-83.078158,granted,5300 N. Meadows Dr.,Suite 260,Grove City,OH,43123,USA,,www.mountcarmelhealth.com,,echo,,Mount Carmel Cardiovascular Imaging Services at Grove City Grove City,,,"Jul 31, 2023","Adult Stress, Adult Transthoracic",,,,,,,,,,,,,,,,,,,,
248,249,Mount Carmel Cardiovascular Imaging Services at Grove City,39.852823,-83.078158,granted,5350 N. Meadows Dr.,,Grove City,OH,43123,USA,,www.mountcarmelhealth.com,,nuclear,,Mount Carmel Cardiovascular Imaging Services at Grove City Grove City,,,,,,,"Nov 29, 2022",Myocardial Perfusion Imaging,,,,,,,,,,,,,,,,
249,250,Mount Carmel Cardiovascular Imaging Services at Hilliard,40.104958,-83.166135,granted,4674 Britton Parkway Suite 2100,,Hilliard,OH,43026,USA,,,,echo,www.google.com/search?q=Mount+Carmel+Cardiovascular+Imaging+Services+at+Hilliard,Mount Carmel Cardiovascular Imaging Services at Hilliard Hilliard,,,"Jul 31, 2023","Adult Stress, Adult Transthoracic",,,,,,,,,,,,,,,,,,,,
250,251,Mount Carmel Cardiovascular Imaging Services at Lewis Center,40.189834,-83.022134,granted,7100 Graphics Way Suite 1550,,Lewis Center,OH,43035,USA,,,,echo,www.google.com/search?q=Mount+Carmel+Cardiovascular+Imaging+Services+at+Lewis+Center,Mount Carmel Cardiovascular Imaging Services at Lewis Center Lewis Center,,,"Jul 31, 2023","Adult Stress, Adult Transthoracic",,,,,,,,,,,,,,,,,,,,
251,252,Mount Carmel Cardiovascular Imaging Services at London,39.897702,-83.420161,granted,136 East High Street,,London,OH,43140,USA,,,,echo,www.google.com/search?q=Mount+Carmel+Cardiovascular+Imaging+Services+at+London,Mount Carmel Cardiovascular Imaging Services at London London,,,"Jul 31, 2023",Adult Transthoracic,,,,,,,,,,,,,,,,,,,,
252,253,Mount Carmel Cardiovascular Imaging Services at McNaughten,39.977838,-82.836408,granted,85 McNaughten,,Columbus,OH,43213,USA,,www.mountcarmelhealth.com,,echo,,Mount Carmel Cardiovascular Imaging Services at McNaughten Columbus,,,"Jul 31, 2023","Adult Stress, Adult Transthoracic",,,,,,,,,,,,,,,,,,,,
253,254,Mount Carmel Cardiovascular Imaging Services at McNaughten,39.978122,-82.836383,granted,85 McNaughten,,Columbus,OH,43213,USA,,www.mountcarmelhealth.com,,nuclear,,Mount Carmel Cardiovascular Imaging Services at McNaughten Columbus,,,,,,,"Nov 29, 2022","Myocardial Perfusion Imaging, Positron Emission Tomography (PET)",,,,,,,,,,,,,,,,
254,255,Mount Carmel Cardiovascular Imaging Services Cooper Rd,40.114494,-82.941887,granted,477 Cooper Road,Suite 200,Westerville,OH,43081,USA,,,,vascular,www.google.com/search?q=Mount+Carmel+Cardiovascular+Imaging+Services+Cooper+Rd,Mount Carmel Cardiovascular Imaging Services Cooper Rd Westerville,,,,,,,,,"Jun 30, 2023","Extracranial Cerebrovascular Testing, Peripheral Arterial Testing, Peripheral Venous Testing",,,,,,,,,,,,,,
255,256,Mount Carmel East Hospital,39.979349,-82.842886,granted,6001 East Broad Street,,Columbus,OH,43213,USA,,www.mountcarmelhealth.com,,echo,,Mount Carmel East Hospital Columbus,,,"Jul 31, 2023","Adult Stress, Adult Transesophageal, Adult Transthoracic",,,,,,,,,,,,,,,,,,,,
256,257,Mount Carmel East Hospital Vascular Lab,39.979349,-82.842886,granted,6001 East Broad Street,,Columbus,OH,43213,USA,,,,vascular,www.google.com/search?q=Mount+Carmel+East+Hospital+Vascular+Lab,Mount Carmel East Hospital Vascular Lab Columbus,,,,,,,,,"Jun 30, 2023","Extracranial Cerebrovascular Testing, Peripheral Arterial Testing, Peripheral Venous Testing",,,,,,,,,,,,,,
257,258,Mount Carmel Grove City Hospital,39.957782,-83.020824,granted,5300 N. Meadows Drive,,Grove City,OH,43123,USA,,,,vascular,www.google.com/search?q=Mount+Carmel+Grove+City+Hospital,Mount Carmel Grove City Hospital Grove City,,,,,,,,,"Jun 30, 2023","Extracranial Cerebrovascular Testing, Peripheral Arterial Testing, Peripheral Venous Testing",,,,,,,,,,,,,,
258,259,Mount Carmel Grove City Hospital,39.957782,-83.020824,granted,5300 N Meadows Drive,,Grove City,OH,43123,USA,,www.mountcarmelhealth.com,,echo,,Mount Carmel Grove City Hospital Grove City,,,"Jul 31, 2023","Adult Stress, Adult Transesophageal, Adult Transthoracic",,,,,,,,,,,,,,,,,,,,
259,260,Mount Carmel New Albany Hospital,40.086303,-82.788793,granted,7333 Smith’s Mill Road,,New Albany,OH,43054,USA,,www.mountcarmelhealth.com,,echo,,Mount Carmel New Albany Hospital New Albany,,,"Jul 31, 2023",Adult Transthoracic,,,,,,,,,,,,,,,,,,,,
260,261,Mount Carmel New Albany Surgical Hospital Vascular Lab,40.086303,-82.788793,granted,7333 Smith Mill Road,,New Albany,OH,43054,USA,,,,vascular,www.google.com/search?q=Mount+Carmel+New+Albany+Surgical+Hospital+Vascular+Lab,Mount Carmel New Albany Surgical Hospital Vascular Lab New Albany,,,,,,,,,"Jun 30, 2023","Extracranial Cerebrovascular Testing, Peripheral Arterial Testing, Peripheral Venous Testing",,,,,,,,,,,,,,
261,262,Mount Carmel St Ann’s Hospital,40.114189,-82.948922,granted,500 South Cleveland Avenue,,Westerville,OH,43081,USA,,www.mountcarmelhealth.com,,echo,,Mount Carmel St Ann’s Hospital Westerville,,,"Jul 31, 2023","Adult Stress, Adult Transesophageal, Adult Transthoracic",,,,,,,,,,,,,,,,,,,,
262,263,Mount Carmel St. Ann’s Hospital,40.114189,-82.948922,granted,500 South Cleveland Avenue,,Westerville,OH,43081,USA,,,,vascular,www.google.com/search?q=Mount+Carmel+St.+Ann’s+Hospital,Mount Carmel St. Ann’s Hospital Westerville,,,,,,,,,"Jun 30, 2023","Extracranial Cerebrovascular Testing, Peripheral Arterial Testing, Peripheral Venous Testing",,,,,,,,,,,,,,
263,264,Nationwide Children’s  Hospital Heart Center,39.952368,-82.979161,granted,700 Children’s Drive,,Columbus,OH,43205,USA,,,,pediatric_echo,www.google.com/search?q=Nationwide+Children’s++Hospital+Heart+Center,Nationwide Children’s  Hospital Heart Center Columbus,,,,,,,,,,,"Jul 31, 2025","Pediatric Transesophageal, Pediatric Transthoracic, Fetal",,,,,,,,,,,,
264,265,Nationwide Children’s Hospital,39.952199,-82.980314,granted,700 Children’s Drive,,Columbus,OH,43023,USA,,nationwidechildrens.org,,cardiovascular_catheterization,,Nationwide Children’s Hospital Columbus,,,,,,,,,,,,,,,,,,,,,"Sep 30, 2022","Complex Adult Congenital Heart Disease, Pediatric Cardiovascular Catheterization",,
265,266,Nationwide Children’s Hospital - Westerville,40.138746,-82.950152,granted,455 Executive Campus Drive,,Westerville,OH,43082,USA,,,,pediatric_echo,www.google.com/search?q=Nationwide+Children’s+Hospital+-+Westerville,Nationwide Children’s Hospital - Westerville Westerville,,,,,,,,,,,"Jul 31, 2025",Pediatric Transthoracic,,,,,,,,,,,,
266,267,Nationwide Children’s Hospital Cardiac Electrophysiology Lab,39.952367,-82.979124,granted,700 Children’s Drive,,Columbus,OH,43205,USA,,,,cardiac_electrophysiology,www.google.com/search?q=Nationwide+Children’s+Hospital+Cardiac+Electrophysiology+Lab,Nationwide Children’s Hospital Cardiac Electrophysiology Lab Columbus,,,,,,,,,,,,,,,,,,,"Jan 29, 2023","Testing and Ablation, Device Implantation",,,,
267,268,Nationwide Children’s Hospital- Dublin,40.100968,-83.144628,granted,5675 Venture Drive,,Dublin,OH,43017,USA,,Dublin Close to Home ,,pediatric_echo,,Nationwide Children’s Hospital- Dublin Dublin,,,,,,,,,,,"Jul 31, 2025",Pediatric Transthoracic,,,,,,,,,,,,
268,269,Nationwide Children’s Hospital- Lewis Center,40.180863,-83.025693,granted,7853 Pacer Dr,,Delaware,OH,43015,USA,,,,pediatric_echo,www.google.com/search?q=Nationwide+Children’s+Hospital-+Lewis+Center,Nationwide Children’s Hospital- Lewis Center Delaware,,,,,,,,,,,"Jul 31, 2025",Pediatric Transthoracic,,,,,,,,,,,,
269,270,Nelson Vein and Surgical Services,41.395863,-81.962008,granted,30915 Lorain Road,Suite 100,North Olmsted,OH,44070,USA,,www.nelsonvein.com,,vascular,,Nelson Vein and Surgical Services North Olmsted,,,,,,,,,"Jan 31, 2025",Peripheral Venous Testing,,,,,,,,,,,,,,
270,271,NEOVA,41.626744,-81.431385,granted,36445 Biltmore Place,Suite A,Willoughby,OH,44094,USA,,Northeast Ohio Vascular Associates,,vascular,,NEOVA Willoughby,,,,,,,,,"Oct 31, 2023","Extracranial Cerebrovascular Testing, Peripheral Arterial Testing, Peripheral Venous Testing",,,,,,,,,,,,,,
271,272,NOMS Allegiance Imaging,41.462648,-81.956651,granted,"30400 Detroit Rd., Ste. 30",,Westlake,OH,44145,USA,,,,mr,www.google.com/search?q=NOMS+Allegiance+Imaging,NOMS Allegiance Imaging Westlake,,,,,"Dec 31, 2024","Musculoskeletal MRI, Neurological MRI",,,,,,,,,,,,,,,,,,
272,273,NOMS Allegiance Imaging,41.136315,-81.81112,granted,"3443 Medina Rd., Ste. 103",,Medina,OH,44256,USA,,,,mr,www.google.com/search?q=NOMS+Allegiance+Imaging,NOMS Allegiance Imaging Medina,,,,,"Dec 31, 2024","Musculoskeletal MRI, Neurological MRI",,,,,,,,,,,,,,,,,,
273,274,NOMS Healthcare AFCC,41.024631,-80.702529,multigranted,1255 Boardman-Canfield Road,,Boardman,OH,44512,USA,,www.ankleandfootcare.com,,"vascular, mr",,NOMS Healthcare AFCC Boardman,,,,,"Aug 31, 2025",Musculoskeletal MRI,,,"Oct 31, 2023",Peripheral Arterial Testing,,,,,,,,,,,,,,
274,275,"North Ohio Heart Center, Inc. (Elyria)",41.367533,-82.096345,multigranted,125 East Broad Street,Suite 305,Elyria,OH,44035,USA,,www.nohc.com,,"echo, vascular",,"North Ohio Heart Center, Inc. (Elyria) Elyria",,,"Mar 31, 2024",Adult Transthoracic,,,,,"Jan 31, 2025","Extracranial Cerebrovascular Testing, Peripheral Arterial Testing",,,,,,,,,,,,,,
275,276,"North Ohio Heart Center, Inc. (Lorain)",41.437242,-82.235262,multigranted,3600 Kolbe Road,Suite 127,Lorain,OH,44053,USA,,www.nohc.com,,"echo, vascular",,"North Ohio Heart Center, Inc. (Lorain) Lorain",,,"Mar 31, 2024","Adult Stress, Adult Transthoracic",,,,,"Jan 31, 2025","Extracranial Cerebrovascular Testing, Peripheral Arterial Testing",,,,,,,,,,,,,,
276,277,"North Ohio Heart Center, Inc. (Middleburg Hts.)",41.370266,-81.83355,multigranted,7255 Old Oak Boulevard,Suite 408,Middleburg Heights,OH,44130,USA,,www.nohc.com,,"echo, vascular",,"North Ohio Heart Center, Inc. (Middleburg Hts.) Middleburg Heights",,,"Mar 31, 2024",Adult Transthoracic,,,,,"Jan 31, 2025",Extracranial Cerebrovascular Testing,,,,,,,,,,,,,,
277,278,"North Ohio Heart Center, Inc. (Sandusky)",41.44474,-82.711563,multigranted,703 Tyler Street,Suite 250,Sandusky,OH,44870,USA,,www.nohc.com,,"echo, vascular",,"North Ohio Heart Center, Inc. (Sandusky) Sandusky",,,"Mar 31, 2024",Adult Transthoracic,,,,,"Jan 31, 2025","Extracranial Cerebrovascular Testing, Peripheral Arterial Testing",,,,,,,,,,,,,,
278,279,"North Ohio Heart Center, Inc. (Westlake)",41.437363,-81.946295,multigranted,29325 Health Campus Drive,Suite 3,Westlake,OH,44145,USA,,www.nohc.com,,"echo, vascular",,"North Ohio Heart Center, Inc. (Westlake) Westlake",,,"Mar 31, 2024",Adult Transthoracic,,,,,"Jan 31, 2025",Extracranial Cerebrovascular Testing,,,,,,,,,,,,,,
279,280,"North Ohio Heart Center, Inc.-Elyria",41.367533,-82.096345,granted,"125 East Broad Street, Suite 305",,Elyria,OH,44035,USA,,www.nohc.com,,nuclear,,"North Ohio Heart Center, Inc.-Elyria Elyria",,,,,,,"Jul 31, 2023","Equilibrium Radionuclide Angiography, Myocardial Perfusion Imaging",,,,,,,,,,,,,,,,
280,281,"North Ohio Heart Center, Inc.-Lorain",41.437242,-82.235262,granted,3600 Kolbe Road,Suite 127,Lorain,OH,44053,USA,,www.nohc.com,,nuclear,,"North Ohio Heart Center, Inc.-Lorain Lorain",,,,,,,"Jul 31, 2023","Equilibrium Radionuclide Angiography, Myocardial Perfusion Imaging",,,,,,,,,,,,,,,,
281,282,"North Ohio Heart Center, Inc.-Middleburg",41.370266,-81.83355,granted,7255 Old Oak Boulevard,Suite 408,Middleburg Heights,OH,44130,USA,,ww.nohc.com,,nuclear,,"North Ohio Heart Center, Inc.-Middleburg Middleburg Heights",,,,,,,"Jul 31, 2023",Myocardial Perfusion Imaging,,,,,,,,,,,,,,,,
282,283,"North Ohio Heart Center, Inc.-Sandusky",41.44474,-82.711563,granted,703 Tyler Street,Suite 250,Sandusky,OH,44870,USA,,www.nohc.com,,nuclear,,"North Ohio Heart Center, Inc.-Sandusky Sandusky",,,,,,,"Jul 31, 2023","Equilibrium Radionuclide Angiography, Myocardial Perfusion Imaging",,,,,,,,,,,,,,,,
283,284,"North Ohio Heart Center, Inc.-Westlake",41.437363,-81.946295,granted,29325 Health Campus Drive,,Westlake,OH,44145,USA,,www.nohc.com,,nuclear,,"North Ohio Heart Center, Inc.-Westlake Westlake",,,,,,,"Jul 31, 2023","Equilibrium Radionuclide Angiography, Myocardial Perfusion Imaging",,,,,,,,,,,,,,,,
284,285,Ohio ENT and Allergy Physicians,40.063406,-83.045447,granted,974 Bethel Road,Suite A,Columbus,OH,43214,USA,,,,ct,www.google.com/search?q=Ohio+ENT+and+Allergy+Physicians,Ohio ENT and Allergy Physicians Columbus,"Jan 31, 2024",Maxillofacial CT,,,,,,,,,,,,,,,,,,,,,,
285,286,Ohio ENT and Allergy Physicians East Broad,39.981016,-82.829578,granted,6573 East Broad Street,,Columbus,OH,43213,USA,,,,ct,www.google.com/search?q=Ohio+ENT+and+Allergy+Physicians+East+Broad,Ohio ENT and Allergy Physicians East Broad Columbus,"Jan 31, 2024",Maxillofacial CT,,,,,,,,,,,,,,,,,,,,,,
286,287,"Ohio Head and Neck Surgeons, Inc.",40.852758,-81.427737,granted,4912 Higbee Avenue NW,Suite 200,Canton,OH,44718,USA,,ohioheadandneck.com,,ct,,"Ohio Head and Neck Surgeons, Inc. Canton","Oct 31, 2024",Maxillofacial CT,,,,,,,,,,,,,,,,,,,,,,
287,288,Ohio Health - Riverside Methodist Hospital,40.031962,-83.031294,granted,3535 Olentangy River Road,,Columbus,OH,43214,USA,,www.ohiohealth.com/locations/hospitals/riverside-methodist-hospital/,,vascular,,Ohio Health - Riverside Methodist Hospital Columbus,,,,,,,,,"Jan 31, 2024","Extracranial Cerebrovascular Testing, Peripheral Arterial Testing, Peripheral Venous Testing, Visceral Vascular Testing",,,,,,,,,,,,,,
288,289,Ohio Health Doctors Hospital,39.951923,-83.137597,granted,5100 W Broad Street,,Columbus,OH,43228,USA,,www.ohiohealth.com/locations/hospitals/doctors-hospital,,vascular,,Ohio Health Doctors Hospital Columbus,,,,,,,,,"Jan 31, 2024","Extracranial Cerebrovascular Testing, Peripheral Arterial Testing, Peripheral Venous Testing",,,,,,,,,,,,,,
289,290,Ohio Health Dublin Methodist Hospital,40.099991,-83.167937,granted,7500 Hospital Drive,,Dublin,OH,43016,USA,,www.ohiohealth.com/locations/hospitals/dublin-methodist-hospital/,,vascular,,Ohio Health Dublin Methodist Hospital Dublin,,,,,,,,,"Jan 31, 2024","Extracranial Cerebrovascular Testing, Peripheral Arterial Testing, Peripheral Venous Testing, Visceral Vascular Testing",,,,,,,,,,,,,,
290,291,Ohio Health Grady Memorial Hospital,40.306038,-83.088815,granted,561 West Central Avenue,,Delaware,OH,43015,USA,,www.ohiohealth.com/locations/hospitals/grady-memorial-hospital/,,vascular,,Ohio Health Grady Memorial Hospital Delaware,,,,,,,,,"Jan 31, 2024","Extracranial Cerebrovascular Testing, Peripheral Arterial Testing, Peripheral Venous Testing",,,,,,,,,,,,,,
291,292,Ohio Health Heart and Vascular,40.227037,-83.36866,granted,171 Morey Drive,Suite C,Marysville,OH,43040,USA,,,,echo,www.google.com/search?q=Ohio+Health+Heart+and+Vascular,Ohio Health Heart and Vascular Marysville,,,"Jun 30, 2025","Adult Stress, Adult Transthoracic",,,,,,,,,,,,,,,,,,,,
292,293,Ohio Health Heart and Vascular,39.954119,-83.138152,granted,5131 Beacon Hill Road  Suite 120,,Columbus,OH,43228,USA,,,,echo,www.google.com/search?q=Ohio+Health+Heart+and+Vascular,Ohio Health Heart and Vascular Columbus,,,"Jun 30, 2025","Adult Stress, Adult Transthoracic",,,,,,,,,,,,,,,,,,,,
293,294,Ohio Pediatric Care Alliance,39.943839,-83.804861,granted,1644 North Limestone Street,,Springfield,OH,45503,USA,,childrensdayton.org,,pediatric_echo,,Ohio Pediatric Care Alliance Springfield,,,,,,,,,,,"Dec 31, 2024",Pediatric Transthoracic,,,,,,,,,,,,
294,295,OhioHealth Ashland Office-Echocardiogram Lab,40.861831,-82.276617,granted,45 Amberwood Parkway,,Ashland,OH,44805,USA,,,,echo,www.google.com/search?q=OhioHealth+Ashland+Office-Echocardiogram+Lab,OhioHealth Ashland Office-Echocardiogram Lab Ashland,,,"Aug 31, 2023",Adult Transthoracic,,,,,,,,,,,,,,,,,,,,
295,296,OhioHealth Berger Hospital,39.610599,-82.9376,granted,600 N. Pickaway St,,Circleville,OH,43113,USA,,,,echo,www.google.com/search?q=OhioHealth+Berger+Hospital,OhioHealth Berger Hospital Circleville,,,"Feb 28, 2023",Adult Transthoracic,,,,,,,,,,,,,,,,,,,,
296,297,OhioHealth Berger Hospital,39.610599,-82.9376,granted,600 North Pickaway Street,,Circleville,OH,43113,USA,,,,vascular,www.google.com/search?q=OhioHealth+Berger+Hospital,OhioHealth Berger Hospital Circleville,,,,,,,,,"Jan 31, 2024","Extracranial Cerebrovascular Testing, Peripheral Venous Testing",,,,,,,,,,,,,,
297,298,OhioHealth Grant Medical Center,39.961057,-82.992343,granted,285 East State Street,Suite 260,Columbus,OH,43215,USA,,,,vascular,www.google.com/search?q=OhioHealth+Grant+Medical+Center,OhioHealth Grant Medical Center Columbus,,,,,,,,,"Sep 30, 2023","Extracranial Cerebrovascular Testing, Peripheral Arterial Testing, Peripheral Venous Testing, Visceral Vascular Testing",,,,,,,,,,,,,,
298,299,OhioHealth Grove City Methodist Hospital,39.877311,-83.03385,granted,1375 Stringtown Road,,Grove City,OH,43123,USA,,,,vascular,www.google.com/search?q=OhioHealth+Grove+City+Methodist+Hospital,OhioHealth Grove City Methodist Hospital Grove City,,,,,,,,,"Sep 30, 2023","Extracranial Cerebrovascular Testing, Peripheral Arterial Testing, Peripheral Venous Testing, Visceral Vascular Testing",,,,,,,,,,,,,,
299,300,OhioHealth Hardin Memorial Hospital,40.64555,-83.595529,granted,912 East Franklin Street,,Kenton,OH,43326,USA,,,,vascular,www.google.com/search?q=OhioHealth+Hardin+Memorial+Hospital,OhioHealth Hardin Memorial Hospital Kenton,,,,,,,,,"Jan 31, 2024","Extracranial Cerebrovascular Testing, Peripheral Arterial Testing, Peripheral Venous Testing",,,,,,,,,,,,,,
300,301,OhioHealth Heart and Vascular Physician Group,40.036339,-82.865136,granted,"765 N. Hamilton Road, Suite 120",,Gahanna,OH,43230,USA,,,,nuclear,www.google.com/search?q=OhioHealth+Heart+and+Vascular+Physician+Group,OhioHealth Heart and Vascular Physician Group Gahanna,,,,,,,"Jun 30, 2023",Myocardial Perfusion Imaging,,,,,,,,,,,,,,,,
301,302,OhioHealth Heart and Vascular Physician Group,39.840224,-83.073449,granted,1325 Stringtown Road,Suite 240,Grove City,OH,43123,USA,,,,nuclear,www.google.com/search?q=OhioHealth+Heart+and+Vascular+Physician+Group,OhioHealth Heart and Vascular Physician Group Grove City,,,,,,,"Jun 30, 2023",Myocardial Perfusion Imaging,,,,,,,,,,,,,,,,
302,303,OhioHealth Heart and Vascular Physicians,40.036891,-83.032542,granted,3705 Olentangy River Road,Suite 100,Columbus,OH,43214,USA,,www.mocvc.com,,echo,,OhioHealth Heart and Vascular Physicians Columbus,,,"Aug 31, 2023","Adult Stress, Adult Transthoracic",,,,,,,,,,,,,,,,,,,,
303,304,OhioHealth Heart and Vascular Physicians,40.036891,-83.032542,granted,3705 Olentangy River Road,Suite 100,Columbus,OH,43214,USA,,www.mocvc.com,,vascular,,OhioHealth Heart and Vascular Physicians Columbus,,,,,,,,,"Sep 30, 2023","Extracranial Cerebrovascular Testing, Peripheral Arterial Testing, Peripheral Venous Testing, Visceral Vascular Testing",,,,,,,,,,,,,,
304,305,OhioHealth Heart and Vascular Physicians,39.954119,-83.138152,granted,5131 Beacon Hill Road,Suite 120,Columbus,OH,43228,USA,,,,nuclear,www.google.com/search?q=OhioHealth+Heart+and+Vascular+Physicians,OhioHealth Heart and Vascular Physicians Columbus,,,,,,,"Jul 31, 2025",Myocardial Perfusion Imaging,,,,,,,,,,,,,,,,
305,306,OhioHealth Heart and Vascular Physicians,40.227037,-83.36866,granted,171 Morey Drive,Suite C,Marysville,OH,43040,USA,,,,nuclear,www.google.com/search?q=OhioHealth+Heart+and+Vascular+Physicians,OhioHealth Heart and Vascular Physicians Marysville,,,,,,,"Jul 31, 2025",Myocardial Perfusion Imaging,,,,,,,,,,,,,,,,
306,307,OhioHealth Heart and Vascular Physicians,40.036339,-82.865136,granted,765 North Hamilton Road,Suite 120,Gahanna,OH,43230,USA,,,,echo,www.google.com/search?q=OhioHealth+Heart+and+Vascular+Physicians,OhioHealth Heart and Vascular Physicians Gahanna,,,"Feb 29, 2024","Adult Stress, Adult Transthoracic",,,,,,,,,,,,,,,,,,,,
307,308,OhioHealth Heart and Vascular Physicians,39.840264,-83.073439,granted,6024 Hoover Road,Suite G,Grove City,OH,43123,USA,,,,echo,www.google.com/search?q=OhioHealth+Heart+and+Vascular+Physicians,OhioHealth Heart and Vascular Physicians Grove City,,,"Feb 29, 2024","Adult Stress, Adult Transthoracic",,,,,,,,,,,,,,,,,,,,
308,309,OhioHealth Heart and Vascular Physicians,40.036293,-83.133308,granted,4343 All Seasons Dr,Suite 250,Hilliard,OH,43026,USA,,,,echo,www.google.com/search?q=OhioHealth+Heart+and+Vascular+Physicians,OhioHealth Heart and Vascular Physicians Hilliard,,,"Jun 30, 2025","Adult Stress, Adult Transthoracic",,,,,,,,,,,,,,,,,,,,
309,310,OhioHealth Heart and Vascular Physicians,39.909827,-83.427247,granted,1076 Eagleton Blvd,Suite C,London,OH,43140,USA,,,,echo,www.google.com/search?q=OhioHealth+Heart+and+Vascular+Physicians,OhioHealth Heart and Vascular Physicians London,,,"Jun 30, 2025",Adult Transthoracic,,,,,,,,,,,,,,,,,,,,
310,311,Ohiohealth Heart and Vascular Physicians,40.816262,-82.975465,granted,725 North Sandusky Avenue,Suite 3,Bucyrus,OH,44820,USA,,,,echo,www.google.com/search?q=Ohiohealth+Heart+and+Vascular+Physicians,Ohiohealth Heart and Vascular Physicians Bucyrus,,,"Jan 31, 2025",Adult Transthoracic,,,,,,,,,,,,,,,,,,,,
311,312,OhioHealth Heart and Vascular Physicians Beacon Hill,39.954119,-83.138152,granted,5131 Beacon Hill Rd.,Suite 120,Columbus,OH,43228,USA,,,,vascular,www.google.com/search?q=OhioHealth+Heart+and+Vascular+Physicians+Beacon+Hill,OhioHealth Heart and Vascular Physicians Beacon Hill Columbus,,,,,,,,,"Sep 30, 2023","Extracranial Cerebrovascular Testing, Peripheral Arterial Testing, Peripheral Venous Testing",,,,,,,,,,,,,,
312,313,OhioHealth Heart and Vascular Physicians Bucyrus,40.816229,-82.975473,granted,725 North Sandusky Avenue,,Bucyrus,OH,44820,USA,,,,vascular,www.google.com/search?q=OhioHealth+Heart+and+Vascular+Physicians+Bucyrus,OhioHealth Heart and Vascular Physicians Bucyrus Bucyrus,,,,,,,,,"Sep 30, 2023","Extracranial Cerebrovascular Testing, Peripheral Venous Testing",,,,,,,,,,,,,,
313,314,OhioHealth Heart and Vascular Physicians Columbus,40.036891,-83.032542,granted,3705 Olentangy River Road,Suite 100,Columbus,OH,43214,USA,,www.mocvc.com,,nuclear,,OhioHealth Heart and Vascular Physicians Columbus Columbus,,,,,,,"May 31, 2024",Myocardial Perfusion Imaging,,,,,,,,,,,,,,,,
314,315,OhioHealth Heart and Vascular Physicians Marion,40.570484,-83.122704,granted,1040 Delaware Ave,,Marion,OH,43302,USA,,,,vascular,www.google.com/search?q=OhioHealth+Heart+and+Vascular+Physicians+Marion,OhioHealth Heart and Vascular Physicians Marion Marion,,,,,,,,,"Sep 30, 2023","Extracranial Cerebrovascular Testing, Peripheral Arterial Testing, Peripheral Venous Testing",,,,,,,,,,,,,,
315,316,OhioHealth Mansfield Hospital,40.753365,-82.529517,granted,335 Glessner Ave.,,Mansfield,OH,43903,USA,,,,vascular,www.google.com/search?q=OhioHealth+Mansfield+Hospital,OhioHealth Mansfield Hospital Mansfield,,,,,,,,,"Sep 30, 2023","Extracranial Cerebrovascular Testing, Peripheral Arterial Testing, Peripheral Venous Testing, Visceral Vascular Testing",,,,,,,,,,,,,,
316,317,OhioHealth Mansfield Hospital-Echocardiogram Lab,40.753365,-82.529517,granted,335 Glessner Ave,,Mansfield,OH,44903,USA,,,,echo,www.google.com/search?q=OhioHealth+Mansfield+Hospital-Echocardiogram+Lab,OhioHealth Mansfield Hospital-Echocardiogram Lab Mansfield,,,"Aug 31, 2023","Adult Stress, Adult Transesophageal, Adult Transthoracic",,,,,,,,,,,,,,,,,,,,
317,318,OhioHealth Marion General Hospital,40.571602,-83.128048,granted,1000 McKinley Park Drive,,Marion,OH,43302,USA,,www.ohiohealth.com/locations/hospitals/marion-general-hospital/,,vascular,,OhioHealth Marion General Hospital Marion,,,,,,,,,"Jan 31, 2024","Extracranial Cerebrovascular Testing, Peripheral Arterial Testing, Peripheral Venous Testing",,,,,,,,,,,,,,
318,319,OhioHealth O’Bleness Memorial Hospital,39.327741,-82.114189,granted,55 Hospital Dr.,,Athens,OH,45701,USA,,,,vascular,www.google.com/search?q=OhioHealth+O’Bleness+Memorial+Hospital,OhioHealth O’Bleness Memorial Hospital Athens,,,,,,,,,"Sep 30, 2023","Extracranial Cerebrovascular Testing, Peripheral Arterial Testing, Peripheral Venous Testing, Visceral Vascular Testing",,,,,,,,,,,,,,
319,320,OhioHealth OBleness Hospital,39.327741,-82.114189,granted,55 Hospital Drive,,Athens,OH,45701,USA,,,,echo,www.google.com/search?q=OhioHealth+OBleness+Hospital,OhioHealth OBleness Hospital Athens,,,"Apr 30, 2024","Adult Stress, Adult Transesophageal, Adult Transthoracic",,,,,,,,,,,,,,,,,,,,
320,321,OhioHealth Pickerington Medical Campus,38.251488,-122.049851,granted,1010 Refugee Rd,,Pickerington,OH,43147,USA,,WWW.OHIOHEALTH.COM,,vascular,,OhioHealth Pickerington Medical Campus Pickerington,,,,,,,,,"Sep 30, 2023","Extracranial Cerebrovascular Testing, Peripheral Arterial Testing, Peripheral Venous Testing",,,,,,,,,,,,,,
321,322,OhioHealth Riverside Cardiac Imaging,40.031962,-83.031294,granted,3535 Olentangy River Road,,Columbus,OH,43214,USA,,,,nuclear,www.google.com/search?q=OhioHealth+Riverside+Cardiac+Imaging,OhioHealth Riverside Cardiac Imaging Columbus,,,,,,,"May 31, 2024","Myocardial Perfusion Imaging, Positron Emission Tomography (PET)",,,,,,,,,,,,,,,,
322,323,OhioHealth Riverside Methodist Hospital Critical Limb Center,40.031962,-83.031294,granted,3535 Olentangy River Road,,Columbus,OH,43214,USA,,,,vascular,www.google.com/search?q=OhioHealth+Riverside+Methodist+Hospital+Critical+Limb+Center,OhioHealth Riverside Methodist Hospital Critical Limb Center Columbus,,,,,,,,,"Sep 30, 2023","Extracranial Cerebrovascular Testing, Peripheral Arterial Testing, Peripheral Venous Testing, Visceral Vascular Testing",,,,,,,,,,,,,,
323,324,OhioHealth Shelby Hospital-Echocardiogram Lab,40.881214,-82.674035,granted,199 W Main Street,,Shelby,OH,44875,USA,,,,echo,www.google.com/search?q=OhioHealth+Shelby+Hospital-Echocardiogram+Lab,OhioHealth Shelby Hospital-Echocardiogram Lab Shelby,,,"Aug 31, 2023",Adult Transthoracic,,,,,,,,,,,,,,,,,,,,
324,325,OhioHealth Westerville Medical Campus,40.146756,-82.935914,granted,260 Polaris Parkway,Second Floor,Westerville,OH,43082,USA,,www.OhioHealth.com,,vascular,,OhioHealth Westerville Medical Campus Westerville,,,,,,,,,"Sep 30, 2023","Extracranial Cerebrovascular Testing, Peripheral Arterial Testing, Peripheral Venous Testing, Visceral Vascular Testing",,,,,,,,,,,,,,
325,326,"Optimum Cardiology, Inc.",40.850489,-81.444245,granted,4825 Higbee Ave NW St 102,,Canton,OH,44718,USA,,,,nuclear,"www.google.com/search?q=Optimum+Cardiology,+Inc.","Optimum Cardiology, Inc. Canton",,,,,,,"Dec 30, 2022",Myocardial Perfusion Imaging,,,,,,,,,,,,,,,,
326,327,Orthopaedic Associates of Zanesville Inc,39.972793,-82.012944,granted,2854 Bell Street,,Zanesville,OH,43701,USA,,www.orthozane.com,,mr,,Orthopaedic Associates of Zanesville Inc Zanesville,,,,,"Sep 30, 2025","Musculoskeletal MRI, Neurological MRI",,,,,,,,,,,,,,,,,,
327,328,"Orthopaedic Multispecialty Network, Inc.",40.852704,-81.43764,granted,4760 Belpar Street NW,,Canton,OH,44718,USA,,,,mr,"www.google.com/search?q=Orthopaedic+Multispecialty+Network,+Inc.","Orthopaedic Multispecialty Network, Inc. Canton",,,,,"Aug 31, 2025",Musculoskeletal MRI,,,,,,,,,,,,,,,,,,
328,329,"Orthopaedic Specialists and Sports Medicine, Inc.",40.041476,-82.465459,granted,2750 Newark Granville Road,,Granville,OH,43023,USA,,ossmnewark.com,,mr,,"Orthopaedic Specialists and Sports Medicine, Inc. Granville",,,,,"Mar 31, 2023",Musculoskeletal MRI,,,,,,,,,,,,,,,,,,
329,330,Orthopedic Foot and Ankle Center,40.146444,-82.938634,multigranted,350 West Wilson Bridge Rd.,Suite 200,Worthington,OH,43085,USA,,orthofootankle.com,,"ct, mr",,Orthopedic Foot and Ankle Center Worthington,"Dec 31, 2022",Body CT,,,"Jun 30, 2023",Musculoskeletal MRI,,,,,,,,,,,,,,,,,,
330,331,"OSU Department of Otolaryngology-Head and Neck Surgery, LLC",39.978743,-83.022488,granted,915 Olentangy River Rd,Suite 4000,Columbus,OH,43212,USA,,ent.osu.edu,,ct,,"OSU Department of Otolaryngology-Head and Neck Surgery, LLC Columbus","Jun 30, 2024",Maxillofacial CT,,,,,,,,,,,,,,,,,,,,,,
331,332,OSU Heart and Vascular Center Upper Arlington,40.033815,-83.031635,granted,1800 Zollinger Rd.,2nd Floor,Columbus,OH,43221,USA,,,,nuclear,www.google.com/search?q=OSU+Heart+and+Vascular+Center+Upper+Arlington,OSU Heart and Vascular Center Upper Arlington Columbus,,,,,,,"Jun 30, 2024",Myocardial Perfusion Imaging,,,,,,,,,,,,,,,,
332,333,OSU Hospital Neurovascular Lab,39.994884,-83.017686,granted,410 West 10th Ave.,,Columbus,OH,43210,USA,,,,vascular,www.google.com/search?q=OSU+Hospital+Neurovascular+Lab,OSU Hospital Neurovascular Lab Columbus,,,,,,,,,"Jan 31, 2024",Intracranial Cerebrovascular Testing,,,,,,,,,,,,,,
333,334,PDI Dayton,39.646101,-84.165261,granted,2591 Miamisburg-Centerville Rd St 102,,Centerville,OH,45459,USA,,,,mr,www.google.com/search?q=PDI+Dayton,PDI Dayton Centerville,,,,,"Dec 31, 2024","Musculoskeletal MRI, Neurological MRI",,,,,,,,,,,,,,,,,,
334,335,PDI Toledo,41.688835,-83.635694,granted,3830 Woodley Road,Suite A1,Toledo,OH,43606,USA,,www.pdidiagnostics.net,,mr,,PDI Toledo Toledo,,,,,"Dec 31, 2024","Musculoskeletal MRI, Neurological MRI",,,,,,,,,,,,,,,,,,
335,336,Pomerene Hospital,40.56432,-81.920492,multigranted,981 Wooster Road,,Millersburg,OH,44654,USA,,,,"vascular, echo",www.google.com/search?q=Pomerene+Hospital,Pomerene Hospital Millersburg,,,"Jan 31, 2024","Adult Stress, Adult Transesophageal, Adult Transthoracic",,,,,"Aug 31, 2023","Extracranial Cerebrovascular Testing, Peripheral Venous Testing",,,,,,,,,,,,,,
336,337,Premier Cardiovascular Institute Beavercreek,39.725497,-84.052213,granted,1244 Meadow Bridge Dr,,Beavercreek,OH,45434,USA,,,,echo,www.google.com/search?q=Premier+Cardiovascular+Institute+Beavercreek,Premier Cardiovascular Institute Beavercreek Beavercreek,,,"Sep 30, 2024",Adult Transthoracic,,,,,,,,,,,,,,,,,,,,
337,338,Premier Integrated Medical Associates,39.696668,-84.159376,granted,540 Lincoln Park Boulevard,Suite 200,Kettering,OH,45429,USA,,,,echo,www.google.com/search?q=Premier+Integrated+Medical+Associates,Premier Integrated Medical Associates Kettering,,,"May 31, 2024",Adult Transthoracic,,,,,,,,,,,,,,,,,,,,
338,339,"Premier Integrated Medical Associates, Ltd.",39.649983,-84.131223,granted,6520 Acro Ct.,,Washington Township,OH,45459,USA,,www.primedphysicians.com,,vascular,,"Premier Integrated Medical Associates, Ltd. Washington Township",,,,,,,,,"Oct 31, 2023","Extracranial Cerebrovascular Testing, Peripheral Arterial Testing",,,,,,,,,,,,,,
339,340,"Premier Physician’s Centers, Inc.",41.456687,-81.899255,granted,25200 Center Ridge Road,Suite 1500,Westlake,OH,44145,USA,,,,echo,"www.google.com/search?q=Premier+Physician’s+Centers,+Inc.","Premier Physician’s Centers, Inc. Westlake",,,"Jun 30, 2025",Adult Transthoracic,,,,,,,,,,,,,,,,,,,,
340,341,"Premier Physicians Centers, Inc.",41.456687,-81.899255,granted,25200 Center Ridge Road,Suite 1500,Westlake,OH,44145,USA,,,,vascular,"www.google.com/search?q=Premier+Physicians+Centers,+Inc.","Premier Physicians Centers, Inc. Westlake",,,,,,,,,"Jan 29, 2023","Extracranial Cerebrovascular Testing, Peripheral Arterial Testing, Peripheral Venous Testing",,,,,,,,,,,,,,
341,342,"Premier Physicians Centers, Inc.",41.456687,-81.899255,granted,25200 Center Ridge Road,Suite 1500,Westlake,OH,44145,USA,,www.premierphysicians.net,,nuclear,,"Premier Physicians Centers, Inc. Westlake",,,,,,,"Nov 30, 2022",Myocardial Perfusion Imaging,,,,,,,,,,,,,,,,
342,343,ProMedica Bay Park Hospital,41.622204,-83.481123,granted,2801 Brown Road,,Oregon,OH,43616,USA,,www.promedica.org/location/promedica-bay-park-hospital,,vascular,,ProMedica Bay Park Hospital Oregon,,,,,,,,,"Feb 28, 2025","Extracranial Cerebrovascular Testing, Peripheral Arterial Testing, Peripheral Venous Testing",,,,,,,,,,,,,,
343,344,ProMedica Defiance Regional Hospital,41.299512,-84.373661,granted,1200 Ralston Ave,,Defiance,OH,43512,USA,,www.promedica.org/location/promedica-defiance-regional-hospital,,vascular,,ProMedica Defiance Regional Hospital Defiance,,,,,,,,,"Feb 28, 2025","Extracranial Cerebrovascular Testing, Peripheral Arterial Testing, Peripheral Venous Testing",,,,,,,,,,,,,,
344,345,ProMedica Flower Hospital,41.711008,-83.69442,granted,5200 Harroun Road,,Sylvania,OH,43560,USA,,www.promedica.org/flower,,vascular,,ProMedica Flower Hospital Sylvania,,,,,,,,,"Feb 28, 2025","Extracranial Cerebrovascular Testing, Peripheral Arterial Testing, Peripheral Venous Testing",,,,,,,,,,,,,,
345,346,ProMedica Fostoria Community Hospital,41.163218,-83.424059,granted,501 Van Buren Street,,Fostoria,OH,44830,USA,,www.promedica.org/location/promedica-fostoria-community-hospital,,vascular,,ProMedica Fostoria Community Hospital Fostoria,,,,,,,,,"Feb 28, 2025","Extracranial Cerebrovascular Testing, Peripheral Arterial Testing, Peripheral Venous Testing",,,,,,,,,,,,,,
346,347,ProMedica Fremont Memorial Hospital,41.339982,-83.135219,granted,715 S Taft Ave,,Fremont,OH,43420,USA,,www.promedica.org/location/promedica-memorial-hospital,,vascular,,ProMedica Fremont Memorial Hospital Fremont,,,,,,,,,"Feb 28, 2025","Extracranial Cerebrovascular Testing, Peripheral Arterial Testing, Peripheral Venous Testing",,,,,,,,,,,,,,
347,348,Promedica Health and Wellness Center,41.709664,-83.67656,granted,5700 Monroe Street,,Sylvania,OH,43560,USA,,www.promedica.org/location/promedica-health-and-wellness-center,,vascular,,Promedica Health and Wellness Center Sylvania,,,,,,,,,"Feb 28, 2025","Extracranial Cerebrovascular Testing, Peripheral Arterial Testing, Peripheral Venous Testing",,,,,,,,,,,,,,
348,349,ProMedica Toledo Hospital,41.670821,-83.594834,granted,2142 North Cove Boulevard,,Toledo,OH,43606,USA,,,,echo,www.google.com/search?q=ProMedica+Toledo+Hospital,ProMedica Toledo Hospital Toledo,,,"Jan 31, 2023",Adult Transthoracic,,,,,,,,,,,,,,,,,,,,
349,350,ProMedica Toledo Hospital--Jobst Vascular Laboratory,41.675422,-83.594678,granted,2109 Hughes Drive,,Toledo,OH,43606,USA,,www.promedica.org/location/promedica-toledo-hospital,,vascular,,ProMedica Toledo Hospital--Jobst Vascular Laboratory Toledo,,,,,,,,,"Feb 28, 2025","Extracranial Cerebrovascular Testing, Peripheral Arterial Testing, Peripheral Venous Testing",,,,,,,,,,,,,,
350,351,Providence Medical Group,39.714019,-84.221884,granted,2912 Springboro West,Suite 201,Moraine,OH,45439,USA,,ProvMedGroup.com,,echo,,Providence Medical Group Moraine,,,"May 31, 2024",Adult Transthoracic,,,,,,,,,,,,,,,,,,,,
351,352,Providence Medical Group,39.579271,-84.225117,granted,2912 Springboro West,Suite 201,Dayton,OH,45439,USA,,,,vascular,www.google.com/search?q=Providence+Medical+Group,Providence Medical Group Dayton,,,,,,,,,"Oct 31, 2023",Extracranial Cerebrovascular Testing,,,,,,,,,,,,,,
352,353,Providence Medical Group - Suburan Family Practice,39.8789116,-84.1375772,granted,8701 Old Troy Pike,Suite 50,Huber Heights,OH,45427,USA,,,,vascular,www.google.com/search?q=Providence+Medical+Group+-+Suburan+Family+Practice,Providence Medical Group - Suburan Family Practice Huber Heights,,,,,,,,,"Oct 31, 2023",Extracranial Cerebrovascular Testing,,,,,,,,,,,,,,
353,354,Rainbow Babies and Children’s Hospital of University Hospitals of Cleveland,41.505924,-81.608985,granted,11100 Euclid Avenue,,Cleveland,OH,44106,USA,,,,pediatric_echo,www.google.com/search?q=Rainbow+Babies+and+Children’s+Hospital+of+University+Hospitals+of+Cleveland,Rainbow Babies and Children’s Hospital of University Hospitals of Cleveland Cleveland,,,,,,,,,,,"Nov 30, 2022","Pediatric Transesophageal, Pediatric Transthoracic, Fetal",,,,,,,,,,,,
354,355,Regional Vascular and Vein Institute,40.869564,-81.422238,granted,6046 Whipple Ave NW Suite 100,,North Canton,OH,44720,USA,,,,vascular,www.google.com/search?q=Regional+Vascular+and+Vein+Institute,Regional Vascular and Vein Institute North Canton,,,,,,,,,"Sep 30, 2023","Extracranial Cerebrovascular Testing, Peripheral Arterial Testing, Peripheral Venous Testing",,,,,,,,,,,,,,
355,356,Richard E. Jacobs Health Center,41.468458,-81.982031,granted,33100 Cleveland Clinic Blvd.,,Avon,OH,44011,USA,,,,pediatric_echo,www.google.com/search?q=Richard+E.+Jacobs+Health+Center,Richard E. Jacobs Health Center Avon,,,,,,,,,,,"Aug 31, 2023",Pediatric Transthoracic,,,,,,,,,,,,
356,357,"Richard L. Weitzel Jr., MD",41.23517,-80.740512,granted,405 Niles Cortland Road South East,Suite 201,Warren,OH,44484,USA,,,,echo,"www.google.com/search?q=Richard+L.+Weitzel+Jr.,+MD","Richard L. Weitzel Jr., MD Warren",,,"Apr 30, 2024",Adult Transthoracic,,,,,,,,,,,,,,,,,,,,
357,358,"River Valley Orthopaedics and Sports Medicine, Inc.",39.741387,-82.633449,granted,2405 North Columbus Street,Suite 120,Lancaster,OH,43130,USA,,,,mr,"www.google.com/search?q=River+Valley+Orthopaedics+and+Sports+Medicine,+Inc.","River Valley Orthopaedics and Sports Medicine, Inc. Lancaster",,,,,"Mar 31, 2024",Musculoskeletal MRI,,,,,,,,,,,,,,,,,,
358,359,Riverside Methodist Hospital,40.031962,-83.031294,granted,3535 Olentangy River Road,,Columbus,OH,43214,USA,,,,echo,www.google.com/search?q=Riverside+Methodist+Hospital,Riverside Methodist Hospital Columbus,,,"Aug 31, 2023","Adult Stress, Adult Transesophageal, Adult Transthoracic",,,,,,,,,,,,,,,,,,,,
359,360,Seeds Orthopaedics,41.879023,-80.794932,granted,416 West 27th Street,,Ashtabula,OH,44004,USA,,www.drseeds.com,,mr,,Seeds Orthopaedics Ashtabula,,,,,"Jul 31, 2024",Musculoskeletal MRI,,,,,,,,,,,,,,,,,,
360,361,Selby General Hospital,39.438875,-81.444455,granted,1106 Colegate Drive,,Marietta,OH,45750,,,,,echo,www.google.com/search?q=Selby+General+Hospital,Selby General Hospital Marietta,,,"Dec 31, 2023",Adult Transthoracic,,,,,,,,,,,,,,,,,,,,
361,362,SGMG Medina Cardiovascular,41.139103,-81.838914,granted,970 E Washington Street,Suite 2E,Medina,OH,44256,USA,,,,echo,www.google.com/search?q=SGMG+Medina+Cardiovascular,SGMG Medina Cardiovascular Medina,,,"Jan 31, 2023",Adult Transthoracic,,,,,,,,,,,,,,,,,,,,
362,363,Soin Medical Center,39.772233,-84.064308,granted,3535 Pentagon Blvd,,Beaverceek,OH,45431,USA,,www.ketteringhealth.org/soin/,,vascular,,Soin Medical Center Beaverceek,,,,,,,,,"Aug 31, 2023","Extracranial Cerebrovascular Testing, Peripheral Arterial Testing, Peripheral Venous Testing",,,,,,,,,,,,,,
363,364,Soin Medical Center,39.772233,-84.064308,granted,3535 Pentagon Blvd.,,Beavercreek,OH,45431,USA,,www.KHNetwork.org,,nuclear,,Soin Medical Center Beavercreek,,,,,,,"Apr 30, 2024","Equilibrium Radionuclide Angiography, General Nuclear Medicine, Myocardial Perfusion Imaging, Positron Emission Tomography (PET)",,,,,,,,,,,,,,,,
364,365,Soin Medical Center - Springfield Health Center,39.970112,-83.763893,granted,2100 Emmanuel Way,Suite C,Springfield,OH,45502,USA,,www.ketteringhealth.org/springfield/,,vascular,,Soin Medical Center - Springfield Health Center Springfield,,,,,,,,,"Aug 31, 2023","Extracranial Cerebrovascular Testing, Peripheral Venous Testing",,,,,,,,,,,,,,
365,366,"South Pointe Hospital, a Cleveland Clinic hospital",41.449865,-81.537829,granted,20000 Harvard Road,,Warrensville Heights,OH,44122,USA,,southpointehospital.org,,echo,,"South Pointe Hospital, a Cleveland Clinic hospital Warrensville Heights",,,"Apr 30, 2024",Adult Transthoracic,,,,,,,,,,,,,,,,,,,,
366,367,Southern Ohio Medical Center,38.753895,-82.977518,granted,1805 27th Street,,Portsmouth,OH,45662,USA,,,,echo,www.google.com/search?q=Southern+Ohio+Medical+Center,Southern Ohio Medical Center Portsmouth,,,"Jun 30, 2023",Adult Transthoracic,,,,,,,,,,,,,,,,,,,,
367,368,Southwest,41.37208,-81.83291,granted,18697 Bagley Road,,Middleburg Hts.,OH,44130,USA,,,,vascular,www.google.com/search?q=Southwest,Southwest Middleburg Hts.,,,,,,,,,"Mar 31, 2024","Extracranial Cerebrovascular Testing, Peripheral Arterial Testing, Peripheral Venous Testing, Screening",,,,,,,,,,,,,,
368,369,Southwest General Health Center,41.37208,-81.83291,granted,18697 Bagley Road,,Middleburg Heights,OH,44130,USA,,,,echo,www.google.com/search?q=Southwest+General+Health+Center,Southwest General Health Center Middleburg Heights,,,"Jan 31, 2023","Adult Stress, Adult Transesophageal, Adult Transthoracic",,,,,,,,,,,,,,,,,,,,
369,370,"Spectrum Orthopaedics, Inc.",40.889787,-81.440706,granted,7442 Frank Avenue NW,,North Canton,OH,44720,USA,,www.spectrumortho.com,,mr,,"Spectrum Orthopaedics, Inc. North Canton",,,,,"Sep 30, 2023",Musculoskeletal MRI,,,,,,,,,,,,,,,,,,
370,371,Springfield Cardiology,39.952144,-83.788492,multigranted,1174 E Home Road,,Springfield,OH,45503,USA,,www.springfieldcardiology.com,,"vascular, echo",,Springfield Cardiology Springfield,,,"Jul 31, 2024",Adult Transthoracic,,,,,"Feb 28, 2023","Extracranial Cerebrovascular Testing, Peripheral Arterial Testing",,,,,,,,,,,,,,
371,372,Springfield Cardiology,39.952144,-83.788492,granted,1174 East Home Road,Suite N,Springfield,OH,45503,USA,,,,nuclear,www.google.com/search?q=Springfield+Cardiology,Springfield Cardiology Springfield,,,,,,,"Mar 31, 2025",Myocardial Perfusion Imaging,,,,,,,,,,,,,,,,
372,373,Springfield Regional Medical Center,39.927624,-83.81574,granted,100 Medical Center Drive,,Springfield,OH,45504,USA,,,,echo,www.google.com/search?q=Springfield+Regional+Medical+Center,Springfield Regional Medical Center Springfield,,,"Aug 31, 2024",Adult Transthoracic,,,,,,,,,,,,,,,,,,,,
373,374,St Elizabeth Boardman Health Center,40.995336,-80.662745,granted,8401 Market St.,,Boardman,OH,44512,USA,,,,echo,www.google.com/search?q=St+Elizabeth+Boardman+Health+Center,St Elizabeth Boardman Health Center Boardman,,,"Sep 30, 2023",Adult Transthoracic,,,,,,,,,,,,,,,,,,,,
374,375,St Elizabeth Heart and Vascular Lab,40.987905,-80.640349,granted,715 East Western Reserve Road,,Poland,OH,44514,USA,,,,nuclear,www.google.com/search?q=St+Elizabeth+Heart+and+Vascular+Lab,St Elizabeth Heart and Vascular Lab Poland,,,,,,,"Feb 28, 2023",Myocardial Perfusion Imaging,,,,,,,,,,,,,,,,
375,376,St Elizabeth Heart and Vascular Lab- Ohio Heart Institute,41.112717,-80.655409,granted,1001 Belmont Avenue,,Youngstown,OH,44504,USA,,,,echo,www.google.com/search?q=St+Elizabeth+Heart+and+Vascular+Lab-+Ohio+Heart+Institute,St Elizabeth Heart and Vascular Lab- Ohio Heart Institute Youngstown,,,"Sep 30, 2023",Adult Transthoracic,,,,,,,,,,,,,,,,,,,,
376,377,St Elizabeth Heart and Vascular Lab- Ohio Heart Institute,41.231211,-80.778351,granted,611 Eastland Avenue,,Warren,OH,44484,USA,,,,echo,www.google.com/search?q=St+Elizabeth+Heart+and+Vascular+Lab-+Ohio+Heart+Institute,St Elizabeth Heart and Vascular Lab- Ohio Heart Institute Warren,,,"Sep 30, 2023",Adult Transthoracic,,,,,,,,,,,,,,,,,,,,
377,378,St Elizabeth Hospital,41.114321,-80.65571,granted,1044 Belmont,,Youngstown,OH,44501,USA,,www.mercy.com/youngstown,,echo,,St Elizabeth Hospital Youngstown,,,"Sep 30, 2023",Adult Transthoracic,,,,,,,,,,,,,,,,,,,,
378,379,St. Elizabeth Heart and Vascular Diagnostic Cardiology Associates,40.987905,-80.640349,granted,715 East Western Reserve Road,,Poland,OH,44514,USA,,,,echo,www.google.com/search?q=St.+Elizabeth+Heart+and+Vascular+Diagnostic+Cardiology+Associates,St. Elizabeth Heart and Vascular Diagnostic Cardiology Associates Poland,,,"Sep 30, 2023",Adult Transthoracic,,,,,,,,,,,,,,,,,,,,
379,380,St. John Medical Center,41.435854,-81.940704,granted,29000 Center Ridge Rd.,,Westlake,OH,44145,USA,,,,vascular,www.google.com/search?q=St.+John+Medical+Center,St. John Medical Center Westlake,,,,,,,,,"Oct 31, 2022","Extracranial Cerebrovascular Testing, Peripheral Arterial Testing, Peripheral Venous Testing, Visceral Vascular Testing",,,,,,,,,,,,,,
380,381,St. Joseph’s Health Center,41.231542,-80.778357,granted,667 Eastland Avenue Southeast,,Warren,OH,44484,USA,,www.hmpartners.org,,echo,,St. Joseph’s Health Center Warren,,,"Sep 30, 2023",Adult Transthoracic,,,,,,,,,,,,,,,,,,,,
381,382,St. Luke’s Hospital,41.558756,-83.681608,granted,5901 Monclova Road,,Maumee,OH,43537,USA,,stlukeshospital.com,,echo,,St. Luke’s Hospital Maumee,,,"Mar 31, 2024",Adult Transthoracic,,,,,,,,,,,,,,,,,,,,
382,383,St. Luke’s Hospital,41.558756,-83.681608,granted,5901 Monclova Road,,Maumee,OH,43537,USA,,,,vascular,www.google.com/search?q=St.+Luke’s+Hospital,St. Luke’s Hospital Maumee,,,,,,,,,"Jan 31, 2024","Extracranial Cerebrovascular Testing, Peripheral Arterial Testing, Peripheral Venous Testing",,,,,,,,,,,,,,
383,384,St. Rita’s Medical Center,40.739998,-84.11745,granted,730 West Market Street,,Lima,OH,45801,USA,,,,echo,www.google.com/search?q=St.+Rita’s+Medical+Center,St. Rita’s Medical Center Lima,,,"Feb 29, 2024","Adult Transesophageal, Adult Transthoracic",,,,,,,,,,,,,,,,,,,,
384,385,St. Ritas Medical Center,40.739998,-84.11745,granted,730 West Market Street,,Lima,OH,45801,USA,,,,vascular,www.google.com/search?q=St.+Ritas+Medical+Center,St. Ritas Medical Center Lima,,,,,,,,,"Mar 31, 2023","Extracranial Cerebrovascular Testing, Peripheral Arterial Testing, Peripheral Venous Testing",,,,,,,,,,,,,,
385,386,St. Vincent Charity Medical Center,41.495695,-81.674275,granted,2351 E. 22nd Street,,Cleveland,OH,44115,USA,,,,echo,www.google.com/search?q=St.+Vincent+Charity+Medical+Center,St. Vincent Charity Medical Center Cleveland,,,"Sep 30, 2022",Adult Transthoracic,,,,,,,,,,,,,,,,,,,,
386,387,Stephanie Tubbs Jones Health Center,41.527108,-81.585423,granted,13944 Euclid Avenue,,Cleveland,OH,44112,USA,,,,echo,www.google.com/search?q=Stephanie+Tubbs+Jones+Health+Center,Stephanie Tubbs Jones Health Center Cleveland,,,"Apr 30, 2024",Adult Transthoracic,,,,,,,,,,,,,,,,,,,,
387,388,Steward Diagnostic and Specialty Center,41.156355,-80.5843609,granted,"880 West Liberty Street, Suite A",,Hubbard,OH,44425,USA,,,,nuclear,www.google.com/search?q=Steward+Diagnostic+and+Specialty+Center,Steward Diagnostic and Specialty Center Hubbard,,,,,,,"Jan 31, 2025",Myocardial Perfusion Imaging,,,,,,,,,,,,,,,,
388,389,Strongsville Family Health and Surgery Center,41.310816,-81.817932,granted,16761 South Park Center,,Strongsville,OH,44136,USA,,,,pediatric_echo,www.google.com/search?q=Strongsville+Family+Health+and+Surgery+Center,Strongsville Family Health and Surgery Center Strongsville,,,,,,,,,,,"Aug 31, 2023",Pediatric Transthoracic,,,,,,,,,,,,
389,390,Strongsville Medical Center,41.311733,-81.811519,granted,18181 Pearl Road,,Strongsville,OH,44136,USA,,,,vascular,www.google.com/search?q=Strongsville+Medical+Center,Strongsville Medical Center Strongsville,,,,,,,,,"Mar 31, 2024","Extracranial Cerebrovascular Testing, Peripheral Arterial Testing, Peripheral Venous Testing, Screening",,,,,,,,,,,,,,
390,391,Strongsville Medical Center,41.287947,-81.83516,granted,18181 Pearl Road,,Strongsville,OH,44136,USA,,,,echo,www.google.com/search?q=Strongsville+Medical+Center,Strongsville Medical Center Strongsville,,,"Jan 31, 2023","Adult Stress, Adult Transthoracic",,,,,,,,,,,,,,,,,,,,
391,392,Suburban Family Practice - Providence Medical Group,39.878796,-84.136708,granted,8701 Old Troy Pike,Suite 50,Huber Heights,OH,45424,USA,,,,echo,www.google.com/search?q=Suburban+Family+Practice+-+Providence+Medical+Group,Suburban Family Practice - Providence Medical Group Huber Heights,,,"May 31, 2024",Adult Transthoracic,,,,,,,,,,,,,,,,,,,,
392,393,Summa Barberton Hospital,41.014696,-81.589825,granted,155 5th St NE,,Barberton,OH,44203,USA,,www.summahealth.com,,vascular,,Summa Barberton Hospital Barberton,,,,,,,,,"Apr 01, 2023","Extracranial Cerebrovascular Testing, Peripheral Arterial Testing, Peripheral Venous Testing, Visceral Vascular Testing",,,,,,,,,,,,,,
393,394,Summa Health Green Emergency Department,40.958608,-81.464371,granted,1825 Franks Parkway,,Uniontown,OH,44685,USA,,,,vascular,www.google.com/search?q=Summa+Health+Green+Emergency+Department,Summa Health Green Emergency Department Uniontown,,,,,,,,,"Apr 01, 2023","Extracranial Cerebrovascular Testing, Peripheral Venous Testing",,,,,,,,,,,,,,
394,395,Summa Health Green Medical Center,40.958624,-81.462829,granted,1835 Franks Parkway,,Uniontown,OH,44685,USA,,,,vascular,www.google.com/search?q=Summa+Health+Green+Medical+Center,Summa Health Green Medical Center Uniontown,,,,,,,,,"Apr 01, 2023","Extracranial Cerebrovascular Testing, Peripheral Venous Testing, Visceral Vascular Testing",,,,,,,,,,,,,,
395,396,Summa Health Hudson Medical Center,41.21596,-81.44463,granted,"5655 Hudson Drive, Suite 200",,Hudson,OH,44236,USA,,,,vascular,www.google.com/search?q=Summa+Health+Hudson+Medical+Center,Summa Health Hudson Medical Center Hudson,,,,,,,,,"Apr 01, 2023","Extracranial Cerebrovascular Testing, Peripheral Venous Testing",,,,,,,,,,,,,,
396,397,Summa Health Medina Medical Center,41.137225,-81.823434,granted,3780 Medina Road,,Medina,OH,44256,USA,,,,vascular,www.google.com/search?q=Summa+Health+Medina+Medical+Center,Summa Health Medina Medical Center Medina,,,,,,,,,"Apr 01, 2023","Extracranial Cerebrovascular Testing, Peripheral Venous Testing",,,,,,,,,,,,,,
397,398,Summa Health System,41.081773,-81.499742,granted,"95 Arch Street, Suite 370",,Akron,OH,44304,USA,,www.summahealth.org,,nuclear,,Summa Health System Akron,,,,,,,"Aug 31, 2023",Myocardial Perfusion Imaging,,,,,,,,,,,,,,,,
398,399,Summa Health System,41.078335,-81.500069,granted,525 East Market Street,,Akron,OH,44309,USA,,summahealth.org,,vascular,,Summa Health System Akron,,,,,,,,,"Apr 01, 2023","Extracranial Cerebrovascular Testing, Peripheral Arterial Testing, Peripheral Venous Testing, Visceral Vascular Testing",,,,,,,,,,,,,,
399,400,Summa Health System - Akron Campus,41.082277,-81.499738,granted,95 Arch Street,Suite 370,Akron,OH,44304,USA,,summahealth.org,,echo,,Summa Health System - Akron Campus Akron,,,"Aug 31, 2025","Adult Stress, Adult Transesophageal, Adult Transthoracic",,,,,,,,,,,,,,,,,,,,
400,401,Summa Health System - Barberton Campus,41.014696,-81.589825,granted,155 5th St NE,,Barberton,OH,44203,USA,,www.barbertonhospital.com,,echo,,Summa Health System - Barberton Campus Barberton,,,"Aug 31, 2025","Adult Stress, Adult Transesophageal, Adult Transthoracic",,,,,,,,,,,,,,,,,,,,
401,402,"Summa Health System, Barberton Hospital",41.014696,-81.589825,granted,155 5th St NE,,Barberton,OH,44203,USA,,www.summahealth.org,,nuclear,,"Summa Health System, Barberton Hospital Barberton",,,,,,,"Aug 31, 2023",Myocardial Perfusion Imaging,,,,,,,,,,,,,,,,
402,403,"Surgical Interventions, LLC Vascular Lab",40.04958,-82.452866,granted,1371 W. Main Street,,Newark,OH,43055,USA,,,,vascular,"www.google.com/search?q=Surgical+Interventions,+LLC+Vascular+Lab","Surgical Interventions, LLC Vascular Lab Newark",,,,,,,,,"May 31, 2025","Extracranial Cerebrovascular Testing, Peripheral Arterial Testing, Peripheral Venous Testing, Visceral Vascular Testing",,,,,,,,,,,,,,
403,404,SV Diagnostic Cardiology at Yankee Street,39.636116,-84.199657,granted,7677 Yankee Street,,Dayton,OH,45459,USA,,,,nuclear,www.google.com/search?q=SV+Diagnostic+Cardiology+at+Yankee+Street,SV Diagnostic Cardiology at Yankee Street Dayton,,,,,,,"Apr 30, 2024","Equilibrium Radionuclide Angiography, Myocardial Perfusion Imaging",,,,,,,,,,,,,,,,
404,405,Sycamore Medical Center,39.63982,-84.25126,granted,4000 Miamisburg - Centerville Road,,Miamisburg,OH,45342,USA,,,,echo,www.google.com/search?q=Sycamore+Medical+Center,Sycamore Medical Center Miamisburg,,,"Sep 30, 2023",Adult Transthoracic,,,,,,,,,,,,,,,,,,,,
405,406,Sylvan Lakes Family Physicians,41.688501,-83.727381,granted,7640 Sylvania Avenue,Suite K,Sulvania,OH,43560,USA,,,,nuclear,www.google.com/search?q=Sylvan+Lakes+Family+Physicians,Sylvan Lakes Family Physicians Sulvania,,,,,,,"Jan 31, 2023",Myocardial Perfusion Imaging,,,,,,,,,,,,,,,,
406,407,TCH Testing Center-Anderson,39.072791,-84.348523,granted,7545 Beechmont Ave,Suite D,Cincinnati,OH,45255,USA,,,,echo,www.google.com/search?q=TCH+Testing+Center-Anderson,TCH Testing Center-Anderson Cincinnati,,,"Sep 30, 2023","Adult Stress, Adult Transthoracic",,,,,,,,,,,,,,,,,,,,
407,408,TCH Testing Center-Green Township,39.174984,-84.642576,granted,5885 Harrison Ave,,Cincinnati,OH,45248,USA,,,,echo,www.google.com/search?q=TCH+Testing+Center-Green+Township,TCH Testing Center-Green Township Cincinnati,,,"Sep 30, 2023","Adult Stress, Adult Transthoracic",,,,,,,,,,,,,,,,,,,,
408,409,TCH Testing Center-Liberty Township,39.375368,-84.375462,granted,6939 Cox Road,,Liberty Township,OH,45069,USA,,,,echo,www.google.com/search?q=TCH+Testing+Center-Liberty+Township,TCH Testing Center-Liberty Township Liberty Township,,,"Sep 30, 2023","Adult Stress, Adult Transesophageal, Adult Transthoracic",,,,,,,,,,,,,,,,,,,,
409,410,TCH Testing Center-Montgomery,39.266822,-84.33193,granted,11140 Montgomery Rd,Suite G200,Cincinnati,OH,45249,USA,,,,echo,www.google.com/search?q=TCH+Testing+Center-Montgomery,TCH Testing Center-Montgomery Cincinnati,,,"Sep 30, 2023","Adult Stress, Adult Transthoracic",,,,,,,,,,,,,,,,,,,,
410,411,The Christ Hospital,39.121167,-84.508502,granted,2139 Auburn Ave,,Cincinnati,OH,45219,USA,,www.thechristhospital.com,,echo,,The Christ Hospital Cincinnati,,,"Sep 30, 2023","Adult Stress, Adult Transesophageal, Adult Transthoracic",,,,,,,,,,,,,,,,,,,,
411,412,The Christ Hospital Cardiovascular Testing Center- Anderson,39.072791,-84.348523,granted,7545 Beechmont Ave.,,Cincinnati,OH,45255,USA,,,,vascular,www.google.com/search?q=The+Christ+Hospital+Cardiovascular+Testing+Center-+Anderson,The Christ Hospital Cardiovascular Testing Center- Anderson Cincinnati,,,,,,,,,"Sep 30, 2023","Extracranial Cerebrovascular Testing, Peripheral Arterial Testing, Peripheral Venous Testing, Visceral Vascular Testing",,,,,,,,,,,,,,
412,413,The Christ Hospital Cardiovascular Testing Center- Green Township,39.174984,-84.642576,granted,5885 Harrison Ave.,,Cincinnati,OH,45248,USA,,,,vascular,www.google.com/search?q=The+Christ+Hospital+Cardiovascular+Testing+Center-+Green+Township,The Christ Hospital Cardiovascular Testing Center- Green Township Cincinnati,,,,,,,,,"Sep 30, 2023","Extracranial Cerebrovascular Testing, Peripheral Arterial Testing, Peripheral Venous Testing, Visceral Vascular Testing",,,,,,,,,,,,,,
413,414,The Christ Hospital Cardiovascular Testing Center- Liberty,39.375368,-84.375462,granted,6939 Cox Road,,Liberty Township,OH,45069,USA,,,,vascular,www.google.com/search?q=The+Christ+Hospital+Cardiovascular+Testing+Center-+Liberty,The Christ Hospital Cardiovascular Testing Center- Liberty Liberty Township,,,,,,,,,"Sep 30, 2023","Extracranial Cerebrovascular Testing, Peripheral Arterial Testing, Peripheral Venous Testing, Visceral Vascular Testing",,,,,,,,,,,,,,
414,415,The Christ Hospital Cardiovascular Testing Center- Montgomery,39.253447,-84.343736,granted,11140 Montgomery Ave.,Suite G200,Montgomery,OH,45249,USA,,,,vascular,www.google.com/search?q=The+Christ+Hospital+Cardiovascular+Testing+Center-+Montgomery,The Christ Hospital Cardiovascular Testing Center- Montgomery Montgomery,,,,,,,,,"Sep 30, 2023","Extracranial Cerebrovascular Testing, Peripheral Arterial Testing, Peripheral Venous Testing, Visceral Vascular Testing",,,,,,,,,,,,,,
415,416,The Christ Hospital Cardiovascular Testing Center- Redbank,39.154555,-84.404989,granted,4440 Red Bank Expressway,,Cincinnati,OH,45227,USA,,,,vascular,www.google.com/search?q=The+Christ+Hospital+Cardiovascular+Testing+Center-+Redbank,The Christ Hospital Cardiovascular Testing Center- Redbank Cincinnati,,,,,,,,,"Sep 30, 2023","Extracranial Cerebrovascular Testing, Peripheral Arterial Testing, Peripheral Venous Testing, Visceral Vascular Testing",,,,,,,,,,,,,,
416,417,The Christ Hospital Health Network,39.121167,-84.508502,granted,2139 Auburn Avenue,,Cincinnati,OH,45219,USA,,www.thechristhospital.com,,vascular,,The Christ Hospital Health Network Cincinnati,,,,,,,,,"Sep 30, 2023","Extracranial Cerebrovascular Testing, Peripheral Arterial Testing, Peripheral Venous Testing, Visceral Vascular Testing",,,,,,,,,,,,,,
417,418,The Congenital Heart Collaborative Concord,41.666073,-81.245541,granted,"7500 Auburn Road, Suite 1500",,Concord Township,OH,44077,USA,,,,pediatric_echo,www.google.com/search?q=The+Congenital+Heart+Collaborative+Concord,The Congenital Heart Collaborative Concord Concord Township,,,,,,,,,,,"Nov 30, 2022",Pediatric Transthoracic,,,,,,,,,,,,
418,419,The Congenital Heart Collaborative-Landerbrook,41.503464,-81.469947,granted,5850 Landerbrook Drive,,Mayfield HTS,OH,44124,USA,,,,pediatric_echo,www.google.com/search?q=The+Congenital+Heart+Collaborative-Landerbrook,The Congenital Heart Collaborative-Landerbrook Mayfield HTS,,,,,,,,,,,"Nov 30, 2022","Pediatric Transthoracic, Fetal",,,,,,,,,,,,
419,420,The Congenital Heart Collaborative-Medina,41.137423,-81.828273,granted,4001 Carrick Drive,Suite 220,Medina,OH,44256,USA,,,,pediatric_echo,www.google.com/search?q=The+Congenital+Heart+Collaborative-Medina,The Congenital Heart Collaborative-Medina Medina,,,,,,,,,,,"Nov 30, 2022","Pediatric Transthoracic, Fetal",,,,,,,,,,,,
420,421,The Congenital Heart Collaborative-Mentor,41.675196,-81.317696,granted,"9000 Mentor Avenue, Suite 212",,Mentor,OH,44060,USA,,,,pediatric_echo,www.google.com/search?q=The+Congenital+Heart+Collaborative-Mentor,The Congenital Heart Collaborative-Mentor Mentor,,,,,,,,,,,"Nov 30, 2022",Pediatric Transthoracic,,,,,,,,,,,,
421,422,The Congenital Heart Collaborative-North Ridgeville,41.38212,-81.980859,granted,"32800 Lorain Rd., Suite 2200",,North Ridgeville,OH,44039,USA,,,,pediatric_echo,www.google.com/search?q=The+Congenital+Heart+Collaborative-North+Ridgeville,The Congenital Heart Collaborative-North Ridgeville North Ridgeville,,,,,,,,,,,"Nov 30, 2022","Pediatric Transthoracic, Fetal",,,,,,,,,,,,
422,423,The Congenital Heart Collaborative-Parma,41.382748,-81.726765,granted,"6115 Powers Blvd., Suite 201",Medical Arts Ctr. 4,Parma,OH,44129,USA,,,,pediatric_echo,www.google.com/search?q=The+Congenital+Heart+Collaborative-Parma,The Congenital Heart Collaborative-Parma Parma,,,,,,,,,,,"Nov 30, 2022",Pediatric Transthoracic,,,,,,,,,,,,
423,424,The Fort Hamiton Hospital,39.415153,-84.573822,granted,630 Eaton Avenue,,Hamilton,OH,45013,USA,,,,echo,www.google.com/search?q=The+Fort+Hamiton+Hospital,The Fort Hamiton Hospital Hamilton,,,"Feb 29, 2024",Adult Transthoracic,,,,,,,,,,,,,,,,,,,,
424,425,The Jewish Hospital,39.20677,-84.380372,granted,4777 East Galbraith Road,,Cincinnati,OH,45236,USA,,,,echo,www.google.com/search?q=The+Jewish+Hospital,The Jewish Hospital Cincinnati,,,"Jan 31, 2025",Adult Transthoracic,,,,,,,,,,,,,,,,,,,,
425,426,The Jewish Hospital,39.20677,-84.380372,granted,4777 East Galbraith Road,,Cincinnati,OH,45236,USA,,,,vascular,www.google.com/search?q=The+Jewish+Hospital,The Jewish Hospital Cincinnati,,,,,,,,,"Sep 29, 2022 | Jul 31, 2025","Extracranial Cerebrovascular Testing, Peripheral Arterial Testing, Visceral Vascular Testing | Peripheral Venous Testing",,,,,,,,,,,,,,
426,427,The Ohio State University Cardiovascular Magnetic Resonance Laboratory,39.994081,-83.018779,granted,452 W 10th Ave,Ross Heart Hospital,Columbus,OH,43210,USA,,,,mr,www.google.com/search?q=The+Ohio+State+University+Cardiovascular+Magnetic+Resonance+Laboratory,The Ohio State University Cardiovascular Magnetic Resonance Laboratory Columbus,,,,,"Jun 30, 2024",Cardiovascular MRI,,,,,,,,,,,,,,,,,,
427,428,The Ohio State University Hospitals Department of Cardiovascular Medicine,39.994081,-83.018779,granted,452 West 10th Avenue,,Columbus,OH,43210,USA,,,,echo,www.google.com/search?q=The+Ohio+State+University+Hospitals+Department+of+Cardiovascular+Medicine,The Ohio State University Hospitals Department of Cardiovascular Medicine Columbus,,,"Jul 31, 2023","Adult Stress, Adult Transesophageal, Adult Transthoracic",,,,,,,,,,,,,,,,,,,,
428,429,The Ohio State University Vascular Diseases and Surgery,40.059213,-83.038305,granted,1800 Zollinger Road,,Columbus,OH,43221,USA,,,,vascular,www.google.com/search?q=The+Ohio+State+University+Vascular+Diseases+and+Surgery,The Ohio State University Vascular Diseases and Surgery Columbus,,,,,,,,,"Aug 31, 2023","Extracranial Cerebrovascular Testing, Peripheral Arterial Testing, Peripheral Venous Testing",,,,,,,,,,,,,,
429,430,The Ohio State University Wexner Medcal Center Richard M. Ross Heart Hospital,39.994422,-83.017937,granted,452 West 10th Avenue,,Columbus,OH,43210,USA,,,,vascular,www.google.com/search?q=The+Ohio+State+University+Wexner+Medcal+Center+Richard+M.+Ross+Heart+Hospital,The Ohio State University Wexner Medcal Center Richard M. Ross Heart Hospital Columbus,,,,,,,,,"Nov 29, 2022 | Sep 30, 2025","Peripheral Arterial Testing, Peripheral Venous Testing | Extracranial Cerebrovascular Testing",,,,,,,,,,,,,,
430,431,The Ohio State University Wexner Medical Center East Hospital,39.970537,-82.961786,granted,"181 Taylor Ave,",,Columbus,OH,43203,USA,,,,echo,www.google.com/search?q=The+Ohio+State+University+Wexner+Medical+Center+East+Hospital,The Ohio State University Wexner Medical Center East Hospital Columbus,,,"Jul 31, 2023","Adult Stress, Adult Transesophageal, Adult Transthoracic",,,,,,,,,,,,,,,,,,,,
431,432,The OSU Heart and Vascular Center at New Albany,40.04207,-82.86398,granted,6100 N. Hamilton Rd,"Fifth Floor, Suite 5B",Westerville,OH,43081,USA,,www.medctr.ohio-state.edu,,nuclear,,The OSU Heart and Vascular Center at New Albany Westerville,,,,,,,"Jun 30, 2024",Myocardial Perfusion Imaging,,,,,,,,,,,,,,,,
432,433,The OSU Heart and Vascular Center at New Albany,40.009459,-82.867205,granted,6100 N Hamilton Road,"5th Floor, Suite 5B",Westerville,OH,43081,USA,,medicalcenter.osu.edu/patientcare/hospitals_locations/carepoint/care_point_gahanna/Pages/inde,,echo,,The OSU Heart and Vascular Center at New Albany Westerville,,,"Mar 31, 2023","Adult Stress, Adult Transthoracic",,,,,,,,,,,,,,,,,,,,
433,434,The OSU Heart and Vascular Center at Outpatient Care Dublin,40.096877,-83.096386,granted,6700 University Blvd,"5th Floor, Suite 5B",Dublin,OH,43016,USA,,,,vascular,www.google.com/search?q=The+OSU+Heart+and+Vascular+Center+at+Outpatient+Care+Dublin,The OSU Heart and Vascular Center at Outpatient Care Dublin Dublin,,,,,,,,,"Jul 31, 2024","Extracranial Cerebrovascular Testing, Peripheral Arterial Testing, Peripheral Venous Testing, Visceral Vascular Testing",,,,,,,,,,,,,,
434,435,The OSU Heart and Vascular Center at Stefanie Spielman Comprehensive Breast Center,39.984458,-83.022635,granted,1145 Olentangy River Road,,Columbus,OH,43212,USA,,cancer.osu.edu/patientsandvisitors/guide/outpatient/james_care_comprehensive_breast_center/Pa,,echo,,The OSU Heart and Vascular Center at Stefanie Spielman Comprehensive Breast Center Columbus,,,"Mar 31, 2023",Adult Transthoracic,,,,,,,,,,,,,,,,,,,,
435,436,The OSU Heart and Vascular Center at Upper Arlington,40.018933,-83.060678,granted,1800 Zollinger Road,,Columbus,OH,43221,USA,,wexnermedical.osu.edu/locations-and-parking/outpatient-care-upper-arlington,,echo,,The OSU Heart and Vascular Center at Upper Arlington Columbus,,,"Mar 31, 2023","Adult Stress, Adult Transthoracic",,,,,,,,,,,,,,,,,,,,
436,437,The OSU Heart and Vascular Centers at Outpatient Care Dublin,40.096877,-83.096386,granted,6700 University Blvd,"5th Floor, Suite 5B",Dublin,OH,43016,USA,,,,echo,www.google.com/search?q=The+OSU+Heart+and+Vascular+Centers+at+Outpatient+Care+Dublin,The OSU Heart and Vascular Centers at Outpatient Care Dublin Dublin,,,"Mar 31, 2023","Adult Stress, Adult Transthoracic",,,,,,,,,,,,,,,,,,,,
437,438,The OSU Heart Center at Stoneridge,40.096877,-83.096386,granted,3900 Stoneridge Lane,Suite A,Dublin,OH,43017,USA,,,,nuclear,www.google.com/search?q=The+OSU+Heart+Center+at+Stoneridge,The OSU Heart Center at Stoneridge Dublin,,,,,,,"Jun 30, 2024",Myocardial Perfusion Imaging,,,,,,,,,,,,,,,,
438,439,"The Paragon Heart Group, Inc",40.896323,-81.10574,granted,2565 South Union Avenue,,Alliance,OH,44601,USA,,www.paragonheart.com,,echo,,"The Paragon Heart Group, Inc Alliance",,,"Nov 30, 2024",Adult Transthoracic,,,,,,,,,,,,,,,,,,,,
439,440,"The Paragon Heart Group, Inc.",40.896323,-81.10574,granted,2565 South Union Avenue,,Alliance,OH,44601,USA,,,,nuclear,"www.google.com/search?q=The+Paragon+Heart+Group,+Inc.","The Paragon Heart Group, Inc. Alliance",,,,,,,"Oct 31, 2024","Equilibrium Radionuclide Angiography, Myocardial Perfusion Imaging",,,,,,,,,,,,,,,,
440,441,The Primary Care Center,41.688501,-83.727381,granted,7640 Sylvania Avenue,Suite E,Sylvania,OH,43560,USA,,,,nuclear,www.google.com/search?q=The+Primary+Care+Center,The Primary Care Center Sylvania,,,,,,,"Jan 31, 2023",Myocardial Perfusion Imaging,,,,,,,,,,,,,,,,
441,442,"The Toledo Clinic, Inc.",41.69539,-83.623336,granted,4235 Secor Road,,Toledo,OH,43623,USA,,,,vascular,"www.google.com/search?q=The+Toledo+Clinic,+Inc.","The Toledo Clinic, Inc. Toledo",,,,,,,,,"Oct 30, 2022","Extracranial Cerebrovascular Testing, Peripheral Arterial Testing, Peripheral Venous Testing",,,,,,,,,,,,,,
442,443,The University of Toledo Heart and Vascular Center,41.621205,-83.61683,granted,3065 Arlington Avenue,,Toledo,OH,43614,USA,,,,nuclear,www.google.com/search?q=The+University+of+Toledo+Heart+and+Vascular+Center,The University of Toledo Heart and Vascular Center Toledo,,,,,,,"Jun 30, 2023","Equilibrium Radionuclide Angiography, Myocardial Perfusion Imaging",,,,,,,,,,,,,,,,
443,444,"The University of Toledo, University Medical Center",41.621215,-83.615382,granted,3000 Arlington Avenue,,Toledo,OH,43614,USA,,,,vascular,"www.google.com/search?q=The+University+of+Toledo,+University+Medical+Center","The University of Toledo, University Medical Center Toledo",,,,,,,,,"Mar 31, 2023","Extracranial Cerebrovascular Testing, Peripheral Arterial Testing, Peripheral Venous Testing",,,,,,,,,,,,,,
444,445,The Vein Center at OhioHealth Riverside Methodist Hospital,40.031962,-83.031294,granted,3535 Olentangy River RD.,Suite 6300,Columbus,OH,43214,USA,,,,vein_center,www.google.com/search?q=The+Vein+Center+at+OhioHealth+Riverside+Methodist+Hospital,The Vein Center at OhioHealth Riverside Methodist Hospital Columbus,,,,,,,,,,,,,,,,,"Jul 31, 2023",Superficial Venous Evaluation and Management,,,,,,
445,446,Toledo Cardiology Consultants,41.669659,-83.542722,granted,2409 Cherry Street,Suite 100,Toledo,OH,43608,USA,,toledocardiology.com,,echo,,Toledo Cardiology Consultants Toledo,,,"Apr 30, 2023",Adult Transthoracic,,,,,,,,,,,,,,,,,,,,
446,447,"Toledo Cardiology Consultants, Inc.",41.637282,-83.455392,granted,3851 Navarre,Suite 210,Oregon,OH,43616,USA,,,,nuclear,"www.google.com/search?q=Toledo+Cardiology+Consultants,+Inc.","Toledo Cardiology Consultants, Inc. Oregon",,,,,,,"Jan 31, 2023",Myocardial Perfusion Imaging,,,,,,,,,,,,,,,,
447,448,"Toledo Cardiology Consultants, Inc.",41.669659,-83.542722,granted,2409 Cherry St. Suite 100,,Toledo,OH,43608,USA,,www.toledocardiology.com,,nuclear,,"Toledo Cardiology Consultants, Inc. Toledo",,,,,,,"Jan 31, 2023",Myocardial Perfusion Imaging,,,,,,,,,,,,,,,,
448,449,"Toledo Cardiology Consultants, Inc. VAN I",41.669659,-83.542722,granted,"2409 Cherry Street, Suite 100",,Toledo,OH,43608,USA,,,,nuclear,"www.google.com/search?q=Toledo+Cardiology+Consultants,+Inc.+VAN+I","Toledo Cardiology Consultants, Inc. VAN I Toledo",,,,,,,"Jan 31, 2023",Myocardial Perfusion Imaging,,,,,,,,,,,,,,,,
449,450,"Toledo Cardiology Consultants, Inc.(7640)",41.688501,-83.727381,granted,"7640 Sylvania Avenue, Suite I",,Sylvania,OH,43560,USA,,,,nuclear,"www.google.com/search?q=Toledo+Cardiology+Consultants,+Inc.(7640)","Toledo Cardiology Consultants, Inc.(7640) Sylvania",,,,,,,"Jan 31, 2023",Myocardial Perfusion Imaging,,,,,,,,,,,,,,,,
450,451,Toledo Clinic ENT,41.681961,-83.680503,granted,5800 Park Center  C,,Toledo,OH,43615,USA,,www.toledoclinic.com,,ct,,Toledo Clinic ENT Toledo,"Feb 29, 2024",Maxillofacial CT,,,,,,,,,,,,,,,,,,,,,,
451,452,Toledo Clinic Imaging Center,41.69539,-83.623336,granted,4235 Secor Rd.,,Toledo,OH,43623,USA,,www.toledoclinic.com,,nuclear,,Toledo Clinic Imaging Center Toledo,,,,,,,"Feb 28, 2023","General Nuclear Medicine, Positron Emission Tomography (PET)",,,,,,,,,,,,,,,,
452,453,Toledo Hospital Testing Center at McCord,41.672727,-83.702936,granted,2940 North McCord Road,,Toledo,OH,43615,USA,,,,echo,www.google.com/search?q=Toledo+Hospital+Testing+Center+at+McCord,Toledo Hospital Testing Center at McCord Toledo,,,"Jan 31, 2023",Adult Transthoracic,,,,,,,,,,,,,,,,,,,,
453,454,Toledo Hospital Testing Center at Perrysburg,41.528867,-83.638012,granted,1601 Brigham Drive,,Perrysburg,OH,43551,USA,,,,echo,www.google.com/search?q=Toledo+Hospital+Testing+Center+at+Perrysburg,Toledo Hospital Testing Center at Perrysburg Perrysburg,,,"Jan 31, 2023",Adult Transthoracic,,,,,,,,,,,,,,,,,,,,
454,455,Toledo Hospital Testing Center Maumee,41.558763,-83.677882,granted,"5705 Monclova Road, Suite 201",,Maumee,OH,43537,USA,,,,echo,www.google.com/search?q=Toledo+Hospital+Testing+Center+Maumee,Toledo Hospital Testing Center Maumee Maumee,,,"Jan 31, 2023",Adult Transthoracic,,,,,,,,,,,,,,,,,,,,
455,456,TriHealth - Butler,39.379057,-84.514655,granted,3125 Hamilton Mason Rd,,Hamilton,OH,45011,USA,,,,echo,www.google.com/search?q=TriHealth+-+Butler,TriHealth - Butler Hamilton,,,"Mar 31, 2025","Adult Stress, Adult Transthoracic",,,,,,,,,,,,,,,,,,,,
456,457,TriHealth Heart Institute EP Lab,39.251968,-84.343986,granted,10500 Montgomery Rd,,Cincinnati,OH,45242,USA,,,,cardiac_electrophysiology,www.google.com/search?q=TriHealth+Heart+Institute+EP+Lab,TriHealth Heart Institute EP Lab Cincinnati,,,,,,,,,,,,,,,,,,,"Sep 30, 2022","Testing and Ablation, Device Implantation, Chronic Lead Extraction, Left Atrial Appendage Occlusion",,,,
457,458,"TriHealth, Good Samaritan Hospital",39.140612,-84.52227,granted,375 Dixmyth Avenue,,Cincinnati,OH,45220,USA,,,,vascular,"www.google.com/search?q=TriHealth,+Good+Samaritan+Hospital","TriHealth, Good Samaritan Hospital Cincinnati",,,,,,,,,"Feb 28, 2025","Extracranial Cerebrovascular Testing, Peripheral Arterial Testing, Peripheral Venous Testing",,,,,,,,,,,,,,
458,459,Twinsburg Family Health and Surgery Center,41.301236,-81.440337,granted,8701 Darrow Road,,Twinsburg,OH,44087,USA,,,,pediatric_echo,www.google.com/search?q=Twinsburg+Family+Health+and+Surgery+Center,Twinsburg Family Health and Surgery Center Twinsburg,,,,,,,,,,,"Aug 31, 2023",Pediatric Transthoracic,,,,,,,,,,,,
459,460,Twinsburg Family Health Center,41.301236,-81.440337,granted,8701 Darrow Road,,Twinsburg,OH,44087,USA,,,,echo,www.google.com/search?q=Twinsburg+Family+Health+Center,Twinsburg Family Health Center Twinsburg,,,"Apr 30, 2024","Adult Stress, Adult Transthoracic",,,,,,,,,,,,,,,,,,,,
460,461,U-Pointe,39.360322,-84.365743,granted,7700 Discovery Road,,West Chester,OH,45121,USA,,,,vascular,www.google.com/search?q=U-Pointe,U-Pointe West Chester,,,,,,,,,"Sep 30, 2023","Extracranial Cerebrovascular Testing, Peripheral Arterial Testing, Peripheral Venous Testing",,,,,,,,,,,,,,
461,462,UC Health UC Physicians Company,39.360218,-84.365095,granted,7675 Wellness Way,Suite 211,West Chester,OH,45069,USA,,,,echo,www.google.com/search?q=UC+Health+UC+Physicians+Company,UC Health UC Physicians Company West Chester,,,"Sep 30, 2024",Adult Transthoracic,,,,,,,,,,,,,,,,,,,,
462,463,UC Health UC Physicians Company,39.136091,-84.504317,granted,222 Piedmont Avenue,Suite 1000,Cincinnati,OH,45219,USA,,,,echo,www.google.com/search?q=UC+Health+UC+Physicians+Company,UC Health UC Physicians Company Cincinnati,,,"Sep 30, 2024",Adult Transthoracic,,,,,,,,,,,,,,,,,,,,
463,464,UC Health UC Physicians Midtown,39.170692,-84.417809,granted,3590 Lucille Drive,,Cincinnati,OH,45213,USA,,,,echo,www.google.com/search?q=UC+Health+UC+Physicians+Midtown,UC Health UC Physicians Midtown Cincinnati,,,"Sep 30, 2024",Adult Transthoracic,,,,,,,,,,,,,,,,,,,,
464,465,UH Ahuja Medical Center,41.453271,-81.497708,granted,3999 Richmond Rd,,Beachwood,OH,44122,USA,,,,vascular,www.google.com/search?q=UH+Ahuja+Medical+Center,UH Ahuja Medical Center Beachwood,,,,,,,,,"Aug 29, 2022",Peripheral Arterial Testing,,,,,,,,,,,,,,
465,466,UH Bedford Medical Center,41.395457,-81.534829,granted,44 Blain Avenue,,Bedford Heights,OH,44146,USA,,,,vascular,www.google.com/search?q=UH+Bedford+Medical+Center,UH Bedford Medical Center Bedford Heights,,,,,,,,,"Aug 29, 2022",Peripheral Arterial Testing,,,,,,,,,,,,,,
466,467,UH Chagrin Highlands Medical Center,41.453231,-81.489924,granted,3909 Orange Place,Suite 3300,Orange Village,OH,44122,USA,,,,vascular,www.google.com/search?q=UH+Chagrin+Highlands+Medical+Center,UH Chagrin Highlands Medical Center Orange Village,,,,,,,,,"Aug 29, 2022",Peripheral Arterial Testing,,,,,,,,,,,,,,
467,468,UH Concord Medical Center,41.665917,-81.245661,granted,7500 Auburn Rd,,Concord,OH,44077,USA,,,,vascular,www.google.com/search?q=UH+Concord+Medical+Center,UH Concord Medical Center Concord,,,,,,,,,"Aug 29, 2022",Peripheral Arterial Testing,,,,,,,,,,,,,,
468,469,UH Geauga Medical Center,41.507669,-81.193601,granted,13207 Ravenna Rd,,Chardon,OH,44024,USA,,,,vascular,www.google.com/search?q=UH+Geauga+Medical+Center,UH Geauga Medical Center Chardon,,,,,,,,,"Aug 29, 2022",Peripheral Arterial Testing,,,,,,,,,,,,,,
469,470,UH Geneva Medical Center,41.799976,-80.963025,granted,870 West Main St,,Geneva,OH,44041,USA,,,,vascular,www.google.com/search?q=UH+Geneva+Medical+Center,UH Geneva Medical Center Geneva,,,,,,,,,"Aug 29, 2022",Peripheral Arterial Testing,,,,,,,,,,,,,,
470,471,UH Medina Health Center,41.137423,-81.828273,granted,4001 Carrick Dr,,Medina,OH,44256,USA,,,,vascular,www.google.com/search?q=UH+Medina+Health+Center,UH Medina Health Center Medina,,,,,,,,,"Aug 29, 2022",Peripheral Arterial Testing,,,,,,,,,,,,,,
471,472,UH Parma Medical Center,41.382762,-81.731476,granted,7007 Powers Blvd.,,Parma,OH,44129,USA,,,,echo,www.google.com/search?q=UH+Parma+Medical+Center,UH Parma Medical Center Parma,,,"Apr 30, 2024","Adult Stress, Adult Transesophageal, Adult Transthoracic",,,,,,,,,,,,,,,,,,,,
472,473,UH Parma Medical Center,41.382762,-81.731476,granted,7007 Powers Boulevard,,Parma,OH,44134,,,www.parmahospital.org,,vascular,,UH Parma Medical Center Parma,,,,,,,,,"Aug 29, 2022",Peripheral Arterial Testing,,,,,,,,,,,,,,
473,474,UH Parma Medical Center Mac 3,41.382741,-81.729301,granted,6525 Powers Blvd,,Parma,OH,44129,USA,,,,echo,www.google.com/search?q=UH+Parma+Medical+Center+Mac+3,UH Parma Medical Center Mac 3 Parma,,,"Apr 30, 2024",Adult Transthoracic,,,,,,,,,,,,,,,,,,,,
474,475,UH Richmond Height Hospital,41.581043,-81.490272,granted,27100 Chardon Road,,Richmond Heights,OH,44143,USA,,,,vascular,www.google.com/search?q=UH+Richmond+Height+Hospital,UH Richmond Height Hospital Richmond Heights,,,,,,,,,"Aug 29, 2022",Peripheral Arterial Testing,,,,,,,,,,,,,,
475,476,UH Twinsburg Health Centor,41.309468,-81.446085,granted,8819 Commons Blvd,,Twinsburg,OH,44087,USA,,,,vascular,www.google.com/search?q=UH+Twinsburg+Health+Centor,UH Twinsburg Health Centor Twinsburg,,,,,,,,,"Aug 29, 2022",Peripheral Arterial Testing,,,,,,,,,,,,,,
476,477,University Hospital East,39.96682,-82.961127,granted,"1492 East Broad Street, T211",,Columbus,OH,43205,USA,,,,vascular,www.google.com/search?q=University+Hospital+East,University Hospital East Columbus,,,,,,,,,"Nov 29, 2022 | Sep 30, 2025","Peripheral Arterial Testing, Peripheral Venous Testing | Extracranial Cerebrovascular Testing",,,,,,,,,,,,,,
477,478,University Hospital Portage Medical Center,41.176723,-81.245887,granted,6847 North Chestnut Street,,Ravenna,OH,44266,USA,,,,echo,www.google.com/search?q=University+Hospital+Portage+Medical+Center,University Hospital Portage Medical Center Ravenna,,,"Aug 31, 2023","Adult Stress, Adult Transesophageal, Adult Transthoracic",,,,,,,,,,,,,,,,,,,,
478,479,University Hospitals Ahuja Medical Center,41.453271,-81.497708,granted,3999 Richmond Road,,Beachwood,OH,44122,USA,,www.uhhospitals.org/ahuja,,echo,,University Hospitals Ahuja Medical Center Beachwood,,,"Apr 30, 2024","Adult Stress, Adult Transesophageal, Adult Transthoracic",,,,,,,,,,,,,,,,,,,,
479,480,University Hospitals Ahuja Medical Center Hudson Heart and Vascular Center,41.214409,-81.440988,granted,1335 Corporate Drive,,Hudson,OH,44236,USA,,,,nuclear,www.google.com/search?q=University+Hospitals+Ahuja+Medical+Center+Hudson+Heart+and+Vascular+Center,University Hospitals Ahuja Medical Center Hudson Heart and Vascular Center Hudson,,,,,,,"Aug 31, 2023",Myocardial Perfusion Imaging,,,,,,,,,,,,,,,,
480,481,"University Hospitals Ahuja Medical Center, Harrington Heart and Vascular Institute, Hudson Clinic",41.214409,-81.440988,granted,1335 Corporate Drive,,Hudson,OH,44236,USA,,,,echo,"www.google.com/search?q=University+Hospitals+Ahuja+Medical+Center,+Harrington+Heart+and+Vascular+Institute,+Hudson+Clinic","University Hospitals Ahuja Medical Center, Harrington Heart and Vascular Institute, Hudson Clinic Hudson",,,"Apr 30, 2024","Adult Stress, Adult Transthoracic",,,,,,,,,,,,,,,,,,,,
481,482,"University Hospitals Ahuja Medical Center, Suburban Health Center",41.515856,-81.519431,granted,1611 South Green Road,,South Euclid,OH,44121,USA,,,,echo,"www.google.com/search?q=University+Hospitals+Ahuja+Medical+Center,+Suburban+Health+Center","University Hospitals Ahuja Medical Center, Suburban Health Center South Euclid",,,"Apr 30, 2024","Adult Stress, Adult Transthoracic",,,,,,,,,,,,,,,,,,,,
482,483,University Hospitals Bedford Medical Center,41.395457,-81.534829,granted,44 Blaine Avenue,,Bedford,OH,44146,USA,,www.uhhospitals.org/bedford,,echo,,University Hospitals Bedford Medical Center Bedford,,,"Apr 30, 2024","Adult Stress, Adult Transesophageal, Adult Transthoracic",,,,,,,,,,,,,,,,,,,,
483,484,University Hospitals Broadview Health Center,41.31875,-81.643373,granted,5901 East Royalton Road,Suite 2500,Broadview Heights,OH,44147,USA,,www.university,,echo,,University Hospitals Broadview Health Center Broadview Heights,,,"Apr 30, 2024","Adult Stress, Adult Transthoracic",,,,,,,,,,,,,,,,,,,,
484,485,University Hospitals Cleveland Medical Center,41.505924,-81.608985,granted,11100 Euclid Avenue,1800 Mather Pavillion,Cleveland,OH,44106,USA,,www.uhhospitals.org/heart,,echo,,University Hospitals Cleveland Medical Center Cleveland,,,"Apr 30, 2024","Adult Stress, Adult Transesophageal, Adult Transthoracic",,,,,,,,,,,,,,,,,,,,
485,486,University Hospitals Concord Health Center,41.665917,-81.245661,granted,7500 Auburn Road,,Concord Twp,OH,44077,USA,,www.uhhospitals.org/concord,,echo,,University Hospitals Concord Health Center Concord Twp,,,"Apr 30, 2024","Adult Stress, Adult Transthoracic",,,,,,,,,,,,,,,,,,,,
486,487,University Hospitals Conneaut Medical Center,41.93692,-80.586459,granted,158 West Main Road,,Conneaut,OH,44030,USA,,www.uhhospitals.org/conneaut,,echo,,University Hospitals Conneaut Medical Center Conneaut,,,"Apr 30, 2024",Adult Transthoracic,,,,,,,,,,,,,,,,,,,,
487,488,University Hospitals Elyria Medical Center,41.366935,-82.097791,granted,630 East River st.,,Elyria,OH,44035,USA,,www.uhhospitals.org/elyria,,echo,,University Hospitals Elyria Medical Center Elyria,,,"Apr 30, 2024","Adult Transesophageal, Adult Transthoracic",,,,,,,,,,,,,,,,,,,,
488,489,University Hospitals Euclid Health Center,41.595752,-81.548994,granted,18599 Lakeshore Boulevard,,Euclid,OH,44119,USA,,www.uhhospitals.org,,echo,,University Hospitals Euclid Health Center Euclid,,,"Apr 30, 2024","Adult Stress, Adult Transthoracic",,,,,,,,,,,,,,,,,,,,
489,490,University Hospitals Geauga Medical Center,41.507669,-81.193601,granted,13207 Ravenna Road,,Chardon,OH,44024,USA,,www.uhhospitals.org/geauga,,echo,,University Hospitals Geauga Medical Center Chardon,,,"Apr 30, 2024","Adult Stress, Adult Transesophageal, Adult Transthoracic",,,,,,,,,,,,,,,,,,,,
490,491,University Hospitals Geneva Medical Center,41.799976,-80.963025,granted,870 West Main Street,,Geneva,OH,44041,USA,,www.uhhospitals.org/geneva,,echo,,University Hospitals Geneva Medical Center Geneva,,,"Apr 30, 2024",Adult Transthoracic,,,,,,,,,,,,,,,,,,,,
491,492,University Hospitals Lake West Medical Center,41.626567,-81.432128,granted,36000 Euclid Ave,,Willoughby,OH,44094,USA,,www.lakehealth.org,,vascular,,University Hospitals Lake West Medical Center Willoughby,,,,,,,,,"Oct 30, 2022","Extracranial Cerebrovascular Testing, Peripheral Venous Testing",,,,,,,,,,,,,,
492,493,University Hospitals Madison Health Center,41.803035,-81.064261,granted,6270 North Ridge Road,,Madison,OH,44057,USA,,www.lakehealth.org,,vascular,,University Hospitals Madison Health Center Madison,,,,,,,,,"Oct 30, 2022","Extracranial Cerebrovascular Testing, Peripheral Venous Testing",,,,,,,,,,,,,,
493,494,University Hospitals Medina Health Center,41.137423,-81.828273,granted,4001 Carrick Place,Suite 140,Medina,OH,44256,USA,,,,echo,www.google.com/search?q=University+Hospitals+Medina+Health+Center,University Hospitals Medina Health Center Medina,,,"Apr 30, 2024","Adult Stress, Adult Transthoracic",,,,,,,,,,,,,,,,,,,,
494,495,University Hospitals Mentor Health Center,41.680943,-81.299696,granted,9485 Mentor Avenue,,Mentor,OH,44060,USA,,www.lakehealth.org,,vascular,,University Hospitals Mentor Health Center Mentor,,,,,,,,,"Oct 30, 2022","Extracranial Cerebrovascular Testing, Peripheral Venous Testing",,,,,,,,,,,,,,
495,496,University Hospitals Mentor Health Center,41.675196,-81.317696,granted,9000 Mentor Avenue,,Mentor,OH,44060,USA,,www.uhhospitals.org/heart,,echo,,University Hospitals Mentor Health Center Mentor,,,"Apr 30, 2024","Adult Stress, Adult Transthoracic",,,,,,,,,,,,,,,,,,,,
496,497,University Hospitals Minoff Health Center at Chagrin Highlands,41.453231,-81.489924,granted,3909 Orange Place,,Orange Village,OH,44122,USA,,www.uhhospitals.org/heart,,echo,,University Hospitals Minoff Health Center at Chagrin Highlands Orange Village,,,"Apr 30, 2024","Adult Stress, Adult Transthoracic",,,,,,,,,,,,,,,,,,,,
497,498,University Hospitals of Cleveland,41.505924,-81.608985,granted,11100 Euclid Avenue,WRN-5057,Cleveland,OH,44106,USA,,,,vascular,www.google.com/search?q=University+Hospitals+of+Cleveland,University Hospitals of Cleveland Cleveland,,,,,,,,,"Aug 29, 2022",Peripheral Arterial Testing,,,,,,,,,,,,,,
498,499,University Hospitals Perrico Health Center,41.63857,-81.372339,granted,4176 State Route 306,,Willoughby,OH,44094,USA,,,,vascular,www.google.com/search?q=University+Hospitals+Perrico+Health+Center,University Hospitals Perrico Health Center Willoughby,,,,,,,,,"Oct 30, 2022","Extracranial Cerebrovascular Testing, Peripheral Venous Testing",,,,,,,,,,,,,,
499,500,University Hospitals Portage Medical Center,41.176723,-81.245887,granted,6847 North Chestnut Street,,Ravenna,OH,44266-1204,,,,,vascular,www.google.com/search?q=University+Hospitals+Portage+Medical+Center,University Hospitals Portage Medical Center Ravenna,,,,,,,,,"Aug 29, 2022",Peripheral Arterial Testing,,,,,,,,,,,,,,
500,501,University Hospitals Richmond Medical Center,41.581043,-81.490272,granted,27100 Chardon Road,,Richmond Heights,OH,44143,USA,,www.uhhospitals.org/richmond,,echo,,University Hospitals Richmond Medical Center Richmond Heights,,,"Apr 30, 2024","Adult Stress, Adult Transesophageal, Adult Transthoracic",,,,,,,,,,,,,,,,,,,,
501,502,University Hospitals Samaritan Medical Center,40.858702,-82.310413,granted,1025 Center Street,,Ashland,OH,44805,USA,,,,echo,www.google.com/search?q=University+Hospitals+Samaritan+Medical+Center,University Hospitals Samaritan Medical Center Ashland,,,"Apr 30, 2024","Adult Transesophageal, Adult Transthoracic",,,,,,,,,,,,,,,,,,,,
502,503,University Hospitals St. John Medical Center,41.435854,-81.940704,granted,29000 Center Ridge Road,,Westlake,OH,44145,USA,,,,echo,www.google.com/search?q=University+Hospitals+St.+John+Medical+Center,University Hospitals St. John Medical Center Westlake,,,"Dec 31, 2024","Adult Transesophageal, Adult Transthoracic",,,,,,,,,,,,,,,,,,,,
503,504,University Hospitals TriPoint Medical Center,41.664251,-81.24466,granted,7590 Auburn Rd,,Concord,OH,44077,USA,,www.lakehealth.org,,vascular,,University Hospitals TriPoint Medical Center Concord,,,,,,,,,"Oct 30, 2022","Extracranial Cerebrovascular Testing, Peripheral Venous Testing",,,,,,,,,,,,,,
504,505,University Hospitals Twinsburg Health Center,41.309468,-81.446085,granted,8819 Commons Boulevard,,Twinsburg,OH,44087,USA,,www.uhhospitals.org/heart,,echo,,University Hospitals Twinsburg Health Center Twinsburg,,,"Apr 30, 2024","Adult Stress, Adult Transthoracic",,,,,,,,,,,,,,,,,,,,
505,506,University Hospitals Westlake Health Center,41.472744,-81.882387,granted,960 Clague Road,,Westlake,OH,44145,USA,,www.uhhospitals.org/heart,,echo,,University Hospitals Westlake Health Center Westlake,,,"Apr 30, 2024","Adult Stress, Adult Transthoracic",,,,,,,,,,,,,,,,,,,,
506,507,University of Cincinnati Medical Center,39.136728,-84.502562,granted,234 Goodman St,,Cincinnati,OH,45219,USA,,,,cardiac_electrophysiology,www.google.com/search?q=University+of+Cincinnati+Medical+Center,University of Cincinnati Medical Center Cincinnati,,,,,,,,,,,,,,,,,,,"Mar 31, 2023","Testing and Ablation, Device Implantation, Chronic Lead Extraction",,,,
507,508,University of Cincinnati Medical Center UC Health,39.136728,-84.502562,granted,234 Goodman Avenue,Mail Location 0756,Cincinnati,OH,45219,USA,,,,echo,www.google.com/search?q=University+of+Cincinnati+Medical+Center+UC+Health,University of Cincinnati Medical Center UC Health Cincinnati,,,"Jan 31, 2024","Adult Stress, Adult Transesophageal, Adult Transthoracic",,,,,,,,,,,,,,,,,,,,
508,509,University of Cincinnati Medical Center Vascular Laboratory,39.136728,-84.502562,granted,234 Goodman Street,,Cincinnati,OH,45219,USA,,uchealth.com,,vascular,,University of Cincinnati Medical Center Vascular Laboratory Cincinnati,,,,,,,,,"Sep 30, 2023","Extracranial Cerebrovascular Testing, Peripheral Arterial Testing, Peripheral Venous Testing",,,,,,,,,,,,,,
509,510,University of Toledo Heart and Vascular Center,41.565223,-83.617209,granted,5757 Monclova Rd,#1,Maumee,OH,43537,USA,,,,vascular,www.google.com/search?q=University+of+Toledo+Heart+and+Vascular+Center,University of Toledo Heart and Vascular Center Maumee,,,,,,,,,"Apr 30, 2025",Peripheral Arterial Testing,,,,,,,,,,,,,,
510,511,University of Toledo Medical Center,41.621205,-83.61683,granted,3065 Arlington Avenue,,Toledo,OH,43614,USA,,utoledo,,echo,,University of Toledo Medical Center Toledo,,,"Nov 30, 2024",Adult Transthoracic,,,,,,,,,,,,,,,,,,,,
511,512,"USA Vein Clinics of Cleveland, LLC",40.844435,-81.434852,granted,4368 Dressler Rd NW,,Canton,OH,44718,USA,,,,vascular,"www.google.com/search?q=USA+Vein+Clinics+of+Cleveland,+LLC","USA Vein Clinics of Cleveland, LLC Canton",,,,,,,,,"Dec 30, 2022",Peripheral Venous Testing,,,,,,,,,,,,,,
512,513,"USA Vein Clinics of Cleveland, LLC",41.022467,-80.715569,granted,6655 Seville Drive,,Canfield,OH,44406,USA,,,,vascular,"www.google.com/search?q=USA+Vein+Clinics+of+Cleveland,+LLC","USA Vein Clinics of Cleveland, LLC Canfield",,,,,,,,,"Dec 30, 2022",Peripheral Venous Testing,,,,,,,,,,,,,,
513,514,"USA Vein Clinics of Cleveland, LLC",41.135821,-81.630303,granted,3618 West Market Street,,Fairlawn,OH,44333,USA,,,,vascular,"www.google.com/search?q=USA+Vein+Clinics+of+Cleveland,+LLC","USA Vein Clinics of Cleveland, LLC Fairlawn",,,,,,,,,"Dec 30, 2022",Peripheral Venous Testing,,,,,,,,,,,,,,
514,515,"USA Vein Clinics of Cleveland, LLC",41.375494,-81.824624,granted,7050 Engle Rd,,Middleburg Heights,OH,44718,USA,,,,vascular,"www.google.com/search?q=USA+Vein+Clinics+of+Cleveland,+LLC","USA Vein Clinics of Cleveland, LLC Middleburg Heights",,,,,,,,,"Dec 30, 2022",Peripheral Venous Testing,,,,,,,,,,,,,,
515,516,UT Heart and Vascular Center-Maumee,41.558768,-83.676733,granted,5757 Monclova Rd.,Suite 1,Maumee,OH,43537,USA,,,,echo,www.google.com/search?q=UT+Heart+and+Vascular+Center-Maumee,UT Heart and Vascular Center-Maumee Maumee,,,"Jul 31, 2024",Adult Transthoracic,,,,,,,,,,,,,,,,,,,,
516,517,UT Heart and Vascular Center-Wauseon,41.53834,-84.134279,granted,725 S. Shoop Ave.,,Wauseon,OH,43567,USA,,,,echo,www.google.com/search?q=UT+Heart+and+Vascular+Center-Wauseon,UT Heart and Vascular Center-Wauseon Wauseon,,,"Jul 31, 2024",Adult Transthoracic,,,,,,,,,,,,,,,,,,,,
517,518,VA Northeast Ohio Healthcare System,41.5137,-81.61263,granted,10701 East Blvd,Surgery 112(W),Cleveland,OH,44106,USA,,www.cleveland.va.gov/,,vascular,,VA Northeast Ohio Healthcare System Cleveland,,,,,,,,,"Apr 30, 2025","Extracranial Cerebrovascular Testing, Peripheral Arterial Testing, Visceral Vascular Testing, Screening",,,,,,,,,,,,,,
518,519,VA Northeast Ohio Healthcare System,41.028737,-81.528765,granted,55 West Waterloo Road,,Akron,OH,44319,USA,,www.cleveland.va.gov/locations/Akron.asp,,vascular,,VA Northeast Ohio Healthcare System Akron,,,,,,,,,"Apr 30, 2025","Extracranial Cerebrovascular Testing, Peripheral Arterial Testing, Visceral Vascular Testing, Screening",,,,,,,,,,,,,,
519,520,Varicose to Perfect,39.570942,-84.231415,multigranted,572 N. Main St,,Springboro,OH,45066,USA,,varicosetoperfect.com,,"vein_center, vascular",,Varicose to Perfect Springboro,,,,,,,,,"May 31, 2024",Peripheral Venous Testing,,,,,,,"Nov 30, 2023",Superficial Venous Evaluation and Management,,,,,,
520,521,Vascular Laboratory - Marietta Memorial Hospital,39.431621,-81.464717,granted,401 Matthew Street,,Marietta,OH,45750,USA,,www.mmhospital.org,,vascular,,Vascular Laboratory - Marietta Memorial Hospital Marietta,,,,,,,,,"Jan 31, 2025","Extracranial Cerebrovascular Testing, Peripheral Arterial Testing, Peripheral Venous Testing, Screening",,,,,,,,,,,,,,
521,522,Vein Care Center,40.72422,-84.165871,multigranted,531 South Eastown Road,,Lima,OH,45805,USA,,www.yourveincarecenter.com,,"vascular, vein_center",,Vein Care Center Lima,,,,,,,,,"Aug 31, 2023",Peripheral Venous Testing,,,,,,,"Mar 31, 2024",Superficial Venous Evaluation and Management,,,,,,
522,523,Vein Care Center,40.539301,-84.57478,granted,950 South Main Street,,Celina,OH,45822,USA,,,,vascular,www.google.com/search?q=Vein+Care+Center,Vein Care Center Celina,,,,,,,,,"Aug 31, 2023",Peripheral Venous Testing,,,,,,,,,,,,,,
523,524,Vein Clinics of America,39.202789,-84.370909,granted,8044 Montgomery Rd.,Suite 525,Cincinnati,OH,45236,USA,,www.veinclinics.com/clinic/cincinnati-ohio/,,vascular,,Vein Clinics of America Cincinnati,,,,,,,,,"Nov 30, 2023",Peripheral Venous Testing,,,,,,,,,,,,,,
524,525,Vijay G. Mistry M.D. INC.,41.520129,-81.435341,granted,6770 Mayfield Road,Suite 425,Mayfield Heights,OH,44124,USA,,,,echo,www.google.com/search?q=Vijay+G.+Mistry+M.D.+INC.,Vijay G. Mistry M.D. INC. Mayfield Heights,,,"May 31, 2024",Adult Transthoracic,,,,,,,,,,,,,,,,,,,,
525,526,Vijay G. Mistry M.D. INC.,41.422416,-81.599022,granted,12000 McCracken Road,Suite 106,Garfield Heights,OH,44125,USA,,,,echo,www.google.com/search?q=Vijay+G.+Mistry+M.D.+INC.,Vijay G. Mistry M.D. INC. Garfield Heights,,,"May 31, 2024",Adult Transthoracic,,,,,,,,,,,,,,,,,,,,
526,527,West Chester Hospital,39.360322,-84.365743,granted,7700 Discovery Road,,West Chester,OH,45121,USA,,,,vascular,www.google.com/search?q=West+Chester+Hospital,West Chester Hospital West Chester,,,,,,,,,"Sep 30, 2023","Extracranial Cerebrovascular Testing, Peripheral Arterial Testing, Peripheral Venous Testing",,,,,,,,,,,,,,
527,528,Western Reserve Hospital,41.132948,-81.509907,multigranted,1900 23rd Street,,Cuyahoga Falls,OH,44223,USA,,,,"echo, vascular",www.google.com/search?q=Western+Reserve+Hospital,Western Reserve Hospital Cuyahoga Falls,,,"Dec 31, 2023","Adult Stress, Adult Transesophageal, Adult Transthoracic",,,,,"May 31, 2025","Extracranial Cerebrovascular Testing, Peripheral Arterial Testing, Peripheral Venous Testing",,,,,,,,,,,,,,
528,529,Western Ridge Vascular Lab,39.203177,-84.669743,granted,6949  Good Samaritan Drive,,Cincinnati,OH,45247,USA,,,,vascular,www.google.com/search?q=Western+Ridge+Vascular+Lab,Western Ridge Vascular Lab Cincinnati,,,,,,,,,"Feb 28, 2025","Extracranial Cerebrovascular Testing, Peripheral Arterial Testing, Peripheral Venous Testing",,,,,,,,,,,,,,
529,530,Westlake Health Center,41.472744,-81.882387,granted,960 Clague Rd,,Westlake,OH,44145,USA,,,,vascular,www.google.com/search?q=Westlake+Health+Center,Westlake Health Center Westlake,,,,,,,,,"Aug 29, 2022",Peripheral Arterial Testing,,,,,,,,,,,,,,
530,531,"Wheeling Hospital, Inc.",40.082872,-80.883193,granted,157 East Lawn Ave,,St. Clairsville,OH,43950,USA,,,,echo,"www.google.com/search?q=Wheeling+Hospital,+Inc.","Wheeling Hospital, Inc. St. Clairsville",,,"Oct 30, 2022",Adult Transthoracic,,,,,,,,,,,,,,,,,,,,
531,532,Wilson Health,40.287932,-84.169035,granted,915 W. Michigan Street,,Sidney,OH,45365,USA,,,,echo,www.google.com/search?q=Wilson+Health,Wilson Health Sidney,,,"Oct 31, 2024",Adult Transthoracic,,,,,,,,,,,,,,,,,,,,
532,533,Wooster Community Hospital,40.820713,-81.934247,granted,1761 Beall Avenue,,Wooster,OH,44691,USA,,,,echo,www.google.com/search?q=Wooster+Community+Hospital,Wooster Community Hospital Wooster,,,"Sep 30, 2024","Adult Stress, Adult Transesophageal, Adult Transthoracic",,,,,,,,,,,,,,,,,,,,
533,534,Wooster Community Hospital Vascular Laboratory,40.820713,-81.934247,granted,1761 Beall Avenue,,Wooster,OH,44691,USA,,,,vascular,www.google.com/search?q=Wooster+Community+Hospital+Vascular+Laboratory,Wooster Community Hospital Vascular Laboratory Wooster,,,,,,,,,"Sep 29, 2022","Extracranial Cerebrovascular Testing, Peripheral Arterial Testing, Peripheral Venous Testing",,,,,,,,,,,,,,
534,535,WVU-Medicine Wheeling Vein and Vascular-St. Clairsville,40.072193,-80.857409,multigranted,51520 National Road,,St. Clairsville,OH,43950,USA,,,,"vein_center, vascular",www.google.com/search?q=WVU-Medicine+Wheeling+Vein+and+Vascular-St.+Clairsville,WVU-Medicine Wheeling Vein and Vascular-St. Clairsville St. Clairsville,,,,,,,,,"Aug 31, 2025","Extracranial Cerebrovascular Testing, Peripheral Arterial Testing, Peripheral Venous Testing",,,,,,,"Jun 30, 2023",Superficial Venous Evaluation and Management,,,,,,
535,536,"Zarrinmakan Mehrdad, MD, Inc.",41.237858,-80.728638,granted,8952 E Market St,,Warren,OH,44484,USA,,varisvein.com/,,vascular,,"Zarrinmakan Mehrdad, MD, Inc. Warren",,,,,,,,,"Feb 28, 2023","Extracranial Cerebrovascular Testing, Peripheral Arterial Testing, Peripheral Venous Testing",,,,,,,,,,,,,,
