,id,name,lat,lng,category,address,address2,city,state,postal,country,phone,web,features,modalities,searchGoogle,search,ct,ct_areas,echo,echo_areas,mr,mr_areas,nuclear,nuclear_areas,vascular,vascular_areas,pediatric_echo,pediatric_echo_areas,ct-dental,ct-dental_areas,stenting,stenting_areas,vein_center,vein_center_areas,cardiac_electrophysiology,cardiac_electrophysiology_areas,cardiovascular_catheterization,cardiovascular_catheterization_areas,jrcdms,jrcdms_areas
0,1,Adventist Health Northwest Regional Heart and Vascular,45.514052,-122.55955,granted,10000 SE Main,Suite 60,Portland,OR,97216,USA,,,,vascular,www.google.com/search?q=Adventist+Health+Northwest+Regional+Heart+and+Vascular,Adventist Health Northwest Regional Heart and Vascular Portland,,,,,,,,,"May 31, 2024",Extracranial Cerebrovascular Testing,,,,,,,,,,,,,,
1,2,Adventist Health Portland,45.511537,-122.559093,granted,10123 SE Market Street,,Portland,OR,97216,USA,,,,vascular,www.google.com/search?q=Adventist+Health+Portland,Adventist Health Portland Portland,,,,,,,,,"Jun 30, 2024","Extracranial Cerebrovascular Testing, Peripheral Arterial Testing, Peripheral Venous Testing",,,,,,,,,,,,,,
2,3,Asante Black Oak Clinic,42.31886,-122.835663,granted,555 Black Oak Dr,,Medford,OR,97504,USA,,,,vascular,www.google.com/search?q=Asante+Black+Oak+Clinic,Asante Black Oak Clinic Medford,,,,,,,,,"May 31, 2025","Extracranial Cerebrovascular Testing, Peripheral Arterial Testing, Peripheral Venous Testing, Visceral Vascular Testing",,,,,,,,,,,,,,
3,4,Asante Rogue Regional Medical Center,42.316483,-122.830443,granted,2825 East Barnett Rd,,Medford,OR,97504,USA,,www.asante.org,,vascular,,Asante Rogue Regional Medical Center Medford,,,,,,,,,"May 31, 2025","Extracranial Cerebrovascular Testing, Peripheral Arterial Testing, Peripheral Venous Testing, Visceral Vascular Testing",,,,,,,,,,,,,,
4,5,Ashland Community Hospital,42.206445,-122.725129,granted,280 Maple Street,,Ashland,OR,97520,USA,,,,echo,www.google.com/search?q=Ashland+Community+Hospital,Ashland Community Hospital Ashland,,,"Jun 30, 2025",Adult Transthoracic,,,,,,,,,,,,,,,,,,,,
5,6,Beaver Sports Medicine,44.572649,-123.254689,granted,1128 NE 2nd Street Suite 201,,Corvallis,OR,97330,USA,,www.beaversportsmedicine.com,,mr,,Beaver Sports Medicine Corvallis,,,,,"Apr 30, 2023",Musculoskeletal MRI,,,,,,,,,,,,,,,,,,
6,7,Bend Memorial Clinic,44.064709,-121.266635,granted,1501 NE Medical Center Drive,PO Box 6018,Bend,OR,97701,USA,,www.bmctotalcare.com,,echo,,Bend Memorial Clinic Bend,,,"Nov 29, 2022","Adult Stress, Adult Transthoracic",,,,,,,,,,,,,,,,,,,,
7,8,Bend Memorial Clinic -Redmond Clinic,44.268012,-121.178684,granted,865 SW Veterans Way,,Redmond,OR,97756,USA,,,,echo,www.google.com/search?q=Bend+Memorial+Clinic+-Redmond+Clinic,Bend Memorial Clinic -Redmond Clinic Redmond,,,"Nov 29, 2022",Adult Transthoracic,,,,,,,,,,,,,,,,,,,,
8,9,Blue Mountain Hospital,44.417651,-118.95922,granted,170 Ford Road,,John Day,OR,97845,USA,,,,echo,www.google.com/search?q=Blue+Mountain+Hospital,Blue Mountain Hospital John Day,,,"Jan 31, 2025",Adult Transthoracic,,,,,,,,,,,,,,,,,,,,
9,10,Broadway Medical Clinic,45.535133,-122.61979,granted,4212 Northeast Broadway,,Portland,OR,97213,USA,,www.broadwaymedicalclinic.com,,echo,,Broadway Medical Clinic Portland,,,"Apr 30, 2025",Adult Transthoracic,,,,,,,,,,,,,,,,,,,,
10,11,Cascade Cardiology,44.933644,-123.043841,granted,777 Commercial Street SE,Suite 103,Salem,OR,97301,USA,,,,nuclear,www.google.com/search?q=Cascade+Cardiology,Cascade Cardiology Salem,,,,,,,"Jan 31, 2024",Myocardial Perfusion Imaging,,,,,,,,,,,,,,,,
11,12,"Cascade Cardiology, LLC",45.005257,-122.78961,granted,400 Welch Street,,Silverton,OR,97381,USA,,www.cascadecardiology.com,,echo,,"Cascade Cardiology, LLC Silverton",,,"Nov 30, 2023",Adult Transthoracic,,,,,,,,,,,,,,,,,,,,
12,13,"Cascade Cardiology, LLC",44.933644,-123.043841,granted,777 Commercial St S.,Suite 130,Salem,OR,97301,USA,,www.cascadecardiology.com,,echo,,"Cascade Cardiology, LLC Salem",,,"Nov 30, 2023",Adult Transthoracic,,,,,,,,,,,,,,,,,,,,
13,14,Central Oregon ENT LLC,44.061083,-121.265928,granted,2450 NE Mary Rose Place,Suite 120,Bend,OR,97701,USA,,,,ct,www.google.com/search?q=Central+Oregon+ENT+LLC,Central Oregon ENT LLC Bend,"Nov 29, 2022",Maxillofacial CT,,,,,,,,,,,,,,,,,,,,,,
14,15,CMH Cardiology Clinic,46.188545,-123.817715,granted,2158 Exchange Street,Suite 206,Astoria,OR,97103,USA,,www.columbiamemorial.org,,echo,,CMH Cardiology Clinic Astoria,,,"Oct 31, 2022","Adult Stress, Adult Transthoracic",,,,,,,,,,,,,,,,,,,,
15,16,Columbia Memorial Hospital Echocardiography Lab,46.188505,-123.81846,granted,2111 Exchange Street,,Astoria,OR,97103,USA,,www.columbiamemorial.org,,echo,,Columbia Memorial Hospital Echocardiography Lab Astoria,,,"Oct 31, 2022","Adult Stress, Adult Transesophageal, Adult Transthoracic",,,,,,,,,,,,,,,,,,,,
16,17,Doernbecher Children’s Hospital,45.496908,-122.686061,granted,3550 Southwest US Veterans Hospital Road,,Portland,OR,97239,USA,,,,pediatric_echo,www.google.com/search?q=Doernbecher+Children’s+Hospital,Doernbecher Children’s Hospital Portland,,,,,,,,,,,"Jun 30, 2024","Pediatric Transesophageal, Pediatric Transthoracic, Fetal",,,,,,,,,,,,
17,18,"Ear, Nose, and Throat Northwest",44.90515,-123.018795,granted,2025 Madrona Ave SE. Ste 100,,Salem,OR,97302,USA,,entnorthwest.com,,ct,,"Ear, Nose, and Throat Northwest Salem","Mar 31, 2025",Maxillofacial CT,,,,,,,,,,,,,,,,,,,,,,
18,19,"Eastmoreland Ear, Nose and Throat Clinic, LLP",45.429837,-122.569036,granted,9280 SE Sunnybrook Blvd. Suite 300,,Clackamas,OR,97015,USA,,,,ct,"www.google.com/search?q=Eastmoreland+Ear,+Nose+and+Throat+Clinic,+LLP","Eastmoreland Ear, Nose and Throat Clinic, LLP Clackamas","Sep 30, 2025",Maxillofacial CT,,,,,,,,,,,,,,,,,,,,,,
19,20,Good Samaritan Regional Medical Center,44.604624,-123.251104,granted,3600 NW Samaritan Drive,Echo Lab-Cardiopulmonary Department,Corvallis,OR,97330,USA,,samhealth.org,,echo,,Good Samaritan Regional Medical Center Corvallis,,,"May 31, 2025",Adult Transthoracic,,,,,,,,,,,,,,,,,,,,
20,21,Grants Pass Clinic,42.421153,-123.340501,granted,495 SW Ramsey Avenue,,Grants Pass,OR,97527,USA,,,,pediatric_echo,www.google.com/search?q=Grants+Pass+Clinic,Grants Pass Clinic Grants Pass,,,,,,,,,,,"Jun 30, 2023",Pediatric Transthoracic,,,,,,,,,,,,
21,22,Hillsboro Cardiology,45.51878,-122.981809,granted,"333 SE 7th Ave, Ste 5400",,Hillsboro,OR,97123,USA,,,,nuclear,www.google.com/search?q=Hillsboro+Cardiology,Hillsboro Cardiology Hillsboro,,,,,,,"Nov 30, 2022",Myocardial Perfusion Imaging,,,,,,,,,,,,,,,,
22,23,Kaiser Permanente Northwest - Mt. Talbert Medical Office,45.417556,-122.538225,granted,10100 SE Sunnyside Road,,Clackamas,OR,97015,USA,,www.kp.org/nwheart,,echo,,Kaiser Permanente Northwest - Mt. Talbert Medical Office Clackamas,,,"Oct 31, 2024",Adult Transthoracic,,,,,,,,,,,,,,,,,,,,
23,24,Kaiser Permanente Northwest - North Lancaster Medical Office,44.956186,-122.983673,granted,2400 Lancaster Drive NE,,Salem,OR,97305,USA,,kp.org/heart,,echo,,Kaiser Permanente Northwest - North Lancaster Medical Office Salem,,,"Oct 31, 2024",Adult Transthoracic,,,,,,,,,,,,,,,,,,,,
24,25,Kaiser Permanente Northwest - Sunnyside Medical Center,45.433462,-122.558525,granted,10180 SE Sunnyside Road,,Clackamas,OR,97015,USA,,,,echo,www.google.com/search?q=Kaiser+Permanente+Northwest+-+Sunnyside+Medical+Center,Kaiser Permanente Northwest - Sunnyside Medical Center Clackamas,,,"Oct 31, 2024",Adult Transthoracic,,,,,,,,,,,,,,,,,,,,
25,26,Kaiser Permanente Northwest - Westside Medical Center,45.539713,-122.875667,granted,2875 NW Stucki Ave,,Hillsboro,OR,97124,USA,,www.kp.org,,echo,,Kaiser Permanente Northwest - Westside Medical Center Hillsboro,,,"Oct 31, 2024",Adult Transthoracic,,,,,,,,,,,,,,,,,,,,
26,27,"Klamath Heart Clinic, LLC",42.252068,-121.789823,granted,2614 Clover Street,,Klamath Falls,OR,97601,USA,,klamathheartclinic.com,,echo,,"Klamath Heart Clinic, LLC Klamath Falls",,,"Feb 29, 2024",Adult Transthoracic,,,,,,,,,,,,,,,,,,,,
27,28,Lake Grove ENT,45.398319,-122.738259,granted,17704 Jean Way 101,,Lake Oswego,OR,97035,USA,,www.lakegroveent.com,,ct,,Lake Grove ENT Lake Oswego,"Dec 31, 2024",Maxillofacial CT,,,,,,,,,,,,,,,,,,,,,,
28,29,Legacy Emanuel Medical Center,45.543936,-122.669445,granted,2801 N. Gantenbein,,Portland,OR,97227,USA,,www.legacyhealth.org,,echo,,Legacy Emanuel Medical Center Portland,,,"Nov 29, 2022","Adult Transesophageal, Adult Transthoracic",,,,,,,,,,,,,,,,,,,,
29,30,Legacy Good Samaritan Medical Center,45.530549,-122.696589,granted,1015 N.W. 22nd Avenue,,Portland,OR,97210,USA,,www.legacyhealth.org,,echo,,Legacy Good Samaritan Medical Center Portland,,,"Nov 29, 2022","Adult Transesophageal, Adult Transthoracic",,,,,,,,,,,,,,,,,,,,
30,31,Legacy Meridian Park,45.378555,-122.74396,granted,19300 S.W. 65th Avenue,,Tualatin,OR,97062,USA,,www.legacyhealth.org,,echo,,Legacy Meridian Park Tualatin,,,"Nov 29, 2022",Adult Transthoracic,,,,,,,,,,,,,,,,,,,,
31,32,Legacy Mount Hood Medical Center,45.51902,-122.390717,granted,28400 S.E. Stark Street,,Gresham,OR,97030,USA,,www.legacyhealth.org,,echo,,Legacy Mount Hood Medical Center Gresham,,,"Nov 29, 2022","Adult Transesophageal, Adult Transthoracic",,,,,,,,,,,,,,,,,,,,
32,33,McKenzie Physician Services,44.053852,-123.001771,granted,960 16th Street,Suite 108,Springfield,OR,97477,USA,,mckweb.com,,vascular,,McKenzie Physician Services Springfield,,,,,,,,,"Aug 31, 2024",Extracranial Cerebrovascular Testing,,,,,,,,,,,,,,
33,34,McKenzie Physician Services dba Heart Associates of Oregon,44.058927,-123.013053,granted,960 North 16th Street,Suite 304,Springfield,OR,97477,USA,,,,echo,www.google.com/search?q=McKenzie+Physician+Services+dba+Heart+Associates+of+Oregon,McKenzie Physician Services dba Heart Associates of Oregon Springfield,,,"Jan 31, 2024","Adult Stress, Adult Transthoracic",,,,,,,,,,,,,,,,,,,,
34,35,McKenzie Willamette Medical Center,44.0524,-123.002589,granted,"1460 ""G"" Street",,Springfield,OR,97477,USA,,,,echo,www.google.com/search?q=McKenzie+Willamette+Medical+Center,McKenzie Willamette Medical Center Springfield,,,"Jan 31, 2024","Adult Stress, Adult Transthoracic",,,,,,,,,,,,,,,,,,,,
35,36,McKenzie-Willamette Medical Center,44.0524,-123.002589,granted,1460 G Street,,Springfield,OR,97477,USA,,,,vascular,www.google.com/search?q=McKenzie-Willamette+Medical+Center,McKenzie-Willamette Medical Center Springfield,,,,,,,,,"Dec 31, 2023","Extracranial Cerebrovascular Testing, Peripheral Arterial Testing, Peripheral Venous Testing, Visceral Vascular Testing",,,,,,,,,,,,,,
36,37,MCMC Echocardiography Laboratory,45.605728,-121.138986,granted,551 Lone Pine Blvd,Suite 303,The Dalles,OR,97058,USA,,,,echo,www.google.com/search?q=MCMC+Echocardiography+Laboratory,MCMC Echocardiography Laboratory The Dalles,,,"Sep 29, 2022","Adult Stress, Adult Transthoracic",,,,,,,,,,,,,,,,,,,,
37,38,MCMC Echocardiography Laboratory,45.587948,-121.16547,granted,1700 E 19th Street,,The Dalles,OR,97058,USA,,,,echo,www.google.com/search?q=MCMC+Echocardiography+Laboratory,MCMC Echocardiography Laboratory The Dalles,,,"Sep 29, 2022",Adult Transthoracic,,,,,,,,,,,,,,,,,,,,
38,39,Mercy Medical Center,43.239988,-123.366515,granted,NW 2700 Stewart Parkway,,Roseburg,OR,97470,USA,,www.mercyrose.org,,echo,,Mercy Medical Center Roseburg,,,"Apr 30, 2024",Adult Transthoracic,,,,,,,,,,,,,,,,,,,,
39,40,Mid Rogue Imaging Center,42.457741,-123.327521,multigranted,1619 NW Hawthorne Avenue,Suite 102,Grants Pass,OR,97526,USA,,www.center4diagnosticimaging.com,,"ct, mr",,Mid Rogue Imaging Center Grants Pass,"Mar 31, 2024","Body CT, Neurological CT, Vascular CTA | Maxillofacial CT",,,"Mar 31, 2024","Body MRI, Musculoskeletal MRI, Neurological MRI | MRA",,,,,,,,,,,,,,,,,,
40,41,Mid Valley ENT and Allergy Newport Office,44.627206,-124.061406,granted,1010 SW Coast HWY 101,,Newport,OR,97356,USA,,,,ct,www.google.com/search?q=Mid+Valley+ENT+and+Allergy+Newport+Office,Mid Valley ENT and Allergy Newport Office Newport,"Jan 31, 2025",Maxillofacial CT,,,,,,,,,,,,,,,,,,,,,,
41,42,Mid-Valley Ent and Allergy,44.614783,-123.114487,granted,950 SW 29th Ave,,Albany,OR,97321,USA,,,,ct,www.google.com/search?q=Mid-Valley+Ent+and+Allergy,Mid-Valley Ent and Allergy Albany,"Jan 31, 2025",Maxillofacial CT,,,,,,,,,,,,,,,,,,,,,,
42,43,Mid-Valley Pediatric Clinic,44.63108,-123.114915,granted,734 SW Elm,,Albany,OR,97321,USA,,,,pediatric_echo,www.google.com/search?q=Mid-Valley+Pediatric+Clinic,Mid-Valley Pediatric Clinic Albany,,,,,,,,,,,"Jun 30, 2023",Pediatric Transthoracic,,,,,,,,,,,,
43,44,"Modern Nose Clinic, LLC",45.381671,-122.771782,granted,19150 SW 90th Ave. Suite 100,,Tualatin,OR,97062,USA,,www.modernnoseclinic.com,,ct,,"Modern Nose Clinic, LLC Tualatin","Feb 29, 2024",Maxillofacial CT,,,,,,,,,,,,,,,,,,,,,,
44,45,"Modern Nose Clinic, LLC",44.911684,-123.044079,granted,340 Vista Avenue Suite 100,,Salem,OR,97302,USA,,www.modernnoseclinic.com,,ct,,"Modern Nose Clinic, LLC Salem","Feb 29, 2024",Maxillofacial CT,,,,,,,,,,,,,,,,,,,,,,
45,46,"Northwest ENT and Allergy Care, P. C.",45.542837,-122.670856,granted,501 N Graham Street,Suite 455,Portland,OR,97227,USA,,www.nwentallergy.com,,ct,,"Northwest ENT and Allergy Care, P. C. Portland","Mar 31, 2024",Maxillofacial CT,,,,,,,,,,,,,,,,,,,,,,
46,47,"Northwest ENT and Allergy Care, P. C.",45.448259,-122.629749,granted,10330 SE 32nd Avenue,Suite 320,Milwaukie,OR,97222,USA,,,,ct,"www.google.com/search?q=Northwest+ENT+and+Allergy+Care,+P.+C.","Northwest ENT and Allergy Care, P. C. Milwaukie","Mar 31, 2024",Maxillofacial CT,,,,,,,,,,,,,,,,,,,,,,
47,48,Northwest Primary Care Group,45.450687,-122.629814,granted,10024 SE 32nd Ave,,Milwaukie,OR,97222,USA,,,,echo,www.google.com/search?q=Northwest+Primary+Care+Group,Northwest Primary Care Group Milwaukie,,,"Sep 30, 2023",Adult Transthoracic,,,,,,,,,,,,,,,,,,,,
48,49,"Northwest Surgical Specialists, LLP",44.082737,-123.027969,granted,3355 River Bend Drive,Suite 300,Springfield,OR,97477,USA,,,,vascular,"www.google.com/search?q=Northwest+Surgical+Specialists,+LLP","Northwest Surgical Specialists, LLP Springfield",,,,,,,,,"Nov 30, 2023","Extracranial Cerebrovascular Testing, Peripheral Arterial Testing, Peripheral Venous Testing, Visceral Vascular Testing",,,,,,,,,,,,,,
49,50,"Northwest Vascular Consultants, Incorporated",45.510468,-122.776296,granted,9155 Southwest Barnes Road,Suite 404,Portland,OR,97225,USA,,nwvascular.com,,vascular,,"Northwest Vascular Consultants, Incorporated Portland",,,,,,,,,"Feb 29, 2024","Extracranial Cerebrovascular Testing, Peripheral Arterial Testing, Peripheral Venous Testing, Visceral Vascular Testing",,,,,,,,,,,,,,
50,51,NW Pediatrics and Adolescent Medicine,45.704377,-121.525154,granted,810 13th St,,Hood River,OR,97031,USA,,,,pediatric_echo,www.google.com/search?q=NW+Pediatrics+and+Adolescent+Medicine,NW Pediatrics and Adolescent Medicine Hood River,,,,,,,,,,,"Jun 30, 2023",Pediatric Transthoracic,,,,,,,,,,,,
51,52,OHSU Knight Cardiovascular Institute,45.498807,-122.671188,granted,3303 SW Bond Ave,,Portland,OR,97239,USA,,www.ohsu.edu,,echo,,OHSU Knight Cardiovascular Institute Portland,,,"Jan 31, 2023","Adult Stress, Adult Transthoracic",,,,,,,,,,,,,,,,,,,,
52,53,OHSU Knight Cardiovascular Institute,45.499201,-122.687974,granted,3181 SW Sam Jackson Park Road,UHN-62,Portland,OR,97239,USA,,ohsu.edu,,cardiac_electrophysiology,,OHSU Knight Cardiovascular Institute Portland,,,,,,,,,,,,,,,,,,,"Sep 30, 2022","Testing and Ablation, Device Implantation, Chronic Lead Extraction, Left Atrial Appendage Occlusion",,,,
53,54,OHSU Knight Cardiovascular Institute Beaverton,45.514473,-122.838,granted,15700 SW Greystone Ct.,2nd floor,Beaverton,OR,97006,USA,,www.ohsu.edu/knight-cardiovascular-institute,,echo,,OHSU Knight Cardiovascular Institute Beaverton Beaverton,,,"Jan 31, 2023","Adult Stress, Adult Transthoracic",,,,,,,,,,,,,,,,,,,,
54,55,Open Advanced MRI of Portland,45.452227,-122.774327,multigranted,"9370 SW Greenburg Road, Suite J",,Portland,OR,97223,USA,,,,"ct, mr",www.google.com/search?q=Open+Advanced+MRI+of+Portland,Open Advanced MRI of Portland Portland,"Apr 30, 2023","Body CT, Neurological CT",,,"Oct 31, 2023","Musculoskeletal MRI, Neurological MRI",,,,,,,,,,,,,,,,,,
55,56,"Oregon Advanced Imaging, LLC",42.366106,-122.877903,granted,881 Ohare Parkway,,Medford,OR,97504,USA,,,,ct,"www.google.com/search?q=Oregon+Advanced+Imaging,+LLC","Oregon Advanced Imaging, LLC Medford","Apr 30, 2024",Body CT,,,,,,,,,,,,,,,,,,,,,,
56,57,"Oregon Ear, Nose and Throat Center",42.340833,-122.866023,granted,1170 Royal Avenue,,Medford,OR,97504,USA,,www.oregonent.com,,ct,,"Oregon Ear, Nose and Throat Center Medford","Apr 30, 2024",Maxillofacial CT,,,,,,,,,,,,,,,,,,,,,,
57,58,Oregon Health and Science University Hospital,45.499142,-122.687192,granted,3181 Southwest Sam Jackson Park Road,,Portland,OR,97239-3098,USA,,,,vascular,www.google.com/search?q=Oregon+Health+and+Science+University+Hospital,Oregon Health and Science University Hospital Portland,,,,,,,,,"Dec 31, 2022","Extracranial Cerebrovascular Testing, Intracranial Cerebrovascular Testing, Peripheral Arterial Testing, Peripheral Venous Testing, Visceral Vascular Testing",,,,,,,,,,,,,,
58,59,Oregon Health and Sciences University,45.499142,-122.687192,granted,3181 SW Sam Jackson Park Road,OP12B,Portland,OR,97239,USA,,www.ohsu.edu,,echo,,Oregon Health and Sciences University Portland,,,"Jan 31, 2023","Adult Stress, Adult Transesophageal, Adult Transthoracic",,,,,,,,,,,,,,,,,,,,
59,60,Oregon Heart and Vascular Institute,43.803841,-123.038615,granted,1515 Village Drive,,Cottage Grove,OR,97424,USA,,,,echo,www.google.com/search?q=Oregon+Heart+and+Vascular+Institute,Oregon Heart and Vascular Institute Cottage Grove,,,"Jul 31, 2024",Adult Transthoracic,,,,,,,,,,,,,,,,,,,,
60,61,Oregon Heart and Vascular Institute,44.046119,-123.082104,granted,1200 Hilyard Street,,Eugene,OR,97401,USA,,,,echo,www.google.com/search?q=Oregon+Heart+and+Vascular+Institute,Oregon Heart and Vascular Institute Eugene,,,"Jul 31, 2024",Adult Transthoracic,,,,,,,,,,,,,,,,,,,,
61,62,Oregon Heart and Vascular Institute,44.081237,-123.028685,multigranted,3311 Riverbend Drive,,Springfield,OR,97477,USA,,,,"vascular, echo",www.google.com/search?q=Oregon+Heart+and+Vascular+Institute,Oregon Heart and Vascular Institute Springfield,,,"Jul 31, 2024","Adult Stress, Adult Transesophageal, Adult Transthoracic",,,,,"Aug 31, 2023","Extracranial Cerebrovascular Testing, Intracranial Cerebrovascular Testing, Peripheral Arterial Testing, Peripheral Venous Testing, Visceral Vascular Testing",,,,,,,,,,,,,,
62,63,"Oregon Heart Center, P.C.",44.948512,-123.006732,granted,610 Hawthorne Ave SE,,Salem,OR,97301,USA,,www.oregonheartcenter.com,,echo,,"Oregon Heart Center, P.C. Salem",,,"Feb 29, 2024",Adult Transthoracic,,,,,,,,,,,,,,,,,,,,
63,64,"Oregon Heart Center, P.C.",44.948512,-123.006732,granted,610 Hawthorne Ave. SE,Suite 110,Salem,OR,97301,USA,,oregonheartcenterpc.com,,nuclear,,"Oregon Heart Center, P.C. Salem",,,,,,,"Sep 30, 2023","Myocardial Perfusion Imaging, Positron Emission Tomography (PET)",,,,,,,,,,,,,,,,
64,65,"Oregon Imaging Centers, Riverbend Pavilion PET CT",44.083022,-123.027926,granted,3377 Riverbend Dr. Suite 150,,Springfield,OR,97477,USA,,www.oregonimaging.com,,nuclear,,"Oregon Imaging Centers, Riverbend Pavilion PET CT Springfield",,,,,,,"Sep 30, 2023",Positron Emission Tomography (PET),,,,,,,,,,,,,,,,
65,66,Oregon Surgical Specialists,42.318308,-122.831966,granted,520 Medical Center Drive,,Medford,OR,97504,USA,,,,vascular,www.google.com/search?q=Oregon+Surgical+Specialists,Oregon Surgical Specialists Medford,,,,,,,,,"Jul 31, 2023","Extracranial Cerebrovascular Testing, Peripheral Arterial Testing, Peripheral Venous Testing, Visceral Vascular Testing",,,,,,,,,,,,,,
66,67,Oregon Vascular Specialists,44.241034,-121.191986,granted,3818 SW 21st Street,,Redmond,OR,97756,USA,,www.oregonvascular.org,,vascular,,Oregon Vascular Specialists Redmond,,,,,,,,,"Feb 28, 2025","Extracranial Cerebrovascular Testing, Peripheral Arterial Testing, Peripheral Venous Testing, Visceral Vascular Testing",,,,,,,,,,,,,,
67,68,Oregon Vascular Specialists,44.066655,-121.263707,granted,1550 NE 27th St,Suite 100,Bend,OR,97701,USA,,www.oregonvascular.org,,vascular,,Oregon Vascular Specialists Bend,,,,,,,,,"Feb 28, 2025","Extracranial Cerebrovascular Testing, Peripheral Arterial Testing, Peripheral Venous Testing, Visceral Vascular Testing",,,,,,,,,,,,,,
68,69,Oregon Vascular Specialists,42.206508,-121.738649,granted,4052 South 6th St.,,Klamath Falls,OR,97603,USA,,www.oregonvascular.org,,vascular,,Oregon Vascular Specialists Klamath Falls,,,,,,,,,"Feb 28, 2025","Extracranial Cerebrovascular Testing, Peripheral Arterial Testing, Peripheral Venous Testing, Visceral Vascular Testing",,,,,,,,,,,,,,
69,70,Pediatric Cardiology Center of Oregon,45.542832,-122.67008,granted,300 North Graham,Suite 250,Portland,OR,97227,USA,,www.pccoforegon.com,,pediatric_echo,,Pediatric Cardiology Center of Oregon Portland,,,,,,,,,,,"Jun 30, 2023",Pediatric Transthoracic,,,,,,,,,,,,
70,71,"Pediatric Specialists of Pendleton, Inc",45.652478,-118.811722,granted,2461 SW Perkins Ave,,Pendleton,OR,97801,USA,,,,pediatric_echo,"www.google.com/search?q=Pediatric+Specialists+of+Pendleton,+Inc","Pediatric Specialists of Pendleton, Inc Pendleton",,,,,,,,,,,"Jun 30, 2023",Pediatric Transthoracic,,,,,,,,,,,,
71,72,Praxis Medical Group dba Desert Orthopedics,44.063207,-121.264895,granted,1342 NE Medical Center Dr. Suite 100,,Bend,OR,97701,USA,,www.desertorthopedics.com,,mr,,Praxis Medical Group dba Desert Orthopedics Bend,,,,,"Nov 30, 2023","Musculoskeletal MRI, Neurological MRI",,,,,,,,,,,,,,,,,,
72,73,Prefontaine Cardiovascular Imaging Center,43.385854,-124.232457,granted,1775 Thompson Rd,,Coos Bay,OR,97420,USA,,,,echo,www.google.com/search?q=Prefontaine+Cardiovascular+Imaging+Center,Prefontaine Cardiovascular Imaging Center Coos Bay,,,"May 31, 2025",Adult Transthoracic,,,,,,,,,,,,,,,,,,,,
73,74,Providence Heart Clinic Astoria,46.18797,-123.828876,granted,1355 Exchange Street,,Astoria,OR,97103,USA,,,,echo,www.google.com/search?q=Providence+Heart+Clinic+Astoria,Providence Heart Clinic Astoria Astoria,,,"Sep 30, 2023","Adult Stress, Adult Transthoracic",,,,,,,,,,,,,,,,,,,,
74,75,Providence Heart Clinic at the Oregon Clinic Gateway,45.530173,-122.562035,granted,"1111 99th Avenue, Suite 201",,Portland,OR,97220,USA,,,,echo,www.google.com/search?q=Providence+Heart+Clinic+at+the+Oregon+Clinic+Gateway,Providence Heart Clinic at the Oregon Clinic Gateway Portland,,,"Sep 30, 2023",Adult Transthoracic,,,,,,,,,,,,,,,,,,,,
75,76,Providence Heart Clinic-Gresham,45.504432,-122.4366,granted,440 NW Division Street,,Gresham,OR,97030,USA,,,,echo,www.google.com/search?q=Providence+Heart+Clinic-Gresham,Providence Heart Clinic-Gresham Gresham,,,"Sep 30, 2023",Adult Transthoracic,,,,,,,,,,,,,,,,,,,,
76,77,Providence Hood River Memorial Hospital,45.70416,-121.523228,granted,810 12th Street,,Hood River,OR,97031,USA,,,,echo,www.google.com/search?q=Providence+Hood+River+Memorial+Hospital,Providence Hood River Memorial Hospital Hood River,,,"Sep 30, 2023","Adult Stress, Adult Transthoracic",,,,,,,,,,,,,,,,,,,,
77,78,Providence Medford Medical Center,42.339698,-122.861016,granted,1111 Crater Lake Avenue,,Medford,OR,97504,USA,,,,vascular,www.google.com/search?q=Providence+Medford+Medical+Center,Providence Medford Medical Center Medford,,,,,,,,,"Jan 31, 2025","Extracranial Cerebrovascular Testing, Peripheral Arterial Testing, Peripheral Venous Testing",,,,,,,,,,,,,,
78,79,Providence Medford Medical Center,42.339698,-122.861016,granted,1111 Crater Lake Avenue,,Medford,OR,97504,USA,,,,echo,www.google.com/search?q=Providence+Medford+Medical+Center,Providence Medford Medical Center Medford,,,"May 31, 2025",Adult Transthoracic,,,,,,,,,,,,,,,,,,,,
79,80,Providence Milwaukie Hospital,45.449714,-122.629791,granted,10150 SE 32nd Ave,,Milwaukie,OR,97222,USA,,,,echo,www.google.com/search?q=Providence+Milwaukie+Hospital,Providence Milwaukie Hospital Milwaukie,,,"Sep 30, 2023",Adult Transthoracic,,,,,,,,,,,,,,,,,,,,
80,81,Providence Milwaukie Medical Center,45.449714,-122.629791,granted,10150 South East 32nd Avenue,,Portland,OR,97222,USA,,,,vascular,www.google.com/search?q=Providence+Milwaukie+Medical+Center,Providence Milwaukie Medical Center Portland,,,,,,,,,"Oct 31, 2023","Extracranial Cerebrovascular Testing, Peripheral Arterial Testing, Peripheral Venous Testing, Visceral Vascular Testing",,,,,,,,,,,,,,
81,82,Providence Newberg Medical Center,45.308552,-122.933913,granted,1001 Providence Drive,,Newberg,OR,97132,USA,,,,echo,www.google.com/search?q=Providence+Newberg+Medical+Center,Providence Newberg Medical Center Newberg,,,"Sep 30, 2023","Adult Stress, Adult Transthoracic",,,,,,,,,,,,,,,,,,,,
82,83,Providence Portland Heart Clinic-Gateway,45.530173,-122.562035,granted,1111 NE 99th Ave.,,Portland,OR,97220,USA,,,,vascular,www.google.com/search?q=Providence+Portland+Heart+Clinic-Gateway,Providence Portland Heart Clinic-Gateway Portland,,,,,,,,,"Oct 31, 2023","Extracranial Cerebrovascular Testing, Peripheral Arterial Testing, Peripheral Venous Testing",,,,,,,,,,,,,,
83,84,Providence Portland Medical Center,45.526518,-122.613781,granted,4805 North East Glisan Street,,Portland,OR,97213,USA,,,,vascular,www.google.com/search?q=Providence+Portland+Medical+Center,Providence Portland Medical Center Portland,,,,,,,,,"Oct 31, 2023","Extracranial Cerebrovascular Testing, Peripheral Arterial Testing, Peripheral Venous Testing, Visceral Vascular Testing",,,,,,,,,,,,,,
84,85,Providence Portland Medical Center,45.526518,-122.613781,granted,4805 North East Glisan Street,,Portland,OR,97213,USA,,,,echo,www.google.com/search?q=Providence+Portland+Medical+Center,Providence Portland Medical Center Portland,,,"Sep 30, 2023","Adult Stress, Adult Transthoracic",,,,,,,,,,,,,,,,,,,,
85,86,Providence Seaside Hospital,45.989367,-123.914805,granted,725 South Wahanna Road,,Seaside,OR,97138,USA,,,,echo,www.google.com/search?q=Providence+Seaside+Hospital,Providence Seaside Hospital Seaside,,,"Sep 30, 2023",Adult Transthoracic,,,,,,,,,,,,,,,,,,,,
86,87,Providence St. Vincent Heart Clinic - Bridgeport,45.391492,-122.751126,granted,18040 SW Lower Boones Ferry Road,,Tigard,OR,97224,USA,,,,echo,www.google.com/search?q=Providence+St.+Vincent+Heart+Clinic+-+Bridgeport,Providence St. Vincent Heart Clinic - Bridgeport Tigard,,,"Sep 30, 2023",Adult Transthoracic,,,,,,,,,,,,,,,,,,,,
87,88,Providence St. Vincent Heart Clinic - Tanasbourne,45.534164,-122.868837,granted,18610 NW Cornell Road,,Hillsboro,OR,97229,USA,,,,echo,www.google.com/search?q=Providence+St.+Vincent+Heart+Clinic+-+Tanasbourne,Providence St. Vincent Heart Clinic - Tanasbourne Hillsboro,,,"Sep 30, 2023",Adult Transthoracic,,,,,,,,,,,,,,,,,,,,
88,89,Providence St. Vincent Medical Center,45.50882,-122.770657,granted,9205 South West Barnes Road,,Portland,OR,97225,USA,,,,vascular,www.google.com/search?q=Providence+St.+Vincent+Medical+Center,Providence St. Vincent Medical Center Portland,,,,,,,,,"Oct 31, 2023","Extracranial Cerebrovascular Testing, Intracranial Cerebrovascular Testing, Peripheral Arterial Testing, Peripheral Venous Testing, Visceral Vascular Testing",,,,,,,,,,,,,,
89,90,Providence St. Vincent Medical Center,45.50882,-122.770657,granted,9205 South West Barnes Road,,Portland,OR,97225,USA,,,,echo,www.google.com/search?q=Providence+St.+Vincent+Medical+Center,Providence St. Vincent Medical Center Portland,,,"Sep 30, 2023","Adult Stress, Adult Transthoracic",,,,,,,,,,,,,,,,,,,,
90,91,Providence Stewart Meadows Medical Plaza,42.422823,-123.323341,granted,70 Bower,,Medford,OR,97501,USA,,,,vascular,www.google.com/search?q=Providence+Stewart+Meadows+Medical+Plaza,Providence Stewart Meadows Medical Plaza Medford,,,,,,,,,"Jan 31, 2025","Extracranial Cerebrovascular Testing, Peripheral Arterial Testing, Peripheral Venous Testing",,,,,,,,,,,,,,
91,92,Providence Willamette Falls Medical Center,45.356647,-122.588371,granted,1500 Division St.,,Oregon City,OR,97045,USA,,,,vascular,www.google.com/search?q=Providence+Willamette+Falls+Medical+Center,Providence Willamette Falls Medical Center Oregon City,,,,,,,,,"Oct 31, 2023","Extracranial Cerebrovascular Testing, Peripheral Arterial Testing, Peripheral Venous Testing, Visceral Vascular Testing",,,,,,,,,,,,,,
92,93,Providence Willamette Falls Medical Center,45.356647,-122.588371,granted,1500 Division St.,,Oregon City,OR,97045,USA,,www.providence.org/pwfmc,,echo,,Providence Willamette Falls Medical Center Oregon City,,,"Sep 30, 2023","Adult Stress, Adult Transthoracic",,,,,,,,,,,,,,,,,,,,
93,94,Randall Children’s Hospital at Legacy Emanuel,45.543936,-122.669445,granted,2801 N. Gantenbein Aveenue,,Portland,OR,97227,USA,,www.legacyhealth.org,,pediatric_echo,,Randall Children’s Hospital at Legacy Emanuel Portland,,,,,,,,,,,"Oct 30, 2022","Pediatric Transesophageal, Pediatric Transthoracic",,,,,,,,,,,,
94,95,Rogue Regional Medical Center,42.316483,-122.830443,granted,2825 East Barnett Road,,Medford,OR,97504,USA,,www.asante.org/RVMC/,,echo,,Rogue Regional Medical Center Medford,,,"Jun 30, 2025",Adult Transthoracic,,,,,,,,,,,,,,,,,,,,
95,96,Rogue Regional Medical Center Cardiac Studies,42.318308,-122.831966,granted,520 Medical Center Drive Suite 200,,Medford,OR,97504,USA,,,,echo,www.google.com/search?q=Rogue+Regional+Medical+Center+Cardiac+Studies,Rogue Regional Medical Center Cardiac Studies Medford,,,"Jun 30, 2025",Adult Transthoracic,,,,,,,,,,,,,,,,,,,,
96,97,Sacred Heart Medical Center at RiverBend,44.081237,-123.028685,granted,3311 Riverbend Dr,,Springfield,OR,97477,USA,,www.peacehealth.org,,nuclear,,Sacred Heart Medical Center at RiverBend Springfield,,,,,,,"Oct 31, 2024","Equilibrium Radionuclide Angiography, General Nuclear Medicine, Myocardial Perfusion Imaging",,,,,,,,,,,,,,,,
97,98,Saint Alphonsus Medical Center,44.024804,-116.975703,granted,351 S.W. 9th Street,,Ontario,OR,97914,USA,,www.saintalphonsus.org/ontario,,echo,,Saint Alphonsus Medical Center Ontario,,,"Jul 31, 2023",Adult Transthoracic,,,,,,,,,,,,,,,,,,,,
98,99,Salem Clinic,44.956324,-123.0202,granted,2020 Capital Street NE,,Salem,OR,97303,USA,,,,echo,www.google.com/search?q=Salem+Clinic,Salem Clinic Salem,,,"Sep 30, 2023","Adult Stress, Adult Transthoracic",,,,,,,,,,,,,,,,,,,,
99,100,Salem Health,44.93317,-123.033819,granted,875 Oak St SE,"Building C, Suite 3040",Salem,OR,97301,USA,,,,pediatric_echo,www.google.com/search?q=Salem+Health,Salem Health Salem,,,,,,,,,,,"Jun 30, 2024","Pediatric Transthoracic, Fetal",,,,,,,,,,,,
100,101,Salem Hospital Cardiovascular Non-Invasive Services-Echocardiography,44.932887,-123.033146,granted,890 Oak St SE Bld B,,Salem,OR,97301,USA,,,,echo,www.google.com/search?q=Salem+Hospital+Cardiovascular+Non-Invasive+Services-Echocardiography,Salem Hospital Cardiovascular Non-Invasive Services-Echocardiography Salem,,,"Oct 31, 2023",Adult Transthoracic,,,,,,,,,,,,,,,,,,,,
101,102,Salem Hospital Vascular Lab,44.932603,-123.035193,granted,665 Winter St. SE,,Salem,OR,97301,USA,,,,vascular,www.google.com/search?q=Salem+Hospital+Vascular+Lab,Salem Hospital Vascular Lab Salem,,,,,,,,,"Nov 29, 2022","Extracranial Cerebrovascular Testing, Peripheral Arterial Testing, Peripheral Venous Testing, Visceral Vascular Testing",,,,,,,,,,,,,,
102,103,Salem Pediatric Clinic,44.91724,-123.029286,granted,2478 13th Street SE,,Salem,OR,97302,USA,,,,pediatric_echo,www.google.com/search?q=Salem+Pediatric+Clinic,Salem Pediatric Clinic Salem,,,,,,,,,,,"Jun 30, 2023",Pediatric Transthoracic,,,,,,,,,,,,
103,104,Samaritan Lebanon Community Hospital,44.55059,-122.908439,granted,525 N. Santiam Hwy,,Lebanon,OR,97355,USA,,,,echo,www.google.com/search?q=Samaritan+Lebanon+Community+Hospital,Samaritan Lebanon Community Hospital Lebanon,,,"May 31, 2025",Adult Transthoracic,,,,,,,,,,,,,,,,,,,,
104,105,Southern Oregon Pediatrics,42.315267,-122.828846,granted,750 Murphy Road,,Medford,OR,97504,USA,,,,pediatric_echo,www.google.com/search?q=Southern+Oregon+Pediatrics,Southern Oregon Pediatrics Medford,,,,,,,,,,,"Jun 30, 2023",Pediatric Transthoracic,,,,,,,,,,,,
105,106,St. Charles Health System,44.288703,-121.168558,granted,1253 North Canal Boulevard,,Redmond,OR,97756,USA,,www.stcharleshealthcare.org,,echo,,St. Charles Health System Redmond,,,"Jan 31, 2025",Adult Transthoracic,,,,,,,,,,,,,,,,,,,,
106,107,St. Charles Health System,44.065753,-121.267326,granted,2500 Northeast Neff Road,,Bend,OR,97701,USA,,www.stcharleshealthcare.org,,echo,,St. Charles Health System Bend,,,"Jan 31, 2025","Adult Stress, Adult Transthoracic",,,,,,,,,,,,,,,,,,,,
107,108,St. Charles Health System,44.637365,-121.120835,granted,480 Northeast A Street,,Madras,OR,97741,USA,,www.stcharleshealthcare.org,,echo,,St. Charles Health System Madras,,,"Jan 31, 2025",Adult Transthoracic,,,,,,,,,,,,,,,,,,,,
108,109,St. Charles Health System,44.31033,-120.842559,granted,384 SE Combs Flat Rd,,Prineville,OR,97754,USA,,www.stcharleshealthcare.org,,echo,,St. Charles Health System Prineville,,,"Jan 31, 2025",Adult Transthoracic,,,,,,,,,,,,,,,,,,,,
109,110,St. Charles LaPine Clinic,43.67515,-121.504214,granted,51781 Huntington Road,,LaPine,OR,97739,USA,,www.stcharleshealthcare.org,,echo,,St. Charles LaPine Clinic LaPine,,,"Jan 31, 2025",Adult Transthoracic,,,,,,,,,,,,,,,,,,,,
110,111,St. Vincents Pediatric Multi-Specialty Clinic,45.509185,-122.77312,granted,9427 SW Barnes Road,Suite 598,Portland,OR,97225,USA,,,,pediatric_echo,www.google.com/search?q=St.+Vincents+Pediatric+Multi-Specialty+Clinic,St. Vincents Pediatric Multi-Specialty Clinic Portland,,,,,,,,,,,"Jun 30, 2023",Pediatric Transthoracic,,,,,,,,,,,,
111,112,Summit Medical Group Oregon - Bend Memorial Clinic,44.064709,-121.266635,granted,1501 NE Medical Center Drive,,Bend,OR,97701,USA,,,,nuclear,www.google.com/search?q=Summit+Medical+Group+Oregon+-+Bend+Memorial+Clinic,Summit Medical Group Oregon - Bend Memorial Clinic Bend,,,,,,,"Aug 31, 2023",Myocardial Perfusion Imaging,,,,,,,,,,,,,,,,
112,113,The Oregon Clinic - Cardiology,45.379149,-122.743956,granted,19260 Southwest 65th Avenue,Suite 420,Tualatin,OR,97062,USA,,www.oregonclinic.com,,echo,,The Oregon Clinic - Cardiology Tualatin,,,"Jul 31, 2023","Adult Stress, Adult Transthoracic",,,,,,,,,,,,,,,,,,,,
113,114,Three Rivers Medical Center,42.420437,-123.341495,granted,500 Southwest Ramsey Ave,,Grants Pass,OR,97527,USA,,,,echo,www.google.com/search?q=Three+Rivers+Medical+Center,Three Rivers Medical Center Grants Pass,,,"Jun 30, 2025",Adult Transthoracic,,,,,,,,,,,,,,,,,,,,
114,115,Three Rivers Medical Center Cardiac Studies,42.419823,-123.343084,granted,"520 SW  Ramsey Ave,Suite 101",,Grants Pass,OR,97527,USA,,,,echo,www.google.com/search?q=Three+Rivers+Medical+Center+Cardiac+Studies,Three Rivers Medical Center Cardiac Studies Grants Pass,,,"Jun 30, 2025",Adult Transthoracic,,,,,,,,,,,,,,,,,,,,
115,116,Valley Childrens Clinic,44.058895,-123.005212,granted,2000 North 19th,,Springfield,OR,97477,USA,,,,pediatric_echo,www.google.com/search?q=Valley+Childrens+Clinic,Valley Childrens Clinic Springfield,,,,,,,,,,,"Jun 30, 2023",Pediatric Transthoracic,,,,,,,,,,,,
116,117,West Valley Hospital,44.919404,-123.310383,granted,525 SE Washington St,,Dallas,OR,97383,USA,,,,echo,www.google.com/search?q=West+Valley+Hospital,West Valley Hospital Dallas,,,"Oct 31, 2023",Adult Transthoracic,,,,,,,,,,,,,,,,,,,,
117,118,"Willamette Ear, Nose, Throat and FPS, LLP",44.912049,-123.068954,granted,"3099 River Road S., Suite 150",,Salem,OR,97302,USA,,www.entsalem.com,,ct,,"Willamette Ear, Nose, Throat and FPS, LLP Salem","Jun 30, 2023",Maxillofacial CT,,,,,,,,,,,,,,,,,,,,,,
