,id,name,lat,lng,category,address,address2,city,state,postal,country,phone,web,features,modalities,searchGoogle,search,ct,ct_areas,echo,echo_areas,mr,mr_areas,nuclear,nuclear_areas,vascular,vascular_areas,pediatric_echo,pediatric_echo_areas,ct-dental,ct-dental_areas,stenting,stenting_areas,vein_center,vein_center_areas,cardiac_electrophysiology,cardiac_electrophysiology_areas,cardiovascular_catheterization,cardiovascular_catheterization_areas,jrcdms,jrcdms_areas
0,1,"Advanced Cardiology Associates Clinton, SC",34.477086,-81.935314,granted,23013 Hwy 76E Suite A,,Clinton,SC,29325,USA,,,,vascular,"www.google.com/search?q=Advanced+Cardiology+Associates+Clinton,+SC","Advanced Cardiology Associates Clinton, SC Clinton",,,,,,,,,"Mar 31, 2025","Extracranial Cerebrovascular Testing, Peripheral Arterial Testing, Peripheral Venous Testing",,,,,,,,,,,,,,
1,2,Advanced Cardiology Consultants,34.169276,-79.797047,multigranted,1706 Second Loop Road,,Florence,SC,29502,USA,,Advanced Cardiology.net,,"echo, nuclear",,Advanced Cardiology Consultants Florence,,,"May 31, 2025",Adult Transthoracic,,,"Jun 30, 2025",Myocardial Perfusion Imaging,,,,,,,,,,,,,,,,
2,3,"Advanced Diagnostics, Inc.",34.082666,-80.943877,multigranted,115 Blarney Drive,Suite 101,Columbia,SC,29223,USA,,,,"vascular, echo","www.google.com/search?q=Advanced+Diagnostics,+Inc.","Advanced Diagnostics, Inc. Columbia",,,"Mar 31, 2023",Adult Transthoracic,,,,,"Dec 30, 2022","Extracranial Cerebrovascular Testing, Peripheral Arterial Testing, Peripheral Venous Testing",,,,,,,,,,,,,,
3,4,Agape Primary Care DBA Main Street Physicians Care,33.86809,-78.67006,granted,3600 Sea Mountain Highway,,Little River,SC,29566,USA,,,,nuclear,www.google.com/search?q=Agape+Primary+Care+DBA+Main+Street+Physicians+Care,Agape Primary Care DBA Main Street Physicians Care Little River,,,,,,,"Jan 31, 2024",Myocardial Perfusion Imaging,,,,,,,,,,,,,,,,
4,5,"Aiken Augusta ENT, PC",33.566205,-81.764852,granted,170 University Parkway,,Aiken,SC,29081,USA,,augustaent.com,,ct,,"Aiken Augusta ENT, PC Aiken","Dec 31, 2023",Maxillofacial CT,,,,,,,,,,,,,,,,,,,,,,
5,6,Aiken Professional Association,33.574207,-81.762972,multigranted,137 Miracle Drive North West,,Aiken,SC,29801,USA,,www.aikenphysicians.com/locations/carolina-heart-and-vascular-center-main-office,,"vascular, echo",,Aiken Professional Association Aiken,,,"Mar 31, 2023","Adult Stress, Adult Transthoracic",,,,,"Nov 29, 2022","Extracranial Cerebrovascular Testing, Peripheral Arterial Testing, Peripheral Venous Testing, Screening",,,,,,,,,,,,,,
6,7,"Aiken Professional Association, LLC",33.574207,-81.762972,granted,"137 Miracle Drive, NW",,Aiken,SC,29801,USA,,www.aikenregional.com,,nuclear,,"Aiken Professional Association, LLC Aiken",,,,,,,"Apr 30, 2023",Myocardial Perfusion Imaging,,,,,,,,,,,,,,,,
7,8,American Health Imaging of Columbia,34.001896,-81.035853,multigranted,1241 Assembly St,Suite B,Columbia,SC,29201,,,americanhealthimaging.com/location/columbia-sc/,,"ct, mr",,American Health Imaging of Columbia Columbia,"Sep 29, 2022","Body CT, Neurological CT, Vascular CTA | Maxillofacial CT",,,"Sep 29, 2022","Body MRI, Musculoskeletal MRI, Neurological MRI | MRA",,,,,,,,,,,,,,,,,,
8,9,American Health Imaging of Greenville,34.834495,-82.33886,granted,361 Woodruff Rd,,Greenville,SC,29607,USA,,americanhealthimaging.com/location/greenville-sc/,,mr,,American Health Imaging of Greenville Greenville,,,,,"Sep 29, 2022",Musculoskeletal MRI,,,,,,,,,,,,,,,,,,
9,10,American Health Imaging of Irmo,34.086318,-81.182579,multigranted,1245 Lake Murray Blvd.,Suite B,Irmo,SC,29063,United States ,,americanhealthimaging.com/location/irmo-sc/,,"ct, mr",,American Health Imaging of Irmo Irmo,"Sep 29, 2022","Body CT, Neurological CT, Vascular CTA | Maxillofacial CT",,,"Sep 29, 2022","Body MRI, Musculoskeletal MRI, Neurological MRI | MRA",,,,,,,,,,,,,,,,,,
10,11,American Health Imaging of Mt. Pleasant,32.860939,-79.797115,multigranted,1172 Highway 41 Suite 103,,Mt Pleasant,SC,29604,United States,,americanhealthimaging.com/location/mtpleasant-sc/,,"ct, mr",,American Health Imaging of Mt. Pleasant Mt Pleasant,"Sep 29, 2022","Body CT, Neurological CT, Vascular CTA | Maxillofacial CT",,,"Sep 29, 2022","Body MRI, Musculoskeletal MRI, Neurological MRI | MRA",,,,,,,,,,,,,,,,,,
11,12,American Health Imaging of Summerville,32.975,-80.18,multigranted,902 Nexton Square Drive,,Summerville,SC,29486,United States,,americanhealthimaging.com/location/summerville-sc/,,"ct, mr",,American Health Imaging of Summerville Summerville,"Sep 29, 2022","Body CT, Neurological CT | Maxillofacial CT",,,"Sep 29, 2022","Body MRI, Musculoskeletal MRI, Neurological MRI | MRA",,,,,,,,,,,,,,,,,,
12,13,American Health Imaging of West Columbia,34.00638,-81.121758,multigranted,3020 Sunset Blvd,Suite 102,West Columbia,SC,29169,United States,,americanhealthimaging.com/location/west-columbia-sc/,,"ct, mr",,American Health Imaging of West Columbia West Columbia,"Sep 29, 2022","Body CT, Neurological CT, Vascular CTA | Maxillofacial CT",,,"Sep 29, 2022","Body MRI, Musculoskeletal MRI, Neurological MRI | MRA",,,,,,,,,,,,,,,,,,
13,14,Anderson ENT,34.527832,-82.630282,granted,1206 Cornelia Rd.,,Anderson,SC,29621,USA,,andersonearnosethroat.com,,ct,,Anderson ENT Anderson,"Feb 28, 2023",Maxillofacial CT,,,,,,,,,,,,,,,,,,,,,,
14,15,Anderson Heart,34.5527,-82.63108,granted,100 Gavotte Lane,,Anderson,SC,29621,USA,,,,nuclear,www.google.com/search?q=Anderson+Heart,Anderson Heart Anderson,,,,,,,"Mar 31, 2023",Myocardial Perfusion Imaging,,,,,,,,,,,,,,,,
15,16,"Anderson Heart, PC",34.5527,-82.63108,granted,100 Gavotte Lane,,Anderson,SC,29621,USA,,,,vascular,"www.google.com/search?q=Anderson+Heart,+PC","Anderson Heart, PC Anderson",,,,,,,,,"Dec 30, 2022",Peripheral Arterial Testing,,,,,,,,,,,,,,
16,17,AnMed Health Cardiovascular Diagnostics,34.543288,-82.629161,multigranted,100 Healthy Way,Suite 1250,Anderson,SC,29621,USA,,,,"echo, vascular",www.google.com/search?q=AnMed+Health+Cardiovascular+Diagnostics,AnMed Health Cardiovascular Diagnostics Anderson,,,"Oct 31, 2022","Adult Stress, Adult Transthoracic",,,,,"Nov 30, 2023","Extracranial Cerebrovascular Testing, Peripheral Arterial Testing, Peripheral Venous Testing",,,,,,,,,,,,,,
17,18,AnMed Health Cardiovascular Diagnostics,34.543288,-82.629161,granted,100 Healthy Way,Ste 1230,Anderson,SC,29621,USA,,,,nuclear,www.google.com/search?q=AnMed+Health+Cardiovascular+Diagnostics,AnMed Health Cardiovascular Diagnostics Anderson,,,,,,,"Apr 30, 2025",Myocardial Perfusion Imaging,,,,,,,,,,,,,,,,
18,19,AnMed Health Clemson,34.69259,-82.846416,granted,885 Tiger Boulevard,,Clemson,SC,29631,USA,,,,echo,www.google.com/search?q=AnMed+Health+Clemson,AnMed Health Clemson Clemson,,,"Oct 31, 2022",Adult Transthoracic,,,,,,,,,,,,,,,,,,,,
19,20,AnMed Health Medical Center,34.511071,-82.647355,multigranted,800 North Fant Street,,Anderson,SC,29621,USA,,www.anmedhealth.org,,"echo, vascular",,AnMed Health Medical Center Anderson,,,"Oct 31, 2022","Adult Stress, Adult Transesophageal, Adult Transthoracic",,,,,"Nov 30, 2023","Extracranial Cerebrovascular Testing, Peripheral Arterial Testing, Peripheral Venous Testing",,,,,,,,,,,,,,
20,21,Anmed Health Medicus ENT,34.534034,-82.631986,granted,1655 E. Greenville Street,,Anderson,SC,29621,USA,,www.anmedhealth.org,,ct,,Anmed Health Medicus ENT Anderson,"Jun 30, 2024",Maxillofacial CT,,,,,,,,,,,,,,,,,,,,,,
21,22,"Arcis Healthcare, LLC",32.961642,-80.159543,granted,93B Springview Lane,,Summerville,SC,29485,USA,,,,mr,"www.google.com/search?q=Arcis+Healthcare,+LLC","Arcis Healthcare, LLC Summerville",,,,,"Sep 30, 2023",Musculoskeletal MRI,,,,,,,,,,,,,,,,,,
22,23,Beaufort Orthopaedic Sports and Spine Center LLC,32.249106,-80.85452,granted,4812 Bluffton Pkwy,,Bluffton,SC,29910,USA,,,,mr,www.google.com/search?q=Beaufort+Orthopaedic+Sports+and+Spine+Center+LLC,Beaufort Orthopaedic Sports and Spine Center LLC Bluffton,,,,,"Mar 31, 2025",Musculoskeletal MRI,,,,,,,,,,,,,,,,,,
23,24,BG Neurology,34.977712,-81.894057,granted,1071 Boiling Springs Rd,,Spartanburg,SC,29303,USA,,mmlytlecharter.net,,vascular,,BG Neurology Spartanburg,,,,,,,,,"Sep 30, 2023",Extracranial Cerebrovascular Testing,,,,,,,,,,,,,,
24,25,Black Creek Medical Consultants,34.375083,-80.071132,granted,149 E Carolina Ave,,Hartsville,SC,29550,USA,,,,ct,www.google.com/search?q=Black+Creek+Medical+Consultants,Black Creek Medical Consultants Hartsville,"Apr 30, 2024",Maxillofacial CT,,,,,,,,,,,,,,,,,,,,,,
25,26,"Bon Secours Medical Group Greenville Specialty Care, LLC",34.840519,-82.420668,granted,"317 St. Francis Drive, Suite 340",,Greenville,SC,29601,USA,,,,vascular,"www.google.com/search?q=Bon+Secours+Medical+Group+Greenville+Specialty+Care,+LLC","Bon Secours Medical Group Greenville Specialty Care, LLC Greenville",,,,,,,,,"Apr 30, 2023","Extracranial Cerebrovascular Testing, Peripheral Arterial Testing, Peripheral Venous Testing",,,,,,,,,,,,,,
26,27,"Camden Heart Care, LLC",34.246618,-80.622785,granted,1045 W. Dekalb Street,,Camden,SC,29020,USA,,,,nuclear,"www.google.com/search?q=Camden+Heart+Care,+LLC","Camden Heart Care, LLC Camden",,,,,,,"Jan 31, 2024",Myocardial Perfusion Imaging,,,,,,,,,,,,,,,,
27,28,Cardiac Center,32.975297,-80.068303,granted,2791 Tricom Street,,N Charleston,SC,29406,USA,,,,nuclear,www.google.com/search?q=Cardiac+Center,Cardiac Center N Charleston,,,,,,,"Jan 31, 2024",Myocardial Perfusion Imaging,,,,,,,,,,,,,,,,
28,29,Cardiology Associates of Sumter,33.921952,-80.345788,granted,213 West Hampton Avenue,,Sumter,SC,29150,USA,,,,nuclear,www.google.com/search?q=Cardiology+Associates+of+Sumter,Cardiology Associates of Sumter Sumter,,,,,,,"Jul 31, 2025","Equilibrium Radionuclide Angiography, Myocardial Perfusion Imaging",,,,,,,,,,,,,,,,
29,30,"Cardiology Associates of Sumter, LLC",33.921919,-80.345237,granted,213 West Hampton Avenue,,Sumter,SC,29150,USA,,,,echo,"www.google.com/search?q=Cardiology+Associates+of+Sumter,+LLC","Cardiology Associates of Sumter, LLC Sumter",,,"Nov 30, 2025",Adult Transthoracic,,,,,,,,,,,,,,,,,,,,
30,31,"Cardiology Consultants, PA",34.977895,-81.942906,multigranted,1083 Boiling Springs Road,,Spartanburg,SC,29303,USA,,www.cardiologyconsultantspa.com,,"echo, nuclear",,"Cardiology Consultants, PA Spartanburg",,,"Dec 30, 2022","Adult Stress, Adult Transthoracic",,,"Feb 28, 2023",Myocardial Perfusion Imaging,,,,,,,,,,,,,,,,
31,32,"Cardiology Consultants, PA",34.862733,-82.221823,granted,2755 South Highway 14,Suite 2300,Greer,SC,29650,USA,,,,echo,"www.google.com/search?q=Cardiology+Consultants,+PA","Cardiology Consultants, PA Greer",,,"Dec 30, 2022",Adult Transthoracic,,,,,,,,,,,,,,,,,,,,
32,33,Carolina Cardiology Associates,34.716106,-80.791108,granted,901 West Meeting Street,,Lancaster,SC,29720,USA,,www.carolinacardiologyassociates.com/,,echo,,Carolina Cardiology Associates Lancaster,,,"Nov 30, 2022",Adult Transthoracic,,,,,,,,,,,,,,,,,,,,
33,34,Carolina Cardiology Associates,35.031664,-80.968512,granted,1658 SC-160,,Fort Mill,SC,29708,United States,,,,mr,www.google.com/search?q=Carolina+Cardiology+Associates,Carolina Cardiology Associates Fort Mill,,,,,"May 31, 2025","Body MRI, Musculoskeletal MRI, Neurological MRI, MRA",,,,,,,,,,,,,,,,,,
34,35,Carolina Cardiology Associates,34.9564,-81.048628,granted,196 Cardiology Drive,,Rock Hill,SC,29732,USA,,,,nuclear,www.google.com/search?q=Carolina+Cardiology+Associates,Carolina Cardiology Associates Rock Hill,,,,,,,"Sep 30, 2024","Equilibrium Radionuclide Angiography, Myocardial Perfusion Imaging",,,,,,,,,,,,,,,,
35,36,Carolina Cardiology Associates,34.9564,-81.048628,granted,196 Cardiology Dr.,,Rock Hill,SC,29732,USA,,,,ct,www.google.com/search?q=Carolina+Cardiology+Associates,Carolina Cardiology Associates Rock Hill,"Aug 31, 2023","Body CT, Coronary CTA, Neurological CT, Vascular CTA, Coronary Calcium Scoring",,,,,,,,,,,,,,,,,,,,,,
36,37,Carolina Cardiology Associates,34.9564,-81.048628,granted,196 Cardiology Drive,,Rock Hill,SC,29732,USA,,,,echo,www.google.com/search?q=Carolina+Cardiology+Associates,Carolina Cardiology Associates Rock Hill,,,"Nov 30, 2022",Adult Transthoracic,,,,,,,,,,,,,,,,,,,,
37,38,Carolina Health Specialists,33.760733,-78.81678,granted,945 82nd Parkway,,Myrtle Beach,SC,29572,USA,,carolina-health.com,,nuclear,,Carolina Health Specialists Myrtle Beach,,,,,,,"Oct 31, 2023",Myocardial Perfusion Imaging,,,,,,,,,,,,,,,,
38,39,"Carolina Heart Specialists, LLC",34.716056,-80.791228,granted,902 West Meeting Street,,Lancaster,SC,29720,USA,,,,ct,"www.google.com/search?q=Carolina+Heart+Specialists,+LLC","Carolina Heart Specialists, LLC Lancaster","Oct 31, 2024","Body CT, Vascular CTA, Coronary Calcium Scoring",,,,,,,,,,,,,,,,,,,,,,
39,40,"Carolina Heart Specialists, LLC",34.714863,-80.794589,multigranted,1029 West Meeting Street,,Lancaster,SC,29720,USA,,www.carolinaheartspecialists.net,,"nuclear, echo",,"Carolina Heart Specialists, LLC Lancaster",,,"May 31, 2024",Adult Transthoracic,,,"Mar 31, 2024",Myocardial Perfusion Imaging,,,,,,,,,,,,,,,,
40,41,"Carolina Heart Specialists, LLC",34.955262,-81.052,multigranted,1609 Constitution Blvd.,,Rock Hill,SC,29732,USA,,www.carolinaheartspecialists.net,,"nuclear, echo",,"Carolina Heart Specialists, LLC Rock Hill",,,"May 31, 2024",Adult Transthoracic,,,"Mar 31, 2024",Myocardial Perfusion Imaging,,,,,,,,,,,,,,,,
41,42,"Carolina Orthopedic, LLC",33.474211,-81.714172,granted,191 Centre South Blvd Suite 10 Crepe Myrtle Medical Park,,Aiken,SC,29803,USA,,www.carolinaorthopedics.net,,mr,,"Carolina Orthopedic, LLC Aiken",,,,,"Apr 30, 2024",Musculoskeletal MRI,,,,,,,,,,,,,,,,,,
42,43,Carolina Pines Regional Medical Center,34.348675,-80.105767,granted,1304 West Bobo Newsom Highway,,Hartsville,SC,29550,USA,,cprmc.com,,echo,,Carolina Pines Regional Medical Center Hartsville,,,"Dec 30, 2022","Adult Stress, Adult Transesophageal, Adult Transthoracic",,,,,,,,,,,,,,,,,,,,
43,44,Carolina Pines Regional Medical Center,34.348675,-80.105767,granted,1304 West Bobo Newsom Highway,,Hartsville,SC,29550,USA,,www.cprmc.com,,vascular,,Carolina Pines Regional Medical Center Hartsville,,,,,,,,,"Dec 31, 2022","Extracranial Cerebrovascular Testing, Peripheral Arterial Testing, Peripheral Venous Testing",,,,,,,,,,,,,,
44,45,Carolina Pulmonary and Critical Care,34.007242,-81.115944,granted,146 North Hospital Drive,Suite 400,West Columbia,SC,29169,USA,,,,echo,www.google.com/search?q=Carolina+Pulmonary+and+Critical+Care,Carolina Pulmonary and Critical Care West Columbia,,,"Aug 31, 2023",Adult Transthoracic,,,,,,,,,,,,,,,,,,,,
45,46,Carolina Vascular Laboratory,34.177264,-82.155625,granted,160 Academy Avenue,,Greenwood,SC,29646,USA,,,,vascular,www.google.com/search?q=Carolina+Vascular+Laboratory,Carolina Vascular Laboratory Greenwood,,,,,,,,,"Mar 31, 2025","Extracranial Cerebrovascular Testing, Intracranial Cerebrovascular Testing, Peripheral Arterial Testing, Peripheral Venous Testing, Visceral Vascular Testing",,,,,,,,,,,,,,
46,47,Carolina Vascular Laboratory,34.479214,-81.93909,granted,23013 Hwy 76 East,,Clinton,SC,29325,USA,,,,vascular,www.google.com/search?q=Carolina+Vascular+Laboratory,Carolina Vascular Laboratory Clinton,,,,,,,,,"Mar 31, 2025","Extracranial Cerebrovascular Testing, Peripheral Arterial Testing, Peripheral Venous Testing, Visceral Vascular Testing",,,,,,,,,,,,,,
47,48,"Cedars Medical Clinic, PA",33.920774,-80.348387,multigranted,325 West Liberty Street,,Sumter,SC,29150,USA,,,,"vascular, echo","www.google.com/search?q=Cedars+Medical+Clinic,+PA","Cedars Medical Clinic, PA Sumter",,,"Jun 30, 2024",Adult Transthoracic,,,,,"Jul 31, 2023","Extracranial Cerebrovascular Testing, Peripheral Arterial Testing, Peripheral Venous Testing",,,,,,,,,,,,,,
48,49,Center for Primary Care North,33.517344,-81.956676,granted,105 Hugh Street,,North Augusta,SC,29841,USA,,www.cpcfp.com,,echo,,Center for Primary Care North North Augusta,,,"Jan 31, 2023",Adult Transthoracic,,,,,,,,,,,,,,,,,,,,
49,50,Center for Primary Care Rinehart,33.553757,-81.778257,granted,131 Rinehart Way,,Aiken,SC,29801,USA,,,,echo,www.google.com/search?q=Center+for+Primary+Care+Rinehart,Center for Primary Care Rinehart Aiken,,,"Jan 31, 2023",Adult Transthoracic,,,,,,,,,,,,,,,,,,,,
50,51,Chapin Family Practice,34.168307,-81.35964,granted,1612 Chapin Rd.,,Chapin,SC,29036,USA,,,,echo,www.google.com/search?q=Chapin+Family+Practice,Chapin Family Practice Chapin,,,"Aug 31, 2023",Adult Transthoracic,,,,,,,,,,,,,,,,,,,,
51,52,"Charlotte Eye, Ear, Nose and Throat Associates",34.95533,-81.049344,granted,200 S. Herlong Ave.,,Rock Hill,SC,29732,USA,,,,ct,"www.google.com/search?q=Charlotte+Eye,+Ear,+Nose+and+Throat+Associates","Charlotte Eye, Ear, Nose and Throat Associates Rock Hill","Jan 31, 2024",Maxillofacial CT,,,,,,,,,,,,,,,,,,,,,,
52,53,"Charlotte Eye, Ear, Nose, and Throat Associates",34.993653,-80.971475,granted,601 S Sutton Rd,,Fort Mill,SC,29715,USA,,,,ct,"www.google.com/search?q=Charlotte+Eye,+Ear,+Nose,+and+Throat+Associates","Charlotte Eye, Ear, Nose, and Throat Associates Fort Mill","Jan 31, 2024",Maxillofacial CT,,,,,,,,,,,,,,,,,,,,,,
53,54,Charlotte Hearts,34.934853,-80.835792,granted,7666 Charlotte Hwy,,Indian Land,SC,29707,USA,,,,nuclear,www.google.com/search?q=Charlotte+Hearts,Charlotte Hearts Indian Land,,,,,,,"Mar 31, 2024",Myocardial Perfusion Imaging,,,,,,,,,,,,,,,,
54,55,Cherokee Medical Center,35.090092,-81.635753,granted,1530 Limestone Street,,Gaffney,SC,29340,USA,,,,echo,www.google.com/search?q=Cherokee+Medical+Center,Cherokee Medical Center Gaffney,,,"Nov 30, 2024",Adult Transthoracic,,,,,,,,,,,,,,,,,,,,
55,56,Clermont Radiology,33.7549,-78.817081,granted,"811 82nd Parkway, Ste. D",,Myrtle Beach,SC,29572,USA,,www.clermontradiology.com,,mr,,Clermont Radiology Myrtle Beach,,,,,"Dec 31, 2023","Musculoskeletal MRI, Neurological MRI",,,,,,,,,,,,,,,,,,
56,57,Clermont Radiology,34.196359,-79.78567,granted,1120 W Evans St,,Florence,SC,29501,USA,,,,mr,www.google.com/search?q=Clermont+Radiology,Clermont Radiology Florence,,,,,"Dec 31, 2023","Musculoskeletal MRI, Neurological MRI",,,,,,,,,,,,,,,,,,
57,58,"Coastal Cardiology, PA",32.795139,-79.993128,granted,1033 St. Andrews Boulevard,,Charleston,SC,29407,USA,,,,echo,"www.google.com/search?q=Coastal+Cardiology,+PA","Coastal Cardiology, PA Charleston",,,"Feb 28, 2023",Adult Transthoracic,,,,,,,,,,,,,,,,,,,,
58,59,"Coastal Cardiology, PA",32.803378,-79.898521,granted,897 Von Kolnitz Rd,,Mount Pleasant,SC,29464,USA,,www.coastalcardiolgy.org,,echo,,"Coastal Cardiology, PA Mount Pleasant",,,"Feb 28, 2023",Adult Transthoracic,,,,,,,,,,,,,,,,,,,,
59,60,"Coastal Carolina Otolaryngology Associates, PA",33.758951,-78.816235,granted,1021 Cipriana Drive,,Myrtle Beach,SC,29572,USA,,,,ct,"www.google.com/search?q=Coastal+Carolina+Otolaryngology+Associates,+PA","Coastal Carolina Otolaryngology Associates, PA Myrtle Beach","Oct 30, 2022",Maxillofacial CT,,,,,,,,,,,,,,,,,,,,,,
60,61,Coastal Vascular and Vein,32.97691,-80.062296,granted,2575 Elms Center Road,,North Charleston,SC,29406,USA,,,,vein_center,www.google.com/search?q=Coastal+Vascular+and+Vein,Coastal Vascular and Vein North Charleston,,,,,,,,,,,,,,,,,"Oct 31, 2023",Superficial Venous Evaluation and Management,,,,,,
61,62,Coastal Vascular and Vein Center,32.878021,-79.766199,granted,"3510 Highway 17 North, Suite 325",,Mount Pleasant,SC,29466,USA,,,,vascular,www.google.com/search?q=Coastal+Vascular+and+Vein+Center,Coastal Vascular and Vein Center Mount Pleasant,,,,,,,,,"Feb 28, 2023","Extracranial Cerebrovascular Testing, Peripheral Venous Testing",,,,,,,,,,,,,,
62,63,Coastal Vascular and Vein Center,32.921987,-80.672089,granted,416-B Robertson Blvd,,Walterboro,SC,29488,USA,,,,vascular,www.google.com/search?q=Coastal+Vascular+and+Vein+Center,Coastal Vascular and Vein Center Walterboro,,,,,,,,,"Feb 28, 2023","Extracranial Cerebrovascular Testing, Peripheral Venous Testing",,,,,,,,,,,,,,
63,64,Coastal Vascular and Vein Center,32.976929,-80.062258,granted,2575 Elms Center Road,Suite 200,North Charleston,SC,29406,USA,,,,vascular,www.google.com/search?q=Coastal+Vascular+and+Vein+Center,Coastal Vascular and Vein Center North Charleston,,,,,,,,,"Feb 28, 2023","Extracranial Cerebrovascular Testing, Peripheral Arterial Testing, Peripheral Venous Testing, Visceral Vascular Testing",,,,,,,,,,,,,,
64,65,Coastal Vascular and Vein Center,32.797537,-79.999838,multigranted,1327 Ashley River Rd. Bldg. B,,Charleston,SC,29414,USA,,www.coastalvvc.com,,"vascular, vein_center",,Coastal Vascular and Vein Center Charleston,,,,,,,,,"Feb 28, 2023","Extracranial Cerebrovascular Testing, Peripheral Arterial Testing, Peripheral Venous Testing, Visceral Vascular Testing",,,,,,,"Oct 31, 2023",Superficial Venous Evaluation and Management,,,,,,
65,66,Colonial Family Practice,34.019862,-80.970831,granted,4700 Forest Dr.,Suite 100,Columbia,SC,29206,USA,,www.colonialfamilypractice.com,,ct,,Colonial Family Practice Columbia,"Jul 31, 2025","Body CT, Neurological CT, Vascular CTA, Maxillofacial CT",,,,,,,,,,,,,,,,,,,,,,
66,67,"Colonial Family Practice,llc",33.934232,-80.355007,granted,325 Broad St.,Ste 100,Sumter,SC,29150,USA,,www.colonialfamilypractice.com,,ct,,"Colonial Family Practice,llc Sumter","Jul 31, 2025","Body CT, Neurological CT, Vascular CTA, Maxillofacial CT",,,,,,,,,,,,,,,,,,,,,,
67,68,"Colonial Family Practice,llc",33.951071,-80.39025,granted,385 W. Wesmark Blvd,,Sumter,SC,29150,USA,,www.colonialfamilypractice.com,,mr,,"Colonial Family Practice,llc Sumter",,,,,"Mar 31, 2025","Body MRI, Musculoskeletal MRI, Neurological MRI, MRA",,,,,,,,,,,,,,,,,,
68,69,Columbia Medical Group,34.008862,-80.968011,granted,4540 Trenholm Road,,Columbia,SC,29206,USA,,www.lexmed.com,,echo,,Columbia Medical Group Columbia,,,"Aug 31, 2023",Adult Transthoracic,,,,,,,,,,,,,,,,,,,,
69,70,"Comprehensive Neurological Services, PC",34.193441,-79.773077,granted,436 W. Palmetto Street,,Florence,SC,29501,USA,,,,mr,"www.google.com/search?q=Comprehensive+Neurological+Services,+PC","Comprehensive Neurological Services, PC Florence",,,,,"Feb 29, 2024","Neurological MRI, MRA",,,,,,,,,,,,,,,,,,
70,71,Conway Medical Center,33.78596,-79.004225,granted,300 Singleton Ridge Road,,Conway,SC,29528,USA,,,,echo,www.google.com/search?q=Conway+Medical+Center,Conway Medical Center Conway,,,"Jan 31, 2025",Adult Transthoracic,,,,,,,,,,,,,,,,,,,,
71,72,Dillon Internal Medicine Associates PA,34.420221,-79.364015,granted,705 North 8th Avenue,Suite 1A,Dillon,SC,29536,USA,,,,echo,www.google.com/search?q=Dillon+Internal+Medicine+Associates+PA,Dillon Internal Medicine Associates PA Dillon,,,"Oct 31, 2023",Adult Transthoracic,,,,,,,,,,,,,,,,,,,,
72,73,"Direct Diagnostic Services, LLC",32.797429,-79.997334,granted,4 Carriage Lane,Suite 108,Charleston,SC,29407,,,www.direct-llc.com,,nuclear,,"Direct Diagnostic Services, LLC Charleston",,,,,,,"Jan 31, 2024",Myocardial Perfusion Imaging,,,,,,,,,,,,,,,,
73,74,"Dr. Paul M Long, LLC",32.216791,-80.719963,granted,89 Main St.,,Hilton Head Island,SC,29926,USA,,,,nuclear,"www.google.com/search?q=Dr.+Paul+M+Long,+LLC","Dr. Paul M Long, LLC Hilton Head Island",,,,,,,"Jan 31, 2024",Myocardial Perfusion Imaging,,,,,,,,,,,,,,,,
74,75,"Dr. Thomas P. Lenns, LLC",32.216791,-80.719963,granted,89 Main St.,,Hilton Head Island,SC,29926,USA,,,,nuclear,"www.google.com/search?q=Dr.+Thomas+P.+Lenns,+LLC","Dr. Thomas P. Lenns, LLC Hilton Head Island",,,,,,,"Jan 31, 2024",Myocardial Perfusion Imaging,,,,,,,,,,,,,,,,
75,76,Ear Nose Throat and Audiology Associates,34.960183,-81.043473,granted,744 Arden Lane,Ste 200,Rock Hill,SC,29732,USA,,,,ct,www.google.com/search?q=Ear+Nose+Throat+and+Audiology+Associates,Ear Nose Throat and Audiology Associates Rock Hill,"Jul 31, 2024",Maxillofacial CT,,,,,,,,,,,,,,,,,,,,,,
76,77,Ear Nose Throat and Audiology Associates,34.702399,-81.629897,granted,720B South Duncan Bypass,,Union,SC,29379,USA,,,,ct,www.google.com/search?q=Ear+Nose+Throat+and+Audiology+Associates,Ear Nose Throat and Audiology Associates Union,"Jul 31, 2024",Maxillofacial CT,,,,,,,,,,,,,,,,,,,,,,
77,78,Ear Nose Throat and Audiology Associates,35.089212,-81.63655,granted,1506 North Limestone Street Suite B,,Gaffney,SC,29340,USA,,,,ct,www.google.com/search?q=Ear+Nose+Throat+and+Audiology+Associates,Ear Nose Throat and Audiology Associates Gaffney,"Jul 31, 2024",Maxillofacial CT,,,,,,,,,,,,,,,,,,,,,,
78,79,"Easley Head and Neck Surgery, PA",34.839071,-82.609523,granted,115 Whitmire Road,,Easley,SC,29640,USA,,,,ct,"www.google.com/search?q=Easley+Head+and+Neck+Surgery,+PA","Easley Head and Neck Surgery, PA Easley","Mar 31, 2024",Maxillofacial CT,,,,,,,,,,,,,,,,,,,,,,
79,80,ENT and Allergy Partners,32.275496,-80.872633,granted,10 Arley Way,Ste. 101,Bluffton,SC,29910,USA,,www.charlestonent.com,,ct,,ENT and Allergy Partners Bluffton,"Sep 30, 2024",Maxillofacial CT,,,,,,,,,,,,,,,,,,,,,,
80,81,ENT and Allergy Partners,32.9647077,-80.1582891,granted,298 Midland Parkway,,Summerville,SC,29485,USA,,www.charlestonent.com,,ct,,ENT and Allergy Partners Summerville,"Sep 30, 2024",Maxillofacial CT,,,,,,,,,,,,,,,,,,,,,,
81,82,ENT and Allergy Partners,32.8026691,-79.8984979,granted,180 Wingo Way,Suite 103,Mount Pleasant,SC,29464,USA,,www.charlestonent.com,,ct,,ENT and Allergy Partners Mount Pleasant,"Sep 30, 2024",Maxillofacial CT,,,,,,,,,,,,,,,,,,,,,,
82,83,ENT and Allergy Partners,32.976753,-80.068264,granted,9185 University Blvd.,,North Charleston,SC,29406,USA,,www.charlestonent.com,,ct,,ENT and Allergy Partners North Charleston,"Sep 30, 2024",Maxillofacial CT,,,,,,,,,,,,,,,,,,,,,,
83,84,ENT and Allergy Partners,33.402855,-79.270612,granted,2005 2nd Ave,,Summerville,SC,29486,USA,,www.charlestonent.com,,ct,,ENT and Allergy Partners Summerville,"Sep 30, 2024",Maxillofacial CT,,,,,,,,,,,,,,,,,,,,,,
84,85,ENT and Allergy Partners,32.878021,-79.766199,granted,3510 Hwy. 17,Suite 135,Mount Pleasant,SC,29466,USA,,www.charlestonent.com,,ct,,ENT and Allergy Partners Mount Pleasant,"Sep 30, 2024",Maxillofacial CT,,,,,,,,,,,,,,,,,,,,,,
85,86,ENT and Allergy Partners,33.205133,-79.983473,granted,5000 Epson Plantation Dr.,,Moncks Corner,SC,29461,USA,,www.charlestonent.com,,ct,,ENT and Allergy Partners Moncks Corner,"Sep 30, 2024",Maxillofacial CT,,,,,,,,,,,,,,,,,,,,,,
86,87,ENT and Allergy Partners,32.404353,-80.685222,granted,1231 Ribaut Rd.,,Beaufort,SC,29902,USA,,www.charlestonent.com,,ct,,ENT and Allergy Partners Beaufort,"Sep 30, 2024",Maxillofacial CT,,,,,,,,,,,,,,,,,,,,,,
87,88,ENT and Allergy Partners,32.804426,-80.043673,granted,2295 Henry Tecklenburg Dr.,,Charleston,SC,29414,USA,,www.charlestonent.com,,ct,,ENT and Allergy Partners Charleston,"Sep 30, 2024","Body CT, Maxillofacial CT",,,,,,,,,,,,,,,,,,,,,,
88,89,Fairfield Medical Associates,34.372626,-81.097358,granted,880 West Moultrie Street,Suite 200,Winnsboro,SC,29180,USA,,,,nuclear,www.google.com/search?q=Fairfield+Medical+Associates,Fairfield Medical Associates Winnsboro,,,,,,,"Mar 31, 2024",Myocardial Perfusion Imaging,,,,,,,,,,,,,,,,
89,90,Family Physician Of Spartanburg,34.913102,-82.012579,granted,3021 Rediville Road,,Spartanburg,SC,29301,USA,,,,echo,www.google.com/search?q=Family+Physician+Of+Spartanburg,Family Physician Of Spartanburg Spartanburg,,,"Jun 30, 2024",Adult Transthoracic,,,,,,,,,,,,,,,,,,,,
90,91,Foothills Cardiology,34.839673,-82.607031,granted,129 Fleetwood Drive,,Easley,SC,29640,USA,,,,nuclear,www.google.com/search?q=Foothills+Cardiology,Foothills Cardiology Easley,,,,,,,"Aug 31, 2023",Myocardial Perfusion Imaging,,,,,,,,,,,,,,,,
91,92,Grand Strand Heart and Vascular Care,33.754383,-78.861278,granted,4630 Hwy 17 Bypass South,,Murrells Inlet,SC,29576,USA,,,,nuclear,www.google.com/search?q=Grand+Strand+Heart+and+Vascular+Care,Grand Strand Heart and Vascular Care Murrells Inlet,,,,,,,"Jan 31, 2024",Myocardial Perfusion Imaging,,,,,,,,,,,,,,,,
92,93,Greenville ENT and Allergy,34.816181,-82.410768,granted,1 Doctors Dr.,,Greenville,SC,29605,USA,,,,ct,www.google.com/search?q=Greenville+ENT+and+Allergy,Greenville ENT and Allergy Greenville,"Jul 31, 2024",Maxillofacial CT,,,,,,,,,,,,,,,,,,,,,,
93,94,Greenwood E.N.T. Center,34.177279,-82.160087,granted,1015 Spring St.,,Greenwood,SC,29646,USA,,www.greenwoodent.com,,ct,,Greenwood E.N.T. Center Greenwood,"Oct 31, 2023",Maxillofacial CT,,,,,,,,,,,,,,,,,,,,,,
94,95,Harbison Medical Associates,34.078455,-81.17914,granted,1526 Lake Murray Blvd,,Columbia,SC,29212,USA,,,,echo,www.google.com/search?q=Harbison+Medical+Associates,Harbison Medical Associates Columbia,,,"Aug 31, 2023",Adult Transthoracic,,,,,,,,,,,,,,,,,,,,
95,96,"Hilton Head Cardiology Consultants, LLC",32.21932,-80.7125,granted,25 Hospital Center Blvd,Suite 309,Hilton Head Island,SC,29926,USA,,,,nuclear,"www.google.com/search?q=Hilton+Head+Cardiology+Consultants,+LLC","Hilton Head Cardiology Consultants, LLC Hilton Head Island",,,,,,,"Jan 31, 2024",Myocardial Perfusion Imaging,,,,,,,,,,,,,,,,
96,97,"Hilton Head Regional Physician Network, LLC DBA Hilton Head Heart",32.290533,-80.939824,granted,8 Okatie Center Boulevard South Suite 101,,Okatie,SC,29909,USA,,,,nuclear,"www.google.com/search?q=Hilton+Head+Regional+Physician+Network,+LLC+DBA+Hilton+Head+Heart","Hilton Head Regional Physician Network, LLC DBA Hilton Head Heart Okatie",,,,,,,"Jan 31, 2024",Myocardial Perfusion Imaging,,,,,,,,,,,,,,,,
97,98,"Hilton Head Regional Physician Network, LLC DBA Hilton Head Heart",32.447747,-80.640447,granted,95 Sea Island Parkway,Suite 102,Lady’s Island,SC,29907,USA,,,,nuclear,"www.google.com/search?q=Hilton+Head+Regional+Physician+Network,+LLC+DBA+Hilton+Head+Heart","Hilton Head Regional Physician Network, LLC DBA Hilton Head Heart Lady’s Island",,,,,,,"Jan 31, 2024",Myocardial Perfusion Imaging,,,,,,,,,,,,,,,,
98,99,"Imaging Partners, PLLC",32.797429,-79.997334,granted,4 Carriage Lane,Suite 108,Charleston,SC,29407,United States,,,,nuclear,"www.google.com/search?q=Imaging+Partners,+PLLC","Imaging Partners, PLLC Charleston",,,,,,,"Jan 31, 2024",Myocardial Perfusion Imaging,,,,,,,,,,,,,,,,
99,100,Internal Medicine Associates,33.994668,-81.09317,granted,146 North Hospital Drive,"Lexington Medical Park 2, Suite 530",West Columbia,SC,29169,USA,,LMCIMA.com,,echo,,Internal Medicine Associates West Columbia,,,"Aug 31, 2023",Adult Transthoracic,,,,,,,,,,,,,,,,,,,,
100,101,Internal Medicine Associates -Lexington,33.98438,-81.25136,granted,346 West Butler Street,,Lexington,SC,29072,USA,,,,echo,www.google.com/search?q=Internal+Medicine+Associates+-Lexington,Internal Medicine Associates -Lexington Lexington,,,"Aug 31, 2023",Adult Transthoracic,,,,,,,,,,,,,,,,,,,,
101,102,Kershaw Hospital LLC,34.253164,-80.589579,granted,1315 Roberts Street,PO Box 7003,Camden,SC,29020,USA,,,,vascular,www.google.com/search?q=Kershaw+Hospital+LLC,Kershaw Hospital LLC Camden,,,,,,,,,"Sep 30, 2023","Extracranial Cerebrovascular Testing, Peripheral Arterial Testing, Peripheral Venous Testing",,,,,,,,,,,,,,
102,103,Lexington Family Practice Ballentine,34.13859,-81.258194,granted,1846 Dutch Fork Rd.,,Irmo,SC,29063,USA,,,,echo,www.google.com/search?q=Lexington+Family+Practice+Ballentine,Lexington Family Practice Ballentine Irmo,,,"Aug 31, 2023",Adult Transthoracic,,,,,,,,,,,,,,,,,,,,
103,104,Lexington Family Practice Gilbert,33.965402,-81.389131,granted,4080 Augusta Highway,,Gilbert,SC,29054,USA,,LFPGilbert.com,,echo,,Lexington Family Practice Gilbert Gilbert,,,"Aug 31, 2023",Adult Transthoracic,,,,,,,,,,,,,,,,,,,,
104,105,Lexington Family Practice Irmo,34.078551,-81.179197,granted,7037 St. Andrews Road,,Columbia,SC,29212,USA,,,,echo,www.google.com/search?q=Lexington+Family+Practice+Irmo,Lexington Family Practice Irmo Columbia,,,"Aug 31, 2023",Adult Transthoracic,,,,,,,,,,,,,,,,,,,,
105,106,Lexington Family Practice Lake Murray,33.980745,-81.28496,granted,2006 Augusta Highway,,Lexington,SC,29072,USA,,,,echo,www.google.com/search?q=Lexington+Family+Practice+Lake+Murray,Lexington Family Practice Lake Murray Lexington,,,"Aug 31, 2023",Adult Transthoracic,,,,,,,,,,,,,,,,,,,,
106,107,Lexington Family Practice Lexington,34.002307,-81.205795,granted,122 Powell Drive,,Lexington,SC,29072,USA,,,,echo,www.google.com/search?q=Lexington+Family+Practice+Lexington,Lexington Family Practice Lexington Lexington,,,"Aug 31, 2023",Adult Transthoracic,,,,,,,,,,,,,,,,,,,,
107,108,Lexington Family Practice Northeast,34.106013,-80.900581,granted,76 Polo Rd.,,Columbia,SC,29223,USA,,,,echo,www.google.com/search?q=Lexington+Family+Practice+Northeast,Lexington Family Practice Northeast Columbia,,,"Aug 31, 2023",Adult Transthoracic,,,,,,,,,,,,,,,,,,,,
108,109,Lexington Family Practice Otarre Point,33.941171,-81.043693,granted,3799 12th Street Extension,Suite 105,Cayce,SC,29033,USA,,,,echo,www.google.com/search?q=Lexington+Family+Practice+Otarre+Point,Lexington Family Practice Otarre Point Cayce,,,"Aug 31, 2023",Adult Transthoracic,,,,,,,,,,,,,,,,,,,,
109,110,Lexington Family Practice West Columbia,33.955418,-81.119962,granted,3314 Platt Springs Rd.,,West Columbia,SC,29170,USA,,,,echo,www.google.com/search?q=Lexington+Family+Practice+West+Columbia,Lexington Family Practice West Columbia West Columbia,,,"Aug 31, 2023",Adult Transthoracic,,,,,,,,,,,,,,,,,,,,
110,111,Lexington Family Practice White Knoll,33.907789,-81.226468,granted,5535 Platt Springs Road,,Lexington,SC,29073,USA,,,,echo,www.google.com/search?q=Lexington+Family+Practice+White+Knoll,Lexington Family Practice White Knoll Lexington,,,"Aug 31, 2023",Adult Transthoracic,,,,,,,,,,,,,,,,,,,,
111,112,Lexington Family Practice- Lexington,34.002307,-81.205795,granted,122 Powell Drive,,Lexington,SC,29072,USA,,,,nuclear,www.google.com/search?q=Lexington+Family+Practice-+Lexington,Lexington Family Practice- Lexington Lexington,,,,,,,"Feb 29, 2024",Myocardial Perfusion Imaging,,,,,,,,,,,,,,,,
112,113,Lexington Family Practice- West Columbia,33.955418,-81.119962,granted,3314 Platt Springs Road,,West Columbia,SC,29170,USA,,,,nuclear,www.google.com/search?q=Lexington+Family+Practice-+West+Columbia,Lexington Family Practice- West Columbia West Columbia,,,,,,,"Feb 29, 2024",Myocardial Perfusion Imaging,,,,,,,,,,,,,,,,
113,114,Lexington Heart and Vascular Center,34.00058,-81.0979,granted,Lexington Medical Park 1,2728 Sunset Blvd.; Suite 300 and 400,West Columbia,SC,29169,USA,,www.lexcardio.com,,echo,,Lexington Heart and Vascular Center West Columbia,,,"Mar 31, 2023",Adult Transthoracic,,,,,,,,,,,,,,,,,,,,
114,115,Lexington Internists Irmo,34.082731,-81.181675,granted,7033 St. Andrews Road,Suite 101,Columbia,SC,29212,USA,,,,echo,www.google.com/search?q=Lexington+Internists+Irmo,Lexington Internists Irmo Columbia,,,"Aug 31, 2023",Adult Transthoracic,,,,,,,,,,,,,,,,,,,,
115,116,Lexington Internists Northeast,34.104586,-80.951731,granted,21 Gateway Corners Park 101,,Columbia,SC,29203,USA,,,,echo,www.google.com/search?q=Lexington+Internists+Northeast,Lexington Internists Northeast Columbia,,,"Aug 31, 2023",Adult Transthoracic,,,,,,,,,,,,,,,,,,,,
116,117,Lexington Medical Center,34.004526,-81.115116,granted,2720 Sunset Boulevard,,West Columbia,SC,29169,USA,,,,vascular,www.google.com/search?q=Lexington+Medical+Center,Lexington Medical Center West Columbia,,,,,,,,,"Dec 30, 2022","Extracranial Cerebrovascular Testing, Peripheral Arterial Testing, Peripheral Venous Testing",,,,,,,,,,,,,,
117,118,Lexington Medical Center,34.004526,-81.115116,granted,2720 Sunset Boulevard,,West Columbia,SC,29169,USA,,,,echo,www.google.com/search?q=Lexington+Medical+Center,Lexington Medical Center West Columbia,,,"Mar 31, 2023","Adult Transesophageal, Adult Transthoracic",,,,,,,,,,,,,,,,,,,,
118,119,Lexington Medical Center Batesburg-Leesville,33.914912,-81.515923,granted,338 East Columbia Ave.,,Batesburg-Leesville,SC,29070,USA,,,,echo,www.google.com/search?q=Lexington+Medical+Center+Batesburg-Leesville,Lexington Medical Center Batesburg-Leesville Batesburg-Leesville,,,"Aug 31, 2023",Adult Transthoracic,,,,,,,,,,,,,,,,,,,,
119,120,Lexington Medical Heart and Vascular Center-Surgery-Vascular Diagnostics,34.007251,-81.115857,granted,2728 Sunset Boulevard,Lexington Medical Park 1 Suite 400,West Columbia,SC,29169,USA,,,,vascular,www.google.com/search?q=Lexington+Medical+Heart+and+Vascular+Center-Surgery-Vascular+Diagnostics,Lexington Medical Heart and Vascular Center-Surgery-Vascular Diagnostics West Columbia,,,,,,,,,"Dec 30, 2022","Extracranial Cerebrovascular Testing, Peripheral Arterial Testing, Peripheral Venous Testing, Visceral Vascular Testing",,,,,,,,,,,,,,
120,121,Lexington Medical HVC Cardiology,33.999956,-81.099964,granted,2728 Sunset Blvd. Suite 300,Lexington Medical Park 1,West Columbia,SC,29169,USA,,lexcardio.com,,nuclear,,Lexington Medical HVC Cardiology West Columbia,,,,,,,"Feb 29, 2024",Myocardial Perfusion Imaging,,,,,,,,,,,,,,,,
121,122,Lexington Oncology Associates,34.004557,-81.115284,granted,2728 Sunset Blvd. Suite 402,,West Columbia,SC,29169,USA,,,,echo,www.google.com/search?q=Lexington+Oncology+Associates,Lexington Oncology Associates West Columbia,,,"Aug 31, 2023",Adult Transthoracic,,,,,,,,,,,,,,,,,,,,
122,123,"Liberty Doctors, LLC dba Hope Clinic, LLC",32.9019,-80.01863,granted,5880 Rivers Avenue,,North Charleston,SC,29406,USA,,,,nuclear,"www.google.com/search?q=Liberty+Doctors,+LLC+dba+Hope+Clinic,+LLC","Liberty Doctors, LLC dba Hope Clinic, LLC North Charleston",,,,,,,"Jan 31, 2024",Myocardial Perfusion Imaging,,,,,,,,,,,,,,,,
123,124,"Liberty Doctors, LLC dba Hope Clinic, LLC",33.194301,-79.983667,granted,110 Executive Parkway,,Moncks Corner,SC,29461,USA,,,,nuclear,"www.google.com/search?q=Liberty+Doctors,+LLC+dba+Hope+Clinic,+LLC","Liberty Doctors, LLC dba Hope Clinic, LLC Moncks Corner",,,,,,,"Jan 31, 2024",Myocardial Perfusion Imaging,,,,,,,,,,,,,,,,
124,125,Life in a Blender Family Medicine,33.782276,-79.009762,granted,132A Professional Park Drive,,Conway,SC,29526,USA,,,,nuclear,www.google.com/search?q=Life+in+a+Blender+Family+Medicine,Life in a Blender Family Medicine Conway,,,,,,,"Jan 31, 2024",Myocardial Perfusion Imaging,,,,,,,,,,,,,,,,
125,126,"Lowcountry Cardiology Associates, PA",32.870936,-80.020384,granted,4969 Centre Pointe Drive,Suite 100,North Charleston,SC,29418,USA,,,,echo,"www.google.com/search?q=Lowcountry+Cardiology+Associates,+PA","Lowcountry Cardiology Associates, PA North Charleston",,,"Jan 29, 2023",Adult Transthoracic,,,,,,,,,,,,,,,,,,,,
126,127,M Mukesh Gandhi PA,34.765031,-82.048279,granted,409 State Road S-42-50,,Woodruff,SC,29388,USA,,,,nuclear,www.google.com/search?q=M+Mukesh+Gandhi+PA,M Mukesh Gandhi PA Woodruff,,,,,,,"Mar 31, 2024",Myocardial Perfusion Imaging,,,,,,,,,,,,,,,,
127,128,Mayes Internal Medicine,32.219749,-80.713243,granted,8 Hospital Center Blvd.,Suite 210,Hilton Head,SC,29926,USA,,,,nuclear,www.google.com/search?q=Mayes+Internal+Medicine,Mayes Internal Medicine Hilton Head,,,,,,,"Jan 31, 2024",Myocardial Perfusion Imaging,,,,,,,,,,,,,,,,
128,129,McLeod Cardiology Associates Florence,34.197668,-79.754392,multigranted,101 William H Johnson Street,Suite 600,Florence,SC,29506,USA,,,,"nuclear, echo",www.google.com/search?q=McLeod+Cardiology+Associates+Florence,McLeod Cardiology Associates Florence Florence,,,"May 31, 2024",Adult Transthoracic,,,"Nov 30, 2023",Myocardial Perfusion Imaging,,,,,,,,,,,,,,,,
129,130,McLeod Cardiology Associates Loris,34.055951,-78.898744,multigranted,3485 Mitchell St,,Loris,SC,29569,USA,,,,"nuclear, echo",www.google.com/search?q=McLeod+Cardiology+Associates+Loris,McLeod Cardiology Associates Loris Loris,,,"May 31, 2024",Adult Transthoracic,,,"Nov 30, 2023",Myocardial Perfusion Imaging,,,,,,,,,,,,,,,,
130,131,McLeod Cardiology Associates Myrtle Beach,33.760737,-78.816782,granted,107 McLeod Health Blvd.,Suite 202,Myrtle Beach,SC,29579,USA,,,,nuclear,www.google.com/search?q=McLeod+Cardiology+Associates+Myrtle+Beach,McLeod Cardiology Associates Myrtle Beach Myrtle Beach,,,,,,,"Jul 31, 2024",Myocardial Perfusion Imaging,,,,,,,,,,,,,,,,
131,132,McLeod Cardiology Associates Seacoast,33.866346,-78.66249,multigranted,3980 Hwy 9 East Suite 220,,Little River,SC,29566,USA,,,,"nuclear, echo",www.google.com/search?q=McLeod+Cardiology+Associates+Seacoast,McLeod Cardiology Associates Seacoast Little River,,,"May 31, 2024",Adult Transthoracic,,,"Nov 30, 2023",Myocardial Perfusion Imaging,,,,,,,,,,,,,,,,
132,133,McLeod Cardiology Associates Sumter,33.922836,-80.343289,multigranted,540 Physicians Lane,,Sumter,SC,29150,USA,,,,"nuclear, echo",www.google.com/search?q=McLeod+Cardiology+Associates+Sumter,McLeod Cardiology Associates Sumter Sumter,,,"May 31, 2024",Adult Transthoracic,,,"Nov 30, 2023",Myocardial Perfusion Imaging,,,,,,,,,,,,,,,,
133,134,McLeod Regional Medical Center,34.195931,-79.758784,granted,555 East Cheves Street,P. O. Box 100551,Florence,SC,29506,USA,,www.mcleodhealth.org,,echo,,McLeod Regional Medical Center Florence,,,"May 31, 2025",Adult Transthoracic,,,,,,,,,,,,,,,,,,,,
134,135,McLeod Vascular Associates Carolina Forest,33.746855,-78.923841,granted,107 McLeod Health Blvd.,,Myrtle Beach,SC,29579,USA,,,,vascular,www.google.com/search?q=McLeod+Vascular+Associates+Carolina+Forest,McLeod Vascular Associates Carolina Forest Myrtle Beach,,,,,,,,,"Jun 30, 2024","Extracranial Cerebrovascular Testing, Peripheral Arterial Testing, Peripheral Venous Testing",,,,,,,,,,,,,,
135,136,McLeod Vascular Associates Florence,34.197331,-79.761003,multigranted,101 William H. Johnson Street Suite 100,,Florence,SC,29506,USA,,,,"vein_center, vascular",www.google.com/search?q=McLeod+Vascular+Associates+Florence,McLeod Vascular Associates Florence Florence,,,,,,,,,"Nov 30, 2023","Extracranial Cerebrovascular Testing, Peripheral Arterial Testing, Peripheral Venous Testing",,,,,,,"Jul 31, 2023",Superficial Venous Evaluation and Management,,,,,,
136,137,McLeod Vascular Associates Hartsville,34.354125,-80.05739,granted,1319 South 4th Street,,Hartsville,SC,29550,USA,,,,vascular,www.google.com/search?q=McLeod+Vascular+Associates+Hartsville,McLeod Vascular Associates Hartsville Hartsville,,,,,,,,,"Nov 30, 2023","Extracranial Cerebrovascular Testing, Peripheral Arterial Testing, Peripheral Venous Testing",,,,,,,,,,,,,,
137,138,McLeod Vascular Associates Seacoast,33.867584,-78.664852,granted,3980 Highway 9 East Suite 240,,Little River,SC,29566,USA,,,,vascular,www.google.com/search?q=McLeod+Vascular+Associates+Seacoast,McLeod Vascular Associates Seacoast Little River,,,,,,,,,"Jun 30, 2024","Extracranial Cerebrovascular Testing, Peripheral Arterial Testing, Peripheral Venous Testing",,,,,,,,,,,,,,
138,139,Medical University of South Carolina,33.559855,-79.044229,granted,"4040 Highway 17 Bypass, Suite 306",,Tidelands,SC,29576,USA,,musckids.org/locations/musc-childrens-health-at-tidelands,,pediatric_echo,,Medical University of South Carolina Tidelands,,,,,,,,,,,"May 31, 2024",Pediatric Transthoracic,,,,,,,,,,,,
139,140,Medical University of South Carolina,32.783432,-79.950908,granted,25 Courtenay Dr.,,Charleston,SC,29425,USA,,musc.edu,,nuclear,,Medical University of South Carolina Charleston,,,,,,,"Feb 28, 2025","Equilibrium Radionuclide Angiography, General Nuclear Medicine, Myocardial Perfusion Imaging",,,,,,,,,,,,,,,,
140,141,Medical University of South Carolina,32.411856,-80.68715,granted,122 Okatie Center Boulevard,Suite 230,Okatie,SC,29909,USA,,www.musckids.org/locations/childrens-health-at-beaufort,,pediatric_echo,,Medical University of South Carolina Okatie,,,,,,,,,,,"May 31, 2024",Pediatric Transthoracic,,,,,,,,,,,,
141,142,Medical University of South Carolina,32.784682,-79.946241,granted,10 McClennan Banks Drive,,Charleston,SC,29425,USA,,,,pediatric_echo,www.google.com/search?q=Medical+University+of+South+Carolina,Medical University of South Carolina Charleston,,,,,,,,,,,"May 31, 2024","Pediatric Transesophageal, Pediatric Transthoracic, Fetal",,,,,,,,,,,,
142,143,Medical University of South Carolina,32.7854,-79.946559,granted,169 Ashley River Ave.,,Charleston,SC,29425,USA,,MUSC.EDU,,nuclear,,Medical University of South Carolina Charleston,,,,,,,"Feb 28, 2025","Equilibrium Radionuclide Angiography, General Nuclear Medicine, Myocardial Perfusion Imaging, Positron Emission Tomography (PET)",,,,,,,,,,,,,,,,
143,144,Medical University of South Carolina,32.784205,-79.948149,granted,25 Courtnay St,,Charleston,SC,29425,USA,,,,echo,www.google.com/search?q=Medical+University+of+South+Carolina,Medical University of South Carolina Charleston,,,"Feb 29, 2024","Adult Stress, Adult Transesophageal, Adult Transthoracic",,,,,,,,,,,,,,,,,,,,
144,145,Medical University of South Carolina,32.783432,-79.950908,granted,25 Courtenay Drive,,Charleston,SC,29425,USA,,,,vascular,www.google.com/search?q=Medical+University+of+South+Carolina,Medical University of South Carolina Charleston,,,,,,,,,"Oct 31, 2022","Extracranial Cerebrovascular Testing, Peripheral Arterial Testing, Peripheral Venous Testing, Screening",,,,,,,,,,,,,,
145,146,Medical University of South Carolina MUSC Children’s Health,32.974853,-80.065799,granted,2250 Mall Drive,,North Charleston,SC,29406,USA,,musckids.org/about-us/childrens-ambulatory-center,,pediatric_echo,,Medical University of South Carolina MUSC Children’s Health North Charleston,,,,,,,,,,,"May 31, 2024",Pediatric Transthoracic,,,,,,,,,,,,
146,147,Medical University of South Carolina MUSC Children’s Health,32.85422,-79.8007,granted,2705 Highway 17,suite 100,Mount Pleasant,SC,29466,USA,,www.musckids.org/locations/specialty-care-mount-pleasant,,pediatric_echo,,Medical University of South Carolina MUSC Children’s Health Mount Pleasant,,,,,,,,,,,"May 31, 2024",Pediatric Transthoracic,,,,,,,,,,,,
147,148,Metrolina Medical Associates,34.977255,-81.024724,granted,2670 Mills Park Drive,,Rock Hill,SC,29732,USA,,,,nuclear,www.google.com/search?q=Metrolina+Medical+Associates,Metrolina Medical Associates Rock Hill,,,,,,,"Jan 31, 2024",Myocardial Perfusion Imaging,,,,,,,,,,,,,,,,
148,149,MGC Medical Affiliates North Grove,34.988746,-81.946456,granted,1330 Boiling Springs Highway,Suite 2500,Spartanburg,SC,29303,USA,,,,vascular,www.google.com/search?q=MGC+Medical+Affiliates+North+Grove,MGC Medical Affiliates North Grove Spartanburg,,,,,,,,,"Feb 28, 2023","Extracranial Cerebrovascular Testing, Peripheral Arterial Testing, Peripheral Venous Testing",,,,,,,,,,,,,,
149,150,MGC Medical Affiliates North Grove,34.988746,-81.946456,granted,1330 Boiling Springs Road,Suite 2500,Spartanburg,SC,29303,USA,,,,echo,www.google.com/search?q=MGC+Medical+Affiliates+North+Grove,MGC Medical Affiliates North Grove Spartanburg,,,"Jul 31, 2023",Adult Transthoracic,,,,,,,,,,,,,,,,,,,,
150,151,Mid Carolina Internal Medicine,34.002296,-81.115934,granted,131 Sunset Court,,West Columbia,SC,29169,USA,,,,echo,www.google.com/search?q=Mid+Carolina+Internal+Medicine,Mid Carolina Internal Medicine West Columbia,,,"Aug 31, 2023",Adult Transthoracic,,,,,,,,,,,,,,,,,,,,
151,152,"Midlands Cardiology Associates, Columbia",34.076207,-80.958797,granted,200 Springtree Drive,Suite 100,Columbia,SC,29223,USA,,,,nuclear,"www.google.com/search?q=Midlands+Cardiology+Associates,+Columbia","Midlands Cardiology Associates, Columbia Columbia",,,,,,,"Jul 31, 2023",Myocardial Perfusion Imaging,,,,,,,,,,,,,,,,
152,153,"Midlands Cardiology Associates, PA",34.076207,-80.958797,granted,200 Springtree Drive,Suite 100,Columbia,SC,29223,USA,,,,echo,"www.google.com/search?q=Midlands+Cardiology+Associates,+PA","Midlands Cardiology Associates, PA Columbia",,,"Feb 28, 2023",Adult Transthoracic,,,,,,,,,,,,,,,,,,,,
153,154,"Midlands Orthopaedics and Neurosurgery, PA",34.01159,-81.02471,granted,1910 Blanding Street,,Columbia,SC,29201,USA,,www.midorthoneuro.com,,mr,,"Midlands Orthopaedics and Neurosurgery, PA Columbia",,,,,"Jan 31, 2024","Musculoskeletal MRI, Neurological MRI",,,,,,,,,,,,,,,,,,
154,155,MUSC Community Physicians,34.253515,-80.593424,granted,1344 Haile Street,,Camden,SC,29020,USA,,MUSC Health primary care Haile st.,,nuclear,,MUSC Community Physicians Camden,,,,,,,"Jan 31, 2024",Myocardial Perfusion Imaging,,,,,,,,,,,,,,,,
155,156,MUSC Health Chester Medical Center,34.683429,-81.184551,multigranted,1 Medical Park Drive,,Chester,SC,29706,USA,,,,"vascular, echo",www.google.com/search?q=MUSC+Health+Chester+Medical+Center,MUSC Health Chester Medical Center Chester,,,"Mar 31, 2023",Adult Transthoracic,,,,,"Dec 30, 2022","Extracranial Cerebrovascular Testing, Peripheral Arterial Testing, Peripheral Venous Testing",,,,,,,,,,,,,,
156,157,MUSC Health Florence Cardiovascular Surgery,34.157529,-79.7527819,granted,805 Pamplico Highway,"Medical Mall B, Suite 300",Florence,SC,29505,USA,,,,vascular,www.google.com/search?q=MUSC+Health+Florence+Cardiovascular+Surgery,MUSC Health Florence Cardiovascular Surgery Florence,,,,,,,,,"Jun 30, 2025","Extracranial Cerebrovascular Testing, Peripheral Arterial Testing, Peripheral Venous Testing",,,,,,,,,,,,,,
157,158,MUSC Health Florence Medical Center,34.158829,-79.754236,granted,805 Pamplico Highway,,Florence,SC,29505,USA,,,,echo,www.google.com/search?q=MUSC+Health+Florence+Medical+Center,MUSC Health Florence Medical Center Florence,,,"May 31, 2024",Adult Transthoracic,,,,,,,,,,,,,,,,,,,,
158,159,MUSC Health Primary Care Haile Street,34.253515,-80.593424,multigranted,1344 Haile Street,,Camden,SC,29020,USA,,,,"echo, vascular",www.google.com/search?q=MUSC+Health+Primary+Care+Haile+Street,MUSC Health Primary Care Haile Street Camden,,,"Jul 31, 2023","Adult Stress, Adult Transthoracic",,,,,"Jul 31, 2024","Peripheral Arterial Testing, Peripheral Venous Testing",,,,,,,,,,,,,,
159,160,"Neurovascular Lab, Medical University of South Carolina",32.783549,-79.947972,granted,169 Ashley Ave,Suite H396,Charleston,SC,29425,USA,,,,vascular,"www.google.com/search?q=Neurovascular+Lab,+Medical+University+of+South+Carolina","Neurovascular Lab, Medical University of South Carolina Charleston",,,,,,,,,"Apr 30, 2024","Extracranial Cerebrovascular Testing, Intracranial Cerebrovascular Testing",,,,,,,,,,,,,,
160,161,North Grove Medical Park,34.988746,-81.946456,granted,1330 Boiling Springs Road,,Spartanburg,SC,29303,USA,,,,echo,www.google.com/search?q=North+Grove+Medical+Park,North Grove Medical Park Spartanburg,,,"Nov 30, 2024",Adult Transthoracic,,,,,,,,,,,,,,,,,,,,
161,162,"Orthopedic Specialties of Spartanburg, LLC",34.966906,-81.933773,granted,303 East Wood Street,,Spartanburg,SC,29303,USA,,orthopedicspecialties.com,,mr,,"Orthopedic Specialties of Spartanburg, LLC Spartanburg",,,,,"Jan 31, 2023","Musculoskeletal MRI, Neurological MRI",,,,,,,,,,,,,,,,,,
162,163,"OrthoSC, LLC",33.784705,-79.00135,granted,"2376 Cypress Circle, Suite 300",,Conway,SC,29526,USA,,www.orthosc.org,,mr,,"OrthoSC, LLC Conway",,,,,"Mar 31, 2024",Musculoskeletal MRI,,,,,,,,,,,,,,,,,,
163,164,Palmetto Cardiology Associates,34.014302,-81.014047,multigranted,2611 Forest Drive,Suite 230,Columbia,SC,29204,USA,,,,"vascular, echo",www.google.com/search?q=Palmetto+Cardiology+Associates,Palmetto Cardiology Associates Columbia,,,"Nov 30, 2024",Adult Transthoracic,,,,,"Jan 29, 2023","Extracranial Cerebrovascular Testing, Peripheral Arterial Testing",,,,,,,,,,,,,,
164,165,Palmetto Cardiology Associates PA,34.014302,-81.014047,granted,2611Forest Drive,Suite 230,Columbia,SC,29204,USA,,,,nuclear,www.google.com/search?q=Palmetto+Cardiology+Associates+PA,Palmetto Cardiology Associates PA Columbia,,,,,,,"Mar 31, 2025",Myocardial Perfusion Imaging,,,,,,,,,,,,,,,,
165,166,Palmetto Family Medicine,34.136559,-80.923455,granted,109 Barton Creek Court,,Columbia,SC,29229,USA,,,,echo,www.google.com/search?q=Palmetto+Family+Medicine,Palmetto Family Medicine Columbia,,,"Aug 31, 2023",Adult Transthoracic,,,,,,,,,,,,,,,,,,,,
166,167,Pelham Medical Center,34.86351,-82.217661,granted,250 Westmoreland Road,,Greer,SC,29651,USA,,,,echo,www.google.com/search?q=Pelham+Medical+Center,Pelham Medical Center Greer,,,"Nov 30, 2024",Adult Transthoracic,,,,,,,,,,,,,,,,,,,,
167,168,Piedmont Medical Center Vascular Lab,34.955311,-81.052564,granted,222 S Herlong Avenue,,Rock Hill,SC,29732,USA,,,,vascular,www.google.com/search?q=Piedmont+Medical+Center+Vascular+Lab,Piedmont Medical Center Vascular Lab Rock Hill,,,,,,,,,"Aug 31, 2022","Extracranial Cerebrovascular Testing, Peripheral Arterial Testing, Peripheral Venous Testing",,,,,,,,,,,,,,
168,169,"Piedmont Neurology, LLC",34.155164,-82.168963,granted,917 Bypass 225 South,,Greenwood,SC,29646,USA,,,,mr,"www.google.com/search?q=Piedmont+Neurology,+LLC","Piedmont Neurology, LLC Greenwood",,,,,"Nov 29, 2022","Musculoskeletal MRI, Neurological MRI, MRA",,,,,,,,,,,,,,,,,,
169,170,Prisma Health - Upstate,34.479718,-81.941152,granted,22725 Highway 76 East,,Clinton,SC,29325,USA,,prismahealth.org,,vascular,,Prisma Health - Upstate Clinton,,,,,,,,,"Sep 29, 2022 | Jul 31, 2025","Peripheral Arterial Testing, Visceral Vascular Testing, Screening | Extracranial Cerebrovascular Testing, Peripheral Venous Testing",,,,,,,,,,,,,,
170,171,Prisma Health - Upstate,34.91931,-82.242031,granted,830 S. Buncombe Road,,Greer,SC,29650,USA,,prismahealth.org,,vascular,,Prisma Health - Upstate Greer,,,,,,,,,"Sep 29, 2022 | Jul 31, 2025","Peripheral Arterial Testing, Visceral Vascular Testing | Extracranial Cerebrovascular Testing, Peripheral Venous Testing",,,,,,,,,,,,,,
171,172,Prisma Health - Upstate,34.821617,-82.41359,granted,701 Grove Road,,Greenville,SC,29605,USA,,prismahealth.org,,vascular,,Prisma Health - Upstate Greenville,,,,,,,,,"Sep 29, 2022 | Jul 31, 2025","Peripheral Arterial Testing, Visceral Vascular Testing | Extracranial Cerebrovascular Testing, Peripheral Venous Testing",,,,,,,,,,,,,,
172,173,Prisma Health - Upstate,34.719015,-82.249908,granted,729 SE Main Street,,Simpsonville,SC,29681,,,,,vascular,www.google.com/search?q=Prisma+Health+-+Upstate,Prisma Health - Upstate Simpsonville,,,,,,,,,"Sep 29, 2022 | Jul 31, 2025","Peripheral Arterial Testing, Visceral Vascular Testing | Extracranial Cerebrovascular Testing, Peripheral Venous Testing",,,,,,,,,,,,,,
173,174,Prisma Health - Upstate,34.855246,-82.32537,granted,200C Patewood Drive,Suite 300,Greenville,SC,29615,USA,,prismahealth.org,,vascular,,Prisma Health - Upstate Greenville,,,,,,,,,"Sep 29, 2022 | Jul 31, 2025","Peripheral Arterial Testing, Visceral Vascular Testing, Screening | Extracranial Cerebrovascular Testing, Peripheral Venous Testing",,,,,,,,,,,,,,
174,175,Prisma Health - Upstate,34.698255,-82.984132,granted,298 Memorial Drive,,Senaca,SC,29672,USA,,prismahealth.org,,vascular,,Prisma Health - Upstate Senaca,,,,,,,,,"Sep 29, 2022 | Jul 31, 2025","Peripheral Arterial Testing, Visceral Vascular Testing | Extracranial Cerebrovascular Testing, Peripheral Venous Testing",,,,,,,,,,,,,,
175,176,Prisma Health Baptist,34.007651,-81.032732,granted,Taylor at Marion Streets,,Columbia,SC,29220,USA,,,,vascular,www.google.com/search?q=Prisma+Health+Baptist,Prisma Health Baptist Columbia,,,,,,,,,"Dec 30, 2022 | Oct 31, 2025","Peripheral Arterial Testing, Peripheral Venous Testing | Extracranial Cerebrovascular Testing",,,,,,,,,,,,,,
176,177,Prisma Health Baptist,34.0075975,-81.0327225,granted,Taylor at Marion Streets,,Columbia,SC,29220,USA,,www.prismahealth.org,,echo,,Prisma Health Baptist Columbia,,,"Jun 30, 2024",Adult Transthoracic,,,,,,,,,,,,,,,,,,,,
177,178,Prisma Health Baptist Easley Hospital,34.839651,-82.607064,granted,200 Fleetwood Drive,,Easley,SC,29640,USA,,,,echo,www.google.com/search?q=Prisma+Health+Baptist+Easley+Hospital,Prisma Health Baptist Easley Hospital Easley,,,"Oct 31, 2023","Adult Stress, Adult Transesophageal, Adult Transthoracic",,,,,,,,,,,,,,,,,,,,
178,179,Prisma Health Baptist Parkridge,34.089448,-81.160613,granted,400 Palmetto Health Parkway,,Columbia,SC,29212,USA,,,,vascular,www.google.com/search?q=Prisma+Health+Baptist+Parkridge,Prisma Health Baptist Parkridge Columbia,,,,,,,,,"Dec 30, 2022 | Oct 31, 2025","Peripheral Arterial Testing, Peripheral Venous Testing | Extracranial Cerebrovascular Testing",,,,,,,,,,,,,,
179,180,Prisma Health Baptist Parkridge,34.089448,-81.160613,granted,400 Palmetto Health Parkway,,Columbia,SC,29212,USA,,www.palmettohealth.org,,echo,,Prisma Health Baptist Parkridge Columbia,,,"Jun 30, 2024",Adult Transthoracic,,,,,,,,,,,,,,,,,,,,
180,181,Prisma Health Cardiology - Chester,34.697601,-81.191652,granted,1645 J A Cochran Bypass,Suite I,Chester,SC,29706,USA,,,,vascular,www.google.com/search?q=Prisma+Health+Cardiology+-+Chester,Prisma Health Cardiology - Chester Chester,,,,,,,,,"Oct 31, 2025",Extracranial Cerebrovascular Testing,,,,,,,,,,,,,,
181,182,Prisma Health Cardiology - Hartsville,34.351333,-80.105859,granted,701 Medical Park Dr. Suite 301,,Hartsville,SC,29550,USA,,,,vascular,www.google.com/search?q=Prisma+Health+Cardiology+-+Hartsville,Prisma Health Cardiology - Hartsville Hartsville,,,,,,,,,"Oct 31, 2025",Extracranial Cerebrovascular Testing,,,,,,,,,,,,,,
182,183,Prisma Health Cardiology - Sumter,33.922952,-80.34326,granted,"115 N Sumter Street, Ste 410",,Sumter,SC,29150,USA,,,,vascular,www.google.com/search?q=Prisma+Health+Cardiology+-+Sumter,Prisma Health Cardiology - Sumter Sumter,,,,,,,,,"Oct 31, 2025",Extracranial Cerebrovascular Testing,,,,,,,,,,,,,,
183,184,Prisma Health Greenville Cardiovascular Diagnostics,34.81399,-82.419172,granted,3 Butternut Drive,,Greenville,SC,29605,USA,,,,echo,www.google.com/search?q=Prisma+Health+Greenville+Cardiovascular+Diagnostics,Prisma Health Greenville Cardiovascular Diagnostics Greenville,,,"Oct 31, 2023","Adult Stress, Adult Transthoracic",,,,,,,,,,,,,,,,,,,,
184,185,Prisma Health Greenville Memorial Hospital,34.821617,-82.41359,multigranted,701 Grove Road,,Greenville,SC,29605,USA,,,,"echo, pediatric_echo",www.google.com/search?q=Prisma+Health+Greenville+Memorial+Hospital,Prisma Health Greenville Memorial Hospital Greenville,,,"Oct 31, 2023","Adult Stress, Adult Transesophageal, Adult Transthoracic",,,,,,,"Mar 31, 2024",Pediatric Transthoracic,,,,,,,,,,,,
185,186,Prisma Health Greer Memorial Hospital,34.919832,-82.242267,granted,830 South Buncombe Road,,Greer,SC,29650,USA,,,,echo,www.google.com/search?q=Prisma+Health+Greer+Memorial+Hospital,Prisma Health Greer Memorial Hospital Greer,,,"Oct 31, 2023","Adult Stress, Adult Transthoracic",,,,,,,,,,,,,,,,,,,,
186,187,Prisma Health Hillcrest Hospital,34.719015,-82.249908,granted,729 South East Main Street,,Simpsonville,SC,29681,USA,,,,echo,www.google.com/search?q=Prisma+Health+Hillcrest+Hospital,Prisma Health Hillcrest Hospital Simpsonville,,,"Oct 31, 2023","Adult Stress, Adult Transthoracic",,,,,,,,,,,,,,,,,,,,
187,188,Prisma Health Laurens County Hospital,34.479718,-81.941152,granted,22725 Hwy. 76 East,,Clinton,SC,29329,USA,,,,echo,www.google.com/search?q=Prisma+Health+Laurens+County+Hospital,Prisma Health Laurens County Hospital Clinton,,,"Oct 31, 2023","Adult Stress, Adult Transesophageal, Adult Transthoracic",,,,,,,,,,,,,,,,,,,,
188,189,Prisma Health Oconee Memorial Hospital,34.698255,-82.984132,granted,298 Memorial Drive,,Seneca,SC,29672,USA,,,,echo,www.google.com/search?q=Prisma+Health+Oconee+Memorial+Hospital,Prisma Health Oconee Memorial Hospital Seneca,,,"Oct 31, 2023","Adult Stress, Adult Transesophageal, Adult Transthoracic",,,,,,,,,,,,,,,,,,,,
189,190,Prisma Health Patewood Hospital,34.852735,-82.326115,multigranted,175 Patewood Drive,,Greenville,SC,29615,USA,,,,"echo, pediatric_echo",www.google.com/search?q=Prisma+Health+Patewood+Hospital,Prisma Health Patewood Hospital Greenville,,,"Oct 31, 2023",Adult Transthoracic,,,,,,,"Mar 31, 2024",Pediatric Transthoracic,,,,,,,,,,,,
190,191,Prisma Health Richland,34.026158,-81.030214,granted,6 Medical Park Drive,Suite 2320,Columbia,SC,29203,USA,,www.prismahealth.org,,echo,,Prisma Health Richland Columbia,,,"Jun 30, 2024",Adult Transthoracic,,,,,,,,,,,,,,,,,,,,
191,192,Prisma Health Richland,34.026158,-81.030214,granted,6 Richland Medical Park Dr. Suite 2320,,Columbia,SC,29203,USA,,,,vascular,www.google.com/search?q=Prisma+Health+Richland,Prisma Health Richland Columbia,,,,,,,,,"Dec 30, 2022 | Oct 31, 2025","Intracranial Cerebrovascular Testing, Peripheral Arterial Testing, Peripheral Venous Testing | Extracranial Cerebrovascular Testing",,,,,,,,,,,,,,
192,193,Prisma Health Tuomey,33.923386,-80.344364,granted,129 N Washington Street,,Sumter,SC,29150,USA,,,,vascular,www.google.com/search?q=Prisma+Health+Tuomey,Prisma Health Tuomey Sumter,,,,,,,,,"Oct 31, 2025",Extracranial Cerebrovascular Testing,,,,,,,,,,,,,,
193,194,Prisma Health- Upstate,34.976317,-82.454017,granted,807 N. Main Street,,Travelers Rest,SC,29690,USA,,prismahealth.org,,vascular,,Prisma Health- Upstate Travelers Rest,,,,,,,,,"Jul 31, 2025","Extracranial Cerebrovascular Testing, Peripheral Venous Testing",,,,,,,,,,,,,,
194,195,"PRISMA Health- Upstate, Children’s Hospital Pediatric Cardiology",34.855246,-82.32537,granted,200 Patewood Drive,Suite A 200,Greenville,SC,29615,USA,,,,pediatric_echo,"www.google.com/search?q=PRISMA+Health-+Upstate,+Children’s+Hospital+Pediatric+Cardiology","PRISMA Health- Upstate, Children’s Hospital Pediatric Cardiology Greenville",,,,,,,,,,,"Dec 31, 2022",Pediatric Transthoracic,,,,,,,,,,,,
195,196,"PRISMA Health- Upstate, Children’s Hospital Pediatric Cardiology",34.991868,-81.943981,granted,249 North Grove Medical Park,Suite 200,Spartanburg,SC,29303,USA,,,,pediatric_echo,"www.google.com/search?q=PRISMA+Health-+Upstate,+Children’s+Hospital+Pediatric+Cardiology","PRISMA Health- Upstate, Children’s Hospital Pediatric Cardiology Spartanburg",,,,,,,,,,,"Dec 31, 2022",Pediatric Transthoracic,,,,,,,,,,,,
196,197,"PRISMA Health- Upstate, Children’s Hospital Pediatric Cardiology",34.508919,-82.652966,granted,200 Greenville Street,Highway 81 - Suite 3500,Anderson,SC,29624,USA,,,,pediatric_echo,"www.google.com/search?q=PRISMA+Health-+Upstate,+Children’s+Hospital+Pediatric+Cardiology","PRISMA Health- Upstate, Children’s Hospital Pediatric Cardiology Anderson",,,,,,,,,,,"Dec 31, 2022",Pediatric Transthoracic,,,,,,,,,,,,
197,198,Roper,32.782372,-79.948734,granted,316 Calhoun Street,,Charleston,SC,29401,USA,,,,echo,www.google.com/search?q=Roper,Roper Charleston,,,"Nov 30, 2024",Adult Transthoracic,,,,,,,,,,,,,,,,,,,,
198,199,Roper Saint Francis Healthcare,32.811029,-80.042853,granted,2095 Henry Tecklenburg Drive,,Charleston,SC,29414,USA,,,,echo,www.google.com/search?q=Roper+Saint+Francis+Healthcare,Roper Saint Francis Healthcare Charleston,,,"Nov 30, 2024",Adult Transthoracic,,,,,,,,,,,,,,,,,,,,
199,200,Roper Saint Francis Healthcare,33.06866,-80.09533,granted,100 Callen Blvd.,,Summerville,SC,29486,USA,,www.rsfh.com,,echo,,Roper Saint Francis Healthcare Summerville,,,"Nov 30, 2024",Adult Transthoracic,,,,,,,,,,,,,,,,,,,,
200,201,Roper Saint Francis Healthcare,32.857446,-79.797253,granted,3500 Highway 17 North,,Mt. Pleasant,SC,29466,USA,,,,echo,www.google.com/search?q=Roper+Saint+Francis+Healthcare,Roper Saint Francis Healthcare Mt. Pleasant,,,"Nov 30, 2024",Adult Transthoracic,,,,,,,,,,,,,,,,,,,,
201,202,Roper St. Francis Healthcare,32.782372,-79.948734,granted,316 Calhoun Street,,Charleston,SC,29401,USA,,,,vascular,www.google.com/search?q=Roper+St.+Francis+Healthcare,Roper St. Francis Healthcare Charleston,,,,,,,,,"Dec 30, 2022","Extracranial Cerebrovascular Testing, Peripheral Arterial Testing, Peripheral Venous Testing",,,,,,,,,,,,,,
202,203,Roper St. Francis Mount Pleasant Hospital,32.878368,-79.795401,granted,3500 Highway 17 North,,Mount Pleasant,SC,29466,USA,,RoperStFrancis.com,,vascular,,Roper St. Francis Mount Pleasant Hospital Mount Pleasant,,,,,,,,,"Dec 30, 2022","Extracranial Cerebrovascular Testing, Peripheral Arterial Testing, Peripheral Venous Testing",,,,,,,,,,,,,,
203,204,Sandhills Family Medicine,33.984388,-81.251307,granted,811 West Main Street,Suite 207,Lexington,SC,29072,USA,,,,echo,www.google.com/search?q=Sandhills+Family+Medicine,Sandhills Family Medicine Lexington,,,"Aug 31, 2023",Adult Transthoracic,,,,,,,,,,,,,,,,,,,,
204,205,Sanger Heart and Vascular Institute,34.981352,-80.991785,granted,1656 Riverchase Blvd,Suite 2500,Rock Hill,SC,29732,USA,,,,echo,www.google.com/search?q=Sanger+Heart+and+Vascular+Institute,Sanger Heart and Vascular Institute Rock Hill,,,"Sep 30, 2024","Adult Stress, Adult Transthoracic",,,,,,,,,,,,,,,,,,,,
205,206,Sanger Heart and Vascular Institute - Rock Hill,34.981352,-80.991785,granted,1656 Riverchase Blvd,Suite 2500,Rock Hill,SC,29732,USA,,,,nuclear,www.google.com/search?q=Sanger+Heart+and+Vascular+Institute+-+Rock+Hill,Sanger Heart and Vascular Institute - Rock Hill Rock Hill,,,,,,,"Oct 30, 2022",Myocardial Perfusion Imaging,,,,,,,,,,,,,,,,
206,207,"Sanger Heart and Vascular Institute, Carolinas HealthCare System at Rock Hill",34.981352,-80.991785,granted,1656 Riverchase Blvd. Suite 2400,,Rock Hill,SC,29732,USA,,,,vascular,"www.google.com/search?q=Sanger+Heart+and+Vascular+Institute,+Carolinas+HealthCare+System+at+Rock+Hill","Sanger Heart and Vascular Institute, Carolinas HealthCare System at Rock Hill Rock Hill",,,,,,,,,"Aug 31, 2024","Extracranial Cerebrovascular Testing, Peripheral Arterial Testing, Visceral Vascular Testing",,,,,,,,,,,,,,
207,208,SCENT Downtown,34.026808,-81.030119,granted,"3 Richland Medical Park, Ste 100",,Columbia,SC,29203,USA,,southcarolinaent.com,,ct,,SCENT Downtown Columbia,"Feb 28, 2023",Maxillofacial CT,,,,,,,,,,,,,,,,,,,,,,
208,209,SCENT Irmo,34.088306,-81.160309,granted,690 Columbiana Dr.,Suite B,Columbia,SC,29212,USA,,southcarolinaent.com,,ct,,SCENT Irmo Columbia,"Feb 28, 2023",Maxillofacial CT,,,,,,,,,,,,,,,,,,,,,,
209,210,SCENT Lugoff,34.20017,-80.711854,granted,15 Exchange Drive,,Lugoff,SC,29078,USA,,www.southcarolinaent.com,,ct,,SCENT Lugoff Lugoff,"Feb 28, 2023",Maxillofacial CT,,,,,,,,,,,,,,,,,,,,,,
210,211,SCENT PNE,34.103232,-80.952784,granted,110 Highland Center Drive,,Columbia,SC,29203,USA,,www.southcarolinaent.com,,ct,,SCENT PNE Columbia,"Feb 28, 2023",Maxillofacial CT,,,,,,,,,,,,,,,,,,,,,,
211,212,SCENT Sumter,33.951055,-80.390809,granted,410 W. Wesmark Blvd.,,Sumter,SC,29150,USA,,www.southcarolinaent.com,,ct,,SCENT Sumter Sumter,"Feb 28, 2023",Maxillofacial CT,,,,,,,,,,,,,,,,,,,,,,
212,213,Self Regional Healthcare,34.175238,-82.15774,granted,1325 Spring Street,,Greenwood,SC,29646,USA,,www.selfregional.org,,vascular,,Self Regional Healthcare Greenwood,,,,,,,,,"Mar 31, 2025","Extracranial Cerebrovascular Testing, Peripheral Arterial Testing, Peripheral Venous Testing, Visceral Vascular Testing",,,,,,,,,,,,,,
213,214,Self Regional Healthcare Echocardiography Laboratory,34.175238,-82.15774,granted,1325 Spring Street,,Greenwood,SC,29646,USA,,,,echo,www.google.com/search?q=Self+Regional+Healthcare+Echocardiography+Laboratory,Self Regional Healthcare Echocardiography Laboratory Greenwood,,,"Jun 30, 2023",Adult Transthoracic,,,,,,,,,,,,,,,,,,,,
214,215,Self Regional Healthcare Echocardiology Laboratory,34.171258,-82.157252,granted,421 Epting Avenue,,Greenwood,SC,29646,USA,,www.selfregionalhealthcare.org,,echo,,Self Regional Healthcare Echocardiology Laboratory Greenwood,,,"Jun 30, 2023",Adult Transthoracic,,,,,,,,,,,,,,,,,,,,
215,216,Self Regional Healthcare Echocardiology Laboratory,34.479214,-81.93909,granted,23013 Hwy 76 East,,Clinton,SC,29325,USA,,www.selfregionalhealhcare.com,,echo,,Self Regional Healthcare Echocardiology Laboratory Clinton,,,"Jun 30, 2023",Adult Transthoracic,,,,,,,,,,,,,,,,,,,,
216,217,"South Carolina Internal Medicine Associates and Rehabilitation, LLC",34.080436,-81.179913,multigranted,One Wellness Blvd.,Suite 104,Irmo,SC,29063,USA,,www.scinternalmedicine.com,,"nuclear, echo",,"South Carolina Internal Medicine Associates and Rehabilitation, LLC Irmo",,,"Dec 31, 2023",Adult Transthoracic,,,"Aug 31, 2023",Myocardial Perfusion Imaging,,,,,,,,,,,,,,,,
217,218,South Carolina Oncology Associates,34.014087,-81.070536,multigranted,166 Stoneridge Drive,,Columbia,SC,29210,USA,,,,"vascular, echo",www.google.com/search?q=South+Carolina+Oncology+Associates,South Carolina Oncology Associates Columbia,,,"Mar 31, 2023",Adult Transthoracic,,,,,"Dec 30, 2022",Peripheral Venous Testing,,,,,,,,,,,,,,
218,219,South Strand Cardiology,33.65484,-78.987225,granted,207 Chartwell Court,,Myrtle Beach,SC,29588,USA,,,,nuclear,www.google.com/search?q=South+Strand+Cardiology,South Strand Cardiology Myrtle Beach,,,,,,,"Feb 29, 2024",Myocardial Perfusion Imaging,,,,,,,,,,,,,,,,
219,220,"Spartanburg Ear, Nose and Throat",34.988746,-81.946456,granted,1330 Boiling Springs Rd,,Spartanburg,SC,29303,USA,,,,ct,"www.google.com/search?q=Spartanburg+Ear,+Nose+and+Throat","Spartanburg Ear, Nose and Throat Spartanburg","Jan 31, 2025",Maxillofacial CT,,,,,,,,,,,,,,,,,,,,,,
220,221,"Spartanburg Regional Medical Center, Mary Black Campus",34.978285,-81.893659,granted,1700 Skylyn Drive,,Spartanburg,SC,29307,USA,,,,echo,"www.google.com/search?q=Spartanburg+Regional+Medical+Center,+Mary+Black+Campus","Spartanburg Regional Medical Center, Mary Black Campus Spartanburg",,,"Nov 30, 2024",Adult Transthoracic,,,,,,,,,,,,,,,,,,,,
221,222,Spartanburg Regional Medical Center: Cardiopulmonary Laboratory,34.988425,-81.965364,granted,101 E Wood Street,Heart Center 1st Floor,Spartanburg,SC,29303,USA,,srhs.com,,echo,,Spartanburg Regional Medical Center: Cardiopulmonary Laboratory Spartanburg,,,"Nov 30, 2024",Adult Transthoracic,,,,,,,,,,,,,,,,,,,,
222,223,Spring Valley Family Practice,34.138421,-80.939379,granted,229 Longtown Rd.,,Columbia,SC,29072,USA,,,,echo,www.google.com/search?q=Spring+Valley+Family+Practice,Spring Valley Family Practice Columbia,,,"Aug 31, 2023",Adult Transthoracic,,,,,,,,,,,,,,,,,,,,
223,224,Spring Valley Family Practice- Nuclear Cardiology,34.138421,-80.939379,granted,229 Longtown Road,,Columbia,SC,29229,USA,,,,nuclear,www.google.com/search?q=Spring+Valley+Family+Practice-+Nuclear+Cardiology,Spring Valley Family Practice- Nuclear Cardiology Columbia,,,,,,,"Feb 29, 2024",Myocardial Perfusion Imaging,,,,,,,,,,,,,,,,
224,225,St. Francis Hospital,32.811029,-80.042853,granted,2095 Henry Tecklenburg Dr,,Charleston,SC,29407,USA,,,,vascular,www.google.com/search?q=St.+Francis+Hospital,St. Francis Hospital Charleston,,,,,,,,,"Dec 30, 2022","Extracranial Cerebrovascular Testing, Peripheral Arterial Testing, Peripheral Venous Testing",,,,,,,,,,,,,,
225,226,Summerville Medical Center,32.964713,-80.158074,granted,295 Midland Parkway,,Summerville,SC,29485,USA,,tridenthealthsystem.com,,echo,,Summerville Medical Center Summerville,,,"Mar 31, 2024","Adult Transesophageal, Adult Transthoracic",,,,,,,,,,,,,,,,,,,,
226,227,Surgical Associates of Myrtle Beach Vascular Lab,33.75599,-78.866246,granted,4036-2 River Oaks Drive,,Myrtle Beach,SC,29579,USA,,,,vascular,www.google.com/search?q=Surgical+Associates+of+Myrtle+Beach+Vascular+Lab,Surgical Associates of Myrtle Beach Vascular Lab Myrtle Beach,,,,,,,,,"Mar 31, 2025","Extracranial Cerebrovascular Testing, Peripheral Arterial Testing, Peripheral Venous Testing",,,,,,,,,,,,,,
227,228,The Foot Institute,34.113446,-80.949414,granted,150 Highland Center Drive,,Columbia,SC,29203,USA,,,,ct,www.google.com/search?q=The+Foot+Institute,The Foot Institute Columbia,"Nov 30, 2022",Body CT,,,,,,,,,,,,,,,,,,,,,,
228,229,The Foot Institute,34.114835,-80.948977,granted,150 Highland Center Drive,,Columbia,SC,29203,USA,,,,mr,www.google.com/search?q=The+Foot+Institute,The Foot Institute Columbia,,,,,"Jun 30, 2023",Musculoskeletal MRI,,,,,,,,,,,,,,,,,,
229,230,Tidelands Heart and Vascular,33.432674,-79.139984,multigranted,9653 Ocean Highway,,Pawleys Island,SC,29585,USA,,,,"nuclear, echo",www.google.com/search?q=Tidelands+Heart+and+Vascular,Tidelands Heart and Vascular Pawleys Island,,,"Aug 31, 2025",Adult Transthoracic,,,"Nov 30, 2023",Myocardial Perfusion Imaging,,,,,,,,,,,,,,,,
230,231,Trident  Medical Center,32.97507,-80.072414,granted,9330 Medical Plaza Drive,,Charleston,SC,29406,USA,,tridenthealthsystem.com,,echo,,Trident  Medical Center Charleston,,,"Mar 31, 2024","Adult Transesophageal, Adult Transthoracic",,,,,,,,,,,,,,,,,,,,
231,232,TRMC,33.540783,-80.832814,granted,3000 St. Matthews Road,,Orangburg,SC,29118,USA,,,,vascular,www.google.com/search?q=TRMC,TRMC Orangburg,,,,,,,,,"Jun 30, 2023","Extracranial Cerebrovascular Testing, Peripheral Arterial Testing, Peripheral Venous Testing",,,,,,,,,,,,,,
232,233,UMG Blue Ridge Orthopaedic-Seneca,34.702527,-82.897884,granted,10630 Clemson Blvd.,Suite 100,Seneca,SC,29678,USA,,www.ghs.org,,mr,,UMG Blue Ridge Orthopaedic-Seneca Seneca,,,,,"Dec 31, 2023",Musculoskeletal MRI,,,,,,,,,,,,,,,,,,
233,234,"Upstate Cardiology, PA",34.80367,-82.318429,granted,2 Innovation Drive,,Greenville,SC,29607,USA,,www.upstatecardiology.com/,,nuclear,,"Upstate Cardiology, PA Greenville",,,,,,,"Apr 30, 2025",Myocardial Perfusion Imaging,,,,,,,,,,,,,,,,
234,235,"Upstate Cardiology, PA",34.835913,-82.603722,granted,702 North A Street,,Easley,SC,29615,USA,,www.upstatecardiology.com/,,nuclear,,"Upstate Cardiology, PA Easley",,,,,,,"Apr 30, 2025",Myocardial Perfusion Imaging,,,,,,,,,,,,,,,,
235,236,"Upstate Cardiology, PA",34.80367,-82.318429,granted,2 Innovation Drive,Suite 400,Greenville,SC,29607,USA,,,,echo,"www.google.com/search?q=Upstate+Cardiology,+PA","Upstate Cardiology, PA Greenville",,,"Oct 31, 2024","Adult Stress, Adult Transthoracic",,,,,,,,,,,,,,,,,,,,
236,237,"Upstate Cardiology, PA",34.835913,-82.603722,granted,702 North A Street,,Easley,SC,29640,USA,,upstatecardiology.com,,echo,,"Upstate Cardiology, PA Easley",,,"Oct 31, 2024","Adult Stress, Adult Transthoracic",,,,,,,,,,,,,,,,,,,,
237,238,Veritas Cardiovascular,33.667205,-78.969444,granted,5046 Highway 17 ByPass South,Suite 100,Myrtle Beach,SC,29588,USA,,,,nuclear,www.google.com/search?q=Veritas+Cardiovascular,Veritas Cardiovascular Myrtle Beach,,,,,,,"Feb 29, 2024",Myocardial Perfusion Imaging,,,,,,,,,,,,,,,,
