,id,name,lat,lng,category,address,address2,city,state,postal,country,phone,web,features,modalities,searchGoogle,search,ct,ct_areas,echo,echo_areas,mr,mr_areas,nuclear,nuclear_areas,vascular,vascular_areas,pediatric_echo,pediatric_echo_areas,ct-dental,ct-dental_areas,stenting,stenting_areas,vein_center,vein_center_areas,cardiac_electrophysiology,cardiac_electrophysiology_areas,cardiovascular_catheterization,cardiovascular_catheterization_areas,jrcdms,jrcdms_areas
0,1,"Advanced Otolaryngology, P.C. dba Richmond ENT",37.551654,-77.562987,granted,8700 Stony Point Parkway,Suite 110,Richmond,VA,23235,USA,,Richmondent.com ,,ct,,"Advanced Otolaryngology, P.C. dba Richmond ENT Richmond","Jan 31, 2025",Maxillofacial CT,,,,,,,,,,,,,,,,,,,,,,
1,2,Amelia Heart and Vascular Center,38.784088,-77.181962,granted,6136 Brandon Ave,,Springfield,VA,22150,USA,,,,echo,www.google.com/search?q=Amelia+Heart+and+Vascular+Center,Amelia Heart and Vascular Center Springfield,,,"Jul 31, 2025","Adult Stress, Adult Transthoracic",,,,,,,,,,,,,,,,,,,,
2,3,Amelia Heart and Vascular Center,38.842823,-77.085668,granted,2800 Shirlington Road Suite 300,,Arlington,VA,22206,USA,,,,echo,www.google.com/search?q=Amelia+Heart+and+Vascular+Center,Amelia Heart and Vascular Center Arlington,,,"Jul 31, 2025","Adult Stress, Adult Transthoracic",,,,,,,,,,,,,,,,,,,,
3,4,Arlington ROC at Virginia Hospital Center,38.88843,-77.128371,granted,"1635 N. George Mason Dr, Suite 140",,Arlington,VA,22205,USA,,,,pediatric_echo,www.google.com/search?q=Arlington+ROC+at+Virginia+Hospital+Center,Arlington ROC at Virginia Hospital Center Arlington,,,,,,,,,,,"Jul 31, 2023",Pediatric Transthoracic,,,,,,,,,,,,
4,5,Atlantic Orthopaedic Specialists,36.850383,-76.192898,granted,6160 Kempsville Circle,Suite 200B,Norfolk,VA,23502,USA,,www.atlanticortho.com,,ct,,Atlantic Orthopaedic Specialists Norfolk,"Jan 29, 2023",Body CT,,,,,,,,,,,,,,,,,,,,,,
5,6,Atlantic Vein and Vascular Associates,36.845115,-76.035376,granted,5589 Greenwich Road,Suite 100,Virginia Beach,VA,23462,USA,,www.avva.net,,vascular,,Atlantic Vein and Vascular Associates Virginia Beach,,,,,,,,,"Dec 31, 2023","Extracranial Cerebrovascular Testing, Peripheral Arterial Testing, Peripheral Venous Testing, Visceral Vascular Testing",,,,,,,,,,,,,,
6,7,Augusta Health,38.092329,-78.988472,multigranted,78 Medical Center Drive,,Fishersville,VA,22939,USA,,www.augustahealth.com,,"cardiovascular_catheterization, echo",,Augusta Health Fishersville,,,"Sep 30, 2023","Adult Stress, Adult Transesophageal, Adult Transthoracic",,,,,"Sep 30, 2023","Extracranial Cerebrovascular Testing, Peripheral Arterial Testing, Peripheral Venous Testing, Visceral Vascular Testing",,,,,,,,,,,"May 31, 2023","Adult Diagnostic Catheterization, Percutaneous Coronary Intervention",,
7,8,Bedford Memorial Hospital,37.351563,-79.516415,granted,1613 Oakwood Street,,Bedford,VA,24523,USA,,,,echo,www.google.com/search?q=Bedford+Memorial+Hospital,Bedford Memorial Hospital Bedford,,,"Jan 31, 2023","Adult Stress, Adult Transesophageal, Adult Transthoracic",,,,,,,,,,,,,,,,,,,,
8,9,Bedford Memorial Hospital,37.351563,-79.516415,granted,1613 Oakwood Street,,Bedford,VA,24523,USA,,,,vascular,www.google.com/search?q=Bedford+Memorial+Hospital,Bedford Memorial Hospital Bedford,,,,,,,,,"May 31, 2025","Extracranial Cerebrovascular Testing, Peripheral Arterial Testing, Peripheral Venous Testing",,,,,,,,,,,,,,
9,10,Blue Ridge Cardiovascular Associates,38.455694,-78.012025,granted,440 Southridge Parkway,,Culpeper,VA,22701,USA,,,,echo,www.google.com/search?q=Blue+Ridge+Cardiovascular+Associates,Blue Ridge Cardiovascular Associates Culpeper,,,"Sep 30, 2023",Adult Transthoracic,,,,,,,,,,,,,,,,,,,,
10,11,Blue Ridge Cardiovascular Associates,38.49624,-77.98566,granted,440 Southridge Parkway,,Culpeper,VA,22701,USA,,www.blueridgecardio.com,,nuclear,,Blue Ridge Cardiovascular Associates Culpeper,,,,,,,"Aug 31, 2024",Myocardial Perfusion Imaging,,,,,,,,,,,,,,,,
11,12,"Blue Ridge Ear, Nose, Throat and Plastic Surgery",37.410205,-79.172947,granted,2321 Atherholt Road,,Lynchburg,VA,24501,USA,,,,ct,"www.google.com/search?q=Blue+Ridge+Ear,+Nose,+Throat+and+Plastic+Surgery","Blue Ridge Ear, Nose, Throat and Plastic Surgery Lynchburg","Mar 31, 2023",Maxillofacial CT,,,,,,,,,,,,,,,,,,,,,,
12,13,Bon Secour Vein and Vascular Specialists,36.862298,-76.404895,granted,"5818 Harbour View Blvd, Suite 240",,Suffolk,VA,23435,USA,,,,vascular,www.google.com/search?q=Bon+Secour+Vein+and+Vascular+Specialists,Bon Secour Vein and Vascular Specialists Suffolk,,,,,,,,,"May 31, 2025","Extracranial Cerebrovascular Testing, Peripheral Arterial Testing, Peripheral Venous Testing",,,,,,,,,,,,,,
13,14,Bon Secours Harbourview Diagnostic Center,36.871449,-76.441854,granted,5838 Harbourview Boulevard,Suite 210,Suffolk,VA,23435,USA,,,,echo,www.google.com/search?q=Bon+Secours+Harbourview+Diagnostic+Center,Bon Secours Harbourview Diagnostic Center Suffolk,,,"Oct 31, 2023","Adult Stress, Adult Transthoracic",,,,,,,,,,,,,,,,,,,,
14,15,Bon Secours Health Center at Harbour View,36.869216,-76.443381,granted,5818 Harbour View Blvd,,Suffolk,VA,23435,USA,,,,vascular,www.google.com/search?q=Bon+Secours+Health+Center+at+Harbour+View,Bon Secours Health Center at Harbour View Suffolk,,,,,,,,,"Jul 31, 2024","Extracranial Cerebrovascular Testing, Peripheral Arterial Testing, Peripheral Venous Testing",,,,,,,,,,,,,,
15,16,Bon Secours Mary Immaculate Hospital,37.143006,-76.51312,granted,2 Bernardine Drive,,Newport News,VA,23602,USA,,bonsecours.com,,echo,,Bon Secours Mary Immaculate Hospital Newport News,,,"Dec 31, 2024",Adult Transthoracic,,,,,,,,,,,,,,,,,,,,
16,17,Bon Secours Maryview Medical Center,36.836211,-76.348365,granted,3636 High Street,,Portsmouth,VA,23707,USA,,,,vascular,www.google.com/search?q=Bon+Secours+Maryview+Medical+Center,Bon Secours Maryview Medical Center Portsmouth,,,,,,,,,"Jul 31, 2024","Extracranial Cerebrovascular Testing, Peripheral Arterial Testing, Peripheral Venous Testing",,,,,,,,,,,,,,
17,18,Bon Secours Maryview Medical Center,36.836211,-76.348365,granted,3636 High Street,,Portsmouth,VA,23707,USA,,,,echo,www.google.com/search?q=Bon+Secours+Maryview+Medical+Center,Bon Secours Maryview Medical Center Portsmouth,,,"Oct 31, 2023","Adult Stress, Adult Transesophageal, Adult Transthoracic",,,,,,,,,,,,,,,,,,,,
18,19,Bon Secours Richmond Cardiology Associates,37.625914,-77.386624,granted,8243 Meadowbridge Road,,Mechanicsville,VA,23116,USA,,,,nuclear,www.google.com/search?q=Bon+Secours+Richmond+Cardiology+Associates,Bon Secours Richmond Cardiology Associates Mechanicsville,,,,,,,"Oct 31, 2024",Myocardial Perfusion Imaging,,,,,,,,,,,,,,,,
19,20,Bon Secours Southside Medical Center,37.183654,-77.361466,granted,200 Medical Park Boulevard,,Petersburg,VA,23805,USA,,,,vascular,www.google.com/search?q=Bon+Secours+Southside+Medical+Center,Bon Secours Southside Medical Center Petersburg,,,,,,,,,"Feb 28, 2025","Extracranial Cerebrovascular Testing, Peripheral Arterial Testing, Peripheral Venous Testing",,,,,,,,,,,,,,
20,21,Bon Secours St. Francis Medical Center,37.466379,-77.659013,multigranted,13710 St. Francis Blvd,,Midlothian,VA,23114,USA,,bonsecours.com,,"vascular, echo",,Bon Secours St. Francis Medical Center Midlothian,,,"Jan 31, 2025","Adult Stress, Adult Transesophageal, Adult Transthoracic",,,,,"Jan 31, 2024","Extracranial Cerebrovascular Testing, Peripheral Arterial Testing, Peripheral Venous Testing",,,,,,,,,,,,,,
21,22,Bon Secours St. Mary’s Hospital,37.584405,-77.513262,granted,5801 Bremo Road,,Richmond,VA,23226,USA,,,,echo,www.google.com/search?q=Bon+Secours+St.+Mary’s+Hospital,Bon Secours St. Mary’s Hospital Richmond,,,"Jun 30, 2024","Adult Stress, Adult Transesophageal, Adult Transthoracic",,,,,,,,,,,,,,,,,,,,
22,23,Capital Heartcare Center,38.83219,-77.209241,granted,7432 Little River Turnpike,,Annandale,VA,22003,USA,,www.aehealthsystem.com,,nuclear,,Capital Heartcare Center Annandale,,,,,,,"Jan 31, 2024",Myocardial Perfusion Imaging,,,,,,,,,,,,,,,,
23,24,"Cardiac and Vascular Care of Virginia, P.C.",38.854596,-77.225449,granted,3301 Woodburn Road,Suite 101,Annandale,VA,22003,USA,,,,nuclear,"www.google.com/search?q=Cardiac+and+Vascular+Care+of+Virginia,+P.C.","Cardiac and Vascular Care of Virginia, P.C. Annandale",,,,,,,"Nov 30, 2023",Myocardial Perfusion Imaging,,,,,,,,,,,,,,,,
24,25,"Cardiac Care Associates ,P.C",38.962874,-77.364841,granted,1830 Town Center Drive,Suite 405,Reston,VA,20190,USA,,Cardiaccarepc.com,,echo,,"Cardiac Care Associates ,P.C Reston",,,"Aug 31, 2023",Adult Transthoracic,,,,,,,,,,,,,,,,,,,,
25,26,"Cardiac Care Associates, PC",39.117959,-77.568895,granted,44084 Riverside Parkway,Suite 150,Lansdowne,VA,20176,USA,,,,nuclear,"www.google.com/search?q=Cardiac+Care+Associates,+PC","Cardiac Care Associates, PC Lansdowne",,,,,,,"Oct 31, 2024",Myocardial Perfusion Imaging,,,,,,,,,,,,,,,,
26,27,"Cardiac Care Associates, PC",38.867817,-77.236574,granted,1830 Towncenter Drive,Suite 450,Reston,VA,20190,USA,,,,nuclear,"www.google.com/search?q=Cardiac+Care+Associates,+PC","Cardiac Care Associates, PC Reston",,,,,,,"Oct 31, 2024",Myocardial Perfusion Imaging,,,,,,,,,,,,,,,,
27,28,"Cardiac Care Associates, PC",38.867817,-77.236574,granted,3025 Hamaker Court,Suite 100,Fairfax,VA,22031,USA,,,,nuclear,"www.google.com/search?q=Cardiac+Care+Associates,+PC","Cardiac Care Associates, PC Fairfax",,,,,,,"Oct 31, 2024",Myocardial Perfusion Imaging,,,,,,,,,,,,,,,,
28,29,"Cardiac Care Associates,P.C",38.867422,-77.236974,granted,3023 Hamaker Court,Suite 100,Fairfax,VA,22031,USA,,cardiaccarepc.com,,echo,,"Cardiac Care Associates,P.C Fairfax",,,"Aug 31, 2023",Adult Transthoracic,,,,,,,,,,,,,,,,,,,,
29,30,"Cardiac Care Associates,P.C",39.07449,-77.475178,granted,44084 Riversiside Parkway,Suite 150,Landsdowne,VA,20176,USA,,,,echo,"www.google.com/search?q=Cardiac+Care+Associates,P.C","Cardiac Care Associates,P.C Landsdowne",,,"Aug 31, 2023",Adult Transthoracic,,,,,,,,,,,,,,,,,,,,
30,31,"Cardiac Care Associates,P.C  Cornwall Office",39.117959,-77.568895,granted,224D Cornwall Street,Suite 306,Leesburg,VA,20176,USA,,Cardiaccarepc.com,,echo,,"Cardiac Care Associates,P.C  Cornwall Office Leesburg",,,"Aug 31, 2023",Adult Transthoracic,,,,,,,,,,,,,,,,,,,,
31,32,"Cardiac Care Center, PC",38.63286,-77.279298,granted,"2200 Opitz Blvd, Suite 310",,Woodbridge,VA,22191,USA,,,,nuclear,"www.google.com/search?q=Cardiac+Care+Center,+PC","Cardiac Care Center, PC Woodbridge",,,,,,,"May 31, 2024",Myocardial Perfusion Imaging,,,,,,,,,,,,,,,,
32,33,Cardiology Associates Bon Secours Maryview Medical Center,36.780646,-76.569628,granted,1030 Hillpoint Boulevard,,Suffolk,VA,23434,USA,,,,echo,www.google.com/search?q=Cardiology+Associates+Bon+Secours+Maryview+Medical+Center,Cardiology Associates Bon Secours Maryview Medical Center Suffolk,,,"Apr 30, 2025",Adult Transthoracic,,,,,,,,,,,,,,,,,,,,
33,34,Cardiology Associates Bon Secours Maryview Medical Center,36.780646,-76.569628,granted,1030 Hillpoint Blvd.,,Suffolk,VA,23434,USA,,,,nuclear,www.google.com/search?q=Cardiology+Associates+Bon+Secours+Maryview+Medical+Center,Cardiology Associates Bon Secours Maryview Medical Center Suffolk,,,,,,,"Aug 31, 2023",Myocardial Perfusion Imaging,,,,,,,,,,,,,,,,
34,35,Cardiology Associates Bon Secours Maryview Medical Center,36.837969,-76.310752,granted,301 Goode Way,,Portsmouth,VA,23704,USA,,cardiologyassoc.net,,nuclear,,Cardiology Associates Bon Secours Maryview Medical Center Portsmouth,,,,,,,"Aug 31, 2023",Myocardial Perfusion Imaging,,,,,,,,,,,,,,,,
35,36,Cardiology Associates Bon Secours Maryview Medical Center,36.837969,-76.310752,granted,301 Goode Way,,Portsmouth,VA,23704,USA,,cardiologyassoc.net,,echo,,Cardiology Associates Bon Secours Maryview Medical Center Portsmouth,,,"Apr 30, 2025",Adult Transthoracic,,,,,,,,,,,,,,,,,,,,
36,37,Cardiology Associates of Central Virginia,37.274668,-77.413141,granted,89 Sherwood Drive,,Colonial Heights,VA,23834,USA,,,,echo,www.google.com/search?q=Cardiology+Associates+of+Central+Virginia,Cardiology Associates of Central Virginia Colonial Heights,,,"May 31, 2024","Adult Stress, Adult Transthoracic",,,,,,,,,,,,,,,,,,,,
37,38,"Cardiology Associates of Fredericksburg, Ltd",38.221525,-77.482643,multigranted,9530 Cosner Drive,"Building 1, Suite 200",Fredericksburg,VA,22408,USA,,www.fredcardio.com,,"vascular, echo",,"Cardiology Associates of Fredericksburg, Ltd Fredericksburg",,,"Aug 31, 2024","Adult Stress, Adult Transthoracic",,,,,"Sep 29, 2022 | Jul 31, 2025","Visceral Vascular Testing | Extracranial Cerebrovascular Testing, Peripheral Arterial Testing",,,,,,,,,,,,,,
38,39,"Cardiology Associates of Fredericksburg, Ltd",38.221525,-77.482643,granted,9530 Cosner Drive,"Building One, Suite 200",Fredericksburg,VA,22408,USA,,www.fredcardio.com,,nuclear,,"Cardiology Associates of Fredericksburg, Ltd Fredericksburg",,,,,,,"Nov 30, 2022",Myocardial Perfusion Imaging,,,,,,,,,,,,,,,,
39,40,Cardiology Associates of Richmond,37.515832,-77.52488,multigranted,7101 Jahnke Road,Suite 550,Richmond,VA,23225,USA,,,,"vascular, echo",www.google.com/search?q=Cardiology+Associates+of+Richmond,Cardiology Associates of Richmond Richmond,,,"Jan 31, 2024",Adult Transthoracic,,,,,"Jul 31, 2023",Extracranial Cerebrovascular Testing,,,,,,,,,,,,,,
40,41,Cardiology Associates Of Richmond,37.515832,-77.52488,granted,7101 Jahnke Road,,Richmond,VA,23225,USA,,,,nuclear,www.google.com/search?q=Cardiology+Associates+Of+Richmond,Cardiology Associates Of Richmond Richmond,,,,,,,"May 31, 2025",Myocardial Perfusion Imaging,,,,,,,,,,,,,,,,
41,42,"Cardiology Clinic, Inc.",36.580011,-79.402441,granted,1045 Main Street,Suite 1,Danville,VA,24541,USA,,,,nuclear,"www.google.com/search?q=Cardiology+Clinic,+Inc.","Cardiology Clinic, Inc. Danville",,,,,,,"Feb 29, 2024",Myocardial Perfusion Imaging,,,,,,,,,,,,,,,,
42,43,"Cardiology Consultants Of Danville, Inc",36.593801,-79.431801,granted,158 Executive Drive,,Danville,VA,24541,USA,,,,echo,"www.google.com/search?q=Cardiology+Consultants+Of+Danville,+Inc","Cardiology Consultants Of Danville, Inc Danville",,,"Feb 29, 2024",Adult Transthoracic,,,,,,,,,,,,,,,,,,,,
43,44,"Cardiology Consultants of Danville, Inc.operated by Odyssey Imaging",36.593801,-79.431801,granted,158 Executive Drive,,Danville,VA,24541,USA,,,,nuclear,"www.google.com/search?q=Cardiology+Consultants+of+Danville,+Inc.operated+by+Odyssey+Imaging","Cardiology Consultants of Danville, Inc.operated by Odyssey Imaging Danville",,,,,,,"Feb 28, 2023",Myocardial Perfusion Imaging,,,,,,,,,,,,,,,,
44,45,Cardiology of Virginia,37.452023,-77.649075,granted,13572 Waterford Place,,Midlothian,VA,23112,USA,,www.cardiovirginia.com,,nuclear,,Cardiology of Virginia Midlothian,,,,,,,"Mar 31, 2025",Myocardial Perfusion Imaging,,,,,,,,,,,,,,,,
45,46,"Cardiology of Virginia, Inc.",37.452029,-77.64909,granted,13572 Waterford Place,,Midlothian,VA,23112,USA,,www.cardiovirginia.com,,vascular,,"Cardiology of Virginia, Inc. Midlothian",,,,,,,,,"Jul 31, 2023",Extracranial Cerebrovascular Testing,,,,,,,,,,,,,,
46,47,"Cardiology of Virginia, Inc.",37.452023,-77.649075,granted,13572 Waterford Place,,Midlothian,VA,23112,USA,,www.cardiovirginia.com,,echo,,"Cardiology of Virginia, Inc. Midlothian",,,"Jul 31, 2023","Adult Stress, Adult Transthoracic",,,,,,,,,,,,,,,,,,,,
47,48,Cardiology Specialists Hampton,37.058708,-76.405125,granted,850 Enterprise Parkway,Suite 1300,Hampton,VA,23666,USA,,,,echo,www.google.com/search?q=Cardiology+Specialists+Hampton,Cardiology Specialists Hampton Hampton,,,"Jan 31, 2025",Adult Transthoracic,,,,,,,,,,,,,,,,,,,,
48,49,Cardiology Specialists of Virginia,38.828617,-77.110874,granted,6715 Little River Turnpike,Suite 300,Annandale,VA,22003,USA,,www.cardiologyspecialistsofvirginia.com/,,nuclear,,Cardiology Specialists of Virginia Annandale,,,,,,,"Jun 30, 2023",Myocardial Perfusion Imaging,,,,,,,,,,,,,,,,
49,50,"Cardiology Specialists of Virginia, PC",38.828617,-77.110874,granted,6715 Little River Turnpike,Suite 300,Annandale,VA,22003,USA,,,,echo,"www.google.com/search?q=Cardiology+Specialists+of+Virginia,+PC","Cardiology Specialists of Virginia, PC Annandale",,,"Sep 30, 2023",Adult Transthoracic,,,,,,,,,,,,,,,,,,,,
50,51,Cardiovascular Associates,36.774965,-76.096132,granted,2075 Glenn Mitchell Drive,Suite 300,Virginia Beach,VA,23456,USA,,www.cval.org,,echo,,Cardiovascular Associates Virginia Beach,,,"Jun 30, 2025",Adult Transthoracic,,,,,,,,,,,,,,,,,,,,
51,52,Cardiovascular Associates,36.761396,-76.59533,granted,2000 Meade Parkway,,Suffolk,VA,23434,USA,,www.bayviewphysicians.com,,echo,,Cardiovascular Associates Suffolk,,,"Jun 30, 2025","Adult Stress, Adult Transthoracic",,,,,,,,,,,,,,,,,,,,
52,53,Cardiovascular Associates,36.739868,-76.245035,granted,612 Kingsborough Square,Suite 100,Chesapeake,VA,23320,USA,,www.cval.org,,echo,,Cardiovascular Associates Chesapeake,,,"Jun 30, 2025","Adult Stress, Adult Transthoracic",,,,,,,,,,,,,,,,,,,,
53,54,Cardiovascular Associates,36.866348,-76.026263,granted,1708 Old Donation Parkway,,Virginia Beach,VA,23454,USA,,www.cval.org,,echo,,Cardiovascular Associates Virginia Beach,,,"Jun 30, 2025","Adult Stress, Adult Transthoracic",,,,,,,,,,,,,,,,,,,,
54,55,Cardiovascular Associates,36.739908,-76.245045,granted,612 Kingsborough Square,Suite 100,Chesapeake,VA,23320,USA,,www.cval.org,,nuclear,,Cardiovascular Associates Chesapeake,,,,,,,"May 31, 2024",Myocardial Perfusion Imaging,,,,,,,,,,,,,,,,
55,56,Cardiovascular Associates,36.866348,-76.026263,granted,1708 Old Donation Parkway,,Virginia Beach,VA,23454,USA,,,,nuclear,www.google.com/search?q=Cardiovascular+Associates,Cardiovascular Associates Virginia Beach,,,,,,,"May 31, 2024",Myocardial Perfusion Imaging,,,,,,,,,,,,,,,,
56,57,Cardiovascular Associates of Charlottesville,38.02327,-78.435385,multigranted,650 Peter Jefferson Parkway,Suite 100,Charlottesville,VA,22911,USA,,www.cvaoc.com,,"nuclear, echo",,Cardiovascular Associates of Charlottesville Charlottesville,,,"May 31, 2024","Adult Stress, Adult Transthoracic",,,"Apr 30, 2024",Myocardial Perfusion Imaging,,,,,,,,,,,,,,,,
57,58,Cardiovascular Associates of Virginia,37.355399,-77.495681,granted,11601 Ironbridge Road,Suite 200,Chester,VA,23831,USA,,www.cavpc.com,,echo,,Cardiovascular Associates of Virginia Chester,,,"Oct 31, 2024",Adult Transthoracic,,,,,,,,,,,,,,,,,,,,
58,59,Cardiovascular Associates of Virginia,37.466279,-77.65896,multigranted,13700 St. Francis Boulevard,Suite 600,Midlothian,VA,23114,USA,,cavpc.com,,"vascular, nuclear, echo",,Cardiovascular Associates of Virginia Midlothian,,,"Oct 31, 2024","Adult Stress, Adult Transthoracic",,,"Dec 31, 2023",Myocardial Perfusion Imaging,"Sep 30, 2023","Extracranial Cerebrovascular Testing, Peripheral Arterial Testing, Peripheral Venous Testing",,,,,,,,,,,,,,
59,60,Cardiovascular Associates of Virginia,37.60304,-77.526012,multigranted,7001 Forest Avenue,Suite 200,Richmond,VA,23230,USA,,www.cavpc.com,,"vascular, nuclear, echo",,Cardiovascular Associates of Virginia Richmond,,,"Oct 31, 2024","Adult Stress, Adult Transthoracic",,,"Dec 31, 2023",Myocardial Perfusion Imaging,"Sep 30, 2023","Extracranial Cerebrovascular Testing, Peripheral Arterial Testing, Peripheral Venous Testing",,,,,,,,,,,,,,
60,61,Cardiovascular Health,37.333975,-76.735089,granted,117 Bulifants Boulevard,Suite B,Williamsburg,VA,23188,USA,,,,echo,www.google.com/search?q=Cardiovascular+Health,Cardiovascular Health Williamsburg,,,"Jan 31, 2025",Adult Transthoracic,,,,,,,,,,,,,,,,,,,,
61,62,"Carient Heart and Vascular, PC",38.716965,-77.810327,granted,559 Frost Ave,Suite 102,Warrenton,VA,20186,USA,,,,nuclear,"www.google.com/search?q=Carient+Heart+and+Vascular,+PC","Carient Heart and Vascular, PC Warrenton",,,,,,,"Nov 30, 2022",Myocardial Perfusion Imaging,,,,,,,,,,,,,,,,
62,63,"Carient Heart and Vascular, PC",38.782932,-77.518124,multigranted,8100 Ashton Avenue,Suite 200,Manassas,VA,20109,USA,,,,"nuclear, vascular","www.google.com/search?q=Carient+Heart+and+Vascular,+PC","Carient Heart and Vascular, PC Manassas",,,,,,,"Nov 30, 2022","Myocardial Perfusion Imaging, Positron Emission Tomography (PET)","Aug 31, 2025",Extracranial Cerebrovascular Testing,,,,,,,,,,,,,,
63,64,"Carient Heart and Vascular, PC",38.629881,-77.27462,granted,14904 Jefferson Davis Highway,#405,Woodbridge,VA,22191,USA,,,,nuclear,"www.google.com/search?q=Carient+Heart+and+Vascular,+PC","Carient Heart and Vascular, PC Woodbridge",,,,,,,"Nov 30, 2022",Myocardial Perfusion Imaging,,,,,,,,,,,,,,,,
64,65,"Carient Heart and Vascular, PC",38.90839,-77.259368,granted,"415 Church Street NE, Suite 101",,Vienna,VA,22180,USA,,,,nuclear,"www.google.com/search?q=Carient+Heart+and+Vascular,+PC","Carient Heart and Vascular, PC Vienna",,,,,,,"Nov 30, 2022",Myocardial Perfusion Imaging,,,,,,,,,,,,,,,,
65,66,Carilion Cardiology Associates of Martinsville,36.676753,-79.849629,granted,1106B Brookdale Street,,Martinsville,VA,24112,USA,,,,echo,www.google.com/search?q=Carilion+Cardiology+Associates+of+Martinsville,Carilion Cardiology Associates of Martinsville Martinsville,,,"Jan 31, 2023",Adult Transthoracic,,,,,,,,,,,,,,,,,,,,
66,67,Carilion Cardiology Martinsville,36.676753,-79.849629,granted,1107B Brookdale Street,,Martinsville,VA,24112,USA,,,,vascular,www.google.com/search?q=Carilion+Cardiology+Martinsville,Carilion Cardiology Martinsville Martinsville,,,,,,,,,"Mar 31, 2025",Extracranial Cerebrovascular Testing,,,,,,,,,,,,,,
67,68,Carilion Clinic Cardiology,37.251354,-79.944183,granted,"2001 Crystal Spring Avenue, Suite 203",,Roanoke,VA,24014,USA,,,,nuclear,www.google.com/search?q=Carilion+Clinic+Cardiology,Carilion Clinic Cardiology Roanoke,,,,,,,"Dec 30, 2022",Myocardial Perfusion Imaging,,,,,,,,,,,,,,,,
68,69,Carilion Clinic Cardiology dba Carilion Clinic Cardiology at Wytheville,36.965443,-81.085002,granted,1150 Holston Road,,Wytheville,VA,24382,USA,,www.happelcardiology.com,,echo,,Carilion Clinic Cardiology dba Carilion Clinic Cardiology at Wytheville Wytheville,,,"Jan 31, 2023",Adult Transthoracic,,,,,,,,,,,,,,,,,,,,
69,70,Carilion Clinic Cardiology Martinsville operated by Odyssey Imaging,36.677589,-79.850115,granted,1107B Brookdale Street,,Martinsville,VA,24112,USA,,,,nuclear,www.google.com/search?q=Carilion+Clinic+Cardiology+Martinsville+operated+by+Odyssey+Imaging,Carilion Clinic Cardiology Martinsville operated by Odyssey Imaging Martinsville,,,,,,,"Sep 30, 2023",Myocardial Perfusion Imaging,,,,,,,,,,,,,,,,
70,71,Carilion Clinic Children’s Hospital - Pediatric Cardiology,37.264549,-79.939735,granted,4348 Electric Rd,,Roanoke,VA,24018,USA,,www.carilionclinic.org,,pediatric_echo,,Carilion Clinic Children’s Hospital - Pediatric Cardiology Roanoke,,,,,,,,,,,"Jun 30, 2023","Pediatric Transthoracic, Fetal",,,,,,,,,,,,
71,72,Carilion Clinic Internal Medicine-Family Practice RH,36.672047,-80.923567,granted,544 East Stuart Dr Apt D,,Galax,VA,24333,USA,,,,echo,www.google.com/search?q=Carilion+Clinic+Internal+Medicine-Family+Practice+RH,Carilion Clinic Internal Medicine-Family Practice RH Galax,,,"Nov 30, 2024",Adult Transthoracic,,,,,,,,,,,,,,,,,,,,
72,73,Carilion Clinic Pediatric Cardiology,36.677589,-79.850115,granted,1107 B Brookdale Street,,Martinsville,VA,24112,USA,,www.carilionclinic.org,,pediatric_echo,,Carilion Clinic Pediatric Cardiology Martinsville,,,,,,,,,,,"Jun 30, 2023","Pediatric Transthoracic, Fetal",,,,,,,,,,,,
73,74,Carilion Clinic The Dr. Krishan Tayal Vascular Laboratory Carilion,37.124155,-80.56999,granted,2900 Tyler Avenue,,Radford,VA,24141,USA,,,,vascular,www.google.com/search?q=Carilion+Clinic+The+Dr.+Krishan+Tayal+Vascular+Laboratory+Carilion,Carilion Clinic The Dr. Krishan Tayal Vascular Laboratory Carilion Radford,,,,,,,,,"Apr 30, 2025","Extracranial Cerebrovascular Testing, Peripheral Arterial Testing, Peripheral Venous Testing, Visceral Vascular Testing",,,,,,,,,,,,,,
74,75,Carilion Clinic: Carilion Roanoke Memorial Hospital,37.270496,-79.940581,granted,PO Box 13367,Belleview at Jefferson Street,Roanoke,VA,24036,USA,,,,vascular,www.google.com/search?q=Carilion+Clinic:+Carilion+Roanoke+Memorial+Hospital,Carilion Clinic: Carilion Roanoke Memorial Hospital Roanoke,,,,,,,,,"Mar 31, 2025","Extracranial Cerebrovascular Testing, Peripheral Arterial Testing, Peripheral Venous Testing, Visceral Vascular Testing",,,,,,,,,,,,,,
75,76,Carilion Crystal Springs Vascular Laboratory,37.250304,-79.94677,granted,127 McClanahan Street,,Roanoke,VA,24014,USA,,,,vascular,www.google.com/search?q=Carilion+Crystal+Springs+Vascular+Laboratory,Carilion Crystal Springs Vascular Laboratory Roanoke,,,,,,,,,"Mar 31, 2025","Extracranial Cerebrovascular Testing, Peripheral Arterial Testing, Peripheral Venous Testing, Visceral Vascular Testing",,,,,,,,,,,,,,
76,77,Carilion Franklin Memorial Hospital,36.994584,-79.889813,granted,180 Floyd Avenue,,Rocky Mount,VA,24151,USA,,,,vascular,www.google.com/search?q=Carilion+Franklin+Memorial+Hospital,Carilion Franklin Memorial Hospital Rocky Mount,,,,,,,,,"Mar 31, 2025","Extracranial Cerebrovascular Testing, Peripheral Arterial Testing, Peripheral Venous Testing, Visceral Vascular Testing",,,,,,,,,,,,,,
77,78,Carilion Franklin Memorial Hospital,36.995307,-79.891332,granted,124 Floyd Avenue,,Rocky Mount,VA,24523,USA,,,,echo,www.google.com/search?q=Carilion+Franklin+Memorial+Hospital,Carilion Franklin Memorial Hospital Rocky Mount,,,"Sep 30, 2023","Adult Stress, Adult Transthoracic",,,,,,,,,,,,,,,,,,,,
78,79,Carilion Franklin Memorial Hospital,36.994584,-79.889813,granted,180 Floyd Avenue,,Rocky Mount,VA,24151,USA,,carilionclinic.org,,nuclear,,Carilion Franklin Memorial Hospital Rocky Mount,,,,,,,"Jul 31, 2024","General Nuclear Medicine, Myocardial Perfusion Imaging, Other Cardiovascular Imaging",,,,,,,,,,,,,,,,
79,80,Carilion Medical Center,37.251354,-79.944183,granted,2001 Crystal Spring Avenue,Suite 203,Roanoke,VA,24014,USA,,,,echo,www.google.com/search?q=Carilion+Medical+Center,Carilion Medical Center Roanoke,,,"Jan 31, 2023","Adult Stress, Adult Transthoracic",,,,,,,,,,,,,,,,,,,,
80,81,Carilion Medical Center dba Carilion Clinic Cardiology at Salem,37.28819,-80.09092,granted,1935 W. Main Street,,Salem,VA,24153,USA,,,,echo,www.google.com/search?q=Carilion+Medical+Center+dba+Carilion+Clinic+Cardiology+at+Salem,Carilion Medical Center dba Carilion Clinic Cardiology at Salem Salem,,,"Jan 31, 2023",Adult Transthoracic,,,,,,,,,,,,,,,,,,,,
81,82,Carilion Medical Center dba Carilion Clinic Cardiology at West Lake,37.115164,-79.719351,granted,35 Medical Court,,Hardy,VA,24101,USA,,,,echo,www.google.com/search?q=Carilion+Medical+Center+dba+Carilion+Clinic+Cardiology+at+West+Lake,Carilion Medical Center dba Carilion Clinic Cardiology at West Lake Hardy,,,"Jan 31, 2023","Adult Stress, Adult Transthoracic",,,,,,,,,,,,,,,,,,,,
82,83,Carilion New River Valley Medical Center,37.090729,-80.506641,granted,2900 Lamb Circle,,Christiansburg,VA,24073,USA,,,,echo,www.google.com/search?q=Carilion+New+River+Valley+Medical+Center,Carilion New River Valley Medical Center Christiansburg,,,"Aug 31, 2022","Adult Stress, Adult Transesophageal, Adult Transthoracic",,,,,,,,,,,,,,,,,,,,
83,84,Carilion Riverside 3 Imaging Center,37.257145,-79.942722,granted,3 Riverside Circle,,Roanoke,VA,24016,USA,,www.carilionclinic.org,,nuclear,,Carilion Riverside 3 Imaging Center Roanoke,,,,,,,"Jan 31, 2025","Equilibrium Radionuclide Angiography, General Nuclear Medicine",,,,,,,,,,,,,,,,
84,85,Carilion Roanoke Memorial Hosp.,37.252046,-79.942297,granted,1906 Belview Ave.,,Roanoke,VA,24014,USA,,www.carilion.com,,nuclear,,Carilion Roanoke Memorial Hosp. Roanoke,,,,,,,"Jan 31, 2025","General Nuclear Medicine, Myocardial Perfusion Imaging, Positron Emission Tomography (PET)",,,,,,,,,,,,,,,,
85,86,Carilion Roanoke Memorial Hospital,37.252046,-79.942297,granted,1906 Belleview Avenue,,Roanoke,VA,24014,USA,,,,echo,www.google.com/search?q=Carilion+Roanoke+Memorial+Hospital,Carilion Roanoke Memorial Hospital Roanoke,,,"Sep 30, 2023","Adult Stress, Adult Transesophageal, Adult Transthoracic",,,,,,,,,,,,,,,,,,,,
86,87,Carilion Stonewall Jackson Hospital,37.778437,-79.442035,granted,1 Health Circle,,Lexington,VA,24450,USA,,www.carilionclinic.org/Carilion/csjh,,echo,,Carilion Stonewall Jackson Hospital Lexington,,,"Sep 30, 2023",Adult Transthoracic,,,,,,,,,,,,,,,,,,,,
87,88,Carilion Stonewall Jackson Hospital,37.778437,-79.442035,granted,1 Health Circle,,Lexington,VA,24450,USA,,,,vascular,www.google.com/search?q=Carilion+Stonewall+Jackson+Hospital,Carilion Stonewall Jackson Hospital Lexington,,,,,,,,,"Jan 31, 2023","Extracranial Cerebrovascular Testing, Peripheral Venous Testing",,,,,,,,,,,,,,
88,89,Centra,37.416648,-79.169753,granted,1901 Tate Springs Road,,Lynchburg,VA,24501,USA,,,,nuclear,www.google.com/search?q=Centra,Centra Lynchburg,,,,,,,"Aug 31, 2023",Myocardial Perfusion Imaging,,,,,,,,,,,,,,,,
89,90,Centra Health Cardiovascular Services,37.416648,-79.169753,granted,1901 Tate Springs Road,,Lynchburg,VA,24501,USA,,www.centrahealth.com,,pediatric_echo,,Centra Health Cardiovascular Services Lynchburg,,,,,,,,,,,"Jan 31, 2023",Pediatric Transthoracic,,,,,,,,,,,,
90,91,Centra Health Cardiovascular Services,37.303716,-78.405215,granted,900 W 3rd Street,,Farmville,VA,23901,USA,,,,echo,www.google.com/search?q=Centra+Health+Cardiovascular+Services,Centra Health Cardiovascular Services Farmville,,,"Jan 31, 2023",Adult Transthoracic,,,,,,,,,,,,,,,,,,,,
91,92,Centra Health Cardiovascular Services,37.408504,-79.176979,granted,2410 Atherholt Road,,Lynchburg,VA,24501,USA,,,,pediatric_echo,www.google.com/search?q=Centra+Health+Cardiovascular+Services,Centra Health Cardiovascular Services Lynchburg,,,,,,,,,,,"Jan 31, 2023","Pediatric Transthoracic, Fetal",,,,,,,,,,,,
92,93,Centra Health Cardiovascular Services,36.583703,-79.432099,granted,414 Park Avenue,,Danville,VA,24541,USA,,,,pediatric_echo,www.google.com/search?q=Centra+Health+Cardiovascular+Services,Centra Health Cardiovascular Services Danville,,,,,,,,,,,"Jan 31, 2023",Pediatric Transthoracic,,,,,,,,,,,,
93,94,Centra Health Cardiovascular Services,37.439227,-79.18859,granted,3300 Rivermont Avenue,,Lynchburg,VA,24503,USA,,,,pediatric_echo,www.google.com/search?q=Centra+Health+Cardiovascular+Services,Centra Health Cardiovascular Services Lynchburg,,,,,,,,,,,"Jan 31, 2023",Pediatric Transthoracic,,,,,,,,,,,,
94,95,Centra Health Cardiovascular Services,37.180357,-79.622261,granted,1039 Mayberry Crossing Drive,,Moneta,VA,24121,USA,,,,echo,www.google.com/search?q=Centra+Health+Cardiovascular+Services,Centra Health Cardiovascular Services Moneta,,,"Jan 31, 2023","Adult Stress, Adult Transthoracic",,,,,,,,,,,,,,,,,,,,
95,96,Centra Health Cardiovascular Services,37.303397,-78.403252,granted,800 Oak Street,,Farmville,VA,23901,USA,,,,pediatric_echo,www.google.com/search?q=Centra+Health+Cardiovascular+Services,Centra Health Cardiovascular Services Farmville,,,,,,,,,,,"Jan 31, 2023","Pediatric Transthoracic, Fetal",,,,,,,,,,,,
96,97,Centra Health Cardiovascular Services,37.345645,-79.514128,granted,1316 Oakwood Street,,Bedford,VA,24523,USA,,,,pediatric_echo,www.google.com/search?q=Centra+Health+Cardiovascular+Services,Centra Health Cardiovascular Services Bedford,,,,,,,,,,,"Jan 31, 2023",Pediatric Transthoracic,,,,,,,,,,,,
97,98,Centra Health Cardiovascular Services,37.408504,-79.176979,granted,2410 Atherholt Road,,Lynchburg,VA,24501,USA,,,,echo,www.google.com/search?q=Centra+Health+Cardiovascular+Services,Centra Health Cardiovascular Services Lynchburg,,,"Jan 31, 2023",Adult Transthoracic,,,,,,,,,,,,,,,,,,,,
98,99,Centra Health Cardiovascular Services,36.953968,-79.380722,granted,291 McBride Lane,,Gretna,VA,24557,USA,,,,echo,www.google.com/search?q=Centra+Health+Cardiovascular+Services,Centra Health Cardiovascular Services Gretna,,,"Jan 31, 2023","Adult Stress, Adult Transthoracic",,,,,,,,,,,,,,,,,,,,
99,100,Centra Health Cardiovascular Services,36.583703,-79.432099,granted,414 Park Ave.,,Danville,VA,24541,USA,,,,echo,www.google.com/search?q=Centra+Health+Cardiovascular+Services,Centra Health Cardiovascular Services Danville,,,"Jan 31, 2023","Adult Stress, Adult Transthoracic",,,,,,,,,,,,,,,,,,,,
100,101,Centra Medical Group Stroobants Cardiovascular Center-Danville,36.594355,-79.43223,granted,414 Park Avenue,,Danville,VA,24541,USA,,,,vascular,www.google.com/search?q=Centra+Medical+Group+Stroobants+Cardiovascular+Center-Danville,Centra Medical Group Stroobants Cardiovascular Center-Danville Danville,,,,,,,,,"May 31, 2025","Extracranial Cerebrovascular Testing, Peripheral Arterial Testing, Peripheral Venous Testing",,,,,,,,,,,,,,
101,102,Centra Medical Group Stroobants Cardiovascular Center-Farmville,37.303716,-78.405215,granted,900 W Third Street,,Farmville,VA,23901,USA,,thecardiovasculargroup.org,,vascular,,Centra Medical Group Stroobants Cardiovascular Center-Farmville Farmville,,,,,,,,,"May 31, 2025","Extracranial Cerebrovascular Testing, Peripheral Arterial Testing, Peripheral Venous Testing",,,,,,,,,,,,,,
102,103,Centra Medical Group Stroobants Cardiovascular Center-Gretna,36.951231,-79.377228,granted,291 McBride Lane,,Gretna,VA,24557,USA,,,,vascular,www.google.com/search?q=Centra+Medical+Group+Stroobants+Cardiovascular+Center-Gretna,Centra Medical Group Stroobants Cardiovascular Center-Gretna Gretna,,,,,,,,,"May 31, 2025","Extracranial Cerebrovascular Testing, Peripheral Arterial Testing, Peripheral Venous Testing",,,,,,,,,,,,,,
103,104,Centra Medical Group Stroobants Cardiovascular Center-Lynchburg,37.408504,-79.176979,granted,2410 Atherholt Road,,Lynchburg,VA,24501,USA,,thecardiovasculargroup.org,,vascular,,Centra Medical Group Stroobants Cardiovascular Center-Lynchburg Lynchburg,,,,,,,,,"May 31, 2025","Extracranial Cerebrovascular Testing, Peripheral Arterial Testing, Peripheral Venous Testing, Visceral Vascular Testing",,,,,,,,,,,,,,
104,105,Centra Southside Community Hospital,37.303317,-78.403058,granted,800 Oak Street,,Farmville,VA,23901,USA,,,,echo,www.google.com/search?q=Centra+Southside+Community+Hospital,Centra Southside Community Hospital Farmville,,,"Jan 31, 2023","Adult Stress, Adult Transthoracic",,,,,,,,,,,,,,,,,,,,
105,106,Centra Southside Community Hospital,37.303317,-78.403058,granted,800 Oak Street,,Farmville,VA,23901,USA,,,,vascular,www.google.com/search?q=Centra+Southside+Community+Hospital,Centra Southside Community Hospital Farmville,,,,,,,,,"May 31, 2025","Extracranial Cerebrovascular Testing, Peripheral Arterial Testing",,,,,,,,,,,,,,
106,107,CentraHealth Cardiovascular Services,37.416648,-79.169753,granted,1901 Tate Springs Road,,Lynchburg,VA,24501,USA,,www.centrahealth.com,,echo,,CentraHealth Cardiovascular Services Lynchburg,,,"Jan 31, 2023","Adult Stress, Adult Transesophageal, Adult Transthoracic",,,,,,,,,,,,,,,,,,,,
107,108,CentraHealth Cardiovascular Services,37.439227,-79.18859,granted,3300 Rivermont Avenue,,Lynchburg,VA,24503,USA,,,,echo,www.google.com/search?q=CentraHealth+Cardiovascular+Services,CentraHealth Cardiovascular Services Lynchburg,,,"Jan 31, 2023",Adult Transthoracic,,,,,,,,,,,,,,,,,,,,
108,109,Chesapeake Regional Medical Center,36.746111,-76.244828,granted,736 Battlefield Blvd North,,Chesapeake,VA,23320,USA,,,,echo,www.google.com/search?q=Chesapeake+Regional+Medical+Center,Chesapeake Regional Medical Center Chesapeake,,,"Oct 31, 2024","Adult Stress, Adult Transesophageal, Adult Transthoracic",,,,,,,,,,,,,,,,,,,,
109,110,Chesapeake Regional Medical Center Peripheral Vascular Lab,36.746096,-76.246086,granted,736 Battlefield Blvd N.,,Chesapeake,VA,23320,USA,,,,vascular,www.google.com/search?q=Chesapeake+Regional+Medical+Center+Peripheral+Vascular+Lab,Chesapeake Regional Medical Center Peripheral Vascular Lab Chesapeake,,,,,,,,,"Jun 30, 2023","Extracranial Cerebrovascular Testing, Peripheral Arterial Testing, Peripheral Venous Testing, Visceral Vascular Testing",,,,,,,,,,,,,,
110,111,Children’s Hospital of Richmond at VCU Health System Ridgefield,37.622754,-77.606682,granted,2200 Pump Road,Suite 210,Richmond,VA,23233,USA,,,,pediatric_echo,www.google.com/search?q=Children’s+Hospital+of+Richmond+at+VCU+Health+System+Ridgefield,Children’s Hospital of Richmond at VCU Health System Ridgefield Richmond,,,,,,,,,,,"Nov 30, 2024",Pediatric Transthoracic,,,,,,,,,,,,
111,112,Children’s Hospital of Richmond at VCU Health Systems Bremo Rd,37.5843389,-77.5126194,granted,5855 Bremo Road,"North Suite, 7th Floor Room 703",Richmond,VA,23226,USA,,,,pediatric_echo,www.google.com/search?q=Children’s+Hospital+of+Richmond+at+VCU+Health+Systems+Bremo+Rd,Children’s Hospital of Richmond at VCU Health Systems Bremo Rd Richmond,,,,,,,,,,,"Nov 30, 2024",Pediatric Transthoracic,,,,,,,,,,,,
112,113,Children’s Hospital of Richmond at Virginia Commonwealth,38.219437,-77.498951,granted,10528 Spotsylvania Avenue,Lee Hill Medical Center,Fredericksburg,VA,22408,USA,,,,pediatric_echo,www.google.com/search?q=Children’s+Hospital+of+Richmond+at+Virginia+Commonwealth,Children’s Hospital of Richmond at Virginia Commonwealth Fredericksburg,,,,,,,,,,,"Nov 30, 2024",Pediatric Transthoracic,,,,,,,,,,,,
113,114,Children’s Hospital of Richmond at Virginia Commonwealth,37.54045,-77.43211,granted,1000 East Broad Street 4th Floor POD D,,Richmond,VA,23298,USA,,,,pediatric_echo,www.google.com/search?q=Children’s+Hospital+of+Richmond+at+Virginia+Commonwealth,Children’s Hospital of Richmond at Virginia Commonwealth Richmond,,,,,,,,,,,"Nov 30, 2024","Pediatric Transesophageal, Pediatric Transthoracic, Fetal",,,,,,,,,,,,
114,115,Children’s Hospital of Richmond at Virginia Commonwealth,37.249493,-77.365873,granted,2035 Waterside Road Suite 100,,Prince George,VA,23875,USA,,,,pediatric_echo,www.google.com/search?q=Children’s+Hospital+of+Richmond+at+Virginia+Commonwealth,Children’s Hospital of Richmond at Virginia Commonwealth Prince George,,,,,,,,,,,"Nov 30, 2024",Pediatric Transthoracic,,,,,,,,,,,,
115,116,Children’s Hospital of The King’s Daughters,36.86176,-76.30137,granted,601 Children’s Lane,2nd Floor,Norfolk,VA,23507,USA,,,,pediatric_echo,www.google.com/search?q=Children’s+Hospital+of+The+King’s+Daughters,Children’s Hospital of The King’s Daughters Norfolk,,,,,,,,,,,"Mar 31, 2024","Pediatric Transesophageal, Pediatric Transthoracic, Fetal",,,,,,,,,,,,
116,117,Children’s Hospital of The King’s Daughters at Oakbrooke,36.73514,-76.223282,granted,500 Discovery Drive,,Chesapeake,VA,23320,USA,,,,pediatric_echo,www.google.com/search?q=Children’s+Hospital+of+The+King’s+Daughters+at+Oakbrooke,Children’s Hospital of The King’s Daughters at Oakbrooke Chesapeake,,,,,,,,,,,"Mar 31, 2024",Pediatric Transthoracic,,,,,,,,,,,,
117,118,Children’s Hospital of The King’s Daughters at Oyster Point,37.085838,-76.463577,granted,11783 Rock Landing Drive,2nd Floor,Newport News,VA,23608,USA,,,,pediatric_echo,www.google.com/search?q=Children’s+Hospital+of+The+King’s+Daughters+at+Oyster+Point,Children’s Hospital of The King’s Daughters at Oyster Point Newport News,,,,,,,,,,,"Mar 31, 2024",Pediatric Transthoracic,,,,,,,,,,,,
118,119,Children’s Hospital of The King’s Daughters at Princess Anne,36.776624,-76.100635,granted,2021 Concert Drive,Suite 203,Virginia Beach,VA,23456,USA,,,,pediatric_echo,www.google.com/search?q=Children’s+Hospital+of+The+King’s+Daughters+at+Princess+Anne,Children’s Hospital of The King’s Daughters at Princess Anne Virginia Beach,,,,,,,,,,,"Mar 31, 2024",Pediatric Transthoracic,,,,,,,,,,,,
119,120,Children’s Hospital of The Kings Daughters at Harbour View,36.870861,-76.442774,granted,5835 Harbour View Boulevard,,Suffolk,VA,23435,USA,,,,pediatric_echo,www.google.com/search?q=Children’s+Hospital+of+The+Kings+Daughters+at+Harbour+View,Children’s Hospital of The Kings Daughters at Harbour View Suffolk,,,,,,,,,,,"Mar 31, 2024",Pediatric Transthoracic,,,,,,,,,,,,
120,121,Children’s Hospital of The Kings Daughters at Lightfoot,37.340665,-76.754997,granted,6425 Richmond Road,,Williamsburg,VA,23188,USA,,,,pediatric_echo,www.google.com/search?q=Children’s+Hospital+of+The+Kings+Daughters+at+Lightfoot,Children’s Hospital of The Kings Daughters at Lightfoot Williamsburg,,,,,,,,,,,"Mar 31, 2024",Pediatric Transthoracic,,,,,,,,,,,,
121,122,Chippenham and Johnston-Willis Medical Center,37.519518,-77.515818,granted,Cardiovascular Services,7101 Jahnke Road,Richmond,VA,23225,USA,,,,vascular,www.google.com/search?q=Chippenham+and+Johnston-Willis+Medical+Center,Chippenham and Johnston-Willis Medical Center Richmond,,,,,,,,,"Dec 30, 2022","Extracranial Cerebrovascular Testing, Peripheral Arterial Testing, Peripheral Venous Testing",,,,,,,,,,,,,,
122,123,Chippenham and Johnston-Willis Medical Center,37.512196,-77.59782,granted,Cardiovascular Services,1401 Johnston-Willis Drive,Richmond,VA,23235,USA,,www.cjwmedical.com,,vascular,,Chippenham and Johnston-Willis Medical Center Richmond,,,,,,,,,"Dec 30, 2022","Extracranial Cerebrovascular Testing, Peripheral Arterial Testing, Peripheral Venous Testing",,,,,,,,,,,,,,
123,124,Cjw Medical Center,37.513552,-77.526305,granted,7101 Jahnke Road,,Richmond,VA,23225,USA,,,,echo,www.google.com/search?q=Cjw+Medical+Center,Cjw Medical Center Richmond,,,"Apr 30, 2025","Adult Stress, Adult Transesophageal, Adult Transthoracic",,,,,,,,,,,,,,,,,,,,
124,125,Cjw Medical Center,37.510935,-77.595502,granted,1401 Johnston Willis Drive,,Richmond,VA,23235,USA,,,,echo,www.google.com/search?q=Cjw+Medical+Center,Cjw Medical Center Richmond,,,"Apr 30, 2025",Adult Transthoracic,,,,,,,,,,,,,,,,,,,,
125,126,"CN Internal Medicine MD, P.C.",38.828617,-77.110874,granted,4660 Kenmore Avenue,Suite 600,Alexandria,VA,23112,USA,,cninternalmedicine.com,,echo,,"CN Internal Medicine MD, P.C. Alexandria",,,"May 31, 2024",Adult Transthoracic,,,,,,,,,,,,,,,,,,,,
126,127,Commonwealth Primary Care,37.604181,-77.525201,granted,1800 Glenside Dr.,Suite 101,Richmond,VA,23226,USA,,www.cpcva.com/,,vascular,,Commonwealth Primary Care Richmond,,,,,,,,,"Oct 31, 2023","Extracranial Cerebrovascular Testing, Peripheral Arterial Testing",,,,,,,,,,,,,,
127,128,"Commonwealth Primary Care, Inc",37.604181,-77.525201,granted,1800 Glenside Dr.,Suite 101,Richmond,VA,23226,USA,,www.cpcva.com/,,echo,,"Commonwealth Primary Care, Inc Richmond",,,"May 31, 2024",Adult Transthoracic,,,,,,,,,,,,,,,,,,,,
128,129,Commonwealth Vascular Institute,36.770023,-76.583063,granted,"150 Burnetts Way, Suite 200",,Suffolk,VA,23434,USA,,,,vascular,www.google.com/search?q=Commonwealth+Vascular+Institute,Commonwealth Vascular Institute Suffolk,,,,,,,,,"Mar 31, 2025","Extracranial Cerebrovascular Testing, Peripheral Arterial Testing, Peripheral Venous Testing",,,,,,,,,,,,,,
129,130,Commonwealth Vascular Institute,36.859124,-76.454054,granted,1520 Breezeport Way Suite 100,,Suffolk,VA,23435,,,,,vascular,www.google.com/search?q=Commonwealth+Vascular+Institute,Commonwealth Vascular Institute Suffolk,,,,,,,,,"Mar 31, 2025","Extracranial Cerebrovascular Testing, Peripheral Arterial Testing, Peripheral Venous Testing",,,,,,,,,,,,,,
130,131,Crystal Springs Imaging Center,37.251354,-79.944183,granted,2001 Crystal Springs Ave. Suite 140,,Roanoke,VA,24014,USA,,,,nuclear,www.google.com/search?q=Crystal+Springs+Imaging+Center,Crystal Springs Imaging Center Roanoke,,,,,,,"Jan 31, 2025",General Nuclear Medicine,,,,,,,,,,,,,,,,
131,132,"Culpeper Memorial Hospital, Inc. dba UVA Culpeper Medical Center",38.454848,-78.011305,granted,501 Sunset Ln,,Culpeper,VA,22701,USA,,,,echo,"www.google.com/search?q=Culpeper+Memorial+Hospital,+Inc.+dba+UVA+Culpeper+Medical+Center","Culpeper Memorial Hospital, Inc. dba UVA Culpeper Medical Center Culpeper",,,"Aug 31, 2024",Adult Transthoracic,,,,,,,,,,,,,,,,,,,,
132,133,Diagnostic Center,39.199051,-78.190129,granted,300 Campus Blvd.,,Winchester,VA,22601,USA,,www.valleyhealthlink.com,,mr,,Diagnostic Center Winchester,,,,,"May 31, 2024","Body MRI, Cardiovascular MRI, Musculoskeletal MRI, Neurological MRI, Breast MRI, MRA",,,,,,,,,,,,,,,,,,
133,134,"Dominion Cardiac Care, PC",38.627945,-77.272331,granted,"14904 Jefferson Hwy, Suite 202",,Woodbridge,VA,22191,USA,,doctorhashemi.com,,nuclear,,"Dominion Cardiac Care, PC Woodbridge",,,,,,,"Jul 31, 2025",Myocardial Perfusion Imaging,,,,,,,,,,,,,,,,
134,135,"Dr. Carpousis, M.D., LTD",38.864404,-77.079793,granted,"2001 Colmbia Pike, Site 131",,Arlington,VA,22204,USA,,,,nuclear,"www.google.com/search?q=Dr.+Carpousis,+M.D.,+LTD","Dr. Carpousis, M.D., LTD Arlington",,,,,,,"May 31, 2024",Myocardial Perfusion Imaging,,,,,,,,,,,,,,,,
135,136,"Fairfax Radiological Consultants, P.C.",38.865419,-77.23834,granted,"8505 Arlington Boulevard, Suite 400",,Fairfax,VA,22031,USA,,www.fairfaxradiology.com,,vascular,,"Fairfax Radiological Consultants, P.C. Fairfax",,,,,,,,,"Aug 31, 2023","Extracranial Cerebrovascular Testing, Peripheral Arterial Testing, Peripheral Venous Testing, Visceral Vascular Testing",,,,,,,,,,,,,,
136,137,"Fairfax Radiological Consultants, P.C.",38.865423,-77.238144,granted,"8505 Arlington Boulevard, Suite 400",,Fairfax,VA,22031,USA,,www.fairfaxveincenter.com/,,vein_center,,"Fairfax Radiological Consultants, P.C. Fairfax",,,,,,,,,,,,,,,,,"Jun 30, 2023",Superficial Venous Evaluation and Management,,,,,,
137,138,Fauquier Hospital,38.714858,-77.808307,granted,500 Hospital Drive,,Warrenton,VA,20186,USA,,,,vascular,www.google.com/search?q=Fauquier+Hospital,Fauquier Hospital Warrenton,,,,,,,,,"Jul 31, 2023","Extracranial Cerebrovascular Testing, Peripheral Arterial Testing, Peripheral Venous Testing",,,,,,,,,,,,,,
138,139,"Fauquier Medical Center, LLC",38.714858,-77.808307,granted,500 Hospital Drive,,Warrenton,VA,20186,USA,,,,echo,"www.google.com/search?q=Fauquier+Medical+Center,+LLC","Fauquier Medical Center, LLC Warrenton",,,"Feb 28, 2025","Adult Transesophageal, Adult Transthoracic",,,,,,,,,,,,,,,,,,,,
139,140,Fontaine Nuclear Cardiology  stress lab,38.023945,-78.525758,granted,500 Ray C. Hunt Drive,,Charlottesville,VA,22903,USA,,,,nuclear,www.google.com/search?q=Fontaine+Nuclear+Cardiology++stress+lab,Fontaine Nuclear Cardiology  stress lab Charlottesville,,,,,,,"Mar 31, 2023",Myocardial Perfusion Imaging,,,,,,,,,,,,,,,,
140,141,"Fort Norfolk Plaza Cardiology Associates, PLLC",36.859708,-76.306234,granted,301 Riverview Avenue,Suite 500,Norfolk,VA,23510,USA,,,,nuclear,"www.google.com/search?q=Fort+Norfolk+Plaza+Cardiology+Associates,+PLLC","Fort Norfolk Plaza Cardiology Associates, PLLC Norfolk",,,,,,,"Jan 31, 2025",Myocardial Perfusion Imaging,,,,,,,,,,,,,,,,
141,142,"Fort Norfolk Plaza Medical Associates, LLC",36.859708,-76.306234,granted,301 Riverview Avenue,Suite 500,Norfolk,VA,23510,USA,,www.fortnorfolkmedical.com,,echo,,"Fort Norfolk Plaza Medical Associates, LLC Norfolk",,,"May 31, 2025","Adult Stress, Adult Transthoracic",,,,,,,,,,,,,,,,,,,,
142,143,Fredericksburg Regional Outpatient Center,38.313511,-77.485303,granted,"1300 Hospital Dr., Suite 201",,Fredericksburg,VA,22401,USA,,,,pediatric_echo,www.google.com/search?q=Fredericksburg+Regional+Outpatient+Center,Fredericksburg Regional Outpatient Center Fredericksburg,,,,,,,,,,,"Jul 31, 2023",Pediatric Transthoracic,,,,,,,,,,,,
143,144,Halifax Heart Center,36.714753,-78.914355,granted,2232 Wilborn Avenue,,South Boston,VA,24592,USA,,,,nuclear,www.google.com/search?q=Halifax+Heart+Center,Halifax Heart Center South Boston,,,,,,,"Oct 30, 2022",Myocardial Perfusion Imaging,,,,,,,,,,,,,,,,
144,145,Halifax Heart Center,36.714753,-78.914355,granted,2232 Wilborn Avenue,,South Boston,VA,24592,USA,,www.halifaxheartcenter.com,,echo,,Halifax Heart Center South Boston,,,"Sep 30, 2024","Adult Stress, Adult Transthoracic",,,,,,,,,,,,,,,,,,,,
145,146,Hampton Roads Cardiology,37.058285,-76.392465,multigranted,4000 Coliseum Dr. Suite 100,,Hampton,VA,23666,USA,,,,"nuclear, echo",www.google.com/search?q=Hampton+Roads+Cardiology,Hampton Roads Cardiology Hampton,,,"Jul 31, 2024",Adult Transthoracic,,,"Dec 31, 2023",Myocardial Perfusion Imaging,,,,,,,,,,,,,,,,
146,147,Hampton Roads Otolaryngology Associates,37.058808,-76.405286,granted,901 Enterprise Pkwy. Suite 300,,Hampton,VA,23666,USA,,,,ct,www.google.com/search?q=Hampton+Roads+Otolaryngology+Associates,Hampton Roads Otolaryngology Associates Hampton,"Jun 30, 2023",Maxillofacial CT,,,,,,,,,,,,,,,,,,,,,,
147,148,Hampton VA Medical Center,37.018442,-76.330855,granted,100 Emancipation Drive,,Hampton,VA,23667,USA,,,,vascular,www.google.com/search?q=Hampton+VA+Medical+Center,Hampton VA Medical Center Hampton,,,,,,,,,"Apr 30, 2024","Extracranial Cerebrovascular Testing, Peripheral Arterial Testing, Peripheral Venous Testing",,,,,,,,,,,,,,
148,149,Heart Care Associates P.C.,37.259399,-77.330287,granted,"5303 Plaza Drive, Suite 102",,Hopewell,VA,23860,USA,,,,nuclear,www.google.com/search?q=Heart+Care+Associates+P.C.,Heart Care Associates P.C. Hopewell,,,,,,,"Jan 31, 2024",Myocardial Perfusion Imaging,,,,,,,,,,,,,,,,
149,150,Henrico Doctors’ Hospital,37.604045,-77.537717,granted,1602 Skipwith Road,,Richmond,VA,23229,USA,,,,vascular,www.google.com/search?q=Henrico+Doctors’+Hospital,Henrico Doctors’ Hospital Richmond,,,,,,,,,"Nov 30, 2023","Extracranial Cerebrovascular Testing, Peripheral Venous Testing",,,,,,,,,,,,,,
150,151,Henrico Doctors’ Hospital - Forest Campus,37.604045,-77.537717,granted,1602 Skipwith Road,,Richmond,VA,23229,USA,,,,pediatric_echo,www.google.com/search?q=Henrico+Doctors’+Hospital+-+Forest+Campus,Henrico Doctors’ Hospital - Forest Campus Richmond,,,,,,,,,,,"Dec 31, 2024",Pediatric Transthoracic,,,,,,,,,,,,
151,152,Inova Alexandria Hospital Cardiac Diagnostic Services,38.828701,-77.110773,multigranted,4660 Kenmore Avenue,Suite 1206,Alexandria,VA,22304,USA,,www.virginiaheart.com,,"nuclear, vascular, echo",,Inova Alexandria Hospital Cardiac Diagnostic Services Alexandria,,,"May 31, 2024","Adult Stress, Adult Transthoracic",,,"Dec 31, 2022","Equilibrium Radionuclide Angiography, Myocardial Perfusion Imaging","Jan 31, 2024","Extracranial Cerebrovascular Testing, Peripheral Arterial Testing",,,,,,,,,,,,,,
152,153,Inova Cardiac Diagnostics Services a Department of Inova Fairfax Hospital,38.865423,-77.238144,granted,8081 Innovation Park Drive,"6th Floor, Suite 600",Fairfax,VA,22031,USA,,,,vascular,www.google.com/search?q=Inova+Cardiac+Diagnostics+Services+a+Department+of+Inova+Fairfax+Hospital,Inova Cardiac Diagnostics Services a Department of Inova Fairfax Hospital Fairfax,,,,,,,,,"Apr 30, 2025",Extracranial Cerebrovascular Testing,,,,,,,,,,,,,,
153,154,Inova Cardiac Diagnostics Services a Department of Inova Fairfax Hospital,38.865423,-77.238144,granted,8081 Innovation Park Drive,"6th Floor, Suite 600",Fairfax,VA,22031,USA,,,,echo,www.google.com/search?q=Inova+Cardiac+Diagnostics+Services+a+Department+of+Inova+Fairfax+Hospital,Inova Cardiac Diagnostics Services a Department of Inova Fairfax Hospital Fairfax,,,"Jun 30, 2023",Adult Transthoracic,,,,,,,,,,,,,,,,,,,,
154,155,Inova Cardiac Diagnostics Services a Department of Inova Fairfax Hospital,38.865423,-77.238144,granted,8081 Innovation Park Drive,"6th Floor, Suite 600",Fairfax,VA,22031,USA,,,,nuclear,www.google.com/search?q=Inova+Cardiac+Diagnostics+Services+a+Department+of+Inova+Fairfax+Hospital,Inova Cardiac Diagnostics Services a Department of Inova Fairfax Hospital Fairfax,,,,,,,"Jul 31, 2025",Myocardial Perfusion Imaging,,,,,,,,,,,,,,,,
155,156,Inova Cardiology - Healthplex - Fraconia-Springfild,38.769453,-77.157952,granted,6355 Walker Lane,Suite 406,Alexandria,VA,22310,USA,,,,nuclear,www.google.com/search?q=Inova+Cardiology+-+Healthplex+-+Fraconia-Springfild,Inova Cardiology - Healthplex - Fraconia-Springfild Alexandria,,,,,,,"Apr 30, 2025",Myocardial Perfusion Imaging,,,,,,,,,,,,,,,,
156,157,Inova Children’s Cardiology,38.865631,-77.232685,granted,8260 Willow Oaks Corporate Drive,Suite 400,Fairfax,VA,22031,USA,,,,pediatric_echo,www.google.com/search?q=Inova+Children’s+Cardiology,Inova Children’s Cardiology Fairfax,,,,,,,,,,,"Sep 30, 2023","Pediatric Transthoracic, Fetal",,,,,,,,,,,,
157,158,Inova Children’s Cardiology,38.635182,-77.285878,granted,2296 Opitz Blvd,Suite 280,Woodbridge,VA,22191,USA,,,,pediatric_echo,www.google.com/search?q=Inova+Children’s+Cardiology,Inova Children’s Cardiology Woodbridge,,,,,,,,,,,"Sep 30, 2023","Pediatric Transthoracic, Fetal",,,,,,,,,,,,
158,159,Inova Children’s Cardiology,38.828617,-77.110874,granted,3543 W Braddock Rd,Suite 400A,Alexandria,VA,22302,USA,,,,pediatric_echo,www.google.com/search?q=Inova+Children’s+Cardiology,Inova Children’s Cardiology Alexandria,,,,,,,,,,,"Sep 30, 2023","Pediatric Transthoracic, Fetal",,,,,,,,,,,,
159,160,Inova Children’s Cardiology,39.076402,-77.482304,granted,19500 Sandridge Way,Suite 150,Leesburg,VA,20176,USA,,,,pediatric_echo,www.google.com/search?q=Inova+Children’s+Cardiology,Inova Children’s Cardiology Leesburg,,,,,,,,,,,"Sep 30, 2023","Pediatric Transthoracic, Fetal",,,,,,,,,,,,
160,161,Inova Fair Oaks Hospital,38.882229,-77.382511,granted,3600 Joseph Siewick Drive,,Fairfax,VA,22033,USA,,,,echo,www.google.com/search?q=Inova+Fair+Oaks+Hospital,Inova Fair Oaks Hospital Fairfax,,,"Jul 31, 2024",Adult Transthoracic,,,,,,,,,,,,,,,,,,,,
161,162,Inova Fair Oaks Hospital Cardiac Diagnostic Services,38.886616,-77.380347,multigranted,3580 Joseph Siewick Drive,Suite 301,Fairfax,VA,22033,USA,,www.virginiaheart.com,,"nuclear, echo",,Inova Fair Oaks Hospital Cardiac Diagnostic Services Fairfax,,,"May 31, 2024","Adult Stress, Adult Transthoracic",,,"Dec 31, 2022","Equilibrium Radionuclide Angiography, Myocardial Perfusion Imaging",,,,,,,,,,,,,,,,
162,163,Inova Fairfax Hospital,38.863004,-77.227593,granted,3300 Gallows Road,IHVI- First Floor,Falls Church,VA,22046,USA,,,,pediatric_echo,www.google.com/search?q=Inova+Fairfax+Hospital,Inova Fairfax Hospital Falls Church,,,"Apr 30, 2025","Adult Stress, Adult Transesophageal, Adult Transthoracic",,,,,,,"Dec 31, 2023",Pediatric Transthoracic,,,,,,,,,,,,
163,164,Inova Fairfax Hospital Cardiac Diagnostic Services at Telestar,38.872523,-77.22396,multigranted,2901 Telestar Court,Suite 525,Falls Church,VA,22042,USA,,www.virginiaheart.com,,"nuclear, vascular, echo",,Inova Fairfax Hospital Cardiac Diagnostic Services at Telestar Falls Church,,,"May 31, 2024","Adult Stress, Adult Transthoracic",,,"Dec 31, 2022","Equilibrium Radionuclide Angiography, Myocardial Perfusion Imaging","Jan 31, 2024","Extracranial Cerebrovascular Testing, Peripheral Arterial Testing",,,,,,,,,,,,,,
164,165,"Inova Fairfax Hospital, Inova Fairfax Hospital for Children, Inova Heart and Vascular Institute",38.855599,-77.224265,granted,3300 Gallows Road,,Falls Church,VA,22042,USA,,,,vascular,"www.google.com/search?q=Inova+Fairfax+Hospital,+Inova+Fairfax+Hospital+for+Children,+Inova+Heart+and+Vascular+Institute","Inova Fairfax Hospital, Inova Fairfax Hospital for Children, Inova Heart and Vascular Institute Falls Church",,,,,,,,,"Feb 29, 2024","Extracranial Cerebrovascular Testing, Peripheral Arterial Testing, Peripheral Venous Testing, Visceral Vascular Testing",,,,,,,,,,,,,,
165,166,Inova Fairfax Medical Campus-Heart and Vascular Institute,38.855599,-77.224265,granted,3300 Gallows Road,,Falls Church,VA,22042,USA,,,,nuclear,www.google.com/search?q=Inova+Fairfax+Medical+Campus-Heart+and+Vascular+Institute,Inova Fairfax Medical Campus-Heart and Vascular Institute Falls Church,,,,,,,"Nov 30, 2024","Myocardial Perfusion Imaging, Other Cardiovascular Imaging",,,,,,,,,,,,,,,,
166,167,Inova Gainesville Vein and Vascular Center,38.803087,-77.599519,granted,13575 Heathcote Blvd.,Suite 200,Gainesville,VA,20155,USA,,,,echo,www.google.com/search?q=Inova+Gainesville+Vein+and+Vascular+Center,Inova Gainesville Vein and Vascular Center Gainesville,,,"Jun 30, 2023",Adult Transthoracic,,,,,,,,,,,,,,,,,,,,
167,168,INOVA Heart and Vascular Fairfax,38.857674,-77.225833,granted,3300 Gallows Rd.,,Falls Church,VA,22042,USA,,,,cardiac_electrophysiology,www.google.com/search?q=INOVA+Heart+and+Vascular+Fairfax,INOVA Heart and Vascular Fairfax Falls Church,,,,,,,,,,,,,,,,,,,"Nov 30, 2023","Testing and Ablation, Device Implantation, Chronic Lead Extraction, Left Atrial Appendage Occlusion",,,,
168,169,Inova Loudoun Hospital,39.073975,-77.474914,granted,44045 Riverside Pkwy.,,Leesburg,VA,20176,USA,,,,vascular,www.google.com/search?q=Inova+Loudoun+Hospital,Inova Loudoun Hospital Leesburg,,,,,,,,,"Aug 31, 2024","Extracranial Cerebrovascular Testing, Peripheral Arterial Testing, Peripheral Venous Testing, Visceral Vascular Testing",,,,,,,,,,,,,,
169,170,Inova Loudoun Hospital,39.073975,-77.474914,granted,44045 Riverside Parkway,Suite 120,Leesburg,VA,20176,USA,,,,echo,www.google.com/search?q=Inova+Loudoun+Hospital,Inova Loudoun Hospital Leesburg,,,"Aug 31, 2024",Adult Transthoracic,,,,,,,,,,,,,,,,,,,,
170,171,Inova Loudoun Hospital Cardiac Diagnostic Services,39.07708,-77.478132,multigranted,44035 Riverside Parkway,Suite 330 - 340,Leesburg,VA,20176,USA,,www.virginiaheart.com,,"nuclear, vascular, echo",,Inova Loudoun Hospital Cardiac Diagnostic Services Leesburg,,,"May 31, 2024","Adult Stress, Adult Transthoracic",,,"Dec 31, 2022","Equilibrium Radionuclide Angiography, Myocardial Perfusion Imaging","Jan 31, 2024","Extracranial Cerebrovascular Testing, Peripheral Arterial Testing",,,,,,,,,,,,,,
171,172,Inova Medical Group Cardiology Mount Vernon,38.737252,-77.077661,granted,8101 Hinson Farm Road,Suite 408,Alexandria,VA,22306,USA,,,,echo,www.google.com/search?q=Inova+Medical+Group+Cardiology+Mount+Vernon,Inova Medical Group Cardiology Mount Vernon Alexandria,,,"Oct 31, 2023",Adult Transthoracic,,,,,,,,,,,,,,,,,,,,
172,173,Inova Medical Group Cardiology Mount Vernon,38.632534,-77.28333,granted,14605 Potomac Branch Drive,Suite 210,Woodbridge,VA,22191,USA,,,,echo,www.google.com/search?q=Inova+Medical+Group+Cardiology+Mount+Vernon,Inova Medical Group Cardiology Mount Vernon Woodbridge,,,"Oct 31, 2023",Adult Transthoracic,,,,,,,,,,,,,,,,,,,,
173,174,Inova Medical Group Cardiology Mount Vernon,38.714575,-77.212477,granted,8988 Lorton Station Blvd,Suite 200,Lorton,VA,22079,USA,,,,echo,www.google.com/search?q=Inova+Medical+Group+Cardiology+Mount+Vernon,Inova Medical Group Cardiology Mount Vernon Lorton,,,"Oct 31, 2023",Adult Transthoracic,,,,,,,,,,,,,,,,,,,,
174,175,Inova Medical Group Cardiology Mount Vernon,38.767591,-77.161428,granted,6355 Walker Lane,Suite 406,Alexandria,VA,22310,USA,,,,echo,www.google.com/search?q=Inova+Medical+Group+Cardiology+Mount+Vernon,Inova Medical Group Cardiology Mount Vernon Alexandria,,,"Oct 31, 2023",Adult Transthoracic,,,,,,,,,,,,,,,,,,,,
175,176,Inova Mount Vernon Hospital,38.739993,-77.074637,granted,2501 Parkers Lane,Radiology Department,Alexandria,VA,22306,USA,,inova.org,,echo,,Inova Mount Vernon Hospital Alexandria,,,"Jun 30, 2023",Adult Transthoracic,,,,,,,,,,,,,,,,,,,,
176,177,Inova Vascular,38.886616,-77.380347,granted,3580 Joseph Siewick Dr. 401,,Fairfax,VA,22033,USA,,www.inova.org/inova-medical-group/adult-specialties/vascular-and-vein,,vascular,,Inova Vascular Fairfax,,,,,,,,,"Dec 31, 2022","Extracranial Cerebrovascular Testing, Peripheral Arterial Testing, Peripheral Venous Testing",,,,,,,,,,,,,,
177,178,Inova Vascular,38.872098,-77.223475,granted,8081 Innovation Park Drive,Suite 800,Fairfax,VA,22031,USA,,,,vascular,www.google.com/search?q=Inova+Vascular,Inova Vascular Fairfax,,,,,,,,,"Dec 31, 2022","Extracranial Cerebrovascular Testing, Peripheral Arterial Testing, Peripheral Venous Testing",,,,,,,,,,,,,,
178,179,Inova Vascular,38.781276,-77.516698,granted,8140 Ashton Ave,Suite 125,Manassass,VA,20109,USA,,www.inova.org/inova-medical-group/adult-specialties/vascular-and-vein,,vascular,,Inova Vascular Manassass,,,,,,,,,"Dec 31, 2022","Extracranial Cerebrovascular Testing, Peripheral Arterial Testing, Peripheral Venous Testing",,,,,,,,,,,,,,
179,180,"Javed Cardiac Center, PLLC",37.2450767,-81.2403619,granted,2003 Leatherwood Lane,,Bluefield,VA,24605,USA,,,,echo,"www.google.com/search?q=Javed+Cardiac+Center,+PLLC","Javed Cardiac Center, PLLC Bluefield",,,"Dec 31, 2022",Adult Transthoracic,,,,,,,,,,,,,,,,,,,,
180,181,"Javed Cardiac Center, PLLC",37.245244,-81.240552,granted,2003 Leatherwood Lane,,Bluefield,VA,24605,USA,,,,nuclear,"www.google.com/search?q=Javed+Cardiac+Center,+PLLC","Javed Cardiac Center, PLLC Bluefield",,,,,,,"Jan 31, 2023",Myocardial Perfusion Imaging,,,,,,,,,,,,,,,,
181,182,"Jefferson Surgical Clinic, Inc.",37.262053,-79.946602,granted,1234 Franklin Rd SW,,Roanoke,VA,24016,USA,,www.jeffersonsurgical.com,,vascular,,"Jefferson Surgical Clinic, Inc. Roanoke",,,,,,,,,"Oct 30, 2022 | Aug 31, 2025","Extracranial Cerebrovascular Testing, Peripheral Arterial Testing, Peripheral Venous Testing | Visceral Vascular Testing",,,,,,,,,,,,,,
182,183,Johnston Memorial Hospital,36.72067,-81.90856,granted,16000 Johnston Memorial Drive,,Abingdon,VA,24211,USA,,www.jmh.org,,echo,,Johnston Memorial Hospital Abingdon,,,"Oct 31, 2024",Adult Transthoracic,,,,,,,,,,,,,,,,,,,,
183,184,Johnston Memorial Hospital,36.72067,-81.90856,granted,16000 Johnston Memorial Drive,,Abingdon,VA,24211,USA,,,,nuclear,www.google.com/search?q=Johnston+Memorial+Hospital,Johnston Memorial Hospital Abingdon,,,,,,,"Nov 30, 2023",Positron Emission Tomography (PET),,,,,,,,,,,,,,,,
184,185,"Kaiser Foundation Health Plan of the Mid-Atlantic States, Inc., Northern Virginia Cardiology",38.928575,-77.224258,granted,8008 Westpark drive,,McLean,VA,22102,USA,,,,echo,"www.google.com/search?q=Kaiser+Foundation+Health+Plan+of+the+Mid-Atlantic+States,+Inc.,+Northern+Virginia+Cardiology","Kaiser Foundation Health Plan of the Mid-Atlantic States, Inc., Northern Virginia Cardiology McLean",,,"Mar 31, 2024",Adult Transthoracic,,,,,,,,,,,,,,,,,,,,
185,186,"Koslow and Associates, MD, LTD",38.767591,-77.161428,granted,6355 Walker Lane,Suite 303,Alexandria,VA,22310,USA,,koslowandassociates.com,,echo,,"Koslow and Associates, MD, LTD Alexandria",,,"May 31, 2024",Adult Transthoracic,,,,,,,,,,,,,,,,,,,,
186,187,Lewis Gale Medical Center,37.265106,-80.033158,multigranted,1900 Electric Road,,Salem,VA,24153,USA,,,,"echo, vascular",www.google.com/search?q=Lewis+Gale+Medical+Center,Lewis Gale Medical Center Salem,,,"Nov 30, 2022","Adult Stress, Adult Transesophageal, Adult Transthoracic",,,,,"Jul 31, 2023","Extracranial Cerebrovascular Testing, Peripheral Arterial Testing, Peripheral Venous Testing",,,,,,,,,,,,,,
187,188,Lewis Gale Physicians Heart of Virginia Cardiology,37.233788,-80.021207,granted,2762 Electric Road,Suite A,Roanoke,VA,24018,USA,,lgphysicians.com,,echo,,Lewis Gale Physicians Heart of Virginia Cardiology Roanoke,,,"Feb 28, 2025",Adult Transthoracic,,,,,,,,,,,,,,,,,,,,
188,189,LewisGale Hospital Alleghany,37.791317,-79.882334,granted,1 Arh Lane,PO Box 7,Low Moor,VA,24457,USA,,,,vascular,www.google.com/search?q=LewisGale+Hospital+Alleghany,LewisGale Hospital Alleghany Low Moor,,,,,,,,,"Oct 31, 2024","Extracranial Cerebrovascular Testing, Peripheral Venous Testing",,,,,,,,,,,,,,
189,190,Loudoun Cardiology PLC,38.940688,-77.544649,multigranted,24430 Stone Springs Blvd Suite 500,,Dulles,VA,20166,USA,,,,"nuclear, echo",www.google.com/search?q=Loudoun+Cardiology+PLC,Loudoun Cardiology PLC Dulles,,,"Jun 30, 2024",Adult Transthoracic,,,"May 31, 2024",Myocardial Perfusion Imaging,,,,,,,,,,,,,,,,
190,191,Loudoun Medical Group,39.07449,-77.475178,granted,44055 Riverside Parkway,Suite 116,Leesburg,VA,20176,USA,,,,echo,www.google.com/search?q=Loudoun+Medical+Group,Loudoun Medical Group Leesburg,,,"May 31, 2024",Adult Transthoracic,,,,,,,,,,,,,,,,,,,,
191,192,"M. Rafiq Zaheer, MD, FACC",38.859238,-77.126954,multigranted,611 S. Carlin Springs Road,Suite 201,Arlington,VA,22204,USA,,,,"nuclear, echo","www.google.com/search?q=M.+Rafiq+Zaheer,+MD,+FACC","M. Rafiq Zaheer, MD, FACC Arlington",,,"Jun 30, 2024",Adult Transthoracic,,,"May 31, 2024",Myocardial Perfusion Imaging,,,,,,,,,,,,,,,,
192,193,"Mariano D. Chutuape, M.D., LLC",38.634533,-77.274309,granted,2010 C Opitz Blvd,,Woodbridge,VA,22191,USA,,,,echo,"www.google.com/search?q=Mariano+D.+Chutuape,+M.D.,+LLC","Mariano D. Chutuape, M.D., LLC Woodbridge",,,"Nov 30, 2024",Adult Transthoracic,,,,,,,,,,,,,,,,,,,,
193,194,Martinsville Family Medicine,36.653508,-79.874956,granted,2696 Greensboro Rd.,,Martinsville,VA,24112,USA,,,,vascular,www.google.com/search?q=Martinsville+Family+Medicine,Martinsville Family Medicine Martinsville,,,,,,,,,"Oct 31, 2023","Extracranial Cerebrovascular Testing, Peripheral Arterial Testing",,,,,,,,,,,,,,
194,195,Martinsville Family Medicine,36.653508,-79.874956,granted,2696 Greensboro Rd.,,Martinsville,VA,24112,USA,,,,echo,www.google.com/search?q=Martinsville+Family+Medicine,Martinsville Family Medicine Martinsville,,,"May 31, 2024",Adult Transthoracic,,,,,,,,,,,,,,,,,,,,
195,196,Mary Washington Hospital Echocardiography Laboratory,38.310137,-77.482025,granted,1001 Sam Perry Boulevard,,Fredericksburg,VA,22401,USA,,,,echo,www.google.com/search?q=Mary+Washington+Hospital+Echocardiography+Laboratory,Mary Washington Hospital Echocardiography Laboratory Fredericksburg,,,"Jan 31, 2025",Adult Transthoracic,,,,,,,,,,,,,,,,,,,,
196,197,MCV Physicians at Colonial Square,37.268175,-77.411768,granted,2905 Boulevard,,Colonial Heights,VA,23834,USA,,,,echo,www.google.com/search?q=MCV+Physicians+at+Colonial+Square,MCV Physicians at Colonial Square Colonial Heights,,,"Apr 30, 2023",Adult Transthoracic,,,,,,,,,,,,,,,,,,,,
197,198,MCV Physicians in the Park at Stony Point,37.552264,-77.566174,granted,9000 Stony Point Parkway,,Richmond,VA,23235,USA,,,,echo,www.google.com/search?q=MCV+Physicians+in+the+Park+at+Stony+Point,MCV Physicians in the Park at Stony Point Richmond,,,"Mar 31, 2025",Adult Transthoracic,,,,,,,,,,,,,,,,,,,,
198,199,Mechanicsville Medical Center,37.601648,-77.369466,granted,7571 Cold Harbor Road,,Mechanicsville,VA,23111,USA,,,,vascular,www.google.com/search?q=Mechanicsville+Medical+Center,Mechanicsville Medical Center Mechanicsville,,,,,,,,,"Oct 31, 2023","Extracranial Cerebrovascular Testing, Peripheral Arterial Testing",,,,,,,,,,,,,,
199,200,Memorial Regional Medical Center,37.629352,-77.388102,granted,8260 Atlee Road,#2029,Mechanicsville,VA,23116,USA,,,,echo,www.google.com/search?q=Memorial+Regional+Medical+Center,Memorial Regional Medical Center Mechanicsville,,,"Nov 29, 2022",Adult Transthoracic,,,,,,,,,,,,,,,,,,,,
200,201,Middlebrook Family Medicine,37.927728,-79.228986,granted,60 Commerce Park Drive,,Raphine,VA,24472,USA,,middlebrookfamilymedicine.com,,vascular,,Middlebrook Family Medicine Raphine,,,,,,,,,"Oct 31, 2023","Extracranial Cerebrovascular Testing, Peripheral Arterial Testing",,,,,,,,,,,,,,
201,202,Middlebrook Family Medicine,37.927728,-79.228986,granted,60 Commerce Park Dr.,,Raphine,VA,24472,USA,,,,echo,www.google.com/search?q=Middlebrook+Family+Medicine,Middlebrook Family Medicine Raphine,,,"May 31, 2024",Adult Transthoracic,,,,,,,,,,,,,,,,,,,,
202,203,Midlothian Family Practice,37.502519,-77.646057,granted,13332 Midlothian Turnpike,,Midlothian,VA,23113,USA,,vaphysicians.com/MidlothianFamilyPractice/MidlothianFamilyPractice.html,,echo,,Midlothian Family Practice Midlothian,,,"May 31, 2024",Adult Transthoracic,,,,,,,,,,,,,,,,,,,,
203,204,Midlothian Family Practice,37.502519,-77.646057,granted,13332 Midlothian Turnpike,,Midlothian,VA,23113,USA,,www.vaphysicians.com/MidlothianFamilyPractice/MidlothianFamilyPractice.html,,vascular,,Midlothian Family Practice Midlothian,,,,,,,,,"Oct 31, 2023","Extracranial Cerebrovascular Testing, Peripheral Arterial Testing",,,,,,,,,,,,,,
204,205,Morris Cardiovascular and Risk Reduction Center,37.347653,-77.358179,granted,228 Johnson Creek Drive,,Chester,VA,28336,USA,,,,nuclear,www.google.com/search?q=Morris+Cardiovascular+and+Risk+Reduction+Center,Morris Cardiovascular and Risk Reduction Center Chester,,,,,,,"Feb 29, 2024",Myocardial Perfusion Imaging,,,,,,,,,,,,,,,,
205,206,Morris Cardiovascular and Risk Reduction Center,37.348564,-77.356731,granted,228 Johnson Creek Drive,,Chester,VA,23836,USA,,,,echo,www.google.com/search?q=Morris+Cardiovascular+and+Risk+Reduction+Center,Morris Cardiovascular and Risk Reduction Center Chester,,,"Oct 31, 2023",Adult Transthoracic,,,,,,,,,,,,,,,,,,,,
206,207,Mountcastle Vein Institute and Vascular Laboratory,39.022303,-77.475863,multigranted,44095 Pipeline Plaza Suite 430,,Ashburn,VA,20147,USA,,WWW.VEIN-CURE.COM,,"vein_center, vascular",,Mountcastle Vein Institute and Vascular Laboratory Ashburn,,,,,,,,,"Nov 30, 2023",Peripheral Venous Testing,,,,,,,"Sep 30, 2022",Superficial Venous Evaluation and Management,,,,,,
207,208,Navy Medical Center Portsmouth,36.843172,-76.304975,granted,620 John Paul Jones Circle,,Portsmouth,VA,23708,USA,,,,vascular,www.google.com/search?q=Navy+Medical+Center+Portsmouth,Navy Medical Center Portsmouth Portsmouth,,,,,,,,,"Jul 31, 2024","Extracranial Cerebrovascular Testing, Peripheral Arterial Testing, Peripheral Venous Testing, Visceral Vascular Testing",,,,,,,,,,,,,,
208,209,"Neuroscience Consultants, PLC",38.943638,-77.317603,granted,1830 Town Center Drive,Suite 410,Reston,VA,20190,USA,,,,vascular,"www.google.com/search?q=Neuroscience+Consultants,+PLC","Neuroscience Consultants, PLC Reston",,,,,,,,,"Dec 31, 2022","Extracranial Cerebrovascular Testing, Intracranial Cerebrovascular Testing",,,,,,,,,,,,,,
209,210,New River Valley Heart Clinic,37.08894,-80.506786,granted,401 East Main Street,,Radford,VA,24141,USA,,,,vascular,www.google.com/search?q=New+River+Valley+Heart+Clinic,New River Valley Heart Clinic Radford,,,,,,,,,"Jan 31, 2023","Extracranial Cerebrovascular Testing, Peripheral Arterial Testing",,,,,,,,,,,,,,
210,211,New River Valley Heart Clinic,37.08894,-80.506786,granted,401 East Main Street,,Radford,VA,24141,USA,,,,echo,www.google.com/search?q=New+River+Valley+Heart+Clinic,New River Valley Heart Clinic Radford,,,"Nov 30, 2024",Adult Transthoracic,,,,,,,,,,,,,,,,,,,,
211,212,Northern Virginia Regional Outpatient Center,38.867817,-77.236574,granted,"3023 Hamaker Court, Suite 300",,Fairfax,VA,22031,USA,,,,pediatric_echo,www.google.com/search?q=Northern+Virginia+Regional+Outpatient+Center,Northern Virginia Regional Outpatient Center Fairfax,,,,,,,,,,,"Jul 31, 2023","Pediatric Transthoracic, Fetal",,,,,,,,,,,,
212,213,Novant Health UVA Health System Prince William Cardiology,38.769623,-77.49073,granted,"8640 Sudley Road, Ste. 302",,Manassas,VA,20110,USA,,www.pwcardiology.com/,,nuclear,,Novant Health UVA Health System Prince William Cardiology Manassas,,,,,,,"Apr 30, 2024",Myocardial Perfusion Imaging,,,,,,,,,,,,,,,,
213,214,Oracle Heart and Vascular,38.309021,-77.488054,granted,1011 Care Way,Suite 200,Fredericksburg,VA,22401,USA,,,,echo,www.google.com/search?q=Oracle+Heart+and+Vascular,Oracle Heart and Vascular Fredericksburg,,,"Jul 31, 2024",Adult Transthoracic,,,,,,,,,,,,,,,,,,,,
214,215,Page Memorial Hospital,38.662482,-78.469864,granted,200 Memorial Drive,,Luray,VA,22835,USA,,www.valleyhealthlink.com/Our-Locations/Hospitals/Page-Memorial-Hospital.aspx,,vascular,,Page Memorial Hospital Luray,,,,,,,,,"Apr 30, 2025",Extracranial Cerebrovascular Testing,,,,,,,,,,,,,,
215,216,Panhandle Cardiology and Vascular Medicine,39.473703,-77.970654,granted,120 Campus Blvd,Suite 201,Martinsburg,VA,25404,USA,,,,echo,www.google.com/search?q=Panhandle+Cardiology+and+Vascular+Medicine,Panhandle Cardiology and Vascular Medicine Martinsburg,,,"Jul 31, 2024",Adult Transthoracic,,,,,,,,,,,,,,,,,,,,
216,217,Parham Doctors Hospital,37.63023,-77.525961,granted,7700 East Parham Road,,Richmond,VA,23294,USA,,,,vascular,www.google.com/search?q=Parham+Doctors+Hospital,Parham Doctors Hospital Richmond,,,,,,,,,"Nov 30, 2023","Extracranial Cerebrovascular Testing, Peripheral Venous Testing",,,,,,,,,,,,,,
217,218,Potomac Cardiovascular Consultants,38.634533,-77.274309,granted,2010 C Opitz Blvd,,Woodbridge,VA,22191,USA,,,,nuclear,www.google.com/search?q=Potomac+Cardiovascular+Consultants,Potomac Cardiovascular Consultants Woodbridge,,,,,,,"Jul 31, 2025",Myocardial Perfusion Imaging,,,,,,,,,,,,,,,,
218,219,Prince William Cardiology Associates,38.769089,-77.488955,granted,8640 Sudley Road,Suite 302,Manassas,VA,20110,USA,,,,vascular,www.google.com/search?q=Prince+William+Cardiology+Associates,Prince William Cardiology Associates Manassas,,,,,,,,,"Jul 31, 2024",Extracranial Cerebrovascular Testing,,,,,,,,,,,,,,
219,220,Richmond Cardiology Associates - MRMC,37.625914,-77.386624,multigranted,8243 Meadowbridge Road,,Mechanicsville,VA,23116,USA,,www.richmondcardiology.com,,"vascular, echo",,Richmond Cardiology Associates - MRMC Mechanicsville,,,"Aug 31, 2023","Adult Stress, Adult Transthoracic",,,,,"May 31, 2023",Peripheral Venous Testing,,,,,,,,,,,,,,
220,221,Richmond Surgical Group Vascular Laboratory,37.605161,-77.54124,granted,7611 Forest Ave 206,,Richmond,VA,23229,USA,,,,vascular,www.google.com/search?q=Richmond+Surgical+Group+Vascular+Laboratory,Richmond Surgical Group Vascular Laboratory Richmond,,,,,,,,,"Jun 30, 2025","Extracranial Cerebrovascular Testing, Peripheral Arterial Testing, Peripheral Venous Testing",,,,,,,,,,,,,,
221,222,Riverside Cardiology Specialists Williamsburg,37.333975,-76.735089,granted,117 Bulifants Boulevard,Suite B,Williamsburg,VA,23188,USA,,,,nuclear,www.google.com/search?q=Riverside+Cardiology+Specialists+Williamsburg,Riverside Cardiology Specialists Williamsburg Williamsburg,,,,,,,"Nov 30, 2022",Myocardial Perfusion Imaging,,,,,,,,,,,,,,,,
222,223,Riverside Diagnostic Center Hampton,37.058632,-76.405133,granted,850 Enterprise Parkway,Suite 1500,Hampton,VA,23666,USA,,,,echo,www.google.com/search?q=Riverside+Diagnostic+Center+Hampton,Riverside Diagnostic Center Hampton Hampton,,,"May 31, 2025",Adult Transthoracic,,,,,,,,,,,,,,,,,,,,
223,224,Riverside Doctors Hospital  Williamsburg,37.251622,-76.666875,granted,1500 Commonwealth Ave,,Williamsburg,VA,23185,USA,,,,echo,www.google.com/search?q=Riverside+Doctors+Hospital++Williamsburg,Riverside Doctors Hospital  Williamsburg Williamsburg,,,"Nov 30, 2023",Adult Transthoracic,,,,,,,,,,,,,,,,,,,,
224,225,"Riverside Hospital, Inc dba Riverside Cardiology Specialists-Port Warwick",37.048125,-76.395156,granted,11803 Jefferson Avenue,Suite 110,Newport News,VA,23606,USA,,,,nuclear,"www.google.com/search?q=Riverside+Hospital,+Inc+dba+Riverside+Cardiology+Specialists-Port+Warwick","Riverside Hospital, Inc dba Riverside Cardiology Specialists-Port Warwick Newport News",,,,,,,"Dec 31, 2024",Myocardial Perfusion Imaging,,,,,,,,,,,,,,,,
225,226,Riverside Regional Medical Center,37.06389,-76.4854,granted,500 J. Clyde Morris Boulevard,,Newport News,VA,23601,USA,,www.riversideonline.com,,vascular,,Riverside Regional Medical Center Newport News,,,,,,,,,"Sep 30, 2023","Extracranial Cerebrovascular Testing, Peripheral Arterial Testing, Peripheral Venous Testing",,,,,,,,,,,,,,
226,227,Riverside Regional Medical Center,37.06389,-76.4854,granted,500 J. Clyde Morris Boulevard,,Newport News,VA,23601,USA,,,,echo,www.google.com/search?q=Riverside+Regional+Medical+Center,Riverside Regional Medical Center Newport News,,,"May 31, 2025",Adult Transthoracic,,,,,,,,,,,,,,,,,,,,
227,228,Riverside Shore Memorial Hospital,37.699712,-75.720937,granted,20480 Market Street,P O Box 430,Onancock,VA,23417,USA,,,,echo,www.google.com/search?q=Riverside+Shore+Memorial+Hospital,Riverside Shore Memorial Hospital Onancock,,,"Jan 31, 2023","Adult Stress, Adult Transthoracic",,,,,,,,,,,,,,,,,,,,
228,229,Riverside Shore Memorial Hospital Peripheral Vascular Lab,37.475173,-75.862542,granted,20480 Market St.,,Onancock,VA,23417,USA,,shorehealthservices.org,,vascular,,Riverside Shore Memorial Hospital Peripheral Vascular Lab Onancock,,,,,,,,,"Mar 31, 2025","Extracranial Cerebrovascular Testing, Peripheral Arterial Testing, Peripheral Venous Testing, Visceral Vascular Testing",,,,,,,,,,,,,,
229,230,Riverside Vascular Specialists,37.258998,-76.741707,granted,120 Kings Way,Suite 2600,Williamsburg,VA,23185,USA,,,,vascular,www.google.com/search?q=Riverside+Vascular+Specialists,Riverside Vascular Specialists Williamsburg,,,,,,,,,"Sep 30, 2023","Extracranial Cerebrovascular Testing, Peripheral Arterial Testing",,,,,,,,,,,,,,
230,231,Roanoke Heart Institute PLC,37.250558,-79.947309,granted,"201 McClanahan Street, Southwest",PO Box 8337,Roanoke,VA,24014,USA,,roanokeheart.net,,echo,,Roanoke Heart Institute PLC Roanoke,,,"Jan 31, 2023","Adult Stress, Adult Transthoracic",,,,,,,,,,,,,,,,,,,,
231,232,Roanoke Heart Institute PLC,37.250558,-79.947309,granted,"201 McClanahan Street, SW",PO Box 8337,Roanoke,VA,24014,USA,,roanokeheart.net,,nuclear,,Roanoke Heart Institute PLC Roanoke,,,,,,,"Jan 31, 2023",Myocardial Perfusion Imaging,,,,,,,,,,,,,,,,
232,233,Rockingham Memorial Hospital,38.405098,-78.858865,granted,2010 Health Campus Drive,,Harrisonburg,VA,22801,USA,,sentara.com,,vascular,,Rockingham Memorial Hospital Harrisonburg,,,,,,,,,"May 31, 2023","Extracranial Cerebrovascular Testing, Peripheral Arterial Testing, Peripheral Venous Testing, Visceral Vascular Testing",,,,,,,,,,,,,,
233,234,Selma Medical Associates Inc.,39.187838,-78.172929,granted,104 Selma Drive,,Winchester,VA,22601,USA,,,,nuclear,www.google.com/search?q=Selma+Medical+Associates+Inc.,Selma Medical Associates Inc. Winchester,,,,,,,"May 31, 2024",Myocardial Perfusion Imaging,,,,,,,,,,,,,,,,
234,235,"Selma Medical Associates, Inc",39.187838,-78.172929,multigranted,104 Selma Drive,,Winchester,VA,22601,USA,,,,"echo, vascular","www.google.com/search?q=Selma+Medical+Associates,+Inc","Selma Medical Associates, Inc Winchester",,,"Feb 29, 2024",Adult Transthoracic,,,,,"Apr 30, 2025",Extracranial Cerebrovascular Testing,,,,,,,,,,,,,,
235,236,Sentara Belle Harbour PVL,36.862828,-76.449075,granted,3920 A Bridge Road,,Suffolk,VA,23435,USA,,,,vascular,www.google.com/search?q=Sentara+Belle+Harbour+PVL,Sentara Belle Harbour PVL Suffolk,,,,,,,,,"Sep 30, 2024","Extracranial Cerebrovascular Testing, Peripheral Arterial Testing, Peripheral Venous Testing",,,,,,,,,,,,,,
236,237,Sentara BelleHarbour,36.863326,-76.480332,granted,3290 A Bridge Rd,,Suffolk,VA,23435,USA,,,,echo,www.google.com/search?q=Sentara+BelleHarbour,Sentara BelleHarbour Suffolk,,,"Sep 30, 2024","Adult Stress, Adult Transthoracic",,,,,,,,,,,,,,,,,,,,
237,238,Sentara Cardiology Specialists,36.866125,-76.029419,granted,1101 First Colonial Road- Suite 300,,Virginia Beach,VA,23454,USA,,,,vascular,www.google.com/search?q=Sentara+Cardiology+Specialists,Sentara Cardiology Specialists Virginia Beach,,,,,,,,,"Jan 31, 2025","Extracranial Cerebrovascular Testing, Peripheral Arterial Testing, Peripheral Venous Testing, Visceral Vascular Testing",,,,,,,,,,,,,,
238,239,Sentara Cardiology Specialists,36.859708,-76.306234,granted,301 Riverview Ave,Suite 700,Norfolk,VA,23510,USA,,,,echo,www.google.com/search?q=Sentara+Cardiology+Specialists,Sentara Cardiology Specialists Norfolk,,,"Sep 30, 2024","Adult Stress, Adult Transthoracic",,,,,,,,,,,,,,,,,,,,
239,240,Sentara Cardiology Specialists,36.774965,-76.096132,granted,2075 Glen Mitchell Drive,Suite 400,Virginia Beach,VA,23456,USA,,,,echo,www.google.com/search?q=Sentara+Cardiology+Specialists,Sentara Cardiology Specialists Virginia Beach,,,"Sep 30, 2024","Adult Stress, Adult Transthoracic",,,,,,,,,,,,,,,,,,,,
240,241,Sentara Cardiology Specialists,36.851608,-76.191994,granted,844 Kempsville Road,Suite 204,Norfolk,VA,23502,USA,,,,echo,www.google.com/search?q=Sentara+Cardiology+Specialists,Sentara Cardiology Specialists Norfolk,,,"Sep 30, 2024","Adult Stress, Adult Transthoracic",,,,,,,,,,,,,,,,,,,,
241,242,Sentara Cardiology Specialists,36.767426,-76.234563,granted,713 Volvo Parkway,Suite 200,Chesapeake,VA,23320,USA,,,,echo,www.google.com/search?q=Sentara+Cardiology+Specialists,Sentara Cardiology Specialists Chesapeake,,,"Sep 30, 2024","Adult Stress, Adult Transthoracic",,,,,,,,,,,,,,,,,,,,
242,243,Sentara Cardiology Specialists,36.744192,-76.248714,granted,300 Medical Parkway,Suite 120,Chesapeake,VA,23320,USA,,,,nuclear,www.google.com/search?q=Sentara+Cardiology+Specialists,Sentara Cardiology Specialists Chesapeake,,,,,,,"Sep 30, 2023","Equilibrium Radionuclide Angiography, Myocardial Perfusion Imaging",,,,,,,,,,,,,,,,
243,244,Sentara Cardiology Specialists,36.851608,-76.191994,granted,844 Kempsville Road,#204,Norfolk,VA,23502,USA,,,,nuclear,www.google.com/search?q=Sentara+Cardiology+Specialists,Sentara Cardiology Specialists Norfolk,,,,,,,"Sep 30, 2023","Equilibrium Radionuclide Angiography, Myocardial Perfusion Imaging",,,,,,,,,,,,,,,,
244,245,Sentara Cardiology Specialists,36.859708,-76.306234,granted,301 Riverview Ave.,Suite 700,Norfolk,VA,23510,USA,,,,nuclear,www.google.com/search?q=Sentara+Cardiology+Specialists,Sentara Cardiology Specialists Norfolk,,,,,,,"Sep 30, 2023","Equilibrium Radionuclide Angiography, Myocardial Perfusion Imaging",,,,,,,,,,,,,,,,
245,246,Sentara Cardiology Specialists,36.851608,-76.191994,granted,"844 Kempsville Road, Suite 204",,Norfolk,VA,23502,USA,,,,vascular,www.google.com/search?q=Sentara+Cardiology+Specialists,Sentara Cardiology Specialists Norfolk,,,,,,,,,"Jan 31, 2025","Extracranial Cerebrovascular Testing, Peripheral Arterial Testing, Peripheral Venous Testing, Visceral Vascular Testing",,,,,,,,,,,,,,
246,247,Sentara Cardiology Specialists  Virginia Beach,36.86616,-76.029434,granted,1101 First Colonial Road,Suite 300,Virginia Beach,VA,23454,USA,,,,echo,www.google.com/search?q=Sentara+Cardiology+Specialists++Virginia+Beach,Sentara Cardiology Specialists  Virginia Beach Virginia Beach,,,"Sep 30, 2024","Adult Stress, Adult Transthoracic",,,,,,,,,,,,,,,,,,,,
247,248,Sentara Cardiology Specialists -Suffolk,36.761396,-76.59533,granted,2790 Godwin Blvd.,Suite 100,Suffolk,VA,23434,USA,,,,echo,www.google.com/search?q=Sentara+Cardiology+Specialists+-Suffolk,Sentara Cardiology Specialists -Suffolk Suffolk,,,"Sep 30, 2024","Adult Stress, Adult Transthoracic",,,,,,,,,,,,,,,,,,,,
248,249,Sentara CarePlex Hospital,37.056448,-76.392362,granted,3000 Coliseum Dr.,,Hampton,VA,23666,USA,,,,echo,www.google.com/search?q=Sentara+CarePlex+Hospital,Sentara CarePlex Hospital Hampton,,,"Sep 30, 2024","Adult Stress, Adult Transesophageal, Adult Transthoracic",,,,,,,,,,,,,,,,,,,,
249,250,Sentara Careplex Hospital,37.056448,-76.392362,granted,3000 Coliseum Drive,,Hampton,VA,23666,USA,,,,vascular,www.google.com/search?q=Sentara+Careplex+Hospital,Sentara Careplex Hospital Hampton,,,,,,,,,"Jul 31, 2025","Extracranial Cerebrovascular Testing, Peripheral Arterial Testing, Peripheral Venous Testing, Visceral Vascular Testing",,,,,,,,,,,,,,
250,251,Sentara Fort Norfolk Diagnostic Center,36.859708,-76.306234,granted,301 Riverview Avenue,,Norfolk,VA,23510,USA,,,,vascular,www.google.com/search?q=Sentara+Fort+Norfolk+Diagnostic+Center,Sentara Fort Norfolk Diagnostic Center Norfolk,,,,,,,,,"Sep 30, 2024","Extracranial Cerebrovascular Testing, Peripheral Arterial Testing, Peripheral Venous Testing, Visceral Vascular Testing",,,,,,,,,,,,,,
251,252,Sentara Greenbrier Advanced Imaging Center Peripheral Vascular Laboratory,36.767426,-76.234563,granted,713 Volvo Parkway Suite 105,,Chesapeake,VA,23320,USA,,,,vascular,www.google.com/search?q=Sentara+Greenbrier+Advanced+Imaging+Center+Peripheral+Vascular+Laboratory,Sentara Greenbrier Advanced Imaging Center Peripheral Vascular Laboratory Chesapeake,,,,,,,,,"Sep 30, 2024","Extracranial Cerebrovascular Testing, Peripheral Arterial Testing, Peripheral Venous Testing, Visceral Vascular Testing",,,,,,,,,,,,,,
252,253,Sentara Halifax Regional Hospital,36.713485,-78.913198,granted,2204 Wilborn Ave.,,South Boston,VA,24592,USA,,www.hrhs.org,,echo,,Sentara Halifax Regional Hospital South Boston,,,"Sep 30, 2024","Adult Transesophageal, Adult Transthoracic",,,,,,,,,,,,,,,,,,,,
253,254,Sentara Halifax Regional Hospital,36.713485,-78.913198,granted,2204 Wilborn Avenue,,South Boston,VA,24592,USA,,www.HRHS.org,,nuclear,,Sentara Halifax Regional Hospital South Boston,,,,,,,"Oct 30, 2022","Equilibrium Radionuclide Angiography, General Nuclear Medicine, Myocardial Perfusion Imaging",,,,,,,,,,,,,,,,
254,255,Sentara Halifax Regional Hospital,36.713485,-78.913198,granted,2204 Wilborn Avenue,,South Boston,VA,24592,USA,,www.hrhs.org/index.html,,vascular,,Sentara Halifax Regional Hospital South Boston,,,,,,,,,"Aug 31, 2025","Extracranial Cerebrovascular Testing, Peripheral Venous Testing",,,,,,,,,,,,,,
255,256,Sentara Heart Hospital,36.859728,-76.30482,granted,600 Gresham Drive,,Norfolk,VA,23507,USA,,,,echo,www.google.com/search?q=Sentara+Heart+Hospital,Sentara Heart Hospital Norfolk,,,"Sep 30, 2024","Adult Stress, Adult Transesophageal, Adult Transthoracic",,,,,,,,,,,,,,,,,,,,
256,257,Sentara Independence,36.865766,-76.132154,granted,800 Independence Blvd,,Virginia Beach,VA,23455,USA,,,,echo,www.google.com/search?q=Sentara+Independence,Sentara Independence Virginia Beach,,,"Sep 30, 2024",Adult Transthoracic,,,,,,,,,,,,,,,,,,,,
257,258,Sentara Independence PVL,36.865766,-76.132154,granted,800 Independence Boulevard,,Virginia Beach,VA,23455,USA,,,,vascular,www.google.com/search?q=Sentara+Independence+PVL,Sentara Independence PVL Virginia Beach,,,,,,,,,"Sep 30, 2024","Extracranial Cerebrovascular Testing, Peripheral Arterial Testing, Peripheral Venous Testing",,,,,,,,,,,,,,
258,259,Sentara Leigh Hospital,36.850592,-76.191695,granted,830 Kempsville Road,,Norfolk,VA,23502,USA,,,,echo,www.google.com/search?q=Sentara+Leigh+Hospital,Sentara Leigh Hospital Norfolk,,,"Sep 30, 2024","Adult Stress, Adult Transesophageal, Adult Transthoracic",,,,,,,,,,,,,,,,,,,,
259,260,Sentara Leigh Hospital PVL,36.850592,-76.191695,granted,830 Kempsville Road,,Norfolk,VA,23502,USA,,,,vascular,www.google.com/search?q=Sentara+Leigh+Hospital+PVL,Sentara Leigh Hospital PVL Norfolk,,,,,,,,,"Sep 30, 2024","Extracranial Cerebrovascular Testing, Peripheral Arterial Testing, Peripheral Venous Testing, Visceral Vascular Testing",,,,,,,,,,,,,,
260,261,Sentara Martha Jefferson Hospital,38.025112,-78.44486,granted,500 Martha Jefferson Drive,,Charlottesville,VA,22911,USA,,,,vascular,www.google.com/search?q=Sentara+Martha+Jefferson+Hospital,Sentara Martha Jefferson Hospital Charlottesville,,,,,,,,,"Dec 31, 2024","Extracranial Cerebrovascular Testing, Peripheral Arterial Testing, Peripheral Venous Testing, Visceral Vascular Testing",,,,,,,,,,,,,,
261,262,Sentara Martha Jefferson Hospital,38.025106,-78.444855,granted,500 Martha Jefferson Drive,,Charlottesville,VA,22911,USA,,,,cardiac_electrophysiology,www.google.com/search?q=Sentara+Martha+Jefferson+Hospital,Sentara Martha Jefferson Hospital Charlottesville,,,,,,,,,,,,,,,,,,,"Jan 31, 2024","Testing and Ablation, Device Implantation",,,,
262,263,Sentara Martha Jefferson Hospital,38.025106,-78.444855,granted,500 Martha Jefferson Drive,,Charlottesville,VA,22911,USA,,,,nuclear,www.google.com/search?q=Sentara+Martha+Jefferson+Hospital,Sentara Martha Jefferson Hospital Charlottesville,,,,,,,"Sep 30, 2023","Equilibrium Radionuclide Angiography, Myocardial Perfusion Imaging",,,,,,,,,,,,,,,,
263,264,Sentara Martha Jefferson Hospital,38.025112,-78.44486,granted,500 Martha Jefferson Drive,,Charlottesville,VA,22911,USA,,,,echo,www.google.com/search?q=Sentara+Martha+Jefferson+Hospital,Sentara Martha Jefferson Hospital Charlottesville,,,"Sep 30, 2024","Adult Stress, Adult Transesophageal, Adult Transthoracic",,,,,,,,,,,,,,,,,,,,
264,265,Sentara Martha Jefferson Vascular and Vein Center,38.027266,-78.438451,granted,595 Martha Jefferson Dr.,Suite 270,Charlottesville,VA,22911,USA,,www.sentaravascularandveincenter,,vein_center,,Sentara Martha Jefferson Vascular and Vein Center Charlottesville,,,,,,,,,,,,,,,,,"May 31, 2024",Superficial Venous Evaluation and Management,,,,,,
265,266,Sentara Norfolk General PVL,36.859728,-76.30482,granted,600 Gresham Drive,,Norfolk,VA,23507,USA,,,,vascular,www.google.com/search?q=Sentara+Norfolk+General+PVL,Sentara Norfolk General PVL Norfolk,,,,,,,,,"Sep 30, 2024","Extracranial Cerebrovascular Testing, Intracranial Cerebrovascular Testing, Peripheral Arterial Testing, Peripheral Venous Testing, Visceral Vascular Testing",,,,,,,,,,,,,,
266,267,Sentara Northern VA Medical Center,38.634953,-77.284211,granted,2300 Opitz Boulevard,,Woodbridge,VA,22191,USA,,SENTARA.COM,,echo,,Sentara Northern VA Medical Center Woodbridge,,,"Sep 30, 2024","Adult Transesophageal, Adult Transthoracic",,,,,,,,,,,,,,,,,,,,
267,268,Sentara Northern Virginia Medical Center,38.634953,-77.284211,granted,2300 Opitz Blvd.,,Woodbridge,VA,22191,USA,,,,vascular,www.google.com/search?q=Sentara+Northern+Virginia+Medical+Center,Sentara Northern Virginia Medical Center Woodbridge,,,,,,,,,"Jul 31, 2025","Extracranial Cerebrovascular Testing, Peripheral Arterial Testing, Visceral Vascular Testing",,,,,,,,,,,,,,
268,269,Sentara Obici Hospital,36.773058,-76.583413,granted,2800 Godwin Blvd,,Suffolk,VA,23434,USA,,,,echo,www.google.com/search?q=Sentara+Obici+Hospital,Sentara Obici Hospital Suffolk,,,"Sep 30, 2024","Adult Stress, Adult Transesophageal, Adult Transthoracic",,,,,,,,,,,,,,,,,,,,
269,270,Sentara Obici Hospital,36.773058,-76.583413,granted,2800 Godwin Blvd,,Suffolk,VA,23434,USA,,,,vascular,www.google.com/search?q=Sentara+Obici+Hospital,Sentara Obici Hospital Suffolk,,,,,,,,,"Jul 31, 2025","Extracranial Cerebrovascular Testing, Peripheral Arterial Testing, Peripheral Venous Testing, Visceral Vascular Testing",,,,,,,,,,,,,,
270,271,Sentara Port Warwick III,37.084497,-76.486139,granted,1051 Loftis Boulevard,Suite 200,Newport News,VA,23606,USA,,,,vascular,www.google.com/search?q=Sentara+Port+Warwick+III,Sentara Port Warwick III Newport News,,,,,,,,,"Jul 31, 2025","Extracranial Cerebrovascular Testing, Peripheral Arterial Testing, Peripheral Venous Testing, Visceral Vascular Testing",,,,,,,,,,,,,,
271,272,Sentara PortWarwick,37.084947,-76.485003,granted,1031 Loftis Blvd,Suite 101,Newport News,VA,23606,USA,,,,echo,www.google.com/search?q=Sentara+PortWarwick,Sentara PortWarwick Newport News,,,"Sep 30, 2024","Adult Stress, Adult Transthoracic",,,,,,,,,,,,,,,,,,,,
272,273,Sentara Princess Anne Hospital,36.777194,-76.096738,granted,2025 Glenn Mitchell Drive,,Virginia Beach,VA,23456,USA,,,,echo,www.google.com/search?q=Sentara+Princess+Anne+Hospital,Sentara Princess Anne Hospital Virginia Beach,,,"Sep 30, 2024","Adult Stress, Adult Transesophageal, Adult Transthoracic",,,,,,,,,,,,,,,,,,,,
273,274,Sentara Princess Anne Hospital PVL,36.777194,-76.096738,granted,2025 Glenn Mitchell Drive,,Virginia Beach,VA,23456,USA,,,,vascular,www.google.com/search?q=Sentara+Princess+Anne+Hospital+PVL,Sentara Princess Anne Hospital PVL Virginia Beach,,,,,,,,,"Sep 30, 2024","Extracranial Cerebrovascular Testing, Peripheral Arterial Testing, Peripheral Venous Testing, Visceral Vascular Testing",,,,,,,,,,,,,,
274,275,Sentara Rockingham Memorial Hospital,38.40614,-78.858322,granted,2010 Health Campus Drive,,Harrisonburg,VA,22801,USA,,RMHonline.com,,echo,,Sentara Rockingham Memorial Hospital Harrisonburg,,,"Sep 30, 2024","Adult Stress, Adult Transesophageal, Adult Transthoracic",,,,,,,,,,,,,,,,,,,,
275,276,Sentara Vascular Specialist Eastern Shore,36.92227,-76.0407,granted,9524 Hospital Avenue,,Nassawadox,VA,23413,USA,,,,vascular,www.google.com/search?q=Sentara+Vascular+Specialist+Eastern+Shore,Sentara Vascular Specialist Eastern Shore Nassawadox,,,,,,,,,"Sep 30, 2024","Extracranial Cerebrovascular Testing, Peripheral Arterial Testing, Peripheral Venous Testing, Visceral Vascular Testing",,,,,,,,,,,,,,
276,277,Sentara Vascular Specialists,36.84289,-76.091235,granted,397 Little Neck Road,Suite 100,Virginia Beach,VA,23452,USA,,,,vascular,www.google.com/search?q=Sentara+Vascular+Specialists,Sentara Vascular Specialists Virginia Beach,,,,,,,,,"Sep 30, 2024","Extracranial Cerebrovascular Testing, Peripheral Arterial Testing, Peripheral Venous Testing, Visceral Vascular Testing",,,,,,,,,,,,,,
277,278,Sentara Vascular Specialists,36.76749,-76.233659,granted,725 Volvo Parkway,Suite 210,Chesapeake,VA,23320,USA,,,,vascular,www.google.com/search?q=Sentara+Vascular+Specialists,Sentara Vascular Specialists Chesapeake,,,,,,,,,"Sep 30, 2024","Extracranial Cerebrovascular Testing, Peripheral Arterial Testing, Peripheral Venous Testing, Visceral Vascular Testing",,,,,,,,,,,,,,
278,279,Sentara Vascular Specialists,36.859728,-76.30482,granted,600 Gresham Drive,Suite 8620,Norfolk,VA,23507,USA,,,,vascular,www.google.com/search?q=Sentara+Vascular+Specialists,Sentara Vascular Specialists Norfolk,,,,,,,,,"Sep 30, 2024","Extracranial Cerebrovascular Testing, Peripheral Arterial Testing, Peripheral Venous Testing, Visceral Vascular Testing",,,,,,,,,,,,,,
279,280,Sentara Vascular Specialists Belleharbour,36.862834,-76.448991,granted,3920 Bridge Road,STE 204,Suffolk,VA,23435,USA,,,,vascular,www.google.com/search?q=Sentara+Vascular+Specialists+Belleharbour,Sentara Vascular Specialists Belleharbour Suffolk,,,,,,,,,"Sep 30, 2024","Extracranial Cerebrovascular Testing, Peripheral Arterial Testing, Peripheral Venous Testing, Visceral Vascular Testing",,,,,,,,,,,,,,
280,281,Sentara Vascular Specialists Hampton,37.056448,-76.392362,granted,3000 Coliseum Drive,Suite 200,Hampton,VA,23666,USA,,,,vascular,www.google.com/search?q=Sentara+Vascular+Specialists+Hampton,Sentara Vascular Specialists Hampton Hampton,,,,,,,,,"Jul 31, 2025","Extracranial Cerebrovascular Testing, Peripheral Arterial Testing, Peripheral Venous Testing, Visceral Vascular Testing",,,,,,,,,,,,,,
281,282,Sentara Vascular Specialists Suffolk,36.772745,-76.583498,granted,2790 Godwin Blvd,Suite 305,Suffolk,VA,23434,USA,,www.sentara.com,,vascular,,Sentara Vascular Specialists Suffolk Suffolk,,,,,,,,,"Jul 31, 2025","Extracranial Cerebrovascular Testing, Peripheral Arterial Testing, Peripheral Venous Testing, Visceral Vascular Testing",,,,,,,,,,,,,,
282,283,Sentara Virginia Beach General Hospital,36.864158,-76.028342,granted,1060 First Colonial Road,,Virginia Beach,VA,23454,USA,,,,echo,www.google.com/search?q=Sentara+Virginia+Beach+General+Hospital,Sentara Virginia Beach General Hospital Virginia Beach,,,"Sep 30, 2024","Adult Stress, Adult Transesophageal, Adult Transthoracic",,,,,,,,,,,,,,,,,,,,
283,284,Sentara Virginia Beach General Hospital PVL,36.820278,-75.998619,granted,1060 First Colonial Road,,Virginia Beach,VA,23455,USA,,,,vascular,www.google.com/search?q=Sentara+Virginia+Beach+General+Hospital+PVL,Sentara Virginia Beach General Hospital PVL Virginia Beach,,,,,,,,,"Sep 30, 2024","Extracranial Cerebrovascular Testing, Peripheral Arterial Testing, Peripheral Venous Testing, Visceral Vascular Testing",,,,,,,,,,,,,,
284,285,Sentara Williamsburg Regional Medical Center,37.335034,-76.742161,granted,100 Sentara Circle,,Williamsburg,VA,23188,USA,,,,echo,www.google.com/search?q=Sentara+Williamsburg+Regional+Medical+Center,Sentara Williamsburg Regional Medical Center Williamsburg,,,"Sep 30, 2024","Adult Stress, Adult Transesophageal, Adult Transthoracic",,,,,,,,,,,,,,,,,,,,
285,286,Sentara Williamsburg Regional Medical Center,37.335034,-76.742161,granted,100 Sentara Circle,,Williamsburg,VA,23188,USA,,www.sentara.com,,vascular,,Sentara Williamsburg Regional Medical Center Williamsburg,,,,,,,,,"Jul 31, 2025","Extracranial Cerebrovascular Testing, Peripheral Arterial Testing, Peripheral Venous Testing, Visceral Vascular Testing",,,,,,,,,,,,,,
286,287,Shenandoah Memorial Hospital,38.871586,-78.513936,granted,759 South Main Street,,Woodstock,VA,22664,USA,,,,vascular,www.google.com/search?q=Shenandoah+Memorial+Hospital,Shenandoah Memorial Hospital Woodstock,,,,,,,,,"Apr 30, 2025","Extracranial Cerebrovascular Testing, Peripheral Arterial Testing, Peripheral Venous Testing, Visceral Vascular Testing",,,,,,,,,,,,,,
287,288,South Hill Family Medicine,36.727714,-78.134928,granted,516 West Atlantic St.,,South Hill,VA,23970,USA,,,,nuclear,www.google.com/search?q=South+Hill+Family+Medicine,South Hill Family Medicine South Hill,,,,,,,"Feb 29, 2024",Myocardial Perfusion Imaging,,,,,,,,,,,,,,,,
288,289,Southwest Virginia Cardiology,37.262458,-80.035629,granted,2850 Keagy Road,,Salem,VA,24153,USA,,,,echo,www.google.com/search?q=Southwest+Virginia+Cardiology,Southwest Virginia Cardiology Salem,,,"May 31, 2024","Adult Stress, Adult Transthoracic",,,,,,,,,,,,,,,,,,,,
289,290,Spotsylvania Regional Medical Center,38.219496,-77.49645,granted,4600 Spotsylvania Parkway,,Fredericksburg,VA,22408,USA,,,,echo,www.google.com/search?q=Spotsylvania+Regional+Medical+Center,Spotsylvania Regional Medical Center Fredericksburg,,,"Jul 31, 2024",Adult Transthoracic,,,,,,,,,,,,,,,,,,,,
290,291,Stafford Hospital,38.414075,-77.406967,granted,101 Hospital Center Boulevard,,Stafford,VA,22554,USA,,,,echo,www.google.com/search?q=Stafford+Hospital,Stafford Hospital Stafford,,,"Jan 31, 2025",Adult Transthoracic,,,,,,,,,,,,,,,,,,,,
291,292,Stateline Heart and Vascular,36.695452,-79.860185,multigranted,435 East Commonwealth BLVd,,Martinsville,VA,24112,USA,,stateline-health.com,,"echo, vascular",,Stateline Heart and Vascular Martinsville,,,"Jan 31, 2025",Adult Transthoracic,,,,,"Jan 31, 2025","Extracranial Cerebrovascular Testing, Peripheral Arterial Testing, Peripheral Venous Testing",,,,,,,,,,,,,,
292,293,Surgical Associates of Richmond HCA Va Physicians,37.507998,-77.594314,granted,1051 Johnston-Willis Drive,Suite 200,Richmond,VA,23235,USA,,,,vascular,www.google.com/search?q=Surgical+Associates+of+Richmond+HCA+Va+Physicians,Surgical Associates of Richmond HCA Va Physicians Richmond,,,,,,,,,"Jul 31, 2025","Extracranial Cerebrovascular Testing, Peripheral Arterial Testing, Peripheral Venous Testing",,,,,,,,,,,,,,
293,294,Surya N Challa MD PC,36.744192,-76.248714,multigranted,300 Medical Parkway,Ste 208,Chesapeake,VA,23320,USA,,www.chesapeakeveinandmedspa.com,,"vein_center, vascular",,Surya N Challa MD PC Chesapeake,,,,,,,,,"Jun 30, 2025",Peripheral Venous Testing,,,,,,,"Jul 31, 2023",Superficial Venous Evaluation and Management,,,,,,
294,295,The Heart and Vascular Center at Winchester Medical Center-Valley Health,39.191373,-78.194719,granted,1840 Amherst Street,,Winchester,VA,22601,USA,,,,vascular,www.google.com/search?q=The+Heart+and+Vascular+Center+at+Winchester+Medical+Center-Valley+Health,The Heart and Vascular Center at Winchester Medical Center-Valley Health Winchester,,,,,,,,,"Apr 30, 2025","Extracranial Cerebrovascular Testing, Intracranial Cerebrovascular Testing, Peripheral Arterial Testing, Peripheral Venous Testing, Visceral Vascular Testing",,,,,,,,,,,,,,
295,296,"The Neurology Center of Fairfax, LTD",38.867739,-77.236638,granted,3020 Hamaker Court,Suite 400,Fairfax,VA,22031,USA,,,,vascular,"www.google.com/search?q=The+Neurology+Center+of+Fairfax,+LTD","The Neurology Center of Fairfax, LTD Fairfax",,,,,,,,,"Jan 31, 2025","Extracranial Cerebrovascular Testing, Peripheral Venous Testing",,,,,,,,,,,,,,
296,297,The Noninvasive Vascular Laboratory,38.8221772,-77.1053284,granted,4320 Seminary Road,,Alexandria,VA,22304,USA,,,,echo,www.google.com/search?q=The+Noninvasive+Vascular+Laboratory,The Noninvasive Vascular Laboratory Alexandria,,,"May 31, 2024",Adult Transthoracic,,,,,,,,,,,,,,,,,,,,
297,298,The Vascular Lab affiliated with Vascular Surgery Associates,37.575512,-77.517668,granted,7900 Shrader Rd,,Henrico,VA,23294,USA,,www.vascularsurgeryassociates.com,,vascular,,The Vascular Lab affiliated with Vascular Surgery Associates Henrico,,,,,,,,,"Oct 30, 2022 | Aug 31, 2025","Peripheral Arterial Testing | Extracranial Cerebrovascular Testing, Peripheral Venous Testing",,,,,,,,,,,,,,
298,299,The Vascular Lab Midlothian Office,37.510225,-77.696574,granted,13460 Tredegar Lake Parkway,Suite 170,Midlothian,VA,23112,USA,,www.vascularsurgeryassociates.com,,vascular,,The Vascular Lab Midlothian Office Midlothian,,,,,,,,,"Oct 30, 2022 | Aug 31, 2025","Peripheral Arterial Testing | Extracranial Cerebrovascular Testing, Peripheral Venous Testing",,,,,,,,,,,,,,
299,300,The Vascular Lab-Dominion Medical Park,37.625114,-77.387695,granted,8237 Meadowbridge Road,,Mechanicsville,VA,23116,USA,,www.vascularsurgeryassociates.com,,vascular,,The Vascular Lab-Dominion Medical Park Mechanicsville,,,,,,,,,"Oct 30, 2022 | Aug 31, 2025","Peripheral Arterial Testing | Extracranial Cerebrovascular Testing, Peripheral Venous Testing",,,,,,,,,,,,,,
300,301,The Vein Center of Virginia,36.852984,-75.977418,granted,397 Little Neck Rd,3300 South Bldg Ste 100,Virginia Beach,VA,23452,USA,,www.sentaravascularspecialists.com,,vein_center,,The Vein Center of Virginia Virginia Beach,,,,,,,,,,,,,,,,,"May 31, 2023",Superficial Venous Evaluation and Management,,,,,,
301,302,TPMG Cardiolovascular Specialists,36.854859,-76.189715,granted,100 Constitution Drive,Suite 217,Virginia Beach,VA,23462,USA,,www.mytpmg.com,,echo,,TPMG Cardiolovascular Specialists Virginia Beach,,,"Nov 30, 2022","Adult Stress, Adult Transthoracic",,,,,,,,,,,,,,,,,,,,
302,303,TPMG Cardiovascular Diagnostic Center,37.284267,-76.743312,granted,5424 Discovery Park Blvd.,Suite 203,Williamsburg,VA,23188,USA,,www.mytpmg.com,,echo,,TPMG Cardiovascular Diagnostic Center Williamsburg,,,"Nov 30, 2022","Adult Stress, Adult Transthoracic",,,,,,,,,,,,,,,,,,,,
303,304,TPMG Heart and Vascular Center,37.142523,-76.513003,granted,"12720 McManus Blvd, Suite 201",,Newport News,VA,23602,USA,,,,echo,www.google.com/search?q=TPMG+Heart+and+Vascular+Center,TPMG Heart and Vascular Center Newport News,,,"Nov 30, 2022","Adult Stress, Adult Transthoracic",,,,,,,,,,,,,,,,,,,,
304,305,"Tucker Cardiology Associates, PC",37.62454,-77.38762,granted,8409 North Run Medical Drive,Meadowbridge Health and Wellness,Mechanicsville,VA,23116,USA,,,,echo,"www.google.com/search?q=Tucker+Cardiology+Associates,+PC","Tucker Cardiology Associates, PC Mechanicsville",,,"Dec 31, 2023",Adult Transthoracic,,,,,,,,,,,,,,,,,,,,
305,306,University of Virginia Children’s Hospital Heart Center,38.031756,-78.498285,granted,1215 Lee Street,Box 800386,Charlottesville,VA,22908,USA,,uvahealth.com/services/childrens-hospital/pediatric-services/heart-center,,pediatric_echo,,University of Virginia Children’s Hospital Heart Center Charlottesville,,,,,,,,,,,"Aug 31, 2023","Pediatric Transesophageal, Pediatric Transthoracic, Fetal",,,,,,,,,,,,
306,307,University of Virginia Health System,38.090112,-78.991057,granted,57 Beam Lane,,Fishersville,VA,22939,USA,,uvahealth.com,,echo,,University of Virginia Health System Fishersville,,,"Mar 31, 2023","Adult Stress, Adult Transthoracic",,,,,,,,,,,,,,,,,,,,
307,308,University of Virginia Health System,38.031756,-78.498285,granted,1215 Lee Street,,Charlottesville,VA,22908,USA,,uvahealth.com,,echo,,University of Virginia Health System Charlottesville,,,"Mar 31, 2023","Adult Stress, Adult Transesophageal, Adult Transthoracic",,,,,,,,,,,,,,,,,,,,
308,309,University of Virginia Health System,37.982216,-78.211795,granted,1015 Spring Creek Parkway,,Zion Crossroads,VA,22942,USA,,,,echo,www.google.com/search?q=University+of+Virginia+Health+System,University of Virginia Health System Zion Crossroads,,,"Mar 31, 2023",Adult Transthoracic,,,,,,,,,,,,,,,,,,,,
309,310,University of Virginia Heart and Vascular Center,38.031756,-78.498285,granted,1215 Lee Street,,Charlottesville,VA,22908,USA,,,,nuclear,www.google.com/search?q=University+of+Virginia+Heart+and+Vascular+Center,University of Virginia Heart and Vascular Center Charlottesville,,,,,,,"Mar 31, 2023",Myocardial Perfusion Imaging,,,,,,,,,,,,,,,,
310,311,University of Virginia Vascular Laboratory at Fishersville,38.090112,-78.991057,granted,"57 Beam Lane, Suite 205",,Fishersville,VA,22939,USA,,,,vascular,www.google.com/search?q=University+of+Virginia+Vascular+Laboratory+at+Fishersville,University of Virginia Vascular Laboratory at Fishersville Fishersville,,,,,,,,,"Feb 28, 2025","Extracranial Cerebrovascular Testing, Peripheral Arterial Testing, Peripheral Venous Testing, Visceral Vascular Testing",,,,,,,,,,,,,,
311,312,University of Virginia Vascular Laboratory at Fontaine,38.050702,-78.548072,granted,500 Ray C Hunt Drive,,Charlottesville,VA,22903,USA,,,,vascular,www.google.com/search?q=University+of+Virginia+Vascular+Laboratory+at+Fontaine,University of Virginia Vascular Laboratory at Fontaine Charlottesville,,,,,,,,,"Feb 28, 2025","Extracranial Cerebrovascular Testing, Peripheral Arterial Testing, Peripheral Venous Testing, Visceral Vascular Testing",,,,,,,,,,,,,,
312,313,University of Virginia Vascular Laboratory at Zion Crossroads,37.982216,-78.211795,granted,1015 Spring Creek Pkwy,,Zion Crossroads,VA,22942,USA,,,,vascular,www.google.com/search?q=University+of+Virginia+Vascular+Laboratory+at+Zion+Crossroads,University of Virginia Vascular Laboratory at Zion Crossroads Zion Crossroads,,,,,,,,,"Feb 28, 2025",Extracranial Cerebrovascular Testing,,,,,,,,,,,,,,
313,314,University of Virginia Vascular Laboratory Main Hospital,38.031756,-78.498285,granted,1215 Lee Street,,Charlottesville,VA,22908,USA,,,,vascular,www.google.com/search?q=University+of+Virginia+Vascular+Laboratory+Main+Hospital,University of Virginia Vascular Laboratory Main Hospital Charlottesville,,,,,,,,,"Feb 28, 2025","Extracranial Cerebrovascular Testing, Peripheral Arterial Testing, Peripheral Venous Testing, Visceral Vascular Testing",,,,,,,,,,,,,,
314,315,UVA Cardiology,38.769615,-77.490678,granted,8640 Sudley Road ,Suite 302,Manassas,VA,20110,USA,,www.novanthealth.org,,echo,,UVA Cardiology Manassas,,,"Dec 31, 2022",Adult Transthoracic,,,,,,,,,,,,,,,,,,,,
315,316,UVA Cardiology,38.713311,-77.810892,granted,380 Hospital Drive,,Warrenton,VA,20186,USA,,,,echo,www.google.com/search?q=UVA+Cardiology,UVA Cardiology Warrenton,,,"Dec 31, 2022",Adult Transthoracic,,,,,,,,,,,,,,,,,,,,
316,317,UVA Children’s Hospital Specialty Clinic,39.167774,-78.17425,granted,1829 Plaza Drive,,Winchester,VA,22601,USA,,,,pediatric_echo,www.google.com/search?q=UVA+Children’s+Hospital+Specialty+Clinic,UVA Children’s Hospital Specialty Clinic Winchester,,,,,,,,,,,"Aug 31, 2023",Pediatric Transthoracic,,,,,,,,,,,,
317,318,UVA Pediatric Cardiology Richmond,37.583853,-77.514094,granted,5875 Bremo Road,Suite 500,Richmond,VA,23226,USA,,uvahealth.com/locations/profile/uva-childrens-hospital-pediatric-cardiology-richmond?locatio,,pediatric_echo,,UVA Pediatric Cardiology Richmond Richmond,,,,,,,,,,,"Aug 31, 2023","Pediatric Transthoracic, Fetal",,,,,,,,,,,,
318,319,UVA Specialty Care Augusta Cardiology,38.096101,-78.975247,granted,UVA Medical Park Beam,Suite 205 Beam Ln.,Fishersville,VA,22939,USA,,,,nuclear,www.google.com/search?q=UVA+Specialty+Care+Augusta+Cardiology,UVA Specialty Care Augusta Cardiology Fishersville,,,,,,,"Mar 31, 2023",Myocardial Perfusion Imaging,,,,,,,,,,,,,,,,
319,320,Valley Health - Page Memorial Hospital,38.662482,-78.469864,granted,200 Memorial Drive,,Luray,VA,22835,USA,,,,echo,www.google.com/search?q=Valley+Health+-+Page+Memorial+Hospital,Valley Health - Page Memorial Hospital Luray,,,"May 31, 2024",Adult Transthoracic,,,,,,,,,,,,,,,,,,,,
320,321,Valley Health - Shenandoah Memorial Hospital,38.871586,-78.513936,granted,759 South Main Street,,Woodstock,VA,22664,USA,,,,echo,www.google.com/search?q=Valley+Health+-+Shenandoah+Memorial+Hospital,Valley Health - Shenandoah Memorial Hospital Woodstock,,,"May 31, 2024",Adult Transthoracic,,,,,,,,,,,,,,,,,,,,
321,322,Valley Health - Warren Memorial Hospital,38.930415,-78.19893,granted,351 Valley Health Way,,Front Royal,VA,22630,USA,,,,echo,www.google.com/search?q=Valley+Health+-+Warren+Memorial+Hospital,Valley Health - Warren Memorial Hospital Front Royal,,,"May 31, 2024",Adult Transthoracic,,,,,,,,,,,,,,,,,,,,
322,323,Valley Health Vascular Surgeons,39.191483,-78.194034,granted,1880 Amherst Street Suite 300,,Winchester,VA,22601,USA,,,,vascular,www.google.com/search?q=Valley+Health+Vascular+Surgeons,Valley Health Vascular Surgeons Winchester,,,,,,,,,"Apr 30, 2025","Extracranial Cerebrovascular Testing, Peripheral Arterial Testing, Peripheral Venous Testing, Visceral Vascular Testing",,,,,,,,,,,,,,
323,324,Valley Open MRI,39.191668,-78.191905,granted,1830 Amherst Street,,Winchester,VA,22601,USA,,,,mr,www.google.com/search?q=Valley+Open+MRI,Valley Open MRI Winchester,,,,,"Jun 30, 2024","Musculoskeletal MRI, Neurological MRI, MRA",,,,,,,,,,,,,,,,,,
324,325,"Valley Physician Enterprise, Inc. dba Winchester Cardiology and Vascular Medicine",39.191212,-78.195883,granted,"1880 Amherst St, Suite 200",,Winchester,VA,22601,USA,,,,nuclear,"www.google.com/search?q=Valley+Physician+Enterprise,+Inc.+dba+Winchester+Cardiology+and+Vascular+Medicine","Valley Physician Enterprise, Inc. dba Winchester Cardiology and Vascular Medicine Winchester",,,,,,,"Jan 31, 2023","Equilibrium Radionuclide Angiography, Myocardial Perfusion Imaging",,,,,,,,,,,,,,,,
325,326,Vascular Associates of Northern Virginia,38.962922,-77.354268,granted,12005 Sunrise Valley Dr.,Suite 120,Reston,VA,20191,USA,,www.vascularassociatesnova.com,,vascular,,Vascular Associates of Northern Virginia Reston,,,,,,,,,"Mar 31, 2025","Extracranial Cerebrovascular Testing, Peripheral Arterial Testing, Peripheral Venous Testing, Visceral Vascular Testing",,,,,,,,,,,,,,
326,327,VCU Community Memorial Hospital,36.734491,-78.133439,granted,1755 North Mecklenburg  Avenue,,South Hill,VA,23950,USA,,,,echo,www.google.com/search?q=VCU+Community+Memorial+Hospital,VCU Community Memorial Hospital South Hill,,,"Jan 31, 2023","Adult Transesophageal, Adult Transthoracic",,,,,,,,,,,,,,,,,,,,
327,328,VCU Community Memorial Hospital,36.734491,-78.133439,granted,1755 North Mecklenburg Avenue,,South Hill,VA,23950,USA,,,,vascular,www.google.com/search?q=VCU+Community+Memorial+Hospital,VCU Community Memorial Hospital South Hill,,,,,,,,,"Nov 30, 2024","Extracranial Cerebrovascular Testing, Peripheral Arterial Testing, Peripheral Venous Testing",,,,,,,,,,,,,,
328,329,VCU Health System,37.540218,-77.430658,granted,1200 East Marshall Street,PO Box 980051,Richmond,VA,23298,USA,,,,echo,www.google.com/search?q=VCU+Health+System,VCU Health System Richmond,,,"Mar 31, 2025","Adult Stress, Adult Transesophageal, Adult Transthoracic",,,,,,,,,,,,,,,,,,,,
329,330,VCUHS Peripheral Vascular Lab,37.552301,-77.566219,granted,9000 Stony Point Parkway,,Richmond,VA,23235,USA,,,,vascular,www.google.com/search?q=VCUHS+Peripheral+Vascular+Lab,VCUHS Peripheral Vascular Lab Richmond,,,,,,,,,"Oct 31, 2024","Extracranial Cerebrovascular Testing, Peripheral Arterial Testing, Peripheral Venous Testing",,,,,,,,,,,,,,
330,331,VCUHS Peripheral Vascular Lab,37.249682,-77.366583,granted,2035 Waterside Road,,Prince George,VA,23875,USA,,,,vascular,www.google.com/search?q=VCUHS+Peripheral+Vascular+Lab,VCUHS Peripheral Vascular Lab Prince George,,,,,,,,,"Oct 31, 2024","Extracranial Cerebrovascular Testing, Peripheral Arterial Testing, Peripheral Venous Testing",,,,,,,,,,,,,,
331,332,VCUHS Peripheral Vascular Lab,37.539753,-77.429882,granted,1250 E Marshall St.,,Richmond,VA,23219,USA,,,,vascular,www.google.com/search?q=VCUHS+Peripheral+Vascular+Lab,VCUHS Peripheral Vascular Lab Richmond,,,,,,,,,"Oct 31, 2024","Extracranial Cerebrovascular Testing, Peripheral Arterial Testing, Peripheral Venous Testing",,,,,,,,,,,,,,
332,333,Vein Clinics of America,38.857138,-77.338654,granted,11350 Random Hills Rd.,#440,Fairfax,VA,22030,USA,,www.veinclinics.com/clinic/fairfax-virginia/,,vascular,,Vein Clinics of America Fairfax,,,,,,,,,"Nov 30, 2023",Peripheral Venous Testing,,,,,,,,,,,,,,
333,334,Vein Clinics of America,38.832342,-77.11538,granted,4900 Seminary Road,#100,Alexandria,VA,22311,USA,,www.veinclinics.com/clinic/alexandria-virginia/,,vascular,,Vein Clinics of America Alexandria,,,,,,,,,"Nov 30, 2023",Peripheral Venous Testing,,,,,,,,,,,,,,
334,335,Vein Clinics of America,39.037798,-77.411278,granted,14 Pidgeon Hill Dr.,#260,Sterling,VA,20165,USA,,www.veinclinics.com/clinic/sterling-virginia/,,vascular,,Vein Clinics of America Sterling,,,,,,,,,"Nov 30, 2023",Peripheral Venous Testing,,,,,,,,,,,,,,
335,336,VeinGuard Heart and Vascular Center,38.873952,-77.242443,granted,1900 Gallows Rd,Suite 100,Vienna,VA,22182,USA,,,,nuclear,www.google.com/search?q=VeinGuard+Heart+and+Vascular+Center,VeinGuard Heart and Vascular Center Vienna,,,,,,,"May 31, 2025",Myocardial Perfusion Imaging,,,,,,,,,,,,,,,,
336,337,Virginia Beach Surgery,36.845115,-76.035376,granted,329 Phillip Avenue,Suite 102,Virginia Beach,VA,23454,USA,,,,vascular,www.google.com/search?q=Virginia+Beach+Surgery,Virginia Beach Surgery Virginia Beach,,,,,,,,,"Aug 31, 2023","Extracranial Cerebrovascular Testing, Peripheral Arterial Testing, Peripheral Venous Testing",,,,,,,,,,,,,,
337,338,Virginia Cardiovascular Consultants,38.308295,-77.483819,granted,1201 Sam Perry Blvd.,Suite 280,Fredericksburg,VA,22401,USA,,,,nuclear,www.google.com/search?q=Virginia+Cardiovascular+Consultants,Virginia Cardiovascular Consultants Fredericksburg,,,,,,,"Jan 31, 2024",Myocardial Perfusion Imaging,,,,,,,,,,,,,,,,
338,339,Virginia Cardiovascular Consultants,38.308295,-77.483819,granted,1201 Sam Perry Boulevard,Suite 280,Fredericksburg,VA,22401,USA,,,,echo,www.google.com/search?q=Virginia+Cardiovascular+Consultants,Virginia Cardiovascular Consultants Fredericksburg,,,"Nov 29, 2022",Adult Transthoracic,,,,,,,,,,,,,,,,,,,,
339,340,Virginia Cardiovascular Specialists,37.605161,-77.54124,granted,7611 Forest Ave Suite 100,,Richmond,VA,23229,USA,,www.vacardio.com,,ct,,Virginia Cardiovascular Specialists Richmond,"Jun 30, 2023","Coronary CTA, Vascular CTA, Coronary Calcium Scoring",,,,,,,,,,,,,,,,,,,,,,
340,341,Virginia Cardiovascular Specialists,37.2508,-77.366673,granted,4700 Puddledock Road,,Prince George,VA,23875,USA,,www.vacardio.com,,nuclear,,Virginia Cardiovascular Specialists Prince George,,,,,,,"Dec 30, 2022 | Oct 31, 2025",Equilibrium Radionuclide Angiography | Myocardial Perfusion Imaging,,,,,,,,,,,,,,,,
341,342,Virginia Cardiovascular Specialists,37.410071,-77.649567,granted,6120 Harbourside Centre Loop,,Midlothian,VA,23112,USA,,www.vacardio.com,,nuclear,,Virginia Cardiovascular Specialists Midlothian,,,,,,,"Dec 30, 2022 | Oct 31, 2025",Equilibrium Radionuclide Angiography | Myocardial Perfusion Imaging,,,,,,,,,,,,,,,,
342,343,Virginia Cardiovascular Specialists,37.605161,-77.54124,granted,7611 Forest Avenue,Suite 100,Richmond,VA,23229,USA,,www.vacardio.com,,nuclear,,Virginia Cardiovascular Specialists Richmond,,,,,,,"Dec 30, 2022 | Oct 31, 2025","Equilibrium Radionuclide Angiography | Myocardial Perfusion Imaging, Positron Emission Tomography (PET)",,,,,,,,,,,,,,,,
343,344,Virginia Cardiovascular Specialists - Stony Point,37.551555,-77.563443,granted,8700 Stony Point Parkway,,Richmond,VA,23235,USA,,www.vacardio.com,,echo,,Virginia Cardiovascular Specialists - Stony Point Richmond,,,"Oct 31, 2025","Adult Stress, Adult Transthoracic",,,,,,,,,,,,,,,,,,,,
344,345,Virginia Cardiovascular Specialists Bell Creek,37.635155,-77.354946,granted,"7505 Right Flank Road, Suite 700",,Mechanicsville,VA,23116,USA,,www.vacardio.com,,vascular,,Virginia Cardiovascular Specialists Bell Creek Mechanicsville,,,,,,,,,"Oct 31, 2025","Extracranial Cerebrovascular Testing, Peripheral Arterial Testing, Peripheral Venous Testing",,,,,,,,,,,,,,
345,346,Virginia Cardiovascular Specialists Forest,37.605161,-77.54124,granted,"7611 Forest Avenue, Suite 100",,Richmond,VA,23229,USA,,www.vacardio.com,,vascular,,Virginia Cardiovascular Specialists Forest Richmond,,,,,,,,,"Oct 31, 2025","Extracranial Cerebrovascular Testing, Peripheral Arterial Testing, Peripheral Venous Testing",,,,,,,,,,,,,,
346,347,Virginia Cardiovascular Specialists Harbourside,37.410071,-77.649567,granted,6120 Harbourside Centre Loop,,Midlothian,VA,23112,USA,,www.vacardio.com,,vascular,,Virginia Cardiovascular Specialists Harbourside Midlothian,,,,,,,,,"Oct 31, 2025","Extracranial Cerebrovascular Testing, Peripheral Arterial Testing, Peripheral Venous Testing",,,,,,,,,,,,,,
347,348,Virginia Cardiovascular Specialists Stony Point,37.55166,-77.562999,granted,"8700 Stony Point Parkway, Suite 120",,Richmond,VA,23235,USA,,www.vacardio.com,,vascular,,Virginia Cardiovascular Specialists Stony Point Richmond,,,,,,,,,"Oct 31, 2025","Extracranial Cerebrovascular Testing, Peripheral Arterial Testing, Peripheral Venous Testing",,,,,,,,,,,,,,
348,349,Virginia Cardiovascular Specialists Waterside,37.249312,-77.367274,granted,"4700 Puddledock Road, Suite 400",,Prince George,VA,23875,USA,,www.vacardio.com,,vascular,,Virginia Cardiovascular Specialists Waterside Prince George,,,,,,,,,"Oct 31, 2025","Extracranial Cerebrovascular Testing, Peripheral Arterial Testing, Peripheral Venous Testing",,,,,,,,,,,,,,
349,350,Virginia Cardiovascular Specialists West Creek,37.660653,-77.652596,granted,1630 Wilkes Ridge Parkway,,Richmond,VA,23233,USA,,vacardio.com,,echo,,Virginia Cardiovascular Specialists West Creek Richmond,,,"Oct 31, 2025","Adult Stress, Adult Transthoracic",,,,,,,,,,,,,,,,,,,,
350,351,Virginia Cardiovascular Specialists- Bell Creek,37.635232,-77.354893,granted,7505 Right Flank Road,Suite 700,Mechanicsville,VA,23116,USA,,www.vacardio.com,,echo,,Virginia Cardiovascular Specialists- Bell Creek Mechanicsville,,,"Oct 31, 2025","Adult Stress, Adult Transthoracic",,,,,,,,,,,,,,,,,,,,
351,352,Virginia Cardiovascular Specialists- Harbourside,37.410071,-77.649567,granted,6120 Harbourside Center Loop,,Midlothian,VA,23112,USA,,www.vacardio.com,,echo,,Virginia Cardiovascular Specialists- Harbourside Midlothian,,,"Oct 31, 2025","Adult Stress, Adult Transthoracic",,,,,,,,,,,,,,,,,,,,
352,353,Virginia Cardiovascular Specialists-Forest,37.605161,-77.54124,granted,7611 Forest Avenue,Suite 100,Richmond,VA,23229,USA,,www.vacardio.com,,echo,,Virginia Cardiovascular Specialists-Forest Richmond,,,"Oct 31, 2025","Adult Stress, Adult Transthoracic",,,,,,,,,,,,,,,,,,,,
353,354,Virginia Cardiovascular Specialists-Waterside,37.2508,-77.366673,granted,4700 Puddledock Road Suite 400,,Prince George,VA,23875,USA,,www.vacardio.com,,echo,,Virginia Cardiovascular Specialists-Waterside Prince George,,,"Oct 31, 2025","Adult Stress, Adult Transthoracic",,,,,,,,,,,,,,,,,,,,
354,355,Virginia ENT Midlothian Office,37.493733,-77.557639,granted,161 Wadsworth Drive,,Richmond,VA,23236,USA,,,,ct,www.google.com/search?q=Virginia+ENT+Midlothian+Office,Virginia ENT Midlothian Office Richmond,"Jun 30, 2023",Maxillofacial CT,,,,,,,,,,,,,,,,,,,,,,
355,356,Virginia ENT West End Office,37.638366,-77.56819,granted,3450 Mayland Court,,Richmond,VA,23233,USA,,www.virginiaent.com,,ct,,Virginia ENT West End Office Richmond,"Jun 30, 2023",Maxillofacial CT,,,,,,,,,,,,,,,,,,,,,,
356,357,"Virginia Family Medicine, LLC",38.916869,-77.236242,granted,2070 Chain Bridge Rd.,Suite 150,Vienna,VA,22182,USA,,virginiafamilymed.com,,echo,,"Virginia Family Medicine, LLC Vienna",,,"May 31, 2024",Adult Transthoracic,,,,,,,,,,,,,,,,,,,,
357,358,"Virginia Heart, Arlington Office",38.888003,-77.128134,multigranted,1005 North Glebe Road,Suite 750,Arlington,VA,22201,USA,,www.virginiaheart.com,,"nuclear, vascular, echo",,"Virginia Heart, Arlington Office Arlington",,,"May 31, 2024","Adult Stress, Adult Transthoracic",,,"Dec 31, 2022","Equilibrium Radionuclide Angiography, Myocardial Perfusion Imaging","Jan 31, 2024","Extracranial Cerebrovascular Testing, Peripheral Arterial Testing",,,,,,,,,,,,,,
358,359,"Virginia Heart, Purcellville Office",39.144062,-77.713248,granted,205 Hirst Road,Suite 101,Purcellvilel,VA,20132,USA,,www.virginiaheart.com,,echo,,"Virginia Heart, Purcellville Office Purcellvilel",,,"May 31, 2024",Adult Transthoracic,,,,,,,,,,,,,,,,,,,,
359,360,"Virginia Heart, Reston Office",38.961925,-77.362633,multigranted,1850 Town Center Parkway,Suite 550,Reston,VA,20190,USA,,www.virginiaheart.com,,"vascular, echo",,"Virginia Heart, Reston Office Reston",,,"May 31, 2024","Adult Stress, Adult Transthoracic",,,,,"Jan 31, 2024","Extracranial Cerebrovascular Testing, Peripheral Arterial Testing",,,,,,,,,,,,,,
360,361,"Virginia Heart, Stone Springs Office",38.940696,-77.544644,multigranted,24430 Stone Springs Blvd,Suite 425,Dulles,VA,20166,USA,,www.virginiaheart.com,,"nuclear, echo",,"Virginia Heart, Stone Springs Office Dulles",,,"May 31, 2024","Adult Stress, Adult Transthoracic",,,"Dec 31, 2022","Equilibrium Radionuclide Angiography, Myocardial Perfusion Imaging",,,,,,,,,,,,,,,,
361,362,"Virginia Heart, Vienna Office",38.902339,-77.261353,multigranted,130 Park Street,Suite 100,Vienna,VA,22180,USA,,www.virginiaheart.com,,"nuclear, echo",,"Virginia Heart, Vienna Office Vienna",,,"May 31, 2024","Adult Stress, Adult Transthoracic",,,"Dec 31, 2022","Equilibrium Radionuclide Angiography, Myocardial Perfusion Imaging",,,,,,,,,,,,,,,,
362,363,Virginia Hospital Center,38.889088,-77.128654,granted,1701 N George Mason Drive,,Arlington,VA,22205,USA,,www.virginiahospitalcenter.com,,echo,,Virginia Hospital Center Arlington,,,"Jun 30, 2023",Adult Transthoracic,,,,,,,,,,,,,,,,,,,,
363,364,Virginia Hospital Center,38.889088,-77.128654,granted,1701 North George Mason Drive,,Arlington,VA,22205,USA,,www.virginiahospitalcenter.com,,vascular,,Virginia Hospital Center Arlington,,,,,,,,,"Aug 31, 2024","Extracranial Cerebrovascular Testing, Peripheral Arterial Testing, Peripheral Venous Testing",,,,,,,,,,,,,,
364,365,Virginia Interventional and Vascular Associates,38.243381,-77.49621,granted,10401 Spotsylvania Avenue,Suite 203,Fredericksburg,VA,22401,USA,,,,vascular,www.google.com/search?q=Virginia+Interventional+and+Vascular+Associates,Virginia Interventional and Vascular Associates Fredericksburg,,,,,,,,,"Feb 28, 2023","Extracranial Cerebrovascular Testing, Peripheral Arterial Testing, Peripheral Venous Testing",,,,,,,,,,,,,,
365,366,Virginia Vein Care,38.922341,-77.229405,multigranted,8200 Greensboro Drive,Suite 210,Mclean,VA,22102,USA,,virginiaveincare.com,,"vascular, vein_center",,Virginia Vein Care Mclean,,,,,,,,,"Apr 30, 2023",Peripheral Venous Testing,,,,,,,"Dec 31, 2023",Superficial Venous Evaluation and Management,,,,,,
366,367,Virginia Vein Care,39.136431,-77.70147,granted,850A East Main Street,,Purcellville,VA,20132,USA,,www.virginiaveincare.com,,vein_center,,Virginia Vein Care Purcellville,,,,,,,,,,,,,,,,,"Mar 31, 2023",Superficial Venous Evaluation and Management,,,,,,
367,368,Virginia Vein Care,39.136431,-77.70147,granted,"850 East Main Street, Suite A",,Purcellville,VA,20132,USA,,virginiaveincare.com,,vascular,,Virginia Vein Care Purcellville,,,,,,,,,"Apr 30, 2023",Peripheral Venous Testing,,,,,,,,,,,,,,
368,369,Viriginia Cardiovascular Specialists,37.635232,-77.354893,granted,7505 Right Flank Road,Suite 700,Mechanicsville,VA,23116,USA,,www.vacardio.com,,nuclear,,Viriginia Cardiovascular Specialists Mechanicsville,,,,,,,"Dec 30, 2022 | Oct 31, 2025",Equilibrium Radionuclide Angiography | Myocardial Perfusion Imaging,,,,,,,,,,,,,,,,
369,370,Warren Memorial Hospital,38.930415,-78.19893,granted,351 Valley Health Way,,Front Royal,VA,22630,USA,,,,vascular,www.google.com/search?q=Warren+Memorial+Hospital,Warren Memorial Hospital Front Royal,,,,,,,,,"Apr 30, 2025","Extracranial Cerebrovascular Testing, Peripheral Arterial Testing, Peripheral Venous Testing, Visceral Vascular Testing",,,,,,,,,,,,,,
370,371,Winchester Cardiology and Vascular Medicine,39.191212,-78.195883,granted,1880 Amherst St,Suite 200,Winchester,VA,22601,USA,,www.winchestercardiology.com,,vascular,,Winchester Cardiology and Vascular Medicine Winchester,,,,,,,,,"Oct 30, 2022 | Aug 31, 2025","Extracranial Cerebrovascular Testing, Peripheral Arterial Testing, Visceral Vascular Testing | Peripheral Venous Testing",,,,,,,,,,,,,,
371,372,"Winchester Cardiology and Vascular Medicine, PC",39.196251,-78.194203,granted,1870 Amherst St,Suite 200,Winchester,VA,22601,USA,,,,echo,"www.google.com/search?q=Winchester+Cardiology+and+Vascular+Medicine,+PC","Winchester Cardiology and Vascular Medicine, PC Winchester",,,"Jul 31, 2024","Adult Stress, Adult Transthoracic",,,,,,,,,,,,,,,,,,,,
372,373,Winchester Medical Center,39.191373,-78.194719,granted,1840 Amherst Street,,Winchester,VA,22601,USA,,www.valleyhealthlink.com,,mr,,Winchester Medical Center Winchester,,,,,"May 31, 2024","Body MRI, Cardiovascular MRI, Musculoskeletal MRI, Neurological MRI, Breast MRI, MRA",,,,,,,,,,,,,,,,,,
373,374,Winchester Medical Center - Valley Health,39.191373,-78.194719,granted,1840 Amherst Street,,Winchester,VA,22601,USA,,,,echo,www.google.com/search?q=Winchester+Medical+Center+-+Valley+Health,Winchester Medical Center - Valley Health Winchester,,,"May 31, 2024",Adult Transthoracic,,,,,,,,,,,,,,,,,,,,
374,375,Winchester Neurological Consultants Valley Open MRI,39.191668,-78.191905,granted,1830 Amherst St,,Winchester,VA,22601,USA,,,,mr,www.google.com/search?q=Winchester+Neurological+Consultants+Valley+Open+MRI,Winchester Neurological Consultants Valley Open MRI Winchester,,,,,"Jan 31, 2024","Neurological MRI, MRA",,,,,,,,,,,,,,,,,,
375,376,WOA Imaging Associates  Valley Open MRI,39.191668,-78.191905,granted,1830 Amherst Street,,Winchester,VA,22601,USA,,www.valleyhealthlink.com,,mr,,WOA Imaging Associates  Valley Open MRI Winchester,,,,,"Jan 31, 2024",Musculoskeletal MRI,,,,,,,,,,,,,,,,,,
376,377,WVU Medical Corparation DBA University Health Associates,39.16316,-78.188703,granted,650 Cedar Creek Grade Rd,suite 100,Winchester,VA,22601,USA,,,,nuclear,www.google.com/search?q=WVU+Medical+Corparation+DBA+University+Health+Associates,WVU Medical Corparation DBA University Health Associates Winchester,,,,,,,"Sep 30, 2023","Equilibrium Radionuclide Angiography, Myocardial Perfusion Imaging",,,,,,,,,,,,,,,,
377,378,WVU Medicine Heart and Vascular Institute - East,39.16316,-78.188703,granted,650 Cedar Creek Grade,Suite 100,Winchester,VA,22601,USA,,www.wvumedicine.com,,echo,,WVU Medicine Heart and Vascular Institute - East Winchester,,,"Jun 30, 2025",Adult Transthoracic,,,,,,,,,,,,,,,,,,,,
