,id,name,lat,lng,category,address,address2,city,state,postal,country,phone,web,features,modalities,searchGoogle,search,ct,ct_areas,echo,echo_areas,mr,mr_areas,nuclear,nuclear_areas,vascular,vascular_areas,pediatric_echo,pediatric_echo_areas,ct-dental,ct-dental_areas,stenting,stenting_areas,vein_center,vein_center_areas,cardiac_electrophysiology,cardiac_electrophysiology_areas,cardiovascular_catheterization,cardiovascular_catheterization_areas,jrcdms,jrcdms_areas
0,1,Allenmore Hospital,47.242526,-122.482642,granted,1901 South Union Ave,,Tacoma,WA,98405,USA,,,,echo,www.google.com/search?q=Allenmore+Hospital,Allenmore Hospital Tacoma,,,"Aug 31, 2024","Adult Transesophageal, Adult Transthoracic",,,,,,,,,,,,,,,,,,,,
1,2,Allenmore Hospital Vascular Laboratory,47.242526,-122.482642,granted,1901 South Union,,Tacoma,WA,98405,USA,,,,vascular,www.google.com/search?q=Allenmore+Hospital+Vascular+Laboratory,Allenmore Hospital Vascular Laboratory Tacoma,,,,,,,,,"Apr 30, 2024","Extracranial Cerebrovascular Testing, Peripheral Arterial Testing, Peripheral Venous Testing, Visceral Vascular Testing",,,,,,,,,,,,,,
2,3,Bellevue Ear Nose Throat Clinic (Issaquah CT Scanner),47.536676,-122.020516,granted,510 8th Ave NE,#310,Issaquah,WA,98029,USA,,www.bellevueent.com,,ct,,Bellevue Ear Nose Throat Clinic (Issaquah CT Scanner) Issaquah,"Apr 30, 2024",Maxillofacial CT,,,,,,,,,,,,,,,,,,,,,,
3,4,"Bellevue Ear, Nose and Throat Clinic",47.621707,-122.185679,granted,1231 116th Avenue Northeast,Suite 915,Bellevue,WA,98004,USA,,www.bellevueent.com,,ct,,"Bellevue Ear, Nose and Throat Clinic Bellevue","Apr 30, 2024",Maxillofacial CT,,,,,,,,,,,,,,,,,,,,,,
4,5,Bellingham ENT,48.772158,-122.474493,granted,2940 Squalicum Pkwy 203,,Bellingham,WA,98225,USA,,bellinghament.com,,ct,,Bellingham ENT Bellingham,"Jan 31, 2023",Maxillofacial CT,,,,,,,,,,,,,,,,,,,,,,
5,6,BoxBar Vascular,47.661485,-122.292405,granted,"3216 NE 45th Place, Suite 207",,Seattle,WA,98105,USA,,www.boxbarvascular.com,,vascular,,BoxBar Vascular Seattle,,,,,,,,,"Jul 31, 2024",Peripheral Venous Testing,,,,,,,,,,,,,,
6,7,Capital Medical Center,47.041666,-122.951446,granted,3900 Capital Mall Drive SW,,Olympia,WA,98502,USA,,,,vascular,www.google.com/search?q=Capital+Medical+Center,Capital Medical Center Olympia,,,,,,,,,"Sep 29, 2022 | Jul 31, 2025","Extracranial Cerebrovascular Testing, Peripheral Arterial Testing | Peripheral Venous Testing",,,,,,,,,,,,,,
7,8,Cardiac Study Center,47.242015,-122.476284,granted,1901 South Cedar,Suite 301,Tacoma,WA,98405,USA,,,,nuclear,www.google.com/search?q=Cardiac+Study+Center,Cardiac Study Center Tacoma,,,,,,,"Aug 31, 2023","Myocardial Perfusion Imaging, Positron Emission Tomography (PET)",,,,,,,,,,,,,,,,
8,9,Cardiac Study Center,47.309153,-122.229833,granted,202 N. Division,Suite 301,Auburn,WA,98001,USA,,,,echo,www.google.com/search?q=Cardiac+Study+Center,Cardiac Study Center Auburn,,,"Apr 30, 2024",Adult Transthoracic,,,,,,,,,,,,,,,,,,,,
9,10,Cardiac Study Center Puyallup,47.178063,-122.288213,granted,"1450 5th St. SE, Suite 1100",,Puyallup,WA,98371,USA,,,,nuclear,www.google.com/search?q=Cardiac+Study+Center+Puyallup,Cardiac Study Center Puyallup Puyallup,,,,,,,"Aug 31, 2023",Myocardial Perfusion Imaging,,,,,,,,,,,,,,,,
10,11,"Cardiac Study Center, Inc. P.S.",47.05855,-122.941195,granted,1603 Cooper Point RD NW,,Olympia,WA,98502,USA,,,,echo,"www.google.com/search?q=Cardiac+Study+Center,+Inc.+P.S.","Cardiac Study Center, Inc. P.S. Olympia",,,"Apr 30, 2024",Adult Transthoracic,,,,,,,,,,,,,,,,,,,,
11,12,"Cardiac Study Center, Inc. P.S.",47.242015,-122.476284,granted,1901 South Cedar Street,Suite 301,Tacoma,WA,98405,USA,,cardiacstudycenter.com,,echo,,"Cardiac Study Center, Inc. P.S. Tacoma",,,"Apr 30, 2024",Adult Transthoracic,,,,,,,,,,,,,,,,,,,,
12,13,"Cardiac Study Center, Inc. P.S.",47.179333,-122.291144,granted,1322 3rd Street South East,Suite 330,Puyallup,WA,98405,USA,,cardiacstudycenter.com,,echo,,"Cardiac Study Center, Inc. P.S. Puyallup",,,"Apr 30, 2024",Adult Transthoracic,,,,,,,,,,,,,,,,,,,,
13,14,"Cardiac Study Center, Inc. P.S.",47.300429,-122.579307,granted,4700 Point Fosdick Drive North West,Suite 201,Gig Harbor,WA,98335,USA,,cardiacstudycenter.com,,echo,,"Cardiac Study Center, Inc. P.S. Gig Harbor",,,"Apr 30, 2024",Adult Transthoracic,,,,,,,,,,,,,,,,,,,,
14,15,Central Washington Hospital,47.407963,-120.324593,granted,1201 S. Miller Street,,Wenatchee,WA,98801,USA,,,,nuclear,www.google.com/search?q=Central+Washington+Hospital,Central Washington Hospital Wenatchee,,,,,,,"Oct 31, 2023","Myocardial Perfusion Imaging, Other Cardiovascular Imaging",,,,,,,,,,,,,,,,
15,16,Cerebrovascular Laboratory,47.604084,-122.323372,granted,325 Ninth Avenue,Box 359970,Seattle,WA,98104,USA,,,,vascular,www.google.com/search?q=Cerebrovascular+Laboratory,Cerebrovascular Laboratory Seattle,,,,,,,,,"Nov 30, 2023","Extracranial Cerebrovascular Testing, Intracranial Cerebrovascular Testing",,,,,,,,,,,,,,
16,17,Child-Adolescent Clinic,46.131128,-122.933975,granted,971 11th Avenue,,Longview,WA,98632,USA,,,,pediatric_echo,www.google.com/search?q=Child-Adolescent+Clinic,Child-Adolescent Clinic Longview,,,,,,,,,,,"Jun 30, 2023",Pediatric Transthoracic,,,,,,,,,,,,
17,18,Columbia Tech Center,45.619022,-122.495577,granted,501 SE 172nd Ave,Suite 150,Vancouver,WA,98664,USA,,,,pediatric_echo,www.google.com/search?q=Columbia+Tech+Center,Columbia Tech Center Vancouver,,,,,,,,,,,"Jun 30, 2023",Pediatric Transthoracic,,,,,,,,,,,,
18,19,Confluence Health - Wenatchee Valley Hospital and Clinics,47.407963,-120.324593,granted,1201 S. Miller,,Wenatchee,WA,98801,USA,,confluencehealth.org,,vascular,,Confluence Health - Wenatchee Valley Hospital and Clinics Wenatchee,,,,,,,,,"Jan 31, 2024","Extracranial Cerebrovascular Testing, Peripheral Arterial Testing, Peripheral Venous Testing, Visceral Vascular Testing",,,,,,,,,,,,,,
19,20,Confluence Health-Central Washington Hospital,47.407963,-120.324593,granted,1201 S. Miller St,,Wenatchee,WA,98801,USA,,,,echo,www.google.com/search?q=Confluence+Health-Central+Washington+Hospital,Confluence Health-Central Washington Hospital Wenatchee,,,"Oct 31, 2024",Adult Transthoracic,,,,,,,,,,,,,,,,,,,,
20,21,"Ear, Nose, Throat and Allergy Associates a division of Proliance",47.165676,-122.292817,granted,104 27th Ave SE,,Puyallup,WA,98374,USA,,,,ct,"www.google.com/search?q=Ear,+Nose,+Throat+and+Allergy+Associates+a+division+of+Proliance","Ear, Nose, Throat and Allergy Associates a division of Proliance Puyallup","May 31, 2024",Maxillofacial CT,,,,,,,,,,,,,,,,,,,,,,
21,22,Eastside Specialty Clinic,47.625805,-122.185675,granted,3100 Northup Way,,Bellevue,WA,98004,USA,,,,echo,www.google.com/search?q=Eastside+Specialty+Clinic,Eastside Specialty Clinic Bellevue,,,"Oct 30, 2022","Adult Stress, Adult Transthoracic",,,,,,,,,,,,,,,,,,,,
22,23,ENT Associates SW,47.048547,-122.844453,granted,"128 Lilly Road NE, Suite 202",,Olympia,WA,98506,USA,,www.entsw.com,,ct,,ENT Associates SW Olympia,"May 31, 2024",Maxillofacial CT,,,,,,,,,,,,,,,,,,,,,,
23,24,Evergreen Hospital Medical Center,47.714872,-122.178506,multigranted,12040 NE 128th St,,Kirkland,WA,98034,USA,,www.evergreenhealthcare.org,,"echo, nuclear",,Evergreen Hospital Medical Center Kirkland,,,"Oct 31, 2024","Adult Stress, Adult Transthoracic",,,"Oct 31, 2024",Myocardial Perfusion Imaging,,,,,,,,,,,,,,,,
24,25,Evergreen Pediatric Clinic,45.625662,-122.583646,granted,505 NE 87th Avenue,Suite 120,Vancouver,WA,98664,USA,,,,pediatric_echo,www.google.com/search?q=Evergreen+Pediatric+Clinic,Evergreen Pediatric Clinic Vancouver,,,,,,,,,,,"Jun 30, 2023",Pediatric Transthoracic,,,,,,,,,,,,
25,26,Franciscan Heart and Vascular Associates,47.292644,-122.322942,granted,34509 Ninth Avenue South,Suite 304,Federal Way,WA,98003,USA,,,,echo,www.google.com/search?q=Franciscan+Heart+and+Vascular+Associates,Franciscan Heart and Vascular Associates Federal Way,,,"Apr 30, 2023","Adult Stress, Adult Transthoracic",,,,,,,,,,,,,,,,,,,,
26,27,Franciscan Heart and Vascular Associates,47.456895,-122.341362,granted,16233 Sylvester Road SW,Suite 260,Burien,WA,98166,USA,,,,echo,www.google.com/search?q=Franciscan+Heart+and+Vascular+Associates,Franciscan Heart and Vascular Associates Burien,,,"Apr 30, 2023","Adult Stress, Adult Transthoracic",,,,,,,,,,,,,,,,,,,,
27,28,Franciscan Heart and Vascular Associates,47.316522,-122.226746,granted,205 10th Street NE,,Auburn,WA,98002,USA,,,,echo,www.google.com/search?q=Franciscan+Heart+and+Vascular+Associates,Franciscan Heart and Vascular Associates Auburn,,,"Apr 30, 2023","Adult Stress, Adult Transthoracic",,,,,,,,,,,,,,,,,,,,
28,29,Franciscan Medical Clinic,47.31707,-122.22677,granted,205 10th St NE,,Auburn,WA,98002,USA,,,,nuclear,www.google.com/search?q=Franciscan+Medical+Clinic,Franciscan Medical Clinic Auburn,,,,,,,"Oct 31, 2024",Myocardial Perfusion Imaging,,,,,,,,,,,,,,,,
29,30,Franciscan Vascular Lab - Enumclaw,47.205186,-121.988117,granted,1818 Cole St.,,Enumclaw,WA,98022,USA,,,,vascular,www.google.com/search?q=Franciscan+Vascular+Lab+-+Enumclaw,Franciscan Vascular Lab - Enumclaw Enumclaw,,,,,,,,,"Aug 31, 2023","Extracranial Cerebrovascular Testing, Peripheral Arterial Testing, Peripheral Venous Testing, Visceral Vascular Testing",,,,,,,,,,,,,,
30,31,Franciscan Vascular Lab - Federal Way,47.289859,-122.324645,granted,710 So. 348th Street,Ste. A,Federal Way,WA,98003,USA,,,,vascular,www.google.com/search?q=Franciscan+Vascular+Lab+-+Federal+Way,Franciscan Vascular Lab - Federal Way Federal Way,,,,,,,,,"Aug 31, 2023","Extracranial Cerebrovascular Testing, Peripheral Arterial Testing, Peripheral Venous Testing, Visceral Vascular Testing",,,,,,,,,,,,,,
31,32,Franciscan Vascular Lab - Gig Harbor,47.363861,-122.614786,granted,11511 Canterwood Blvd. NW,Ste. 100,Gig Harbor,WA,98332,USA,,,,vascular,www.google.com/search?q=Franciscan+Vascular+Lab+-+Gig+Harbor,Franciscan Vascular Lab - Gig Harbor Gig Harbor,,,,,,,,,"Aug 31, 2023","Extracranial Cerebrovascular Testing, Peripheral Arterial Testing, Peripheral Venous Testing, Visceral Vascular Testing",,,,,,,,,,,,,,
32,33,Franciscan Vascular Lab - Highline,47.456895,-122.341362,granted,16233 Sylvester Rd SW  260,,Burien,WA,98166,USA,,,,vascular,www.google.com/search?q=Franciscan+Vascular+Lab+-+Highline,Franciscan Vascular Lab - Highline Burien,,,,,,,,,"Aug 31, 2023","Extracranial Cerebrovascular Testing, Peripheral Arterial Testing, Peripheral Venous Testing, Visceral Vascular Testing",,,,,,,,,,,,,,
33,34,Franciscan Vascular Lab - St. Clare,47.154234,-122.504495,granted,11311 Bridgeport Way S.W. 203,,Lakewood,WA,98499,USA,,,,vascular,www.google.com/search?q=Franciscan+Vascular+Lab+-+St.+Clare,Franciscan Vascular Lab - St. Clare Lakewood,,,,,,,,,"Aug 31, 2023","Extracranial Cerebrovascular Testing, Peripheral Arterial Testing, Peripheral Venous Testing, Visceral Vascular Testing",,,,,,,,,,,,,,
34,35,Franciscan Vascular Lab - Tacoma,47.245042,-122.445708,granted,1802 S. Yakima Ave.,Suite 204,Tacoma,WA,98405,USA,,,,vascular,www.google.com/search?q=Franciscan+Vascular+Lab+-+Tacoma,Franciscan Vascular Lab - Tacoma Tacoma,,,,,,,,,"Aug 31, 2023","Extracranial Cerebrovascular Testing, Peripheral Arterial Testing, Peripheral Venous Testing, Visceral Vascular Testing",,,,,,,,,,,,,,
35,36,Franciscan Vascular Surgery Associates,47.658161,-122.676995,granted,1950 NW Myhre Rd,Level 3,Silverdale,WA,98383,USA,,chifranciscan.org/stmichael,,vascular,,Franciscan Vascular Surgery Associates Silverdale,,,,,,,,,"Jul 31, 2024","Extracranial Cerebrovascular Testing, Peripheral Arterial Testing",,,,,,,,,,,,,,
36,37,Harborview Medical Center,47.604084,-122.323372,granted,325 Ninth Avenue,Box 359971,Seattle,WA,98104,USA,,,,vascular,www.google.com/search?q=Harborview+Medical+Center,Harborview Medical Center Seattle,,,,,,,,,"Dec 31, 2023","Extracranial Cerebrovascular Testing, Peripheral Arterial Testing, Peripheral Venous Testing, Visceral Vascular Testing",,,,,,,,,,,,,,
37,38,Harborview Medical Center Echocardiography Laboratory,47.604084,-122.323372,granted,325 9th Avenue,mail stop 359748,Seattle,WA,98104,USA,,,,echo,www.google.com/search?q=Harborview+Medical+Center+Echocardiography+Laboratory,Harborview Medical Center Echocardiography Laboratory Seattle,,,"Jun 30, 2025","Adult Stress, Adult Transesophageal, Adult Transthoracic",,,,,,,,,,,,,,,,,,,,
38,39,Harrison HealthPartners Cardiovascular Consultants,47.52354,-122.657473,granted,450 South Kitsap Blvd,Suite 200,Port Orchard,WA,98366,USA,,www.harrisonhealthpartners.org,,echo,,Harrison HealthPartners Cardiovascular Consultants Port Orchard,,,"Jan 31, 2023",Adult Transthoracic,,,,,,,,,,,,,,,,,,,,
39,40,Harrison HealthPartners Cardiovascular Consultants,47.764739,-122.661257,granted,22180 Olympic College Way,Suite 201,Poulsbo,WA,98370,USA,,www.harrisonhealthpartners.org,,echo,,Harrison HealthPartners Cardiovascular Consultants Poulsbo,,,"Jan 31, 2023",Adult Transthoracic,,,,,,,,,,,,,,,,,,,,
40,41,Harrison HealthPartners Cardiovascular Consultants,47.658161,-122.676995,granted,2709 Hemlock Street,,Bremerton,WA,98310,USA,,www.harrisonhealthpartners.org,,echo,,Harrison HealthPartners Cardiovascular Consultants Bremerton,,,"Jan 31, 2023","Adult Stress, Adult Transthoracic",,,,,,,,,,,,,,,,,,,,
41,42,Harrison HealthPartners Cardiovascular Consultants,47.58362,-122.62785,granted,1950 NW Myhre Rd,,Silverdale,WA,98383,USA,,,,nuclear,www.google.com/search?q=Harrison+HealthPartners+Cardiovascular+Consultants,Harrison HealthPartners Cardiovascular Consultants Silverdale,,,,,,,"Aug 31, 2023",Myocardial Perfusion Imaging,,,,,,,,,,,,,,,,
42,43,Inland Imaging - Holy Family Center,47.753036,-117.440012,granted,5715 North Lidgerwood,,Spokane,WA,99208,USA,,www.inlandimaging.com,,vascular,,Inland Imaging - Holy Family Center Spokane,,,,,,,,,"Jul 31, 2025","Extracranial Cerebrovascular Testing, Peripheral Arterial Testing, Peripheral Venous Testing",,,,,,,,,,,,,,
43,44,Inland Imaging - South Cowley Center,47.650945,-117.408158,granted,525 South Cowley Street,,Spokane,WA,99202,USA,,www.inlandimaging.com,,vascular,,Inland Imaging - South Cowley Center Spokane,,,,,,,,,"Jul 31, 2025","Extracranial Cerebrovascular Testing, Peripheral Arterial Testing, Peripheral Venous Testing",,,,,,,,,,,,,,
44,45,Inland Imaging - Spokane Valley Center,47.671657,-117.238003,granted,12420 East Mission Avenue,,Spokane Valley,WA,99216,USA,,www.inlandimaging.com,,vascular,,Inland Imaging - Spokane Valley Center Spokane Valley,,,,,,,,,"Jul 31, 2025","Extracranial Cerebrovascular Testing, Peripheral Arterial Testing, Peripheral Venous Testing",,,,,,,,,,,,,,
45,46,Kadlec Clinic Northwest Orthopaedic and Sports Medicine,46.280442,-119.28251,granted,875 Swift Boulevard,,Richland,WA,99352,USA,,www.nwortho.com,,mr,,Kadlec Clinic Northwest Orthopaedic and Sports Medicine Richland,,,,,"Oct 31, 2023",Musculoskeletal MRI,,,,,,,,,,,,,,,,,,
46,47,Kadlec Pediatric Cardiology,46.263476,-119.262397,granted,112 Columbia Point Drive,Suite 103,Richland,WA,99352,USA,,,,pediatric_echo,www.google.com/search?q=Kadlec+Pediatric+Cardiology,Kadlec Pediatric Cardiology Richland,,,,,,,,,,,"Nov 30, 2024","Pediatric Transthoracic, Fetal",,,,,,,,,,,,
47,48,Kaiser Permanente Northwest - Longview Kelso Medical Office,46.13408,-122.927189,granted,1230 Seventh Avenue,,Longview,WA,98632,USA,,kp.org/heart,,echo,,Kaiser Permanente Northwest - Longview Kelso Medical Office Longview,,,"Oct 31, 2024",Adult Transthoracic,,,,,,,,,,,,,,,,,,,,
48,49,Kaiser Permanente Northwest - Salmon Creek Medical Office,45.726383,-122.651345,granted,14406 NE 20th Ave,,Vancouver,WA,98686,USA,,kp.org/heart,,echo,,Kaiser Permanente Northwest - Salmon Creek Medical Office Vancouver,,,"Oct 31, 2024",Adult Transthoracic,,,,,,,,,,,,,,,,,,,,
49,50,"Lake Washington Vascular Laboratories, Bellevue",47.621425,-122.185664,granted,1135 116th Avenue North East,Suite 305,Bellevue,WA,98004,USA,,lakewashingtonvascular.com,,vascular,,"Lake Washington Vascular Laboratories, Bellevue Bellevue",,,,,,,,,"Mar 31, 2024","Extracranial Cerebrovascular Testing, Peripheral Arterial Testing, Peripheral Venous Testing, Visceral Vascular Testing",,,,,,,,,,,,,,
50,51,"Lake Washington Vascular Laboratories, Issaquah",47.543023,-122.063342,granted,1740 NW Maple St,,Issaquah,WA,98027,USA,,lakewashingtonvascular.com,,vascular,,"Lake Washington Vascular Laboratories, Issaquah Issaquah",,,,,,,,,"Mar 31, 2024","Extracranial Cerebrovascular Testing, Peripheral Arterial Testing, Peripheral Venous Testing, Visceral Vascular Testing",,,,,,,,,,,,,,
51,52,"Lake Washington Vascular Laboratories, Kirkland",47.71675,-122.176314,granted,12333 North East 130th Lane 425,,Kirkland,WA,98034,USA,,Lakewashingtonvascular.com,,vascular,,"Lake Washington Vascular Laboratories, Kirkland Kirkland",,,,,,,,,"Mar 31, 2024","Extracranial Cerebrovascular Testing, Peripheral Arterial Testing, Peripheral Venous Testing, Visceral Vascular Testing",,,,,,,,,,,,,,
52,53,Legacy Childrens Center,45.721827,-122.648455,granted,2121 NE 139th Street,"MOB A, Suite 200",Vancouver,WA,98686,USA,,,,pediatric_echo,www.google.com/search?q=Legacy+Childrens+Center,Legacy Childrens Center Vancouver,,,,,,,,,,,"Jun 30, 2023",Pediatric Transthoracic,,,,,,,,,,,,
53,54,Legacy Salmon Creek Medical Center,45.721823,-122.649882,granted,2211 S. E. 139th Street,,Vancouver,WA,98686,USA,,www.legacyhealth.org,,pediatric_echo,,Legacy Salmon Creek Medical Center Vancouver,,,,,,,,,,,"Oct 30, 2022",Pediatric Transthoracic,,,,,,,,,,,,
54,55,Legacy Salmon Creek Medical Center,45.721823,-122.649882,granted,2211 S.E. 139th Street,,Vancouver,WA,98686,USA,,www.legacyhealth.org,,echo,,Legacy Salmon Creek Medical Center Vancouver,,,"Nov 29, 2022",Adult Transthoracic,,,,,,,,,,,,,,,,,,,,
55,56,Madigan Army Medical Center,47.259029,-122.537123,granted,9040 Jackson Avenue,,Tacoma,WA,98431,USA,,,,pediatric_echo,www.google.com/search?q=Madigan+Army+Medical+Center,Madigan Army Medical Center Tacoma,,,,,,,,,,,"Jun 30, 2023",Pediatric Transthoracic,,,,,,,,,,,,
56,57,Madigan Army Medical Center,47.25308,-122.44153,granted,9040A Fitzsimmons Avenue,,Tacoma,WA,98431,USA,,,,vascular,www.google.com/search?q=Madigan+Army+Medical+Center,Madigan Army Medical Center Tacoma,,,,,,,,,"Oct 31, 2023","Extracranial Cerebrovascular Testing, Peripheral Arterial Testing, Visceral Vascular Testing",,,,,,,,,,,,,,
57,58,"Medical Oncology Associates, PS",47.671625,-117.224087,granted,13424 East Mission,,Spokane Valley,WA,99216,USA,,,,ct,"www.google.com/search?q=Medical+Oncology+Associates,+PS","Medical Oncology Associates, PS Spokane Valley","May 31, 2024",Body CT,,,,,,,,,,,,,,,,,,,,,,
58,59,"Medical Oncology Associates, PS",47.671625,-117.224087,granted,13424 East Mission,,Spokane Valley,WA,99216,USA,,,,nuclear,"www.google.com/search?q=Medical+Oncology+Associates,+PS","Medical Oncology Associates, PS Spokane Valley",,,,,,,"Jun 30, 2024",Positron Emission Tomography (PET),,,,,,,,,,,,,,,,
59,60,"Medical Oncology Associates, PS",47.712573,-117.408572,multigranted,6001 N Mayfair St,,Spokane,WA,99208,USA,,,,"ct, nuclear","www.google.com/search?q=Medical+Oncology+Associates,+PS","Medical Oncology Associates, PS Spokane","May 31, 2024",Body CT,,,,,"Jun 30, 2024",Positron Emission Tomography (PET),,,,,,,,,,,,,,,,
60,61,MHS Good Samaritan Hospital,47.177411,-122.289468,granted,401 15th Ave SE,,Puyallup,WA,98372,USA,,,,echo,www.google.com/search?q=MHS+Good+Samaritan+Hospital,MHS Good Samaritan Hospital Puyallup,,,"Aug 31, 2024","Adult Transesophageal, Adult Transthoracic",,,,,,,,,,,,,,,,,,,,
61,62,Modern Nose Clinic LLC,47.577347,-122.17318,granted,12402 Southeast 38th Street,Suite 201,Bellevue,WA,98006,United States,,www.modernnoseclinic.com,,ct,,Modern Nose Clinic LLC Bellevue,"Feb 29, 2024",Maxillofacial CT,,,,,,,,,,,,,,,,,,,,,,
62,63,MultiCare Auburn Medical Center,47.309153,-122.229833,granted,202 N Division St,,Auburn,WA,98001,USA,,,,echo,www.google.com/search?q=MultiCare+Auburn+Medical+Center,MultiCare Auburn Medical Center Auburn,,,"Aug 31, 2024","Adult Transesophageal, Adult Transthoracic",,,,,,,,,,,,,,,,,,,,
63,64,MultiCare Covington Heart Center,47.358063,-122.104227,granted,17700 S.E. 272nd St.,,Covington,WA,98042,USA,,,,echo,www.google.com/search?q=MultiCare+Covington+Heart+Center,MultiCare Covington Heart Center Covington,,,"Aug 31, 2024",Adult Transthoracic,,,,,,,,,,,,,,,,,,,,
64,65,MultiCare Covington Medical Center,47.358063,-122.104227,granted,17700 SE 272nd St,,Covington,WA,98042,USA,,,,echo,www.google.com/search?q=MultiCare+Covington+Medical+Center,MultiCare Covington Medical Center Covington,,,"Aug 31, 2024",Adult Transthoracic,,,,,,,,,,,,,,,,,,,,
65,66,MultiCare Deaconess Hospital,47.651399,-117.423806,granted,800 W. 5th Ave.,,Spokane,WA,99204,USA,,www.multicare.org/deaconess-hospital/,,echo,,MultiCare Deaconess Hospital Spokane,,,"Jan 31, 2024",Adult Transthoracic,,,,,,,,,,,,,,,,,,,,
66,67,MultiCare Pulse Advanced Cardiac Imaging,47.743993,-117.399738,multigranted,605 E. Holland Ave Suite 218,,Spokane,WA,99218,USA,,,,"nuclear, vascular, echo",www.google.com/search?q=MultiCare+Pulse+Advanced+Cardiac+Imaging,MultiCare Pulse Advanced Cardiac Imaging Spokane,,,"Jan 31, 2024",Adult Transthoracic,,,"Dec 31, 2023","Equilibrium Radionuclide Angiography, Myocardial Perfusion Imaging","Dec 31, 2023","Extracranial Cerebrovascular Testing, Peripheral Arterial Testing",,,,,,,,,,,,,,
67,68,MultiCare Pulse Advanced Cardiac Imaging,47.6514,-117.425363,multigranted,910 W. 5th Ave. Suite 901,,Spokane,WA,99204,USA,,,,"nuclear, vascular, echo",www.google.com/search?q=MultiCare+Pulse+Advanced+Cardiac+Imaging,MultiCare Pulse Advanced Cardiac Imaging Spokane,,,"Jan 31, 2024","Adult Stress, Adult Transthoracic",,,"Dec 31, 2023","Equilibrium Radionuclide Angiography, Myocardial Perfusion Imaging","Dec 31, 2023","Extracranial Cerebrovascular Testing, Peripheral Arterial Testing, Peripheral Venous Testing, Visceral Vascular Testing",,,,,,,,,,,,,,
68,69,MultiCare Pulse Valley CSC,47.657147,-117.210804,multigranted,14408 E. Sprague Ave.,,Spokane Valley,WA,99216,USA,,www.pulseheartinstitute.org,,"vascular, echo",,MultiCare Pulse Valley CSC Spokane Valley,,,"Jan 31, 2024",Adult Transthoracic,,,,,"Dec 31, 2023","Extracranial Cerebrovascular Testing, Peripheral Arterial Testing",,,,,,,,,,,,,,
69,70,MultiCare Pulse Valley CSC,47.657147,-117.210804,granted,14408 E. Sprague Ave.,,Spokane Valley,WA,99216,USA,,www.pulseheartinstitute.org,,nuclear,,MultiCare Pulse Valley CSC Spokane Valley,,,,,,,"Dec 31, 2023",Myocardial Perfusion Imaging,,,,,,,,,,,,,,,,
70,71,MultiCare Valley Hospital,47.671647,-117.235868,granted,12606 East Mission Ave.,,Spokane Valley,WA,99216-3421,USA,,www.multicare.org/valley-hospital/,,echo,,MultiCare Valley Hospital Spokane Valley,,,"Jan 31, 2024",Adult Transthoracic,,,,,,,,,,,,,,,,,,,,
71,72,Northern Desert Cardiology,46.282003,-119.277327,granted,1110 Gilmore Avenue,,Richland,WA,99352,USA,,,,echo,www.google.com/search?q=Northern+Desert+Cardiology,Northern Desert Cardiology Richland,,,"Jun 30, 2023","Adult Stress, Adult Transthoracic",,,,,,,,,,,,,,,,,,,,
72,73,NorthWest Children’s Heart Care,47.259881,-122.453534,granted,314 Martin Luther King Jr. Way,#303,Tacoma,WA,98405,USA,,,,pediatric_echo,www.google.com/search?q=NorthWest+Children’s+Heart+Care,NorthWest Children’s Heart Care Tacoma,,,,,,,,,,,"Oct 30, 2022","Pediatric Transthoracic, Fetal",,,,,,,,,,,,
73,74,NorthWest Children’s Heart Care,47.610529,-122.32232,granted,1229 Madison St,Suite 860,Seattle,WA,98104,USA,,,,pediatric_echo,www.google.com/search?q=NorthWest+Children’s+Heart+Care,NorthWest Children’s Heart Care Seattle,,,,,,,,,,,"Oct 30, 2022","Pediatric Transthoracic, Fetal",,,,,,,,,,,,
74,75,"Northwest Surgical Specialist, P.C.",45.62194,-122.580296,granted,200 NE Mother Joseph Pl,Suite 210,Vancouver,WA,98685,USA,,,,ct,"www.google.com/search?q=Northwest+Surgical+Specialist,+P.C.","Northwest Surgical Specialist, P.C. Vancouver","Feb 28, 2023",Body CT,,,,,,,,,,,,,,,,,,,,,,
75,76,Northwest Vascular Diagnostics,47.300425,-122.579326,granted,4700 Point Fosdick Drive,Suite 309,Gig Harbor,WA,98335,USA,,,,vascular,www.google.com/search?q=Northwest+Vascular+Diagnostics,Northwest Vascular Diagnostics Gig Harbor,,,,,,,,,"Sep 30, 2024",Peripheral Venous Testing,,,,,,,,,,,,,,
76,77,Olympia Multi-specialty Clinic,47.04566,-122.951437,multigranted,406-A Black Hills Lane Southwest,,Olympia,WA,98502,USA,,www.omsc.net,,"nuclear, echo",,Olympia Multi-specialty Clinic Olympia,,,"May 31, 2024",Adult Transthoracic,,,"May 31, 2023","Myocardial Perfusion Imaging, Positron Emission Tomography (PET)",,,,,,,,,,,,,,,,
77,78,Olympia Orthopaedic Associates,47.041595,-122.950841,granted,3901 Capital Mall Dr SW,,Olympia,WA,98512,USA,,www.olyortho.com,,mr,,Olympia Orthopaedic Associates Olympia,,,,,"Feb 28, 2025",Musculoskeletal MRI,,,,,,,,,,,,,,,,,,
78,79,Open Advanced MRI of Vancouver,45.622918,-122.563018,multigranted,221-G NE 104th Ave. Suite 106,,Vancouver,WA,98664,USA,,,,"ct, mr",www.google.com/search?q=Open+Advanced+MRI+of+Vancouver,Open Advanced MRI of Vancouver Vancouver,"Apr 30, 2023","Body CT, Neurological CT",,,"Oct 31, 2023","Musculoskeletal MRI, Neurological MRI",,,,,,,,,,,,,,,,,,
79,80,Overlake Hospital Medical Center,47.621712,-122.219485,granted,1135-116th Avenue N.E.,Suite 640,Bellevue,WA,98004,USA,,,,echo,www.google.com/search?q=Overlake+Hospital+Medical+Center,Overlake Hospital Medical Center Bellevue,,,"Nov 30, 2023","Adult Stress, Adult Transthoracic",,,,,,,,,,,,,,,,,,,,
80,81,Overlake Medical Center,47.62017,-122.20342,granted,1035 116th Ave NE,Medical Imaging - Echocardiography,Bellevue,WA,98004,USA,,www.overlakehospital.org/department/diagnostic-interventional-cardiology,,echo,,Overlake Medical Center Bellevue,,,"Nov 30, 2023","Adult Stress, Adult Transthoracic",,,,,,,,,,,,,,,,,,,,
81,82,Pacific Medical Centers - Bothell,47.803749,-122.206977,multigranted,"1909 214th Street SE, Suite 300",,Bothell,WA,98021,USA,,www.pacificmedicalcenters.org,,"vascular, echo",,Pacific Medical Centers - Bothell Bothell,,,"Sep 30, 2024","Adult Stress, Adult Transthoracic",,,,,"Nov 30, 2023","Extracranial Cerebrovascular Testing, Peripheral Arterial Testing, Peripheral Venous Testing, Visceral Vascular Testing, Screening",,,,,,,,,,,,,,
82,83,Pacific Medical Centers - Renton,47.441606,-122.210425,multigranted,1801 Lind Ave SW,Building D,Renton,WA,98057,USA,,www.pacificmedicalcenters.org,,"vascular, echo",,Pacific Medical Centers - Renton Renton,,,"Sep 30, 2024","Adult Stress, Adult Transthoracic",,,,,"Nov 30, 2023","Extracranial Cerebrovascular Testing, Peripheral Arterial Testing, Peripheral Venous Testing, Visceral Vascular Testing, Screening",,,,,,,,,,,,,,
83,84,Pacific Medical Centers - Seattle,47.609649,-122.32444,multigranted,1101 Madison St,Suites 301,Seattle,WA,98104,USA,,www.pacificmedicalcenters.org,,"vascular, echo",,Pacific Medical Centers - Seattle Seattle,,,"Sep 30, 2024","Adult Stress, Adult Transthoracic",,,,,"Nov 30, 2023","Extracranial Cerebrovascular Testing, Peripheral Arterial Testing, Peripheral Venous Testing, Visceral Vascular Testing, Screening",,,,,,,,,,,,,,
84,85,Pacific Medical Centers Federal Way,47.316798,-122.298746,multigranted,31833 Gateway Center Blvd S,,Federal Way,WA,98003,USA,,www.pacificmedicalcenters.org,,"vascular, echo",,Pacific Medical Centers Federal Way Federal Way,,,"Sep 30, 2024",Adult Transthoracic,,,,,"Nov 30, 2023","Extracranial Cerebrovascular Testing, Peripheral Arterial Testing, Peripheral Venous Testing, Visceral Vascular Testing, Screening",,,,,,,,,,,,,,
85,86,Pacific Medical Centers Northgate,47.704378,-122.323178,multigranted,10416 5th Ave NE,,Seattle,WA,98125,USA,,www.pacificmedicalcenters.org/,,"vascular, echo",,Pacific Medical Centers Northgate Seattle,,,"Sep 30, 2024",Adult Transthoracic,,,,,"Nov 30, 2023","Extracranial Cerebrovascular Testing, Peripheral Arterial Testing, Peripheral Venous Testing, Visceral Vascular Testing, Screening",,,,,,,,,,,,,,
86,87,Pacific Medical Clinic,47.609649,-122.32444,granted,1101 Madison Street,Suite 301,Seattle,WA,98104,USA,,www.pacificmedicalcenters.org,,nuclear,,Pacific Medical Clinic Seattle,,,,,,,"Mar 31, 2025",Myocardial Perfusion Imaging,,,,,,,,,,,,,,,,
87,88,"Pacific Vascular Inc. - VIVAA Bellevue - Vein, Vascular and Aesthetic Associates",47.618144,-122.153621,granted,875 140th Ave NE,Suite 205,Bellevue,WA,98005,USA,,,,vascular,"www.google.com/search?q=Pacific+Vascular+Inc.+-+VIVAA+Bellevue+-+Vein,+Vascular+and+Aesthetic+Associates","Pacific Vascular Inc. - VIVAA Bellevue - Vein, Vascular and Aesthetic Associates Bellevue",,,,,,,,,"Sep 30, 2023","Extracranial Cerebrovascular Testing, Peripheral Arterial Testing, Peripheral Venous Testing",,,,,,,,,,,,,,
88,89,"Pacific Vascular, Inc. - Auburn",39.390897,-99.066067,granted,"1 E Main St, Suite 120",One Main Street Professional Plaza,Auburn,WA,98002,USA,,,,vascular,"www.google.com/search?q=Pacific+Vascular,+Inc.+-+Auburn","Pacific Vascular, Inc. - Auburn Auburn",,,,,,,,,"Sep 30, 2023","Extracranial Cerebrovascular Testing, Intracranial Cerebrovascular Testing, Peripheral Arterial Testing, Peripheral Venous Testing, Visceral Vascular Testing",,,,,,,,,,,,,,
89,90,"Pacific Vascular, Inc. - Bellingham",48.772239,-122.470098,granted,3104 Squalicum Pkwy Suite 102,,Bellingham,WA,98225,USA,,Pacificvascular.com,,vascular,,"Pacific Vascular, Inc. - Bellingham Bellingham",,,,,,,,,"Sep 30, 2023","Extracranial Cerebrovascular Testing, Intracranial Cerebrovascular Testing, Peripheral Arterial Testing, Peripheral Venous Testing, Visceral Vascular Testing",,,,,,,,,,,,,,
90,91,"Pacific Vascular, Inc. - Bothell",47.774635,-122.184029,granted,11714 North Creek Parkway N Suite 100,,Bothell,WA,98011,USA,,,,vascular,"www.google.com/search?q=Pacific+Vascular,+Inc.+-+Bothell","Pacific Vascular, Inc. - Bothell Bothell",,,,,,,,,"Sep 30, 2023","Extracranial Cerebrovascular Testing, Intracranial Cerebrovascular Testing, Peripheral Arterial Testing, Peripheral Venous Testing, Visceral Vascular Testing",,,,,,,,,,,,,,
91,92,"Pacific Vascular, Inc. - Ellensburg Mobile",46.986099,-120.546452,granted,309 E Mountain View Rd Ste B,,Ellensburg,WA,98926,USA,,,,vascular,"www.google.com/search?q=Pacific+Vascular,+Inc.+-+Ellensburg+Mobile","Pacific Vascular, Inc. - Ellensburg Mobile Ellensburg",,,,,,,,,"Sep 30, 2023","Extracranial Cerebrovascular Testing, Intracranial Cerebrovascular Testing, Peripheral Arterial Testing, Peripheral Venous Testing, Visceral Vascular Testing",,,,,,,,,,,,,,
92,93,"Pacific Vascular, Inc. - Eterna",47.173887,-122.293532,granted,1803 S Meridian,,Puyallup,WA,98371,USA,,,,vascular,"www.google.com/search?q=Pacific+Vascular,+Inc.+-+Eterna","Pacific Vascular, Inc. - Eterna Puyallup",,,,,,,,,"Sep 30, 2023","Extracranial Cerebrovascular Testing, Intracranial Cerebrovascular Testing, Peripheral Arterial Testing, Peripheral Venous Testing",,,,,,,,,,,,,,
93,94,"Pacific Vascular, Inc. - Federal Way",47.314578,-122.292378,granted,"32014 32nd Ave S, Unit B",,Federal Way,WA,98003,USA,,,,vascular,"www.google.com/search?q=Pacific+Vascular,+Inc.+-+Federal+Way","Pacific Vascular, Inc. - Federal Way Federal Way",,,,,,,,,"Sep 30, 2023","Extracranial Cerebrovascular Testing, Intracranial Cerebrovascular Testing, Peripheral Arterial Testing, Peripheral Venous Testing, Visceral Vascular Testing",,,,,,,,,,,,,,
94,95,"Pacific Vascular, Inc. - Jefferson Healthcare Hospital",48.105539,-122.790285,granted,"834 Sheridan St, Jefferson Hospital",,Port Townsend,WA,98368,USA,,,,vascular,"www.google.com/search?q=Pacific+Vascular,+Inc.+-+Jefferson+Healthcare+Hospital","Pacific Vascular, Inc. - Jefferson Healthcare Hospital Port Townsend",,,,,,,,,"Sep 30, 2023","Extracranial Cerebrovascular Testing, Intracranial Cerebrovascular Testing, Peripheral Arterial Testing, Peripheral Venous Testing, Visceral Vascular Testing",,,,,,,,,,,,,,
95,96,"Pacific Vascular, Inc. - Port Angeles Mobile",48.111355,-123.435088,granted,315 E 8th St,,Port Angeles,WA,98362,USA,,,,vascular,"www.google.com/search?q=Pacific+Vascular,+Inc.+-+Port+Angeles+Mobile","Pacific Vascular, Inc. - Port Angeles Mobile Port Angeles",,,,,,,,,"Sep 30, 2023","Extracranial Cerebrovascular Testing, Intracranial Cerebrovascular Testing, Peripheral Arterial Testing, Peripheral Venous Testing, Visceral Vascular Testing",,,,,,,,,,,,,,
96,97,"Pacific Vascular, Inc. - Sequim",48.056267,-123.092863,granted,"528 N 5th Avenue, Suite 536-B",Fifth Avenue Plaza,Sequim,WA,98382,USA,,,,vascular,"www.google.com/search?q=Pacific+Vascular,+Inc.+-+Sequim","Pacific Vascular, Inc. - Sequim Sequim",,,,,,,,,"Sep 30, 2023","Extracranial Cerebrovascular Testing, Intracranial Cerebrovascular Testing, Peripheral Arterial Testing, Peripheral Venous Testing, Visceral Vascular Testing",,,,,,,,,,,,,,
97,98,"Pacific Vascular, Inc. - Sound Vascular and Vein, Federal Way",47.314577,-122.292378,granted,32014 32nd Ave S,,Federal Way,WA,98003,USA,,,,vascular,"www.google.com/search?q=Pacific+Vascular,+Inc.+-+Sound+Vascular+and+Vein,+Federal+Way","Pacific Vascular, Inc. - Sound Vascular and Vein, Federal Way Federal Way",,,,,,,,,"Sep 30, 2023","Extracranial Cerebrovascular Testing, Intracranial Cerebrovascular Testing, Peripheral Arterial Testing, Peripheral Venous Testing, Visceral Vascular Testing",,,,,,,,,,,,,,
98,99,"Pacific Vascular, Inc. - Sunnyside Mobile",46.316713,-119.990239,granted,2240 E Lincoln Ave,,Sunnyside,WA,98944,USA,,,,vascular,"www.google.com/search?q=Pacific+Vascular,+Inc.+-+Sunnyside+Mobile","Pacific Vascular, Inc. - Sunnyside Mobile Sunnyside",,,,,,,,,"Sep 30, 2023","Extracranial Cerebrovascular Testing, Intracranial Cerebrovascular Testing, Peripheral Arterial Testing, Peripheral Venous Testing, Visceral Vascular Testing",,,,,,,,,,,,,,
99,100,"Pacific Vascular, Inc. - Swedish Medical Center - Ballard",47.667174,-122.379969,granted,5300 Tallman Ave NW,,Seattle,WA,98107,USA,,,,vascular,"www.google.com/search?q=Pacific+Vascular,+Inc.+-+Swedish+Medical+Center+-+Ballard","Pacific Vascular, Inc. - Swedish Medical Center - Ballard Seattle",,,,,,,,,"Sep 30, 2023","Extracranial Cerebrovascular Testing, Intracranial Cerebrovascular Testing, Peripheral Arterial Testing, Peripheral Venous Testing, Visceral Vascular Testing",,,,,,,,,,,,,,
100,101,"Pacific Vascular, Inc. - Swedish Medical Center - Cherry Hill",47.61065,-122.303413,granted,1600 E Jefferson 201,,Seattle,WA,98122,USA,,,,vascular,"www.google.com/search?q=Pacific+Vascular,+Inc.+-+Swedish+Medical+Center+-+Cherry+Hill","Pacific Vascular, Inc. - Swedish Medical Center - Cherry Hill Seattle",,,,,,,,,"Sep 30, 2023","Extracranial Cerebrovascular Testing, Intracranial Cerebrovascular Testing, Peripheral Arterial Testing, Peripheral Venous Testing, Visceral Vascular Testing",,,,,,,,,,,,,,
101,102,"Pacific Vascular, Inc. - Swedish Medical Center - Edmonds",47.802817,-122.335688,granted,"21616 76th Ave W, Suite 203",,Edmonds,WA,98026,USA,,,,vascular,"www.google.com/search?q=Pacific+Vascular,+Inc.+-+Swedish+Medical+Center+-+Edmonds","Pacific Vascular, Inc. - Swedish Medical Center - Edmonds Edmonds",,,,,,,,,"Sep 30, 2023","Extracranial Cerebrovascular Testing, Intracranial Cerebrovascular Testing, Peripheral Arterial Testing, Peripheral Venous Testing, Visceral Vascular Testing",,,,,,,,,,,,,,
102,103,"Pacific Vascular, Inc. - Swedish Medical Center - First Hill",47.610094,-122.322135,granted,1229 Madison St 810,,Seattle,WA,98101,USA,,,,vascular,"www.google.com/search?q=Pacific+Vascular,+Inc.+-+Swedish+Medical+Center+-+First+Hill","Pacific Vascular, Inc. - Swedish Medical Center - First Hill Seattle",,,,,,,,,"Sep 30, 2023","Extracranial Cerebrovascular Testing, Intracranial Cerebrovascular Testing, Peripheral Arterial Testing, Peripheral Venous Testing, Visceral Vascular Testing",,,,,,,,,,,,,,
103,104,"Pacific Vascular, Inc. - Swedish Medical Center - Issaquah",47.536553,-122.02205,granted,751 NE Blakely Drive,,Issaquah,WA,98029,USA,,,,vascular,"www.google.com/search?q=Pacific+Vascular,+Inc.+-+Swedish+Medical+Center+-+Issaquah","Pacific Vascular, Inc. - Swedish Medical Center - Issaquah Issaquah",,,,,,,,,"Sep 30, 2023","Extracranial Cerebrovascular Testing, Intracranial Cerebrovascular Testing, Peripheral Arterial Testing, Peripheral Venous Testing, Visceral Vascular Testing",,,,,,,,,,,,,,
104,105,"Pacific Vascular, Inc. - Swedish Medical Center - Mill Creek",47.880019,-122.233319,granted,13020 Meridian Ave S,,Everett,WA,98208,USA,,,,vascular,"www.google.com/search?q=Pacific+Vascular,+Inc.+-+Swedish+Medical+Center+-+Mill+Creek","Pacific Vascular, Inc. - Swedish Medical Center - Mill Creek Everett",,,,,,,,,"Sep 30, 2023","Peripheral Arterial Testing, Peripheral Venous Testing",,,,,,,,,,,,,,
105,106,"Pacific Vascular, Inc. - Swedish Medical Center - Redmond",47.675903,-122.098951,granted,18100 NE Union Hill Rd,,Redmond,WA,98052,USA,,,,vascular,"www.google.com/search?q=Pacific+Vascular,+Inc.+-+Swedish+Medical+Center+-+Redmond","Pacific Vascular, Inc. - Swedish Medical Center - Redmond Redmond",,,,,,,,,"Sep 30, 2023","Extracranial Cerebrovascular Testing, Intracranial Cerebrovascular Testing, Peripheral Venous Testing, Visceral Vascular Testing",,,,,,,,,,,,,,
106,107,"Pacific Vascular, Inc. - UW Medicine Northwest Hospital and Medical Center",39.390897,-99.066067,granted,"1536 N 115th St, Suite 200",Cardiac and Vascular Imaging Center,Seattle,WA,98133,USA,,,,vascular,"www.google.com/search?q=Pacific+Vascular,+Inc.+-+UW+Medicine+Northwest+Hospital+and+Medical+Center","Pacific Vascular, Inc. - UW Medicine Northwest Hospital and Medical Center Seattle",,,,,,,,,"Sep 30, 2023","Extracranial Cerebrovascular Testing, Intracranial Cerebrovascular Testing, Peripheral Arterial Testing, Peripheral Venous Testing, Visceral Vascular Testing",,,,,,,,,,,,,,
107,108,"Pacific Vascular, Inc. - UW Medicine Regional Vascular Center",47.712271,-122.335432,granted,"1560 N 115th Street, Suite 106",,Seattle,WA,98133,USA,,,,vascular,"www.google.com/search?q=Pacific+Vascular,+Inc.+-+UW+Medicine+Regional+Vascular+Center","Pacific Vascular, Inc. - UW Medicine Regional Vascular Center Seattle",,,,,,,,,"Sep 30, 2023","Extracranial Cerebrovascular Testing, Intracranial Cerebrovascular Testing, Peripheral Arterial Testing, Peripheral Venous Testing, Visceral Vascular Testing",,,,,,,,,,,,,,
108,109,"Pacific Vascular, Inc. - Valley Medical Center",47.441007,-122.212867,granted,4033 Talbot Rd S 300,,Renton,WA,98055,USA,,,,vascular,"www.google.com/search?q=Pacific+Vascular,+Inc.+-+Valley+Medical+Center","Pacific Vascular, Inc. - Valley Medical Center Renton",,,,,,,,,"Sep 30, 2023","Extracranial Cerebrovascular Testing, Intracranial Cerebrovascular Testing, Peripheral Arterial Testing, Peripheral Venous Testing, Visceral Vascular Testing",,,,,,,,,,,,,,
109,110,"Pacific Vascular, Inc. - VIVAA Issaquah - Vein, Vascular and Aesthetic Associates",47.544321,-122.041006,granted,"1301 4th Ave NW, Suite 302",,Issaquah,WA,98027,USA,,,,vascular,"www.google.com/search?q=Pacific+Vascular,+Inc.+-+VIVAA+Issaquah+-+Vein,+Vascular+and+Aesthetic+Associates","Pacific Vascular, Inc. - VIVAA Issaquah - Vein, Vascular and Aesthetic Associates Issaquah",,,,,,,,,"Sep 30, 2023","Extracranial Cerebrovascular Testing, Peripheral Arterial Testing, Peripheral Venous Testing",,,,,,,,,,,,,,
110,111,"Pacific Vascular, Inc. - Yakima Valley Vascular Lab - Creekside",46.599861,-120.571688,granted,3902 Creekside Loop Ste 105,,Yakima,WA,98902,USA,,,,vascular,"www.google.com/search?q=Pacific+Vascular,+Inc.+-+Yakima+Valley+Vascular+Lab+-+Creekside","Pacific Vascular, Inc. - Yakima Valley Vascular Lab - Creekside Yakima",,,,,,,,,"Sep 30, 2023","Extracranial Cerebrovascular Testing, Intracranial Cerebrovascular Testing, Peripheral Arterial Testing, Peripheral Venous Testing, Visceral Vascular Testing",,,,,,,,,,,,,,
111,112,Peace Health St. Joseph Medical Center CardioVascular Center,48.772091,-122.473032,granted,2979 Squalicum Parkway,Ste. 303,Bellingham,WA,98225,USA,,,,vascular,www.google.com/search?q=Peace+Health+St.+Joseph+Medical+Center+CardioVascular+Center,Peace Health St. Joseph Medical Center CardioVascular Center Bellingham,,,,,,,,,"Sep 30, 2024","Extracranial Cerebrovascular Testing, Peripheral Arterial Testing",,,,,,,,,,,,,,
112,113,Peace Health St. Joseph Medical Center- OP Vascular Lab,48.772229,-122.474766,granted,2901 Squalicum Parkway,,Bellingham,WA,98225,USA,,,,vascular,www.google.com/search?q=Peace+Health+St.+Joseph+Medical+Center-+OP+Vascular+Lab,Peace Health St. Joseph Medical Center- OP Vascular Lab Bellingham,,,,,,,,,"Sep 30, 2024","Extracranial Cerebrovascular Testing, Peripheral Arterial Testing",,,,,,,,,,,,,,
113,114,PeaceHealth North Cascade Cardiology,48.772237,-122.470089,granted,2979 Squalicum Parkway,Suite 101,Bellingham,WA,98225,USA,,,,nuclear,www.google.com/search?q=PeaceHealth+North+Cascade+Cardiology,PeaceHealth North Cascade Cardiology Bellingham,,,,,,,"Jan 31, 2024","Equilibrium Radionuclide Angiography, Myocardial Perfusion Imaging, Other Cardiovascular Imaging",,,,,,,,,,,,,,,,
114,115,PeaceHealth Saint Joseph Medical Center Echocardiography Laboratory,48.772091,-122.473032,granted,2979 Squalicum Parkway,Suite 303,Bellingham,WA,98225,USA,,www.peacehealth.org,,echo,,PeaceHealth Saint Joseph Medical Center Echocardiography Laboratory Bellingham,,,"Aug 31, 2024",Adult Transthoracic,,,,,,,,,,,,,,,,,,,,
115,116,PeaceHealth Saint Joseph Medical Center Echocardiography Laboratory,48.772229,-122.474766,granted,2901 Squalicum Pkwy,,Bellingham,WA,98225,USA,,www.peacehealth.org,,echo,,PeaceHealth Saint Joseph Medical Center Echocardiography Laboratory Bellingham,,,"Aug 31, 2024",Adult Transthoracic,,,,,,,,,,,,,,,,,,,,
116,117,PeaceHealth Saint Joseph Medical Center Echocardiography Laboratory,48.498858,-122.61706,granted,1017 20th St,,Anacortes,WA,98221,USA,,www.peacehealth.org,,echo,,PeaceHealth Saint Joseph Medical Center Echocardiography Laboratory Anacortes,,,"Aug 31, 2024",Adult Transthoracic,,,,,,,,,,,,,,,,,,,,
117,118,PeaceHealth Southwest Heart and Vascular Center Cardiology,45.62194,-122.580296,granted,200 North East Mother Joseph Place,Suite 400,Vancouver,WA,98664,USA,,,,echo,www.google.com/search?q=PeaceHealth+Southwest+Heart+and+Vascular+Center+Cardiology,PeaceHealth Southwest Heart and Vascular Center Cardiology Vancouver,,,"Dec 31, 2023","Adult Stress, Adult Transthoracic",,,,,,,,,,,,,,,,,,,,
118,119,PeaceHealth Southwest Heart and Vascular Center Cardiology,45.62194,-122.580296,granted,200 NE Mother Joseph Place,Suite 400,Vancouver,WA,98664,USA,,www.swmedicalcenter.org,,nuclear,,PeaceHealth Southwest Heart and Vascular Center Cardiology Vancouver,,,,,,,"Aug 31, 2023",Myocardial Perfusion Imaging,,,,,,,,,,,,,,,,
119,120,PeaceHealth Southwest Heart and Vascular Center Cardiology - Salmon Creek,45.714646,-122.647743,granted,2312 NE 129th Street,,Vancouver,WA,98686,USA,,,,echo,www.google.com/search?q=PeaceHealth+Southwest+Heart+and+Vascular+Center+Cardiology+-+Salmon+Creek,PeaceHealth Southwest Heart and Vascular Center Cardiology - Salmon Creek Vancouver,,,"Dec 31, 2023",Adult Transthoracic,,,,,,,,,,,,,,,,,,,,
120,121,PeaceHealth Southwest Medical Center,45.623486,-122.580636,granted,400 NE Mother Joseph Place,,Vancouver,WA,98664,USA,,www.swmedicalcenter.org,,echo,,PeaceHealth Southwest Medical Center Vancouver,,,"Dec 31, 2023","Adult Stress, Adult Transthoracic",,,,,,,,,,,,,,,,,,,,
121,122,"Proliance Eastside Ear, Nose and Throat",47.626173,-122.185673,granted,8301 NE 161st Avenue 200,,Redmond,WA,98052,USA,,,,ct,"www.google.com/search?q=Proliance+Eastside+Ear,+Nose+and+Throat","Proliance Eastside Ear, Nose and Throat Redmond","Apr 30, 2025",Maxillofacial CT,,,,,,,,,,,,,,,,,,,,,,
122,123,"Proliance Eastside Ear, Nose and Throat",47.71675,-122.176314,granted,12333 NE 130th lane 440,,Kirkland,WA,98034,USA,,www.eastsideent.com,,ct,,"Proliance Eastside Ear, Nose and Throat Kirkland","Apr 30, 2025",Maxillofacial CT,,,,,,,,,,,,,,,,,,,,,,
123,124,Providence Holy Family Hospital,47.709751,-117.405904,granted,5633 N. Lidgerwood,,Spokane,WA,99208,USA,,www.holy-family.org,,nuclear,,Providence Holy Family Hospital Spokane,,,,,,,"Jan 31, 2025","General Nuclear Medicine, Myocardial Perfusion Imaging",,,,,,,,,,,,,,,,
124,125,Providence Holy Family Hospital,47.709751,-117.405904,granted,5633 N. Lidgerwood Street,,Spokane,WA,99208,USA,,,,echo,www.google.com/search?q=Providence+Holy+Family+Hospital,Providence Holy Family Hospital Spokane,,,"Mar 31, 2023",Adult Transthoracic,,,,,,,,,,,,,,,,,,,,
125,126,Providence Medical Group Pediatric Specialty Outreach Clinic - Moses Lake,47.135834,-119.269414,granted,821 E Broadway,Suite 5,Moses Lake,WA,98837,USA,,,,pediatric_echo,www.google.com/search?q=Providence+Medical+Group+Pediatric+Specialty+Outreach+Clinic+-+Moses+Lake,Providence Medical Group Pediatric Specialty Outreach Clinic - Moses Lake Moses Lake,,,,,,,,,,,"Sep 30, 2023",Pediatric Transthoracic,,,,,,,,,,,,
126,127,Providence Regional Medical Center Everett Echo Lab,47.948751,-122.25195,granted,1700 13th Ave D1-207,,Everett,WA,98201,USA,,washington.providence.org/hospitals/regional-medical-center/,,echo,,Providence Regional Medical Center Everett Echo Lab Everett,,,"Nov 29, 2022",Adult Transthoracic,,,,,,,,,,,,,,,,,,,,
127,128,Providence Sacred Heart Cardiovascular Imaging Center,47.667083,-117.214425,granted,"16528 E. Desmet Ct, Suite B3200",,Spokane Valley,WA,99216,USA,,,,echo,www.google.com/search?q=Providence+Sacred+Heart+Cardiovascular+Imaging+Center,Providence Sacred Heart Cardiovascular Imaging Center Spokane Valley,,,"Mar 31, 2023",Adult Transthoracic,,,,,,,,,,,,,,,,,,,,
128,129,Providence Sacred Heart Cardiovascular Imaging Center,47.711478,-117.406618,granted,"212 E. Central Ave, Suite 240",,Spokane,WA,99208,USA,,,,echo,www.google.com/search?q=Providence+Sacred+Heart+Cardiovascular+Imaging+Center,Providence Sacred Heart Cardiovascular Imaging Center Spokane,,,"Mar 31, 2023",Adult Transthoracic,,,,,,,,,,,,,,,,,,,,
129,130,Providence Sacred Heart Cardiovascular Imaging Center,47.649442,-117.41288,granted,"62 W. 7th Avenue, Suite 230",,Spokane,WA,99204,USA,,www.spokanecardiology.com,,echo,,Providence Sacred Heart Cardiovascular Imaging Center Spokane,,,"Mar 31, 2023",Adult Transthoracic,,,,,,,,,,,,,,,,,,,,
130,131,Providence Sacred Heart Medical Center,47.649442,-117.41288,granted,122 W. 7th Avenue,Suite 230,Spokane,WA,99204,USA,,,,nuclear,www.google.com/search?q=Providence+Sacred+Heart+Medical+Center,Providence Sacred Heart Medical Center Spokane,,,,,,,"Jan 31, 2025",Myocardial Perfusion Imaging,,,,,,,,,,,,,,,,
131,132,Providence Sacred Heart Medical Center,47.68316,-117.184648,granted,16528 Desmet Court,,Spokane Valley,WA,99216,USA,,,,nuclear,www.google.com/search?q=Providence+Sacred+Heart+Medical+Center,Providence Sacred Heart Medical Center Spokane Valley,,,,,,,"Jan 31, 2025",Myocardial Perfusion Imaging,,,,,,,,,,,,,,,,
132,133,Providence Sacred Heart Medical Center and Children’s Hospital,47.648249,-117.411872,granted,101 W. 8th Ave,,Spokane,WA,99204,USA,,www.shmc.org,,nuclear,,Providence Sacred Heart Medical Center and Children’s Hospital Spokane,,,,,,,"Jan 31, 2025","General Nuclear Medicine, Myocardial Perfusion Imaging",,,,,,,,,,,,,,,,
133,134,Providence Sacred Heart Medical Center and Childrens Hospital,47.648249,-117.411872,granted,101 W. 8th Avenue,,Spokane,WA,99204,USA,,,,echo,www.google.com/search?q=Providence+Sacred+Heart+Medical+Center+and+Childrens+Hospital,Providence Sacred Heart Medical Center and Childrens Hospital Spokane,,,"Mar 31, 2023",Adult Transthoracic,,,,,,,,,,,,,,,,,,,,
134,135,Providence Spokane Cardiology,46.396557,-117.021671,granted,808 Port Drive,,Clarkston,WA,99043,USA,,,,nuclear,www.google.com/search?q=Providence+Spokane+Cardiology,Providence Spokane Cardiology Clarkston,,,,,,,"Jan 31, 2025",Myocardial Perfusion Imaging,,,,,,,,,,,,,,,,
135,136,Providence St. Peter Hospital Cardiac Imaging,47.053524,-122.844367,granted,500 Lilly Road NE,Suite 100,Olympia,WA,98506,USA,,,,echo,www.google.com/search?q=Providence+St.+Peter+Hospital+Cardiac+Imaging,Providence St. Peter Hospital Cardiac Imaging Olympia,,,"Nov 30, 2023","Adult Stress, Adult Transthoracic",,,,,,,,,,,,,,,,,,,,
136,137,Providence St. Vincent Heart Clinic - Mill Plain,45.619431,-122.535318,granted,315 SE Stone Mill Drive,,Vancouver,WA,98684,USA,,,,echo,www.google.com/search?q=Providence+St.+Vincent+Heart+Clinic+-+Mill+Plain,Providence St. Vincent Heart Clinic - Mill Plain Vancouver,,,"Sep 30, 2023",Adult Transthoracic,,,,,,,,,,,,,,,,,,,,
137,138,Puget Sound Ear Nose and Throat,47.802817,-122.335688,granted,21911 76th Avenue West,Suite 211,Edmonds,WA,98026,USA,,,,ct,www.google.com/search?q=Puget+Sound+Ear+Nose+and+Throat,Puget Sound Ear Nose and Throat Edmonds,"Jan 31, 2024",Maxillofacial CT,,,,,,,,,,,,,,,,,,,,,,
138,139,Pulse Vascular Services- Vascular Laboratory- Tacoma,47.258264,-122.454613,granted,419  S L St,,Tacoma,WA,98405,USA,,,,vascular,www.google.com/search?q=Pulse+Vascular+Services-+Vascular+Laboratory-+Tacoma,Pulse Vascular Services- Vascular Laboratory- Tacoma Tacoma,,,,,,,,,"Sep 30, 2025","Extracranial Cerebrovascular Testing, Peripheral Arterial Testing, Peripheral Venous Testing, Visceral Vascular Testing",,,,,,,,,,,,,,
139,140,Pulse Vascular Services- Vascular Laboratory-Puyallup,47.178062,-122.288213,granted,"1450 5th Street SE, Suite 2300",,Puyallup,WA,98372,USA,,,,vascular,www.google.com/search?q=Pulse+Vascular+Services-+Vascular+Laboratory-Puyallup,Pulse Vascular Services- Vascular Laboratory-Puyallup Puyallup,,,,,,,,,"Sep 30, 2025","Extracranial Cerebrovascular Testing, Peripheral Arterial Testing, Peripheral Venous Testing, Visceral Vascular Testing",,,,,,,,,,,,,,
140,141,Pulse Vascular Services-Vascular Laboratory-Auburn,47.308313,-122.266685,granted,"Plaza Two, 202 N. Division St 201",,Auburn,WA,98001,USA,,,,vascular,www.google.com/search?q=Pulse+Vascular+Services-Vascular+Laboratory-Auburn,Pulse Vascular Services-Vascular Laboratory-Auburn Auburn,,,,,,,,,"Sep 30, 2025","Extracranial Cerebrovascular Testing, Peripheral Arterial Testing, Peripheral Venous Testing, Visceral Vascular Testing",,,,,,,,,,,,,,
141,142,Sacred Heart Medical Center and Children’s Hospital,47.64831,-117.412168,granted,101 W 8th Ave,Suite 4400,Spokane,WA,99203,USA,,www2.providence.org/spokane/,,pediatric_echo,,Sacred Heart Medical Center and Children’s Hospital Spokane,,,,,,,,,,,"Sep 30, 2023","Pediatric Transthoracic, Fetal",,,,,,,,,,,,
142,143,Saint Anthony Hospital,47.363493,-122.614918,granted,11567 Canterwood Blvd NW,,Gig Harbor,WA,98332,USA,,,,echo,www.google.com/search?q=Saint+Anthony+Hospital,Saint Anthony Hospital Gig Harbor,,,"May 31, 2024",Adult Transthoracic,,,,,,,,,,,,,,,,,,,,
143,144,Saint Clare Hospital,47.154213,-122.504495,granted,11315 Bridgeport Way SW,,Lakewood,WA,98499,USA,,,,echo,www.google.com/search?q=Saint+Clare+Hospital,Saint Clare Hospital Lakewood,,,"May 31, 2024",Adult Transthoracic,,,,,,,,,,,,,,,,,,,,
144,145,Saint Francis Hospital,47.292106,-122.322951,granted,34515 9th Ave S,,Federal Way,WA,98003,USA,,,,echo,www.google.com/search?q=Saint+Francis+Hospital,Saint Francis Hospital Federal Way,,,"May 31, 2024",Adult Transthoracic,,,,,,,,,,,,,,,,,,,,
145,146,Saint Joseph Medical Center,47.245464,-122.448756,granted,1717 South J Street,,Tacoma,WA,98405,USA,,,,echo,www.google.com/search?q=Saint+Joseph+Medical+Center,Saint Joseph Medical Center Tacoma,,,"May 31, 2024",Adult Transthoracic,,,,,,,,,,,,,,,,,,,,
146,147,Seattle Children’s Bellevue Clinic and Surgery Center,47.624114,-122.185686,granted,1500 116th Ave NE,,Bellevue,WA,98004,USA,,,,pediatric_echo,www.google.com/search?q=Seattle+Children’s+Bellevue+Clinic+and+Surgery+Center,Seattle Children’s Bellevue Clinic and Surgery Center Bellevue,,,,,,,,,,,"Feb 28, 2025","Pediatric Transthoracic, Fetal",,,,,,,,,,,,
147,148,Seattle Children’s North Clinic,48.000308,-122.205072,granted,1815 13th Street,,Everett,WA,98201,USA,,,,pediatric_echo,www.google.com/search?q=Seattle+Children’s+North+Clinic,Seattle Children’s North Clinic Everett,,,,,,,,,,,"Feb 28, 2025","Pediatric Transthoracic, Fetal",,,,,,,,,,,,
148,149,Seattle Children’s Prenatal Diagnosis and Treatment Program,47.662018,-122.285873,granted,4540 Sand Point Way NE,Suite 320,Seattle,WA,98105,USA,,,,pediatric_echo,www.google.com/search?q=Seattle+Children’s+Prenatal+Diagnosis+and+Treatment+Program,Seattle Children’s Prenatal Diagnosis and Treatment Program Seattle,,,,,,,,,,,"Feb 28, 2025",Fetal,,,,,,,,,,,,
149,150,Seattle Children’s South Sound Cardiology Federal Way,47.287679,-122.313478,granted,34920 Enchanted Pkwy S,,Federal Way,WA,98003,USA,,,,pediatric_echo,www.google.com/search?q=Seattle+Children’s+South+Sound+Cardiology+Federal+Way,Seattle Children’s South Sound Cardiology Federal Way Federal Way,,,,,,,,,,,"Feb 28, 2025","Pediatric Transthoracic, Fetal",,,,,,,,,,,,
150,151,Seattle Children’s South Sound Cardiology Olympia,47.055513,-122.844416,granted,615 Lilly Road NE,Suite 140,Olympia,WA,98506,USA,,,,pediatric_echo,www.google.com/search?q=Seattle+Children’s+South+Sound+Cardiology+Olympia,Seattle Children’s South Sound Cardiology Olympia Olympia,,,,,,,,,,,"Feb 28, 2025","Pediatric Transthoracic, Fetal",,,,,,,,,,,,
151,152,Seattle Children’s South Sound Cardiology Silverdale,47.652448,-122.684694,granted,9800 Levin Road NW,Suite 204,Silverdale,WA,98383,USA,,,,pediatric_echo,www.google.com/search?q=Seattle+Children’s+South+Sound+Cardiology+Silverdale,Seattle Children’s South Sound Cardiology Silverdale Silverdale,,,,,,,,,,,"Feb 28, 2025","Pediatric Transthoracic, Fetal",,,,,,,,,,,,
152,153,Seattle Children’s South Sound Cardiology Tacoma,47.242015,-122.476284,granted,1901 S Cedar St,Suite 103,Tacoma,WA,98405,USA,,,,pediatric_echo,www.google.com/search?q=Seattle+Children’s+South+Sound+Cardiology+Tacoma,Seattle Children’s South Sound Cardiology Tacoma Tacoma,,,,,,,,,,,"Feb 28, 2025","Pediatric Transthoracic, Fetal",,,,,,,,,,,,
153,154,Seattle Children’s TriCities Clinic,46.278922,-119.28247,granted,8232 W Grandridge Blvd,,Kennewick,WA,99336,USA,,,,pediatric_echo,www.google.com/search?q=Seattle+Children’s+TriCities+Clinic,Seattle Children’s TriCities Clinic Kennewick,,,,,,,,,,,"Feb 28, 2025","Pediatric Transthoracic, Fetal",,,,,,,,,,,,
154,155,Seattle Children’s Wenatchee Clinic,47.430753,-120.31968,granted,"526 N Chelan Ave, Suite B",,Wenatchee,WA,98801,USA,,,,pediatric_echo,www.google.com/search?q=Seattle+Children’s+Wenatchee+Clinic,Seattle Children’s Wenatchee Clinic Wenatchee,,,,,,,,,,,"Feb 28, 2025","Pediatric Transthoracic, Fetal",,,,,,,,,,,,
155,156,Seattle Childrens Hospital,47.664504,-122.283169,granted,4800 Sand Point Way NE,,Seattle,WA,98105,USA,,,,pediatric_echo,www.google.com/search?q=Seattle+Childrens+Hospital,Seattle Childrens Hospital Seattle,,,,,,,,,,,"Feb 28, 2025","Pediatric Transesophageal, Pediatric Transthoracic, Fetal",,,,,,,,,,,,
156,157,Skagit Regional Health - Cardiology,48.41749,-122.334664,granted,1415 E. Kincaid,,Mt. Vernon,WA,98273,USA,,,,echo,www.google.com/search?q=Skagit+Regional+Health+-+Cardiology,Skagit Regional Health - Cardiology Mt. Vernon,,,"Dec 31, 2022","Adult Stress, Adult Transthoracic",,,,,,,,,,,,,,,,,,,,
157,158,Skagit Regional Health - Cardiology,48.502827,-122.614368,granted,1211 24th Street,,Anacortes,WA,98221,USA,,,,echo,www.google.com/search?q=Skagit+Regional+Health+-+Cardiology,Skagit Regional Health - Cardiology Anacortes,,,"Dec 31, 2022",Adult Transthoracic,,,,,,,,,,,,,,,,,,,,
158,159,South Seattle Otolaryngology Proliance Surgeons,47.455828,-122.342405,granted,16259 Sylvester Rd SW,Suite 505,Burien,WA,98166,USA,,,,ct,www.google.com/search?q=South+Seattle+Otolaryngology+Proliance+Surgeons,South Seattle Otolaryngology Proliance Surgeons Burien,"Aug 31, 2022",Maxillofacial CT,,,,,,,,,,,,,,,,,,,,,,
159,160,"South Sound Surgical Associates Imaging Center, PLLC",47.041762,-122.952221,granted,3920 Capital Mall Drive SW,Suite 203,Olympia,WA,98502,USA,,,,vascular,"www.google.com/search?q=South+Sound+Surgical+Associates+Imaging+Center,+PLLC","South Sound Surgical Associates Imaging Center, PLLC Olympia",,,,,,,,,"Jan 31, 2025","Extracranial Cerebrovascular Testing, Peripheral Arterial Testing, Peripheral Venous Testing",,,,,,,,,,,,,,
160,161,Spokane Ear Nose and Throat,47.666638,-117.407417,granted,217 E Cataldo,,Spokane,WA,99201,USA,,,,ct,www.google.com/search?q=Spokane+Ear+Nose+and+Throat,Spokane Ear Nose and Throat Spokane,"Jun 30, 2024",Maxillofacial CT,,,,,,,,,,,,,,,,,,,,,,
161,162,St. Anne Hospital,47.456778,-122.341455,granted,16251 Sylvester Rd SW,,Burien,WA,98166,United States,,,,nuclear,www.google.com/search?q=St.+Anne+Hospital,St. Anne Hospital Burien,,,,,,,"Oct 31, 2024","General Nuclear Medicine, Myocardial Perfusion Imaging",,,,,,,,,,,,,,,,
162,163,St. Anthony Hospital,47.363493,-122.614918,granted,11567 Canterwood Blvd NW,,Gig Harbor,WA,98332,USA,,www.fhshealth.org,,nuclear,,St. Anthony Hospital Gig Harbor,,,,,,,"Oct 31, 2024","General Nuclear Medicine, Myocardial Perfusion Imaging",,,,,,,,,,,,,,,,
163,164,St. Clare Hospital,47.154213,-122.504495,granted,11315 Bridgeport Way SW,,Lakewood,WA,98499,USA,,www.fhshealth.org,,nuclear,,St. Clare Hospital Lakewood,,,,,,,"Oct 31, 2024","General Nuclear Medicine, Myocardial Perfusion Imaging",,,,,,,,,,,,,,,,
164,165,St. Elizabeth Hospital,47.20839,-121.988101,granted,1455 Battersby Avenue,,Enumclaw,WA,98022,USA,,www.fhshealth.org,,nuclear,,St. Elizabeth Hospital Enumclaw,,,,,,,"Oct 31, 2024","General Nuclear Medicine, Myocardial Perfusion Imaging",,,,,,,,,,,,,,,,
165,166,St. Francis Hospital,47.292106,-122.322951,granted,34515 9th Avenue South,,Federal Way,WA,98003,USA,,www.fhshealth.org,,nuclear,,St. Francis Hospital Federal Way,,,,,,,"Oct 31, 2024","General Nuclear Medicine, Myocardial Perfusion Imaging",,,,,,,,,,,,,,,,
166,167,St. John Medical Center,46.130992,-122.941192,multigranted,1615 Delaware Street,PO Box 3002,Longview,WA,98632,USA,,,,"vascular, echo",www.google.com/search?q=St.+John+Medical+Center,St. John Medical Center Longview,,,"Apr 30, 2024","Adult Stress, Adult Transthoracic",,,,,"Dec 31, 2022","Extracranial Cerebrovascular Testing, Peripheral Arterial Testing, Peripheral Venous Testing, Visceral Vascular Testing",,,,,,,,,,,,,,
167,168,St. Joseph Medical Center,47.245464,-122.448756,granted,"1717 South ""J"" Street",,Tacoma,WA,98405,USA,,www.fhshealth.org,,nuclear,,St. Joseph Medical Center Tacoma,,,,,,,"Oct 31, 2024","General Nuclear Medicine, Myocardial Perfusion Imaging",,,,,,,,,,,,,,,,
168,169,St. Michael’s Medical Center,47.583429,-122.62601,granted,1800 Northwest Myhre Road,,Silverdale,WA,98383,USA,,www.chifranciscan.org,,echo,,St. Michael’s Medical Center Silverdale,,,"Jan 31, 2023",Adult Transthoracic,,,,,,,,,,,,,,,,,,,,
169,170,Surgical Associates Northwest,47.309145,-122.226443,granted,222 2nd St NE,,Auburn,WA,98002,USA,,sanw.org,,ct,,Surgical Associates Northwest Auburn,"Jul 31, 2024",Maxillofacial CT,,,,,,,,,,,,,,,,,,,,,,
170,171,SW Thoracic and Vascular Surgery,45.625662,-122.583646,granted,505 87th Avenue,Suite 301,Vancouver,WA,98664,USA,,,,vascular,www.google.com/search?q=SW+Thoracic+and+Vascular+Surgery,SW Thoracic and Vascular Surgery Vancouver,,,,,,,,,"Apr 30, 2024","Extracranial Cerebrovascular Testing, Peripheral Arterial Testing, Peripheral Venous Testing, Visceral Vascular Testing",,,,,,,,,,,,,,
171,172,Swedish Edmonds Cardiac Diagnostic Imaging Center,47.80326,-122.332148,granted,7320 - 216th Street Sotuhwest,Suite 110,Edmonds,WA,98026,USA,,,,echo,www.google.com/search?q=Swedish+Edmonds+Cardiac+Diagnostic+Imaging+Center,Swedish Edmonds Cardiac Diagnostic Imaging Center Edmonds,,,"Sep 30, 2023","Adult Stress, Adult Transesophageal, Adult Transthoracic",,,,,,,,,,,,,,,,,,,,
172,173,Swedish Edmonds Hospital,47.802884,-122.33569,granted,21601 76th Avenue West,,Edmonds,WA,98026,USA,,,,echo,www.google.com/search?q=Swedish+Edmonds+Hospital,Swedish Edmonds Hospital Edmonds,,,"Sep 30, 2023","Adult Transesophageal, Adult Transthoracic",,,,,,,,,,,,,,,,,,,,
173,174,Swedish Health System,47.606225,-122.310249,granted,"500 17th Avenue, Suite 630",,Seattle,WA,98122,USA,,,,echo,www.google.com/search?q=Swedish+Health+System,Swedish Health System Seattle,,,"Jan 29, 2023","Adult Stress, Adult Transthoracic",,,,,,,,,,,,,,,,,,,,
174,175,Swedish Health System - Ballard Campus,47.667174,-122.379969,granted,"5300 Tallman Ave., NW",,Seattle,WA,98107,USA,,,,echo,www.google.com/search?q=Swedish+Health+System+-+Ballard+Campus,Swedish Health System - Ballard Campus Seattle,,,"Jan 29, 2023","Adult Stress, Adult Transthoracic",,,,,,,,,,,,,,,,,,,,
175,176,Swedish Health System - Cherry Hill Campus,47.606225,-122.310249,granted,500 17th Avenue,,Seattle,WA,98122,USA,,,,echo,www.google.com/search?q=Swedish+Health+System+-+Cherry+Hill+Campus,Swedish Health System - Cherry Hill Campus Seattle,,,"Jan 29, 2023","Adult Stress, Adult Transthoracic",,,,,,,,,,,,,,,,,,,,
176,177,Swedish Health System - First Hill Campus,47.60924,-122.320767,granted,747 Broadway,,Seattle,WA,98122,USA,,,,echo,www.google.com/search?q=Swedish+Health+System+-+First+Hill+Campus,Swedish Health System - First Hill Campus Seattle,,,"Jan 29, 2023","Adult Stress, Adult Transthoracic",,,,,,,,,,,,,,,,,,,,
177,178,Swedish Health System - Issaquah Campus,47.536553,-122.02205,granted,751 N.E. Blakely Drive,,Issaquah,WA,98029,USA,,,,echo,www.google.com/search?q=Swedish+Health+System+-+Issaquah+Campus,Swedish Health System - Issaquah Campus Issaquah,,,"Jan 29, 2023","Adult Stress, Adult Transthoracic",,,,,,,,,,,,,,,,,,,,
178,179,Swedish Vascular Surgery Edm,47.806909,-122.332233,granted,7315 212th St. SW,Suite 205,Edmonds,WA,98026,USA,,,,vascular,www.google.com/search?q=Swedish+Vascular+Surgery+Edm,Swedish Vascular Surgery Edm Edmonds,,,,,,,,,"Feb 28, 2025","Extracranial Cerebrovascular Testing, Peripheral Arterial Testing, Peripheral Venous Testing",,,,,,,,,,,,,,
179,180,Swedish Vascular Surgery FH,47.609808,-122.320766,granted,"801 Broadway, 5th FLR",,Seattle,WA,98122,USA,,,,vascular,www.google.com/search?q=Swedish+Vascular+Surgery+FH,Swedish Vascular Surgery FH Seattle,,,,,,,,,"Feb 28, 2025","Extracranial Cerebrovascular Testing, Peripheral Arterial Testing, Peripheral Venous Testing",,,,,,,,,,,,,,
180,181,Swedish Vascular Surgery ISS,47.536553,-122.02205,granted,"751 NE Blakely Drive, Suite 3020",,Issaquah,WA,98029,USA,,,,vascular,www.google.com/search?q=Swedish+Vascular+Surgery+ISS,Swedish Vascular Surgery ISS Issaquah,,,,,,,,,"Feb 28, 2025","Extracranial Cerebrovascular Testing, Peripheral Arterial Testing, Peripheral Venous Testing",,,,,,,,,,,,,,
181,182,Swedish Vascular Ultrasound,47.606169,-122.311553,granted,500 17th Avenue,4 West Hospital,Seattle,WA,98122,USA,,,,vascular,www.google.com/search?q=Swedish+Vascular+Ultrasound,Swedish Vascular Ultrasound Seattle,,,,,,,,,"Mar 31, 2025","Extracranial Cerebrovascular Testing, Intracranial Cerebrovascular Testing, Peripheral Arterial Testing, Peripheral Venous Testing, Visceral Vascular Testing",,,,,,,,,,,,,,
182,183,Swedish Vascular Ultrasound,47.6066156,-122.3102335,granted,550 17th Avenue,Suite 630,Seattle,WA,98122,USA,,,,vascular,www.google.com/search?q=Swedish+Vascular+Ultrasound,Swedish Vascular Ultrasound Seattle,,,,,,,,,"Mar 31, 2025","Extracranial Cerebrovascular Testing, Intracranial Cerebrovascular Testing, Peripheral Arterial Testing, Peripheral Venous Testing, Visceral Vascular Testing",,,,,,,,,,,,,,
183,184,Swedish-Edmonds Cardiovascular Diagnostic Imaging Center,47.80326,-122.332148,granted,7320 216th Street SW,Suite 110,Edmonds,WA,98026,USA,,,,nuclear,www.google.com/search?q=Swedish-Edmonds+Cardiovascular+Diagnostic+Imaging+Center,Swedish-Edmonds Cardiovascular Diagnostic Imaging Center Edmonds,,,,,,,"Dec 31, 2024",Myocardial Perfusion Imaging,,,,,,,,,,,,,,,,
184,185,Tacoma General Hospital,47.259282,-122.453412,granted,"315 Martin Luther King, Jr., Way",PO Box 5299,Tacoma,WA,98415,USA,,,,echo,www.google.com/search?q=Tacoma+General+Hospital,Tacoma General Hospital Tacoma,,,"Aug 31, 2024","Adult Transesophageal, Adult Transthoracic",,,,,,,,,,,,,,,,,,,,
185,186,Tacoma General Hospital Vascular Laboratory,47.259282,-122.453412,granted,"315 Martin Luther King, Jr. Way",ATTN:  315-L3-XRO,Tacoma,WA,98405,USA,,,,vascular,www.google.com/search?q=Tacoma+General+Hospital+Vascular+Laboratory,Tacoma General Hospital Vascular Laboratory Tacoma,,,,,,,,,"Apr 30, 2024","Extracranial Cerebrovascular Testing, Peripheral Arterial Testing, Peripheral Venous Testing, Visceral Vascular Testing",,,,,,,,,,,,,,
186,187,"The Doctors Clinic,Now part of Franciscan Medical Group",47.651591,-122.676933,granted,2011 Northwest Myhre Place,,Silverdale,WA,98383,USA,,www.thedoctorsclinic.com,,echo,,"The Doctors Clinic,Now part of Franciscan Medical Group Silverdale",,,"May 31, 2025",Adult Transthoracic,,,,,,,,,,,,,,,,,,,,
187,188,The Everett Clinic,47.965532,-122.209458,granted,3901 Hoyt Avenue,,Everett,WA,98201,USA,,,,echo,www.google.com/search?q=The+Everett+Clinic,The Everett Clinic Everett,,,"Feb 29, 2024","Adult Stress, Adult Transthoracic",,,,,,,,,,,,,,,,,,,,
188,189,The Everett Clinic,48.15379,-122.193682,granted,2901 174th Street Northeast,,Smokey Point,WA,98271,USA,,,,echo,www.google.com/search?q=The+Everett+Clinic,The Everett Clinic Smokey Point,,,"Feb 29, 2024",Adult Transthoracic,,,,,,,,,,,,,,,,,,,,
189,190,The Everett Clinic,47.965532,-122.209458,granted,3901 Hoyt Avenue,,Everett,WA,98201,USA,,,,vascular,www.google.com/search?q=The+Everett+Clinic,The Everett Clinic Everett,,,,,,,,,"Feb 28, 2025","Extracranial Cerebrovascular Testing, Peripheral Arterial Testing, Peripheral Venous Testing",,,,,,,,,,,,,,
190,191,The Everett Clinic,48.15379,-122.193682,granted,2901 174th Street NE,,Marysville,WA,98271,USA,,everettclinic.com/,,vascular,,The Everett Clinic Marysville,,,,,,,,,"Feb 28, 2025","Extracranial Cerebrovascular Testing, Peripheral Arterial Testing, Peripheral Venous Testing",,,,,,,,,,,,,,
191,192,The Polyclinic,47.607043,-122.329187,granted,904 7th Ave,,Seattle,WA,98104,USA,,,,echo,www.google.com/search?q=The+Polyclinic,The Polyclinic Seattle,,,"Sep 30, 2024","Adult Stress, Adult Transthoracic",,,,,,,,,,,,,,,,,,,,
192,193,The Vancouver Clinic,45.625741,-122.583646,granted,700 NE 87th Avenue Suite 230,,Vancouver,WA,98664,USA,,tvc.org,,nuclear,,The Vancouver Clinic Vancouver,,,,,,,"Aug 31, 2025","General Nuclear Medicine, Myocardial Perfusion Imaging",,,,,,,,,,,,,,,,
193,194,The Vancouver Clinic,45.625741,-122.583646,granted,700 NE 87th Avenue,Suite 230,Vancouver,WA,98664,USA,,,,echo,www.google.com/search?q=The+Vancouver+Clinic,The Vancouver Clinic Vancouver,,,"Jan 31, 2023","Adult Stress, Adult Transthoracic",,,,,,,,,,,,,,,,,,,,
194,195,The Vancouver Clinic  - Salmon Creek,45.721872,-122.645364,granted,2525 NE 139th,Suite 210,Vancouver,WA,98686,USA,,,,echo,www.google.com/search?q=The+Vancouver+Clinic++-+Salmon+Creek,The Vancouver Clinic  - Salmon Creek Vancouver,,,"Jan 31, 2023","Adult Stress, Adult Transthoracic",,,,,,,,,,,,,,,,,,,,
195,196,Tri City Orthopaedic Clinic,46.221582,-119.210727,granted,6703 W. Rio Grande Ave.,,Kennewick,WA,99336,USA,,,,ct,www.google.com/search?q=Tri+City+Orthopaedic+Clinic,Tri City Orthopaedic Clinic Kennewick,"Jan 31, 2025",Body CT,,,,,,,,,,,,,,,,,,,,,,
196,197,Tri-Cities Vein and Vascular Institute,46.285738,-119.282206,granted,761 Williams Blvd,,Richland,WA,99354,USA,,ambradsurgery.com,,vascular,,Tri-Cities Vein and Vascular Institute Richland,,,,,,,,,"Nov 30, 2023","Extracranial Cerebrovascular Testing, Peripheral Arterial Testing, Peripheral Venous Testing, Screening",,,,,,,,,,,,,,
197,198,University of Washington,47.650506,-122.307482,granted,1959 NE Pacific St,,Seattle,WA,98195,USA,,,,ct-dental,www.google.com/search?q=University+of+Washington,University of Washington Seattle,,,,,,,,,,,,,"Apr 30, 2023",Dental/Maxillofacial,,,,,,,,,,
198,199,University of Washington Eastside Specialties Clinic,47.638069,-122.191754,granted,3100 Northup Way,,Bellevue,WA,98004,USA,,,,vascular,www.google.com/search?q=University+of+Washington+Eastside+Specialties+Clinic,University of Washington Eastside Specialties Clinic Bellevue,,,,,,,,,"Sep 29, 2022","Extracranial Cerebrovascular Testing, Intracranial Cerebrovascular Testing, Peripheral Arterial Testing, Peripheral Venous Testing, Visceral Vascular Testing",,,,,,,,,,,,,,
199,200,University of Washington Medical Center,47.65086,-122.30901,granted,1959 North East Pacific Street,Box #356021,Seattle,WA,98195,USA,,,,vascular,www.google.com/search?q=University+of+Washington+Medical+Center,University of Washington Medical Center Seattle,,,,,,,,,"Sep 29, 2022","Extracranial Cerebrovascular Testing, Intracranial Cerebrovascular Testing, Peripheral Arterial Testing, Peripheral Venous Testing, Visceral Vascular Testing",,,,,,,,,,,,,,
200,201,University of Washington Medical Center,47.650506,-122.307482,granted,1959 NE Pacific Street,PO Box 356171,Seattle,WA,98195,USA,,,,echo,www.google.com/search?q=University+of+Washington+Medical+Center,University of Washington Medical Center Seattle,,,"Oct 30, 2022","Adult Stress, Adult Transesophageal, Adult Transthoracic",,,,,,,,,,,,,,,,,,,,
201,202,"USA Vein Clinics of Bellevue, LLC",47.621104,-122.185652,granted,1240 116th NE,Suite 101,Bellevue,WA,98004,USA,,,,vascular,"www.google.com/search?q=USA+Vein+Clinics+of+Bellevue,+LLC","USA Vein Clinics of Bellevue, LLC Bellevue",,,,,,,,,"Dec 30, 2022",Peripheral Venous Testing,,,,,,,,,,,,,,
202,203,"USA Vein Clinics of Kent, PLLC",47.36689,-122.304644,granted,26124 Pacific Highway S,,Kent,WA,98032,USA,,,,vascular,"www.google.com/search?q=USA+Vein+Clinics+of+Kent,+PLLC","USA Vein Clinics of Kent, PLLC Kent",,,,,,,,,"Dec 30, 2022",Peripheral Venous Testing,,,,,,,,,,,,,,
203,204,"USA Vein Clinics of Seattle, PLLC",47.706606,-122.323179,granted,10564 5th Avenue,Suite 102,Seattle,WA,98125,USA,,,,vascular,"www.google.com/search?q=USA+Vein+Clinics+of+Seattle,+PLLC","USA Vein Clinics of Seattle, PLLC Seattle",,,,,,,,,"Dec 30, 2022",Peripheral Venous Testing,,,,,,,,,,,,,,
204,205,UW Medicine - Northwest Hospital and Medical Center,47.712263,-122.33598,granted,1550 N 115th St,,Seattle,WA,98133,USA,,,,echo,www.google.com/search?q=UW+Medicine+-+Northwest+Hospital+and+Medical+Center,UW Medicine - Northwest Hospital and Medical Center Seattle,,,"Jun 30, 2023",Adult Transthoracic,,,,,,,,,,,,,,,,,,,,
205,206,UW Medicine - Northwest Hospital and Medical Center   Cardiac and Vascular Imaging Center-McMurray,47.71227,-122.337662,granted,1536 North 115th Street,Suite 200,Seattle,WA,98133,USA,,,,echo,www.google.com/search?q=UW+Medicine+-+Northwest+Hospital+and+Medical+Center+++Cardiac+and+Vascular+Imaging+Center-McMurray,UW Medicine - Northwest Hospital and Medical Center   Cardiac and Vascular Imaging Center-McMurray Seattle,,,"Jun 30, 2023","Adult Stress, Adult Transthoracic",,,,,,,,,,,,,,,,,,,,
206,207,UW Northwest Hospital and Medical Center-Cardiac Imaging Center-McMurray Bldg,47.71227,-122.337662,granted,1536 N. 115th St. Suite 200,,Seattle,WA,98133,USA,,,,nuclear,www.google.com/search?q=UW+Northwest+Hospital+and+Medical+Center-Cardiac+Imaging+Center-McMurray+Bldg,UW Northwest Hospital and Medical Center-Cardiac Imaging Center-McMurray Bldg Seattle,,,,,,,"Jul 31, 2025",Myocardial Perfusion Imaging,,,,,,,,,,,,,,,,
207,208,UWMC MLT Heart Institute Echo,47.802082,-122.33568,granted,24361 Van Ry Boulevard Suite 111,,Mountlake Terrace,WA,98043-9998,USA,,www.uwmedicine.org/patient-care/our-services/find-a-clinic/pages/clinic.aspx?clinicid=1356,,echo,,UWMC MLT Heart Institute Echo Mountlake Terrace,,,"Oct 30, 2022","Adult Stress, Adult Transthoracic",,,,,,,,,,,,,,,,,,,,
208,209,Valley Medical Center,47.441094,-122.214251,granted,400 South 43rd Street,,Renton,WA,98055,USA,,valleymed.org,,echo,,Valley Medical Center Renton,,,"Jun 30, 2025","Adult Stress, Adult Transesophageal, Adult Transthoracic",,,,,,,,,,,,,,,,,,,,
209,210,Vancouver Clinic,45.625741,-122.583646,granted,700 NE 87th Avenue,Suite 110,Vancouver,WA,98664,USA,,,,pediatric_echo,www.google.com/search?q=Vancouver+Clinic,Vancouver Clinic Vancouver,,,,,,,,,,,"Jun 30, 2023",Pediatric Transthoracic,,,,,,,,,,,,
210,211,Virginia Mason Bainbridge Island Medical Center,47.624845,-122.51775,granted,1344 Wintergreen Lane NE,,Bainbridge Island,WA,98110,USA,,,,vascular,www.google.com/search?q=Virginia+Mason+Bainbridge+Island+Medical+Center,Virginia Mason Bainbridge Island Medical Center Bainbridge Island,,,,,,,,,"Dec 31, 2023","Extracranial Cerebrovascular Testing, Peripheral Venous Testing, Visceral Vascular Testing",,,,,,,,,,,,,,
211,212,Virginia Mason Bainbridge Island Medical Center,47.624845,-122.51775,granted,380 Winslow Way E,,Bainbridge Island,WA,98110,USA,,,,echo,www.google.com/search?q=Virginia+Mason+Bainbridge+Island+Medical+Center,Virginia Mason Bainbridge Island Medical Center Bainbridge Island,,,"Feb 28, 2025","Adult Stress, Adult Transthoracic",,,,,,,,,,,,,,,,,,,,
212,213,Virginia Mason Bellevue Medical Center,47.612701,-122.19084,granted,222 112th Ave NE,,Bellevue,WA,98004,USA,,,,echo,www.google.com/search?q=Virginia+Mason+Bellevue+Medical+Center,Virginia Mason Bellevue Medical Center Bellevue,,,"Feb 28, 2025","Adult Stress, Adult Transthoracic",,,,,,,,,,,,,,,,,,,,
213,214,Virginia Mason Bellevue Medical Center,47.612701,-122.19084,granted,11695 NE 4th St,,Bellevue,WA,98004,USA,,,,vascular,www.google.com/search?q=Virginia+Mason+Bellevue+Medical+Center,Virginia Mason Bellevue Medical Center Bellevue,,,,,,,,,"Dec 31, 2023","Extracranial Cerebrovascular Testing, Peripheral Arterial Testing, Peripheral Venous Testing, Visceral Vascular Testing",,,,,,,,,,,,,,
214,215,Virginia Mason Edmonds Medical Center,47.806909,-122.332233,granted,7315 212th St. SW,Suite 101/207,Edmonds,WA,98026,USA,,,,vascular,www.google.com/search?q=Virginia+Mason+Edmonds+Medical+Center,Virginia Mason Edmonds Medical Center Edmonds,,,,,,,,,"Dec 31, 2023","Extracranial Cerebrovascular Testing, Peripheral Venous Testing, Visceral Vascular Testing",,,,,,,,,,,,,,
215,216,Virginia Mason Federal Way Medical Center,47.301099,-122.330014,granted,33501 First Way S,,Federal Way,WA,98003,USA,,,,echo,www.google.com/search?q=Virginia+Mason+Federal+Way+Medical+Center,Virginia Mason Federal Way Medical Center Federal Way,,,"Feb 28, 2025","Adult Stress, Adult Transthoracic",,,,,,,,,,,,,,,,,,,,
216,217,Virginia Mason Federal Way Medical Center,47.301099,-122.330014,granted,33501 First Way S,,Federal Way,WA,98003,USA,,,,vascular,www.google.com/search?q=Virginia+Mason+Federal+Way+Medical+Center,Virginia Mason Federal Way Medical Center Federal Way,,,,,,,,,"Dec 31, 2023","Extracranial Cerebrovascular Testing, Peripheral Arterial Testing, Peripheral Venous Testing, Visceral Vascular Testing",,,,,,,,,,,,,,
217,218,Virginia Mason Hospital and Seattle Medical Center,47.609391,-122.328252,granted,1100 Ninth Avenue,C5-US,Seattle,WA,98101,USA,,,,vascular,www.google.com/search?q=Virginia+Mason+Hospital+and+Seattle+Medical+Center,Virginia Mason Hospital and Seattle Medical Center Seattle,,,,,,,,,"Dec 31, 2023","Extracranial Cerebrovascular Testing, Peripheral Arterial Testing, Peripheral Venous Testing, Visceral Vascular Testing",,,,,,,,,,,,,,
218,219,Virginia Mason Hospital and Seattle Medical Center,47.609391,-122.328252,granted,1100 Ninth Avenue,PO Box 900,Seattle,WA,98111,USA,,,,echo,www.google.com/search?q=Virginia+Mason+Hospital+and+Seattle+Medical+Center,Virginia Mason Hospital and Seattle Medical Center Seattle,,,"Feb 28, 2025","Adult Stress, Adult Transesophageal, Adult Transthoracic",,,,,,,,,,,,,,,,,,,,
219,220,Virginia Mason Issaquah Medical Center,47.537133,-122.034766,granted,100 N E Gilman Blvd,,Issaquah,WA,98027,USA,,,,vascular,www.google.com/search?q=Virginia+Mason+Issaquah+Medical+Center,Virginia Mason Issaquah Medical Center Issaquah,,,,,,,,,"Dec 31, 2023","Extracranial Cerebrovascular Testing, Peripheral Venous Testing, Visceral Vascular Testing",,,,,,,,,,,,,,
220,221,Virginia Mason Issaquah Medical Center,47.537133,-122.034766,granted,100 NE Gilman Blvd.,,Issaquah,WA,98027,USA,,,,echo,www.google.com/search?q=Virginia+Mason+Issaquah+Medical+Center,Virginia Mason Issaquah Medical Center Issaquah,,,"Feb 28, 2025","Adult Stress, Adult Transthoracic",,,,,,,,,,,,,,,,,,,,
221,222,Virginia Mason Kirkland Medical Center,47.7148665,-122.183002,granted,11800 NE 128th St Suite 300,Evergreen Plaza Building,Kirkland,WA,98034,USA,,,,echo,www.google.com/search?q=Virginia+Mason+Kirkland+Medical+Center,Virginia Mason Kirkland Medical Center Kirkland,,,"Feb 28, 2025","Adult Stress, Adult Transthoracic",,,,,,,,,,,,,,,,,,,,
222,223,Virginia Mason Kirkland Medical Center,47.719278,-122.204248,granted,11800 N E 128th St Suite 300,Evergreen Plaza Building,Kirkland,WA,98034,USA,,,,vascular,www.google.com/search?q=Virginia+Mason+Kirkland+Medical+Center,Virginia Mason Kirkland Medical Center Kirkland,,,,,,,,,"Dec 31, 2023","Extracranial Cerebrovascular Testing, Peripheral Venous Testing, Visceral Vascular Testing",,,,,,,,,,,,,,
223,224,Virginia Mason Lynnwood Medical Center,47.82506,-122.277748,granted,19116 33rd Ave W,,Lynnwood,WA,98036,USA,,,,vascular,www.google.com/search?q=Virginia+Mason+Lynnwood+Medical+Center,Virginia Mason Lynnwood Medical Center Lynnwood,,,,,,,,,"Dec 31, 2023","Extracranial Cerebrovascular Testing, Peripheral Arterial Testing, Peripheral Venous Testing, Visceral Vascular Testing",,,,,,,,,,,,,,
224,225,Virginia Mason Lynnwood Medical Center,47.82506,-122.277748,granted,19116 33rd Ave W,,Lynnwood,WA,98036,USA,,,,echo,www.google.com/search?q=Virginia+Mason+Lynnwood+Medical+Center,Virginia Mason Lynnwood Medical Center Lynnwood,,,"Feb 28, 2025","Adult Stress, Adult Transthoracic",,,,,,,,,,,,,,,,,,,,
225,226,Washington Orthopaedic Center,46.713748,-122.986072,granted,1900 Cooks Hill Road,,Centralia,WA,98531,USA,,,,mr,www.google.com/search?q=Washington+Orthopaedic+Center,Washington Orthopaedic Center Centralia,,,,,"Jan 31, 2023",Musculoskeletal MRI,,,,,,,,,,,,,,,,,,
226,227,Wenatchee Valley Clinic Moses Lake,47.121356,-119.265517,granted,840 East Hill Avenue,,Moses Lake,WA,98837,USA,,,,echo,www.google.com/search?q=Wenatchee+Valley+Clinic+Moses+Lake,Wenatchee Valley Clinic Moses Lake Moses Lake,,,"Oct 31, 2024",Adult Transthoracic,,,,,,,,,,,,,,,,,,,,
227,228,Wenatchee Valley Clinic Omak,48.423763,-119.502418,granted,916 Koala,,Omak,WA,98841,USA,,,,echo,www.google.com/search?q=Wenatchee+Valley+Clinic+Omak,Wenatchee Valley Clinic Omak Omak,,,"Oct 31, 2024",Adult Transthoracic,,,,,,,,,,,,,,,,,,,,
228,229,Wenatchee Valley Hospital - Moses Lake,47.121356,-119.265517,granted,840 E. Hill Ave,,Moses Lake,WA,98837,USA,,confluencehealth.org,,vascular,,Wenatchee Valley Hospital - Moses Lake Moses Lake,,,,,,,,,"Jan 31, 2024","Extracranial Cerebrovascular Testing, Peripheral Arterial Testing, Peripheral Venous Testing, Visceral Vascular Testing",,,,,,,,,,,,,,
229,230,Wenatchee Valley Hospital - Omak,48.423762,-119.502418,granted,916 Koala Dr.,,Omak,WA,98841,USA,,confluencehealth.org,,vascular,,Wenatchee Valley Hospital - Omak Omak,,,,,,,,,"Jan 31, 2024","Extracranial Cerebrovascular Testing, Peripheral Arterial Testing, Peripheral Venous Testing, Visceral Vascular Testing",,,,,,,,,,,,,,
230,231,Western Washington Medical Group Orthopedic Sports and Hand Center,47.96771,-122.20148,granted,3726 Broadway,Suite 201,Everett,WA,98201,USA,,,,mr,www.google.com/search?q=Western+Washington+Medical+Group+Orthopedic+Sports+and+Hand+Center,Western Washington Medical Group Orthopedic Sports and Hand Center Everett,,,,,"Sep 30, 2023",Musculoskeletal MRI,,,,,,,,,,,,,,,,,,
231,232,WWMG Silverlake Nuclear Medicine,47.882094,-122.206817,granted,12728 19th Avenue SE,Suite 200,Everett,WA,98208,,,www.wwmedgroup.com,,nuclear,,WWMG Silverlake Nuclear Medicine Everett,,,,,,,"Dec 31, 2023",Myocardial Perfusion Imaging,,,,,,,,,,,,,,,,
232,233,Yakima Valley Memorial Heart and Vascular,46.594216,-120.548739,granted,406 S. 30th Avenue,Suite #101,Yakima,WA,98902,USA,,www.yakimaheart.com,,vascular,,Yakima Valley Memorial Heart and Vascular Yakima,,,,,,,,,"Mar 31, 2025","Extracranial Cerebrovascular Testing, Peripheral Arterial Testing, Peripheral Venous Testing, Visceral Vascular Testing",,,,,,,,,,,,,,
233,234,Yakima Valley Memorial Heart and Vascular,46.594216,-120.548739,granted,406 South 30th Avenue,,Yakima,WA,98902,USA,,,,echo,www.google.com/search?q=Yakima+Valley+Memorial+Heart+and+Vascular,Yakima Valley Memorial Heart and Vascular Yakima,,,"Jun 30, 2025","Adult Stress, Adult Transesophageal, Adult Transthoracic",,,,,,,,,,,,,,,,,,,,
234,235,Yakima Valley Memorial Hospital,46.592698,-120.546186,granted,2811 Tieton Drive,,Yakima,WA,98902,USA,,,,echo,www.google.com/search?q=Yakima+Valley+Memorial+Hospital,Yakima Valley Memorial Hospital Yakima,,,"Jun 30, 2025","Adult Transesophageal, Adult Transthoracic",,,,,,,,,,,,,,,,,,,,
