,id,name,lat,lng,category,address,address2,city,state,postal,country,phone,web,features,modalities,searchGoogle,search,ct,ct_areas,echo,echo_areas,mr,mr_areas,nuclear,nuclear_areas,vascular,vascular_areas,pediatric_echo,pediatric_echo_areas,ct-dental,ct-dental_areas,stenting,stenting_areas,vein_center,vein_center_areas,cardiac_electrophysiology,cardiac_electrophysiology_areas,cardiovascular_catheterization,cardiovascular_catheterization_areas,jrcdms,jrcdms_areas
0,1,"Advanced Ear, Nose and Throat Specialists, SC",43.071085,-88.473587,granted,1185 Corporate Center Drive Suite 300,,Oconomowoc,WI,53066,USA,,www.advent.md,,ct,,"Advanced Ear, Nose and Throat Specialists, SC Oconomowoc","Nov 30, 2023",Maxillofacial CT,,,,,,,,,,,,,,,,,,,,,,
1,2,"Advanced Ear, Nose and Throat Specialists, SC",43.211425,-87.924111,granted,10610 N. Port Washington Rd.,,Mequon,WI,53092,USA,,www.advent.md,,ct,,"Advanced Ear, Nose and Throat Specialists, SC Mequon","Nov 30, 2023",Maxillofacial CT,,,,,,,,,,,,,,,,,,,,,,
2,3,"Advanced Ear, Nose and Throat Specialists, SC",43.071018,-88.047985,granted,2885 N. Mayfair Road,,Wauwatosa,WI,53222,USA,,www.adventknows.com,,ct,,"Advanced Ear, Nose and Throat Specialists, SC Wauwatosa","Nov 30, 2023",Maxillofacial CT,,,,,,,,,,,,,,,,,,,,,,
3,4,ADVENT,44.259736,-88.469216,granted,247 S. Nicolet Road,,Appleton,WI,54914,USA,,www.adventknows.com,,ct,,ADVENT Appleton,"Nov 30, 2023",Maxillofacial CT,,,,,,,,,,,,,,,,,,,,,,
4,5,ADVENT,42.901407,-87.91914,granted,500 W Drexel Ave,,Oak Creek,WI,53154,USA,,www.adventknows.com,,ct,,ADVENT Oak Creek,"Nov 30, 2023",Maxillofacial CT,,,,,,,,,,,,,,,,,,,,,,
5,6,ADVENT,42.566573,-87.919864,granted,8500 75th Street,,Pleasant Prairie,WI,53158,USA,,www.adventknows.com,,ct,,ADVENT Pleasant Prairie,"Nov 30, 2023",Maxillofacial CT,,,,,,,,,,,,,,,,,,,,,,
6,7,AdventHealth Durand,44.620309,-91.9635,granted,1220 Third Avenue West,,Durand,WI,54736,USA,,,,echo,www.google.com/search?q=AdventHealth+Durand,AdventHealth Durand Durand,,,"Jul 31, 2025",Adult Transthoracic,,,,,,,,,,,,,,,,,,,,
7,8,AHC - Lake Geneva,42.606049,-88.423723,granted,146 East Geneva Square,,Lake Geneva,WI,53147,USA,,www.aurora.org,,echo,,AHC - Lake Geneva Lake Geneva,,,"Mar 31, 2025",Adult Transthoracic,,,,,,,,,,,,,,,,,,,,
8,9,Amery Hospital and Clinic,45.295946,-92.36067,granted,265 Griffin Street East,,Amery,WI,54001,USA,,,,nuclear,www.google.com/search?q=Amery+Hospital+and+Clinic,Amery Hospital and Clinic Amery,,,,,,,"Jan 31, 2023",Myocardial Perfusion Imaging,,,,,,,,,,,,,,,,
9,10,Amery Regional Medical Center,45.295946,-92.36067,granted,265 Griffin Street East,,Amery,WI,54001,USA,,,,echo,www.google.com/search?q=Amery+Regional+Medical+Center,Amery Regional Medical Center Amery,,,"Jan 31, 2023","Adult Stress, Adult Transthoracic",,,,,,,,,,,,,,,,,,,,
10,11,AMG Cardiovascular Greenfield,42.96411,-87.966535,granted,"4131 West Loomis Road, Suite 110",,Greenfield,WI,53221,USA,,,,nuclear,www.google.com/search?q=AMG+Cardiovascular+Greenfield,AMG Cardiovascular Greenfield Greenfield,,,,,,,"Aug 31, 2024",Myocardial Perfusion Imaging,,,,,,,,,,,,,,,,
11,12,AMG Sheboygan Clinic,43.7565,-87.738293,granted,3400 Union Ave,,Sheboygan,WI,53081,USA,,,,echo,www.google.com/search?q=AMG+Sheboygan+Clinic,AMG Sheboygan Clinic Sheboygan,,,"Nov 30, 2023",Adult Transthoracic,,,,,,,,,,,,,,,,,,,,
12,13,AMG-Plymouth Clinic,43.753001,-87.946121,granted,2600 Kiley Way,,Plymouth,WI,53073,USA,,,,echo,www.google.com/search?q=AMG-Plymouth+Clinic,AMG-Plymouth Clinic Plymouth,,,"Nov 30, 2023",Adult Transthoracic,,,,,,,,,,,,,,,,,,,,
13,14,Appleton Medical Center - Echo Lab,44.278772,-88.395612,granted,1818 North Meade Street,,Appleton,WI,54911,USA,,www.thedacare.org,,echo,,Appleton Medical Center - Echo Lab Appleton,,,"Sep 30, 2023","Adult Stress, Adult Transthoracic",,,,,,,,,,,,,,,,,,,,
14,15,Ascension - St. Francis Hospital,42.98536,-87.933837,granted,3237 South 16th Street,,Milwaukee,WI,53215,USA,,,,echo,www.google.com/search?q=Ascension+-+St.+Francis+Hospital,Ascension - St. Francis Hospital Milwaukee,,,"Aug 31, 2023",Adult Transthoracic,,,,,,,,,,,,,,,,,,,,
15,16,Ascension All Saints Hospital,42.73375,-87.825946,granted,3801 Spring Street,,Racine,WI,53405,USA,,,,nuclear,www.google.com/search?q=Ascension+All+Saints+Hospital,Ascension All Saints Hospital Racine,,,,,,,"Nov 30, 2023","Equilibrium Radionuclide Angiography, General Nuclear Medicine, Myocardial Perfusion Imaging",,,,,,,,,,,,,,,,
16,17,Ascension All Saints Hospital- Spring Street Campus,42.73375,-87.825946,granted,3801 Spring Street,,Racine,WI,53405,USA,,,,echo,www.google.com/search?q=Ascension+All+Saints+Hospital-+Spring+Street+Campus,Ascension All Saints Hospital- Spring Street Campus Racine,,,"Mar 31, 2025","Adult Stress, Adult Transthoracic",,,,,,,,,,,,,,,,,,,,
17,18,Ascension Medical Group,42.916153,-88.006975,granted,9969 S. 27th St,Suite 1400,Franklin,WI,53132,USA,,,,echo,www.google.com/search?q=Ascension+Medical+Group,Ascension Medical Group Franklin,,,"Apr 30, 2024",Adult Transthoracic,,,,,,,,,,,,,,,,,,,,
18,19,Ascension Medical Group at W. Rawson Ave.,42.916153,-88.006975,granted,7400 West Rawson Avenue,Suite 143,Franklin,WI,53132,USA,,www.ascension.org,,vascular,,Ascension Medical Group at W. Rawson Ave. Franklin,,,,,,,,,"Mar 31, 2025","Extracranial Cerebrovascular Testing, Peripheral Arterial Testing, Peripheral Venous Testing, Screening",,,,,,,,,,,,,,
19,20,Ascension Mercy Hospital,44.013049,-88.603055,granted,500 South Oakwood Drive,,Oshkosh,WI,54902,USA,,,,echo,www.google.com/search?q=Ascension+Mercy+Hospital,Ascension Mercy Hospital Oshkosh,,,"Sep 30, 2024","Adult Stress, Adult Transesophageal, Adult Transthoracic",,,,,,,,,,,,,,,,,,,,
20,21,Ascension Mercy Hospital,44.013049,-88.603055,granted,500 S. Oakwood Road,,Oshkosh,WI,54904,USA,,www.affinityhealth.org,,nuclear,,Ascension Mercy Hospital Oshkosh,,,,,,,"Dec 31, 2023",Myocardial Perfusion Imaging,,,,,,,,,,,,,,,,
21,22,Ascension NE Wisconsin St. Elizabeth Hospital,44.248739,-88.404135,granted,1506 S. Oneida Street,Ascension NE Wisconsin St. Elizabeth Hospital,Appleton,WI,54915,USA,,www.affinintyhealth.org,,nuclear,,Ascension NE Wisconsin St. Elizabeth Hospital Appleton,,,,,,,"Sep 30, 2024",Myocardial Perfusion Imaging,,,,,,,,,,,,,,,,
22,23,Ascension NE Wisconsin St. Elizabeth Hospital,44.248739,-88.404135,granted,1506 South Oneida Street,,Appleton,WI,54915,USA,,,,echo,www.google.com/search?q=Ascension+NE+Wisconsin+St.+Elizabeth+Hospital,Ascension NE Wisconsin St. Elizabeth Hospital Appleton,,,"Nov 30, 2024",Adult Transthoracic,,,,,,,,,,,,,,,,,,,,
23,24,Ascension SE Wisconsin at Mayfair Road,43.032351,-88.047335,granted,201 N. Mayfair Road,,Wauwatosa,WI,53226,USA,,,,nuclear,www.google.com/search?q=Ascension+SE+Wisconsin+at+Mayfair+Road,Ascension SE Wisconsin at Mayfair Road Wauwatosa,,,,,,,"Dec 31, 2022","General Nuclear Medicine, Myocardial Perfusion Imaging",,,,,,,,,,,,,,,,
24,25,Ascension SE Wisconsin at Mayfair Road,43.032351,-88.047335,granted,201 N. Mayfair Rd.,3rd Floor,Wauwatosa,WI,53226,USA,,www.ascension.org,,vascular,,Ascension SE Wisconsin at Mayfair Road Wauwatosa,,,,,,,,,"Mar 31, 2025","Extracranial Cerebrovascular Testing, Peripheral Arterial Testing, Peripheral Venous Testing, Screening",,,,,,,,,,,,,,
25,26,Ascension SE Wisconsin Hospital - Elmbrook Campus,43.061313,-88.153492,granted,19333 West North Avenue,,Brookfield,WI,53045,USA,,,,nuclear,www.google.com/search?q=Ascension+SE+Wisconsin+Hospital+-+Elmbrook+Campus,Ascension SE Wisconsin Hospital - Elmbrook Campus Brookfield,,,,,,,"Dec 31, 2022","Equilibrium Radionuclide Angiography, General Nuclear Medicine, Myocardial Perfusion Imaging, Positron Emission Tomography (PET)",,,,,,,,,,,,,,,,
26,27,Ascension SE Wisconsin Hospital - Franklin Campus,42.861865,-87.951672,granted,10101 South 27th Street,,Franklin,WI,53132,USA,,,,echo,www.google.com/search?q=Ascension+SE+Wisconsin+Hospital+-+Franklin+Campus,Ascension SE Wisconsin Hospital - Franklin Campus Franklin,,,"Aug 31, 2023",Adult Transthoracic,,,,,,,,,,,,,,,,,,,,
27,28,Ascension SE Wisconsin Hospital - Franklin Campus,42.861865,-87.951672,granted,10101 S 27th Street,,Franklin,WI,53132,USA,,,,nuclear,www.google.com/search?q=Ascension+SE+Wisconsin+Hospital+-+Franklin+Campus,Ascension SE Wisconsin Hospital - Franklin Campus Franklin,,,,,,,"Mar 31, 2025","Equilibrium Radionuclide Angiography, General Nuclear Medicine, Myocardial Perfusion Imaging, Positron Emission Tomography (PET)",,,,,,,,,,,,,,,,
28,29,Ascension SE Wisconsin Hospital - St. Joseph Campus,43.073465,-87.9761,granted,5000 W. Chambers Street,,Milwaukee,WI,53210,USA,,,,nuclear,www.google.com/search?q=Ascension+SE+Wisconsin+Hospital+-+St.+Joseph+Campus,Ascension SE Wisconsin Hospital - St. Joseph Campus Milwaukee,,,,,,,"Dec 31, 2022","Equilibrium Radionuclide Angiography, General Nuclear Medicine, Myocardial Perfusion Imaging, Positron Emission Tomography (PET)",,,,,,,,,,,,,,,,
29,30,Ascension St. Francis,42.98536,-87.933837,granted,3237 South 16th Street,,Milwaukee,WI,53215,USA,,,,nuclear,www.google.com/search?q=Ascension+St.+Francis,Ascension St. Francis Milwaukee,,,,,,,"Mar 31, 2025","General Nuclear Medicine, Myocardial Perfusion Imaging, Positron Emission Tomography (PET)",,,,,,,,,,,,,,,,
30,31,Aspirus Cardiology,44.968989,-89.661745,granted,500 Wind Ridge Drive,,Wausau,WI,54401,USA,,aspirus.org,,nuclear,,Aspirus Cardiology Wausau,,,,,,,"Jan 31, 2025","Myocardial Perfusion Imaging, Positron Emission Tomography (PET)",,,,,,,,,,,,,,,,
31,32,Aspirus Cardiology Rhinelander,45.637111,-89.37289,granted,2275 North Shore Drive,,Rhinelander,WI,54501,USA,,aspirus.org,,nuclear,,Aspirus Cardiology Rhinelander Rhinelander,,,,,,,"Jan 31, 2025",Myocardial Perfusion Imaging,,,,,,,,,,,,,,,,
32,33,Aspirus Cardiology-Rhinelander,45.637111,-89.37289,granted,2275 North Shore Drive,,Rhinelander,WI,54501,USA,,,,echo,www.google.com/search?q=Aspirus+Cardiology-Rhinelander,Aspirus Cardiology-Rhinelander Rhinelander,,,"Jan 29, 2023","Adult Stress, Adult Transthoracic",,,,,,,,,,,,,,,,,,,,
33,34,Aspirus Cardiology-Wausau,44.969202,-89.661606,granted,500 Wind Ridge Drive,,Wausau,WI,54401,USA,,,,echo,www.google.com/search?q=Aspirus+Cardiology-Wausau,Aspirus Cardiology-Wausau Wausau,,,"Jan 29, 2023","Adult Stress, Adult Transthoracic",,,,,,,,,,,,,,,,,,,,
34,35,Aspirus Heart and Vascular Institute,44.960701,-89.683039,granted,333 Pine Ridge Boulevard,Aspirus Wausau Hospital,Wausau,WI,54401,USA,,,,echo,www.google.com/search?q=Aspirus+Heart+and+Vascular+Institute,Aspirus Heart and Vascular Institute Wausau,,,"Jan 29, 2023","Adult Stress, Adult Transesophageal, Adult Transthoracic",,,,,,,,,,,,,,,,,,,,
35,36,Aspirus Medford Hospital Echo Lab,45.135834,-90.354012,granted,135 South Gibson Street,,Medford,WI,54451,USA,,,,echo,www.google.com/search?q=Aspirus+Medford+Hospital+Echo+Lab,Aspirus Medford Hospital Echo Lab Medford,,,"Jan 29, 2023","Adult Stress, Adult Transthoracic",,,,,,,,,,,,,,,,,,,,
36,37,Aspirus Riverview Hospital Echo Lab,44.382199,-89.829544,granted,410 Dewey Street,,Wisconsin Rapids,WI,54494,USA,,,,echo,www.google.com/search?q=Aspirus+Riverview+Hospital+Echo+Lab,Aspirus Riverview Hospital Echo Lab Wisconsin Rapids,,,"Jan 29, 2023","Adult Stress, Adult Transesophageal, Adult Transthoracic",,,,,,,,,,,,,,,,,,,,
37,38,Aurora BayCare Medical Center,44.47335,-87.941091,granted,2845 Greenbrier Rd,,Green Bay,WI,54311,USA,,,,echo,www.google.com/search?q=Aurora+BayCare+Medical+Center,Aurora BayCare Medical Center Green Bay,,,"Feb 29, 2024","Adult Stress, Adult Transesophageal, Adult Transthoracic",,,,,,,,,,,,,,,,,,,,
38,39,Aurora Cardiovascular Services,42.991345,-87.949717,granted,2801 West Kinnickinnic River Parkway,Suite 880,Milwaukee,WI,53215,USA,,www.aurorahealthcare.org,,echo,,Aurora Cardiovascular Services Milwaukee,,,"Mar 31, 2025","Adult Stress, Adult Transthoracic",,,,,,,,,,,,,,,,,,,,
39,40,Aurora Cardiovascular Services,42.991328,-87.949534,granted,2801 W. Kinnickinnic River Parkway,Suite 880,Milwaukee,WI,53215,USA,,,,nuclear,www.google.com/search?q=Aurora+Cardiovascular+Services,Aurora Cardiovascular Services Milwaukee,,,,,,,"Aug 31, 2024","Equilibrium Radionuclide Angiography, Myocardial Perfusion Imaging, Other Cardiovascular Imaging, Positron Emission Tomography (PET)",,,,,,,,,,,,,,,,
40,41,Aurora Health Care Vascular Center,42.991345,-87.949717,granted,2801 West Kinnickinnic River Parkway,Suite 380,Milwaukee,WI,53215,USA,,,,vascular,www.google.com/search?q=Aurora+Health+Care+Vascular+Center,Aurora Health Care Vascular Center Milwaukee,,,,,,,,,"May 31, 2024","Extracranial Cerebrovascular Testing, Peripheral Arterial Testing, Peripheral Venous Testing, Visceral Vascular Testing",,,,,,,,,,,,,,
41,42,Aurora Health Center,43.170256,-88.106543,granted,W180N11070 River Ln.,,Germantown,WI,53022,USA,,,,echo,www.google.com/search?q=Aurora+Health+Center,Aurora Health Center Germantown,,,"Oct 31, 2024","Adult Stress, Adult Transthoracic",,,,,,,,,,,,,,,,,,,,
42,43,Aurora Health Center Fond du Lac,43.781795,-88.397269,granted,210 Wisconsin American Drive,,Fond du Lac,WI,54937,USA,,,,echo,www.google.com/search?q=Aurora+Health+Center+Fond+du+Lac,Aurora Health Center Fond du Lac Fond du Lac,,,"Aug 31, 2023","Adult Stress, Adult Transthoracic",,,,,,,,,,,,,,,,,,,,
43,44,Aurora Health Center Waukesha,43.049786,-88.21014,granted,W231N1440 Corporate Ct,,Waukesha,WI,53186,USA,,,,echo,www.google.com/search?q=Aurora+Health+Center+Waukesha,Aurora Health Center Waukesha Waukesha,,,"Mar 31, 2024",Adult Transthoracic,,,,,,,,,,,,,,,,,,,,
44,45,"Aurora Health Center, Good Hope Rd.",43.148314,-87.948325,granted,3003 West Good Hope Road,,Milwaukee,WI,53209,USA,,,,echo,"www.google.com/search?q=Aurora+Health+Center,+Good+Hope+Rd.","Aurora Health Center, Good Hope Rd. Milwaukee",,,"Oct 31, 2024","Adult Stress, Adult Transthoracic",,,,,,,,,,,,,,,,,,,,
45,46,"Aurora Health Center, Milwaukee West",43.04386,-88.047348,granted,1055 N. Mayfair Rd.,,Wauwatosa,WI,53226,USA,,,,echo,"www.google.com/search?q=Aurora+Health+Center,+Milwaukee+West","Aurora Health Center, Milwaukee West Wauwatosa",,,"Oct 31, 2024","Adult Stress, Adult Transthoracic",,,,,,,,,,,,,,,,,,,,
46,47,Aurora Lakeland Medical Center,42.662615,-88.496322,granted,W3985 County Rd NN,,Elkorn,WI,53121,USA,,,,echo,www.google.com/search?q=Aurora+Lakeland+Medical+Center,Aurora Lakeland Medical Center Elkorn,,,"Nov 30, 2024","Adult Stress, Adult Transthoracic",,,,,,,,,,,,,,,,,,,,
47,48,Aurora Medical Center - Oshkosh,44.027044,-88.593577,granted,855 N Westhaven Drive,,Oshkosh,WI,54904,USA,,,,echo,www.google.com/search?q=Aurora+Medical+Center+-+Oshkosh,Aurora Medical Center - Oshkosh Oshkosh,,,"Feb 29, 2024","Adult Stress, Adult Transesophageal, Adult Transthoracic",,,,,,,,,,,,,,,,,,,,
48,49,Aurora Medical Center Grafton,43.343428,-87.921941,granted,975 Port Washington Rd,,Grafton,WI,53024,USA,,,,echo,www.google.com/search?q=Aurora+Medical+Center+Grafton,Aurora Medical Center Grafton Grafton,,,"Mar 31, 2024","Adult Stress, Adult Transesophageal, Adult Transthoracic",,,,,,,,,,,,,,,,,,,,
49,50,Aurora Medical Center Kenosha,42.567355,-87.933877,granted,10400 75th St,,Kenosha,WI,53142,USA,,,,echo,www.google.com/search?q=Aurora+Medical+Center+Kenosha,Aurora Medical Center Kenosha Kenosha,,,"Jul 31, 2024","Adult Stress, Adult Transesophageal, Adult Transthoracic",,,,,,,,,,,,,,,,,,,,
50,51,Aurora Medical Center Manitowoc County,44.125582,-87.615933,granted,5000 Memorial Drive,,Two Rivers,WI,54241,USA,,www.aurorahealthcare.org,,echo,,Aurora Medical Center Manitowoc County Two Rivers,,,"Feb 28, 2023",Adult Transthoracic,,,,,,,,,,,,,,,,,,,,
51,52,Aurora Medical Center Summit,43.06379,-88.467961,granted,36500 Aurora Drive,,Summit,WI,53066,USA,,,,echo,www.google.com/search?q=Aurora+Medical+Center+Summit,Aurora Medical Center Summit Summit,,,"Mar 31, 2024","Adult Stress, Adult Transesophageal, Adult Transthoracic",,,,,,,,,,,,,,,,,,,,
52,53,Aurora Medical Center- Bay Area,45.072197,-87.619364,granted,3003 University Drive,,Marinette,WI,54143,USA,,,,echo,www.google.com/search?q=Aurora+Medical+Center-+Bay+Area,Aurora Medical Center- Bay Area Marinette,,,"Oct 30, 2022",Adult Transthoracic,,,,,,,,,,,,,,,,,,,,
53,54,Aurora Medical Center-Washington County,43.31948,-88.368814,granted,1032 Sumner Avenue,,Hartford,WI,53027,USA,,,,echo,www.google.com/search?q=Aurora+Medical+Center-Washington+County,Aurora Medical Center-Washington County Hartford,,,"Mar 31, 2024","Adult Stress, Adult Transesophageal, Adult Transthoracic",,,,,,,,,,,,,,,,,,,,
54,55,Aurora Memorial Hospital of Burlington,42.673294,-88.282722,granted,252 McHenry Street,,Burlington,WI,53105,USA,,,,echo,www.google.com/search?q=Aurora+Memorial+Hospital+of+Burlington,Aurora Memorial Hospital of Burlington Burlington,,,"Nov 30, 2024","Adult Stress, Adult Transesophageal, Adult Transthoracic",,,,,,,,,,,,,,,,,,,,
55,56,Aurora Memorial Hospital of Burlington,42.673294,-88.282722,granted,252 McHenry St,,Burlington,WI,53105,USA,,,,vascular,www.google.com/search?q=Aurora+Memorial+Hospital+of+Burlington,Aurora Memorial Hospital of Burlington Burlington,,,,,,,,,"Mar 01, 2023","Extracranial Cerebrovascular Testing, Peripheral Arterial Testing, Peripheral Venous Testing",,,,,,,,,,,,,,
56,57,Aurora New Berlin,42.988197,-88.074587,granted,12901 W National Ave,,New Berlin,WI,53151,USA,,www.aurorahealthcare.org,,echo,,Aurora New Berlin New Berlin,,,"Mar 31, 2025","Adult Stress, Adult Transthoracic",,,,,,,,,,,,,,,,,,,,
57,58,Aurora Rivercenter,43.050646,-87.909769,granted,1575 N Rivercenter Dr,,Milwaukee,WI,53212,USA,,www.aurorahealthcare.org,,echo,,Aurora Rivercenter Milwaukee,,,"Mar 31, 2025",Adult Transthoracic,,,,,,,,,,,,,,,,,,,,
58,59,Aurora Sheboygan Memorial Hospital,43.772568,-87.711206,granted,2629 North 7th Street,,Sheboygan,WI,53081,USA,,,,echo,www.google.com/search?q=Aurora+Sheboygan+Memorial+Hospital,Aurora Sheboygan Memorial Hospital Sheboygan,,,"Nov 30, 2023",Adult Transthoracic,,,,,,,,,,,,,,,,,,,,
59,60,Aurora Sinai Medical Center,43.042612,-87.927184,granted,945 N. 12th Street,,Milwaukee,WI,53233,USA,,,,nuclear,www.google.com/search?q=Aurora+Sinai+Medical+Center,Aurora Sinai Medical Center Milwaukee,,,,,,,"Jan 31, 2023",General Nuclear Medicine,,,,,,,,,,,,,,,,
60,61,"Aurora Sinai Medical Center of Aurora Health Care Metro, Inc.",43.042612,-87.927184,granted,945 North 12th Street,,Milwaukee,WI,53233,USA,,,,echo,"www.google.com/search?q=Aurora+Sinai+Medical+Center+of+Aurora+Health+Care+Metro,+Inc.","Aurora Sinai Medical Center of Aurora Health Care Metro, Inc. Milwaukee",,,"Oct 31, 2024","Adult Stress, Adult Transesophageal, Adult Transthoracic",,,,,,,,,,,,,,,,,,,,
61,62,"Aurora St. Luke’s Medical Center of Aurora Health Care Metro, Inc.",42.988612,-87.949346,granted,2900 West Oklahoma Avenue,,Milwaukee,WI,53215,USA,,,,echo,"www.google.com/search?q=Aurora+St.+Luke’s+Medical+Center+of+Aurora+Health+Care+Metro,+Inc.","Aurora St. Luke’s Medical Center of Aurora Health Care Metro, Inc. Milwaukee",,,"Oct 31, 2024","Adult Stress, Adult Transesophageal, Adult Transthoracic",,,,,,,,,,,,,,,,,,,,
62,63,"Aurora St. Luke’s South Shore Hospital of Aurora Health Care Metro, Inc.",42.937332,-87.849947,granted,5900 South Lake Drive,,Cudahy,WI,53110,USA,,,,echo,"www.google.com/search?q=Aurora+St.+Luke’s+South+Shore+Hospital+of+Aurora+Health+Care+Metro,+Inc.","Aurora St. Luke’s South Shore Hospital of Aurora Health Care Metro, Inc. Cudahy",,,"Oct 31, 2024","Adult Stress, Adult Transesophageal, Adult Transthoracic",,,,,,,,,,,,,,,,,,,,
63,64,Aurora West Allis Medical Center,43.002702,-88.023065,granted,8901 West Lincoln Avenue,,West Allis,WI,53227,USA,,,,echo,www.google.com/search?q=Aurora+West+Allis+Medical+Center,Aurora West Allis Medical Center West Allis,,,"Oct 31, 2024","Adult Stress, Adult Transesophageal, Adult Transthoracic",,,,,,,,,,,,,,,,,,,,
64,65,Aurora West Allis Medical Center,43.002702,-88.023065,granted,8901 W. Lincoln Avenue,,West Allis,WI,53227,USA,,,,vascular,www.google.com/search?q=Aurora+West+Allis+Medical+Center,Aurora West Allis Medical Center West Allis,,,,,,,,,"Feb 28, 2025","Extracranial Cerebrovascular Testing, Peripheral Arterial Testing, Peripheral Venous Testing",,,,,,,,,,,,,,
65,66,BayCare Clinic Oral and Maxillofacial Surgeons,44.45561,-88.000569,granted,2581 Development Drive,,Green Bay,WI,54311,USA,,www.omsgb.com,,ct-dental,,BayCare Clinic Oral and Maxillofacial Surgeons Green Bay,,,,,,,,,,,,,"Nov 29, 2022",Dental/Maxillofacial,,,,,,,,,,
66,67,Bellin Health Marinette,45.074162,-87.659716,granted,2820 Roosevelt Road,,Marinette,WI,54153,USA,,,,echo,www.google.com/search?q=Bellin+Health+Marinette,Bellin Health Marinette Marinette,,,"Jul 31, 2023",Adult Transthoracic,,,,,,,,,,,,,,,,,,,,
67,68,Bellin Health Marinette,45.071293,-87.619359,granted,2820 Roosevelt Rd,,Marinette,WI,54143,USA,,,,nuclear,www.google.com/search?q=Bellin+Health+Marinette,Bellin Health Marinette Marinette,,,,,,,"Sep 30, 2024","Equilibrium Radionuclide Angiography, General Nuclear Medicine, Myocardial Perfusion Imaging",,,,,,,,,,,,,,,,
68,69,Bellin Memorial Hospital,44.502003,-88.01063,granted,744  Webster Avenue,,Green Bay,WI,54301,USA,,,,nuclear,www.google.com/search?q=Bellin+Memorial+Hospital,Bellin Memorial Hospital Green Bay,,,,,,,"Sep 30, 2024","Equilibrium Radionuclide Angiography, General Nuclear Medicine, Myocardial Perfusion Imaging, Positron Emission Tomography (PET)",,,,,,,,,,,,,,,,
69,70,"Bellin Memorial Hospital, Inc.",44.502003,-88.01063,granted,744 South Webster Avenue,,Green Bay,WI,54301,USA,,www.bellin.org,,echo,,"Bellin Memorial Hospital, Inc. Green Bay",,,"Jul 31, 2023",Adult Transthoracic,,,,,,,,,,,,,,,,,,,,
70,71,Chequamegon Clinic,46.589298,-90.881281,granted,2201 Lake Shore Drive East,,Ashland,WI,54806,USA,,,,echo,www.google.com/search?q=Chequamegon+Clinic,Chequamegon Clinic Ashland,,,"Feb 29, 2024",Adult Transthoracic,,,,,,,,,,,,,,,,,,,,
71,72,Children’s Hospital of Wisconsin,43.038446,-88.024737,granted,9000 West Wisconsin Avenue,,Wauwatosa,WI,53226,USA,,www.chw.org,,pediatric_echo,,Children’s Hospital of Wisconsin Wauwatosa,,,,,,,,,,,"Jun 30, 2023","Pediatric Transesophageal, Pediatric Transthoracic, Fetal",,,,,,,,,,,,
72,73,Children’s Hospital of Wisconsin,42.95769,-88.109047,granted,4855 South Moorland Road,,New Berlin,WI,53151,USA,,www.chw.org,,pediatric_echo,,Children’s Hospital of Wisconsin New Berlin,,,,,,,,,,,"Jun 30, 2023",Pediatric Transthoracic,,,,,,,,,,,,
73,74,Children’s Hospital of Wisconsin,43.221177,-87.92837,granted,1655 W. Mequon Road,,Mequon,WI,53092,USA,,,,pediatric_echo,www.google.com/search?q=Children’s+Hospital+of+Wisconsin,Children’s Hospital of Wisconsin Mequon,,,,,,,,,,,"Jun 30, 2023",Pediatric Transthoracic,,,,,,,,,,,,
74,75,Children’s Hospital of Wisconsin,43.048528,-88.3668,granted,3195 Hillside Dr,,Delafield,WI,53018,USA,,,,pediatric_echo,www.google.com/search?q=Children’s+Hospital+of+Wisconsin,Children’s Hospital of Wisconsin Delafield,,,,,,,,,,,"Jun 30, 2023",Pediatric Transthoracic,,,,,,,,,,,,
75,76,Children’s Hospital of Wisconsin,42.566861,-87.911759,granted,8500 75th St,Suite 100,Kenosha,WI,53142,USA,,,,pediatric_echo,www.google.com/search?q=Children’s+Hospital+of+Wisconsin,Children’s Hospital of Wisconsin Kenosha,,,,,,,,,,,"Jun 30, 2023",Pediatric Transthoracic,,,,,,,,,,,,
76,77,Chippewa Falls Center,44.936417,-91.388874,granted,2655 Cty Hwy I,,Chippewa Falls,WI,54729,USA,,,,echo,www.google.com/search?q=Chippewa+Falls+Center,Chippewa Falls Center Chippewa Falls,,,"Jul 31, 2024",Adult Transthoracic,,,,,,,,,,,,,,,,,,,,
77,78,Clement J. Zablocki VA Medical Center,43.019558,-87.976053,granted,5000 W. National Ave,,Milwaukee,WI,53295,USA,,,,vascular,www.google.com/search?q=Clement+J.+Zablocki+VA+Medical+Center,Clement J. Zablocki VA Medical Center Milwaukee,,,,,,,,,"Sep 30, 2023","Extracranial Cerebrovascular Testing, Peripheral Arterial Testing",,,,,,,,,,,,,,
78,79,"Columbia St. Mary’s Hospital, Inc.",43.256456,-87.924154,granted,13133 North Port Washington Road,Seton Professional Building,Mequon,WI,53097,USA,,,,echo,"www.google.com/search?q=Columbia+St.+Mary’s+Hospital,+Inc.","Columbia St. Mary’s Hospital, Inc. Mequon",,,"Nov 30, 2022",Adult Transthoracic,,,,,,,,,,,,,,,,,,,,
79,80,"Columbia St. Mary’s Hospital, Inc.",43.022646,-88.000073,granted,801 N. 70th Street,,West Allis,WI,53214,USA,,,,echo,"www.google.com/search?q=Columbia+St.+Mary’s+Hospital,+Inc.","Columbia St. Mary’s Hospital, Inc. West Allis",,,"Nov 30, 2022",Adult Transthoracic,,,,,,,,,,,,,,,,,,,,
80,81,"Columbia St. Mary’s Hospital, Inc.",43.061817,-87.87875,granted,2350 North Lake Drive,Suite 400,Milwaukee,WI,53211,USA,,,,echo,"www.google.com/search?q=Columbia+St.+Mary’s+Hospital,+Inc.","Columbia St. Mary’s Hospital, Inc. Milwaukee",,,"Nov 30, 2022",Adult Transthoracic,,,,,,,,,,,,,,,,,,,,
81,82,"Columbia St. Mary’s Hospital, Inc.",43.060542,-87.94163,granted,2323 W. North Avenue,,Milwaukee,WI,53211,USA,,www.columbia-stmarys.org,,echo,,"Columbia St. Mary’s Hospital, Inc. Milwaukee",,,"Nov 30, 2022","Adult Stress, Adult Transesophageal, Adult Transthoracic",,,,,,,,,,,,,,,,,,,,
82,83,"Columbia St. Mary’s Hospital, Inc.",43.25618,-87.92415,granted,13111 North Port Washington Road,,Mequon,WI,53097,USA,,,,echo,"www.google.com/search?q=Columbia+St.+Mary’s+Hospital,+Inc.","Columbia St. Mary’s Hospital, Inc. Mequon",,,"Nov 30, 2022","Adult Stress, Adult Transesophageal, Adult Transthoracic",,,,,,,,,,,,,,,,,,,,
83,84,"Columbia St. Mary’s Hospital, Inc.",42.989279,-87.884008,granted,3056 Kinnickinnic Avenue,Suite 300,Bay View,WI,53207,USA,,,,echo,"www.google.com/search?q=Columbia+St.+Mary’s+Hospital,+Inc.","Columbia St. Mary’s Hospital, Inc. Bay View",,,"Nov 30, 2022",Adult Transthoracic,,,,,,,,,,,,,,,,,,,,
84,85,"Comprehensive Orthopaedics, SC",42.568557,-87.93378,granted,7401 104th Ave,Suite 110,Kenosha,WI,53142,USA,,www.comportho.com,,mr,,"Comprehensive Orthopaedics, SC Kenosha",,,,,"Jan 31, 2024",Musculoskeletal MRI,,,,,,,,,,,,,,,,,,
85,86,Coulis Cardiology,43.760471,-87.749708,granted,1414 North Taylor Drive,,Sheboygan,WI,53081,USA,,,,echo,www.google.com/search?q=Coulis+Cardiology,Coulis Cardiology Sheboygan,,,"May 31, 2024","Adult Stress, Adult Transthoracic",,,,,,,,,,,,,,,,,,,,
86,87,Dean and St. Mary’s Cardiac Center,43.059474,-89.400805,multigranted,700 S Park St,,Madison,WI,53715,USA,,"www.deancare,com",,"pediatric_echo, vascular",,Dean and St. Mary’s Cardiac Center Madison,,,"Oct 31, 2024","Adult Stress, Adult Transesophageal, Adult Transthoracic",,,,,"May 31, 2024",Extracranial Cerebrovascular Testing,"Dec 31, 2023","Pediatric Transthoracic, Fetal",,,,,,,,,,,,
87,88,Dean Clinic East,43.071404,-89.307929,granted,1821 S Stoughton Rd,,Madison,WI,53716,USA,,www.deancare.com,,vascular,,Dean Clinic East Madison,,,,,,,,,"May 31, 2024",Extracranial Cerebrovascular Testing,,,,,,,,,,,,,,
88,89,Dean Clinic West,43.077055,-89.518811,granted,752 N Highpoint Rd,,Madison,WI,53717,USA,,www.deancare.com,,vascular,,Dean Clinic West Madison,,,,,,,,,"May 31, 2024",Extracranial Cerebrovascular Testing,,,,,,,,,,,,,,
89,90,Dean Fish Hatchery Clinic,43.052675,-89.398968,granted,1313 Fish Hatchery Rd,,Madison,WI,53715,USA,,www.deancare.com,,vascular,,Dean Fish Hatchery Clinic Madison,,,,,,,,,"May 31, 2024",Extracranial Cerebrovascular Testing,,,,,,,,,,,,,,
90,91,Dean Janesville Clinic East,42.671013,-88.977819,multigranted,3200 East Racine St,,Janesville,WI,53546,USA,,www.deancare.com,,"vascular, echo",,Dean Janesville Clinic East Janesville,,,"Oct 31, 2024","Adult Stress, Adult Transthoracic",,,,,"May 31, 2024",Extracranial Cerebrovascular Testing,,,,,,,,,,,,,,
91,92,"Ear Nose Throat Family Clinic of WI, SC",42.579849,-87.884467,granted,6127 Green Bay Rd Ste 100,,Kenosha,WI,53142,USA,,,,ct,"www.google.com/search?q=Ear+Nose+Throat+Family+Clinic+of+WI,+SC","Ear Nose Throat Family Clinic of WI, SC Kenosha","Sep 30, 2024",Maxillofacial CT,,,,,,,,,,,,,,,,,,,,,,
92,93,"Ear, Nose and Throat Specialists of Wisconsin, SC",44.15695,-88.4608,granted,119 E Bell Street,,Neenah,WI,54956,USA,,,,ct,"www.google.com/search?q=Ear,+Nose+and+Throat+Specialists+of+Wisconsin,+SC","Ear, Nose and Throat Specialists of Wisconsin, SC Neenah","Nov 29, 2022",Maxillofacial CT,,,,,,,,,,,,,,,,,,,,,,
93,94,"Ear, Nose and Throat Surgical Associates, SC",44.275253,-88.395549,granted,1520 N. Meade Street,,Appleton,WI,54911,USA,,,,ct,"www.google.com/search?q=Ear,+Nose+and+Throat+Surgical+Associates,+SC","Ear, Nose and Throat Surgical Associates, SC Appleton","Apr 30, 2025",Maxillofacial CT,,,,,,,,,,,,,,,,,,,,,,
94,95,"Ear, Nose, Throat and Plastic Surgery Specialists - Watertown",43.199463,-88.699015,granted,123 Hospital Dr.,Suite 2003,Watertown,WI,53098,USA,,,,ct,"www.google.com/search?q=Ear,+Nose,+Throat+and+Plastic+Surgery+Specialists+-+Watertown","Ear, Nose, Throat and Plastic Surgery Specialists - Watertown Watertown","Aug 29, 2022",Maxillofacial CT,,,,,,,,,,,,,,,,,,,,,,
95,96,"Elite Extremity MRI of Wisconsin, Llc",42.955088,-87.948943,granted,"4600 W. Loomis Road, Suite 218",,Milwaukee,WI,53220,USA,,,,mr,"www.google.com/search?q=Elite+Extremity+MRI+of+Wisconsin,+Llc","Elite Extremity MRI of Wisconsin, Llc Milwaukee",,,,,"Apr 30, 2025",Musculoskeletal MRI,,,,,,,,,,,,,,,,,,
96,97,"ENT and Allergy Associates, S.C.",44.95781,-89.670999,granted,512 S 28th AVE,,Wausau,WI,54401,USA,,www.entwausau.com,,ct,,"ENT and Allergy Associates, S.C. Wausau","Jan 31, 2024",Maxillofacial CT,,,,,,,,,,,,,,,,,,,,,,
97,98,ENT Family Clinic of WI,42.884054,-87.908501,granted,8870 Mayhew Drive,Suite 300,Oak Creek,WI,53154,USA,,wisconsinsinusandsnoring.com,,ct,,ENT Family Clinic of WI Oak Creek,"Sep 30, 2024",Maxillofacial CT,,,,,,,,,,,,,,,,,,,,,,
98,99,Fox Valley Plastic Surgery S.C.,44.292694,-88.366201,granted,"2500 E Capitol Drive, Suite 1500",,Appleton,WI,54911,USA,,fvpsurgery.com,,vascular,,Fox Valley Plastic Surgery S.C. Appleton,,,,,,,,,"Jun 30, 2025",Peripheral Venous Testing,,,,,,,,,,,,,,
99,100,"Fox Valley Plastic Surgery, S.C.",44.018147,-88.592325,granted,2400 Witzel Avenue,,Oshkosh,WI,54904,USA,,,,vascular,"www.google.com/search?q=Fox+Valley+Plastic+Surgery,+S.C.","Fox Valley Plastic Surgery, S.C. Oshkosh",,,,,,,,,"Jun 30, 2025",Peripheral Venous Testing,,,,,,,,,,,,,,
100,101,Froedtert and The Medical College of Wisconsin Brookfield Heart and Vascular Clinic,43.037115,-88.119876,granted,"16650 W. Bluemound Road, Ste. 200",,Brookfield,WI,53005,USA,,www.wisconsinheartgroup.com,,nuclear,,Froedtert and The Medical College of Wisconsin Brookfield Heart and Vascular Clinic Brookfield,,,,,,,"Jan 31, 2025",Myocardial Perfusion Imaging,,,,,,,,,,,,,,,,
101,102,Froedtert and The Medical College of Wisconsin Community Memorial Hospital,43.16261,-88.13388,granted,W180N8085  Town Hall Road,,Menomonee Falls,WI,53051,USA,,www.froedtert.com,,vascular,,Froedtert and The Medical College of Wisconsin Community Memorial Hospital Menomonee Falls,,,,,,,,,"Oct 30, 2022","Extracranial Cerebrovascular Testing, Peripheral Arterial Testing, Peripheral Venous Testing",,,,,,,,,,,,,,
102,103,Froedtert Brookfield Heart and Vascular Clinic,43.037115,-88.119876,granted,16650 W. Bluemound Rd.  200,,Brookfield,WI,53005,USA,,www.froedtert.com/clinics/brookfield-heart-vascular,,echo,,Froedtert Brookfield Heart and Vascular Clinic Brookfield,,,"Dec 31, 2023","Adult Stress, Adult Transthoracic",,,,,,,,,,,,,,,,,,,,
103,104,Froedtert Drexel Town Square Health Center,42.900757,-87.919591,granted,7901 S. 6th St.,,Oak Creek,WI,53154,USA,,www.froedtert.com/clinics/drexel,,echo,,Froedtert Drexel Town Square Health Center Oak Creek,,,"Dec 31, 2023",Adult Transthoracic,,,,,,,,,,,,,,,,,,,,
104,105,Froedtert Hospital,43.038407,-88.027316,granted,9200 West Wisconsin Avenue,,Milwaukee,WI,53226,USA,,,,echo,www.google.com/search?q=Froedtert+Hospital,Froedtert Hospital Milwaukee,,,"Dec 31, 2023","Adult Stress, Adult Transesophageal, Adult Transthoracic",,,,,,,,,,,,,,,,,,,,
105,106,Froedtert Kenosha Hospital,42.577712,-87.819285,granted,6308 8th Ave,,Kenosha,WI,53143,USA,,froedtertsouth.com,,vascular,,Froedtert Kenosha Hospital Kenosha,,,,,,,,,"Aug 31, 2023","Extracranial Cerebrovascular Testing, Peripheral Venous Testing",,,,,,,,,,,,,,
106,107,Froedtert Memorial Lutheran Hospital,43.038407,-88.027316,granted,9200 West Wisconsin Avenue,,Milwaukee,WI,53226,USA,,www.froedtert.com,,vascular,,Froedtert Memorial Lutheran Hospital Milwaukee,,,,,,,,,"Oct 30, 2022","Extracranial Cerebrovascular Testing, Peripheral Arterial Testing, Peripheral Venous Testing",,,,,,,,,,,,,,
107,108,Froedtert Menomonee Falls Hospital,43.166169,-88.133752,granted,W180 N8085 Town Hall Road,,Menomonee Falls,WI,53051,USA,,,,echo,www.google.com/search?q=Froedtert+Menomonee+Falls+Hospital,Froedtert Menomonee Falls Hospital Menomonee Falls,,,"Dec 31, 2023","Adult Stress, Adult Transesophageal, Adult Transthoracic",,,,,,,,,,,,,,,,,,,,
108,109,Froedtert Moorland Reserve Health Center,42.958212,-88.109045,granted,4805 S Moorland Rd.,,New Berlin,WI,53151,USA,,www.froedtert.com/clinics/moorland-reserve,,echo,,Froedtert Moorland Reserve Health Center New Berlin,,,"Dec 31, 2023","Adult Stress, Adult Transthoracic",,,,,,,,,,,,,,,,,,,,
109,110,Froedtert Pleasant Prairie Hospital,42.566201,-87.925254,granted,9555 76th Street,,Pleasant Prairie,WI,53158,USA,,froedtersouth.com,,vascular,,Froedtert Pleasant Prairie Hospital Pleasant Prairie,,,,,,,,,"Aug 31, 2023","Extracranial Cerebrovascular Testing, Peripheral Venous Testing",,,,,,,,,,,,,,
110,111,Froedtert South - Kenosha Medical Center Campus,42.577712,-87.819285,granted,6308 8th Avenue,,Kenosha,WI,53143,USA,,,,echo,www.google.com/search?q=Froedtert+South+-+Kenosha+Medical+Center+Campus,Froedtert South - Kenosha Medical Center Campus Kenosha,,,"Aug 31, 2024","Adult Stress, Adult Transthoracic",,,,,,,,,,,,,,,,,,,,
111,112,Froedtert South Pleasant Prairie Hospital,42.566201,-87.925254,granted,9555 76th Street,,Pleasant Prairie,WI,53158,USA,,,,echo,www.google.com/search?q=Froedtert+South+Pleasant+Prairie+Hospital,Froedtert South Pleasant Prairie Hospital Pleasant Prairie,,,"Aug 31, 2024","Adult Stress, Adult Transthoracic",,,,,,,,,,,,,,,,,,,,
112,113,Froedtert West Bend Hospital,43.353318,-88.196576,granted,3200 Pleasant Valley Road,,West Bend,WI,53095,USA,,,,echo,www.google.com/search?q=Froedtert+West+Bend+Hospital,Froedtert West Bend Hospital West Bend,,,"Dec 31, 2023","Adult Stress, Adult Transesophageal, Adult Transthoracic",,,,,,,,,,,,,,,,,,,,
113,114,Gundersen Lutheran,43.795652,-91.247692,multigranted,1836 South Avenue,,La Crosse,WI,54601,USA,,www.gundluth.org,,"echo, pediatric_echo",,Gundersen Lutheran La Crosse,,,"Feb 29, 2024",Adult Transthoracic,,,,,,,"Mar 31, 2024",Pediatric Transthoracic,,,,,,,,,,,,
114,115,Heart and Vascular Institute of Wisconsin,44.263933,-88.482533,multigranted,5045 W Grande Market Drive,,Appleton,WI,54913,USA,,www.heartandvascularwi.com,,"ct, vascular, echo, nuclear",,Heart and Vascular Institute of Wisconsin Appleton,"Oct 30, 2022","Coronary CTA, Vascular CTA | Coronary Calcium Scoring","Jul 31, 2025","Adult Transesophageal, Adult Transthoracic",,,"Aug 31, 2025","Myocardial Perfusion Imaging, Other Cardiovascular Imaging","Oct 30, 2022 | Aug 31, 2025","Peripheral Arterial Testing | Extracranial Cerebrovascular Testing, Screening",,,,,,,,,,,,,,
115,116,HFSCA Marinette,45.092766,-87.647314,granted,1281 Marinette Ave,,Marinette,WI,54143,USA,,,,echo,www.google.com/search?q=HFSCA+Marinette,HFSCA Marinette Marinette,,,"Jun 30, 2024",Adult Transthoracic,,,,,,,,,,,,,,,,,,,,
116,117,Hudson Hospital and Clinic,44.962289,-92.718839,granted,405 Stageline Road,,Hudson,WI,54016,USA,,,,nuclear,www.google.com/search?q=Hudson+Hospital+and+Clinic,Hudson Hospital and Clinic Hudson,,,,,,,"Jan 31, 2023",Myocardial Perfusion Imaging,,,,,,,,,,,,,,,,
117,118,Hudson Hospital and Clinics,44.961128,-92.719583,granted,405 Stageline Road,,Hudson,WI,54016,USA,,,,echo,www.google.com/search?q=Hudson+Hospital+and+Clinics,Hudson Hospital and Clinics Hudson,,,"Jan 31, 2023","Adult Stress, Adult Transesophageal, Adult Transthoracic",,,,,,,,,,,,,,,,,,,,
118,119,Lakeshore Medical Clinic,42.964282,-87.96631,granted,4131 West Loomis Road,,Greenfield,WI,53220,USA,,,,echo,www.google.com/search?q=Lakeshore+Medical+Clinic,Lakeshore Medical Clinic Greenfield,,,"Mar 31, 2025","Adult Stress, Adult Transthoracic",,,,,,,,,,,,,,,,,,,,
119,120,Lakeshore Veins SC,43.218207,-87.926494,multigranted,1361W Towne Square Road,,Mequon,WI,53092,USA,,Lakeshoreveins.com,,"vein_center, vascular",,Lakeshore Veins SC Mequon,,,,,,,,,"Jan 31, 2025",Peripheral Venous Testing,,,,,,,"Feb 28, 2023",Superficial Venous Evaluation and Management,,,,,,
120,121,"Lakeview Medical Center, Inc. of Rice Lake dba Marshfield Medical Center-Rice Lake",45.508042,-91.759027,granted,1700 W. Stout St.,,Rice Lake,WI,54868,USA,,www.marshfieldclinic.org,,echo,,"Lakeview Medical Center, Inc. of Rice Lake dba Marshfield Medical Center-Rice Lake Rice Lake",,,"Jul 31, 2024","Adult Stress, Adult Transthoracic",,,,,,,,,,,,,,,,,,,,
121,122,Main St. Clinic,44.187538,-88.465606,granted,101 Main St.,,Neenah,WI,54956,USA,,,,echo,www.google.com/search?q=Main+St.+Clinic,Main St. Clinic Neenah,,,"Nov 30, 2024",Adult Transthoracic,,,,,,,,,,,,,,,,,,,,
122,123,Mariner Medical Clinic,46.706161,-92.069307,granted,109 N. 28th St. East,,Superior,WI,54880,USA,,,,echo,www.google.com/search?q=Mariner+Medical+Clinic,Mariner Medical Clinic Superior,,,"Feb 29, 2024",Adult Transthoracic,,,,,,,,,,,,,,,,,,,,
123,124,Marshfield Clinic - Chippewa Falls Center,44.951669,-91.359783,granted,2655 County Highway I,,Chippewa Falls,WI,54729,USA,,,,pediatric_echo,www.google.com/search?q=Marshfield+Clinic+-+Chippewa+Falls+Center,Marshfield Clinic - Chippewa Falls Center Chippewa Falls,,,,,,,,,,,"Oct 31, 2024",Pediatric Transthoracic,,,,,,,,,,,,
124,125,Marshfield Clinic - Rhinelander Center,45.638487,-89.311192,granted,2260 North Shore Drive,,Rhinelander,WI,54501,USA,,,,pediatric_echo,www.google.com/search?q=Marshfield+Clinic+-+Rhinelander+Center,Marshfield Clinic - Rhinelander Center Rhinelander,,,,,,,,,,,"Oct 31, 2024",Pediatric Transthoracic,,,,,,,,,,,,
125,126,Marshfield Clinic - Stevens Point Center,44.541614,-89.543306,multigranted,4100 WI-66,,Stevens Point,WI,54482,USA,,,,"echo, pediatric_echo",www.google.com/search?q=Marshfield+Clinic+-+Stevens+Point+Center,Marshfield Clinic - Stevens Point Center Stevens Point,,,"Dec 31, 2022",Adult Transthoracic,,,,,,,"Oct 31, 2024",Pediatric Transthoracic,,,,,,,,,,,,
126,127,Marshfield Clinic - Wausau Center,44.963473,-89.667556,granted,2727 Plaza Drive,,Wausau,WI,54401,USA,,,,pediatric_echo,www.google.com/search?q=Marshfield+Clinic+-+Wausau+Center,Marshfield Clinic - Wausau Center Wausau,,,,,,,,,,,"Oct 31, 2024",Pediatric Transthoracic,,,,,,,,,,,,
127,128,Marshfield Clinic - Weston Center,44.891592,-89.580004,granted,3501 Cranberry Boulevard,,Weston,WI,54476,USA,,,,pediatric_echo,www.google.com/search?q=Marshfield+Clinic+-+Weston+Center,Marshfield Clinic - Weston Center Weston,,,,,,,,,,,"Oct 31, 2024",Pediatric Transthoracic,,,,,,,,,,,,
128,129,Marshfield Clinic - Wisconsin Rapids,44.388821,-89.797001,granted,220 North 24th Street South,,Wisconsin Rapids,WI,54494,USA,,,,echo,www.google.com/search?q=Marshfield+Clinic+-+Wisconsin+Rapids,Marshfield Clinic - Wisconsin Rapids Wisconsin Rapids,,,"Dec 31, 2022","Adult Stress, Adult Transthoracic",,,,,,,,,,,,,,,,,,,,
129,130,Marshfield Clinic Stevens Point Center,44.542122,-89.542575,granted,4100 WI-66,,Stevens Point,WI,54482,USA,,,,vascular,www.google.com/search?q=Marshfield+Clinic+Stevens+Point+Center,Marshfield Clinic Stevens Point Center Stevens Point,,,,,,,,,"Nov 30, 2024","Extracranial Cerebrovascular Testing, Peripheral Arterial Testing, Peripheral Venous Testing",,,,,,,,,,,,,,
130,131,Marshfield Clinic- Merrill Center,45.174131,-89.682144,granted,1205 O’Day Street,,Merrill,WI,54452,USA,,,,vascular,www.google.com/search?q=Marshfield+Clinic-+Merrill+Center,Marshfield Clinic- Merrill Center Merrill,,,,,,,,,"Nov 30, 2024","Extracranial Cerebrovascular Testing, Peripheral Arterial Testing, Peripheral Venous Testing",,,,,,,,,,,,,,
131,132,Marshfield Clinic- Wausau Center,44.963473,-89.667557,granted,2727 Plaza Drive,,Wausau,WI,54401,USA,,,,echo,www.google.com/search?q=Marshfield+Clinic-+Wausau+Center,Marshfield Clinic- Wausau Center Wausau,,,"Sep 30, 2023","Adult Stress, Adult Transthoracic",,,,,,,,,,,,,,,,,,,,
132,133,Marshfield Clinic-Merrill Center,45.186113,-89.720087,granted,1205 O’Dea Street,,Merrill,WI,54452,USA,,,,echo,www.google.com/search?q=Marshfield+Clinic-Merrill+Center,Marshfield Clinic-Merrill Center Merrill,,,"Sep 30, 2023","Adult Stress, Adult Transthoracic",,,,,,,,,,,,,,,,,,,,
133,134,Marshfield Clinic-Wausau Center,44.963473,-89.667557,granted,2727 Plaza Drive,,Wausau,WI,54401,USA,,,,vascular,www.google.com/search?q=Marshfield+Clinic-Wausau+Center,Marshfield Clinic-Wausau Center Wausau,,,,,,,,,"Nov 30, 2024","Extracranial Cerebrovascular Testing, Peripheral Arterial Testing, Peripheral Venous Testing",,,,,,,,,,,,,,
134,135,Marshfield Medical Center,44.677731,-90.176118,multigranted,1000 North Oak Avenue,,Marshfield,WI,54449,USA,,www.marshfieldclinic.org,,"echo, pediatric_echo",,Marshfield Medical Center Marshfield,,,"Dec 31, 2022","Adult Stress, Adult Transesophageal, Adult Transthoracic",,,,,,,"Oct 31, 2024",Pediatric Transthoracic,,,,,,,,,,,,
135,136,Marshfield Medical Center - Eau Claire,44.79614,-91.519093,granted,2116 Craig Road,,Eau Claire,WI,54701,USA,,,,pediatric_echo,www.google.com/search?q=Marshfield+Medical+Center+-+Eau+Claire,Marshfield Medical Center - Eau Claire Eau Claire,,,,,,,,,,,"Oct 31, 2024",Pediatric Transthoracic,,,,,,,,,,,,
136,137,Marshfield Medical Center - Eau Claire,44.795749,-91.515591,granted,2310 Craig Road,,Eau Claire,WI,54701,USA,,www.marshfieldclinic.org,,echo,,Marshfield Medical Center - Eau Claire Eau Claire,,,"Jul 31, 2024","Adult Stress, Adult Transthoracic",,,,,,,,,,,,,,,,,,,,
137,138,Marshfield Medical Center - Ladysmith,45.455605,-91.11113,granted,900 College Ave W,,Ladysmith,WI,54848,USA,,,,echo,www.google.com/search?q=Marshfield+Medical+Center+-+Ladysmith,Marshfield Medical Center - Ladysmith Ladysmith,,,"Jul 31, 2024",Adult Transthoracic,,,,,,,,,,,,,,,,,,,,
138,139,Marshfield Medical Center - Minocqua,45.89437,-89.701837,granted,9576 Highway 70,,Minocqua,WI,54548,USA,,www.marshfieldclinic.org,,echo,,Marshfield Medical Center - Minocqua Minocqua,,,"May 31, 2025","Adult Stress, Adult Transesophageal, Adult Transthoracic",,,,,,,,,,,,,,,,,,,,
139,140,Marshfield Medical Center - Neillsville,44.557891,-90.607038,granted,N3708 River Avenue,,Neillsville,WI,54459,USA,,,,echo,www.google.com/search?q=Marshfield+Medical+Center+-+Neillsville,Marshfield Medical Center - Neillsville Neillsville,,,"Dec 31, 2022","Adult Stress, Adult Transthoracic",,,,,,,,,,,,,,,,,,,,
140,141,Marshfield Medical Center - Park Falls,45.931098,-90.441972,granted,98 Sherry Avenue,,Park Falls,WI,54552,USA,,,,echo,www.google.com/search?q=Marshfield+Medical+Center+-+Park+Falls,Marshfield Medical Center - Park Falls Park Falls,,,"May 31, 2025",Adult Transthoracic,,,,,,,,,,,,,,,,,,,,
141,142,"Marshfield Medical Center, Marshfield Center",44.677731,-90.176118,granted,1000 North Oak Avenue,,Marshfield,WI,54449,USA,,www.marshfieldclinic.org,,vascular,,"Marshfield Medical Center, Marshfield Center Marshfield",,,,,,,,,"Nov 30, 2022","Extracranial Cerebrovascular Testing, Peripheral Arterial Testing, Peripheral Venous Testing",,,,,,,,,,,,,,
142,143,"Marshfield Medical Center, Minocqua",45.889679,-89.711319,granted,9601 Townline Road,,Minocqua,WI,54548,,,marshfieldclinic.org,,vascular,,"Marshfield Medical Center, Minocqua Minocqua",,,,,,,,,"Nov 30, 2022","Extracranial Cerebrovascular Testing, Peripheral Arterial Testing, Peripheral Venous Testing",,,,,,,,,,,,,,
143,144,Marshfield Medical Center-Weston,44.889675,-89.582214,granted,3400 Ministry Parkway,,Weston,WI,54476,USA,,,,echo,www.google.com/search?q=Marshfield+Medical+Center-Weston,Marshfield Medical Center-Weston Weston,,,"Sep 30, 2023",Adult Transthoracic,,,,,,,,,,,,,,,,,,,,
144,145,Mayo Clinic Health System - Chippewa Valley in Bloomer,45.102016,-91.500572,granted,1501 Thompson Street,,Bloomer,WI,54724,USA,,,,echo,www.google.com/search?q=Mayo+Clinic+Health+System+-+Chippewa+Valley+in+Bloomer,Mayo Clinic Health System - Chippewa Valley in Bloomer Bloomer,,,"Jul 31, 2025",Adult Transthoracic,,,,,,,,,,,,,,,,,,,,
145,146,Mayo Clinic Health System - Northland in Barron,45.398369,-91.840668,granted,1222 E. Woodland Avenue,,Barron,WI,54812,USA,,,,echo,www.google.com/search?q=Mayo+Clinic+Health+System+-+Northland+in+Barron,Mayo Clinic Health System - Northland in Barron Barron,,,"Jul 31, 2025",Adult Transthoracic,,,,,,,,,,,,,,,,,,,,
146,147,"Mayo Clinic Health System - Northwest Wisconsin Region, Inc.",44.812078,-91.513552,granted,1221 Whipple Street,PO Box 4105,Eau Claire,WI,54702,USA,,www.luthermidelfort.org,,echo,,"Mayo Clinic Health System - Northwest Wisconsin Region, Inc. Eau Claire",,,"Jul 31, 2025","Adult Stress, Adult Transesophageal, Adult Transthoracic",,,,,,,,,,,,,,,,,,,,
147,148,Mayo Clinic Health System - Oakridge in Osseo,44.57809,-91.213784,granted,13025 8th Street,,Osseo,WI,54758,USA,,,,echo,www.google.com/search?q=Mayo+Clinic+Health+System+-+Oakridge+in+Osseo,Mayo Clinic Health System - Oakridge in Osseo Osseo,,,"Jul 31, 2025",Adult Transthoracic,,,,,,,,,,,,,,,,,,,,
148,149,Mayo Clinic Health System - Red Cedar in Menomonie,44.882566,-91.900468,granted,2321 Stout Road,,Menomonie,WI,54751,USA,,,,echo,www.google.com/search?q=Mayo+Clinic+Health+System+-+Red+Cedar+in+Menomonie,Mayo Clinic Health System - Red Cedar in Menomonie Menomonie,,,"Jul 31, 2025",Adult Transthoracic,,,,,,,,,,,,,,,,,,,,
149,150,Mayo Clinic Health System- Franciscan Healthcare- LaCrosse,43.804645,-91.239513,granted,700 West Avenue South,,La Crosse,WI,54601,USA,,www.mayoclinichealthsystem.org,,echo,,Mayo Clinic Health System- Franciscan Healthcare- LaCrosse La Crosse,,,"Jul 31, 2025","Adult Stress, Adult Transesophageal, Adult Transthoracic",,,,,,,,,,,,,,,,,,,,
150,151,Mayo Clinic Health System- Franciscan Healthcare- Onalaska,43.900517,-91.224451,granted,191 Theater Road,,Onalaska,WI,54650,USA,,www.mayoclinichealthsystem.org,,echo,,Mayo Clinic Health System- Franciscan Healthcare- Onalaska Onalaska,,,"Jul 31, 2025",Adult Transthoracic,,,,,,,,,,,,,,,,,,,,
151,152,Mayo Clinic Health System- Franciscan Healthcare- Sparta,43.944395,-90.81516,granted,310 West Main Street,,Sparta,WI,54656,USA,,www.mayoclinichealthsystem.org,,echo,,Mayo Clinic Health System- Franciscan Healthcare- Sparta Sparta,,,"Jul 31, 2025",Adult Transthoracic,,,,,,,,,,,,,,,,,,,,
152,153,"MHI at Burnett Medical Center Hospital, Clinic and Continuing Care Center",44.438968,-95.794576,granted,"257 West Street, George Avenue",,Grantsburg,WI,55840,USA,,,,echo,"www.google.com/search?q=MHI+at+Burnett+Medical+Center+Hospital,+Clinic+and+Continuing+Care+Center","MHI at Burnett Medical Center Hospital, Clinic and Continuing Care Center Grantsburg",,,"Oct 30, 2022","Adult Stress, Adult Transthoracic",,,,,,,,,,,,,,,,,,,,
153,154,Midwest Open MRI,43.090066,-89.525232,granted,8309 Greenway Blvd,Suite #100,Middleton,WI,53562,USA,,www.midwestopenmri.com,,mr,,Midwest Open MRI Middleton,,,,,"Aug 31, 2023","Musculoskeletal MRI, Neurological MRI, MRA",,,,,,,,,,,,,,,,,,
154,155,Milwaukee Cardiac Care,43.07525,-88.009056,granted,7733 West Burleigh Street,,Milwaukee,WI,53222,USA,,,,nuclear,www.google.com/search?q=Milwaukee+Cardiac+Care,Milwaukee Cardiac Care Milwaukee,,,,,,,"Jan 31, 2024",Myocardial Perfusion Imaging,,,,,,,,,,,,,,,,
155,156,Milwaukee Cardiac Care,42.95934,-87.950078,granted,2741 West Layton Ave.,Suite 100,Milwaukee,WI,53221,USA,,,,nuclear,www.google.com/search?q=Milwaukee+Cardiac+Care,Milwaukee Cardiac Care Milwaukee,,,,,,,"Jan 31, 2024",Myocardial Perfusion Imaging,,,,,,,,,,,,,,,,
156,157,Milwaukee Cardiac Care,43.090004,-87.981378,granted,5434 W. Capitol Dr,,Milwaukee,WI,53216,USA,,mwechopedsaol.com,,echo,,Milwaukee Cardiac Care Milwaukee,,,"Aug 31, 2024",Adult Transthoracic,,,,,,,,,,,,,,,,,,,,
157,158,Milwaukee Heart Institute of Aurora Sinai Medical Center,43.0429653,-87.9271828,granted,960 North 12th Street,,Milwaukee,WI,53233,USA,,,,nuclear,www.google.com/search?q=Milwaukee+Heart+Institute+of+Aurora+Sinai+Medical+Center,Milwaukee Heart Institute of Aurora Sinai Medical Center Milwaukee,,,,,,,"Jan 31, 2023","General Nuclear Medicine, Myocardial Perfusion Imaging",,,,,,,,,,,,,,,,
158,159,Monroe Clinic,42.607239,-89.63261,granted,515 22nd Ave,,Monroe,WI,53566,USA,,,,echo,www.google.com/search?q=Monroe+Clinic,Monroe Clinic Monroe,,,"Nov 30, 2024",Adult Transthoracic,,,,,,,,,,,,,,,,,,,,
159,160,Oral and Maxillofacial Surgeons BayCare Clinic,44.106247,-87.645241,granted,930 Maritime Dr.,,Manitowoc,WI,54220,USA,,,,ct-dental,www.google.com/search?q=Oral+and+Maxillofacial+Surgeons+BayCare+Clinic,Oral and Maxillofacial Surgeons BayCare Clinic Manitowoc,,,,,,,,,,,,,"Feb 28, 2025",Dental/Maxillofacial,,,,,,,,,,
160,161,"Orthopedic and Sports Medicine Specialists of Green Bay, SC",45.086178,-87.653837,granted,1931 Marinette Ave,,Marinette,WI,54143,USA,,osmsgb.com,,mr,,"Orthopedic and Sports Medicine Specialists of Green Bay, SC Marinette",,,,,"Mar 31, 2023",Musculoskeletal MRI,,,,,,,,,,,,,,,,,,
161,162,Orthopedic and Sports Medicine Specialists of the Fox Valley,44.22222,-88.492934,granted,1205 West American Drive,,Neenah,WI,54956,USA,,osmsgb.com,,mr,,Orthopedic and Sports Medicine Specialists of the Fox Valley Neenah,,,,,"Mar 31, 2024",Musculoskeletal MRI,,,,,,,,,,,,,,,,,,
162,163,"Orthopedics and Sports Medicine Specialists of Green Bay, SC",44.460494,-87.981374,multigranted,2223 Lime Kiln Road,Suite 1,Green Bay,WI,54311,USA,,www.osmsgb.com,,"mr, ct",,"Orthopedics and Sports Medicine Specialists of Green Bay, SC Green Bay","Nov 30, 2023",Body CT,,,"Mar 31, 2023",Musculoskeletal MRI,,,,,,,,,,,,,,,,,,
163,164,Prevea Clinic - Marinette,45.070771,-87.628643,granted,1106 University Drive,,Marinette,WI,54143,USA,,,,echo,www.google.com/search?q=Prevea+Clinic+-+Marinette,Prevea Clinic - Marinette Marinette,,,"Nov 30, 2023",Adult Transthoracic,,,,,,,,,,,,,,,,,,,,
164,165,Prevea Health,44.487591,-88.019417,granted,1821 South Webster Street,,Green Bay,WI,54307,USA,,,,pediatric_echo,www.google.com/search?q=Prevea+Health,Prevea Health Green Bay,,,,,,,,,,,"Jun 30, 2025",Pediatric Transthoracic,,,,,,,,,,,,
165,166,Procare Medical Group,43.038729,-87.960574,multigranted,3727 W Wisconsin Ave,,Milwaukee,WI,53208,USA,,www.procaremed.com,,"mr, nuclear",,Procare Medical Group Milwaukee,,,,,"Feb 28, 2023","Body MRI, Musculoskeletal MRI, Neurological MRI, MRA","Dec 31, 2023",Myocardial Perfusion Imaging,,,,,,,,,,,,,,,,
166,167,ProHealth Care - Oconomowoc Memorial Hospital,43.101137,-88.48611,granted,791 E Summit Ave,,Oconomowoc,WI,53066,USA,,www.phci.org,,nuclear,,ProHealth Care - Oconomowoc Memorial Hospital Oconomowoc,,,,,,,"Sep 30, 2023","Equilibrium Radionuclide Angiography, General Nuclear Medicine, Myocardial Perfusion Imaging",,,,,,,,,,,,,,,,
167,168,ProHealth Care - Pewaukee UW Cancer Center,43.053707,-88.227437,granted,N16W24131 Riverwood Dr,,Waukesha,WI,53188,USA,,,,nuclear,www.google.com/search?q=ProHealth+Care+-+Pewaukee+UW+Cancer+Center,ProHealth Care - Pewaukee UW Cancer Center Waukesha,,,,,,,"Sep 30, 2023","Equilibrium Radionuclide Angiography, General Nuclear Medicine, Myocardial Perfusion Imaging, Positron Emission Tomography (PET)",,,,,,,,,,,,,,,,
168,169,ProHealth Care - Waukesha Memorial Hospital,43.011279,-88.245496,granted,725 American Avenue,,Waukesha,WI,53188,USA,,,,nuclear,www.google.com/search?q=ProHealth+Care+-+Waukesha+Memorial+Hospital,ProHealth Care - Waukesha Memorial Hospital Waukesha,,,,,,,"Sep 30, 2023","Equilibrium Radionuclide Angiography, General Nuclear Medicine, Myocardial Perfusion Imaging, Positron Emission Tomography (PET)",,,,,,,,,,,,,,,,
169,170,ProHealth Care DN Greenwald Center,42.849196,-88.3149,granted,240 West Maple Avenue,,Mukwonago,WI,53149,USA,,www.prohealthcare.org,,echo,,ProHealth Care DN Greenwald Center Mukwonago,,,"Nov 30, 2023",Adult Transthoracic,,,,,,,,,,,,,,,,,,,,
170,171,ProHealth Care Medical Group Pewaukee Clinic,43.057147,-88.226833,granted,N16 W24131 Riverwood Drive,,Waukesha,WI,53188,USA,,,,echo,www.google.com/search?q=ProHealth+Care+Medical+Group+Pewaukee+Clinic,ProHealth Care Medical Group Pewaukee Clinic Waukesha,,,"Nov 30, 2023","Adult Stress, Adult Transthoracic",,,,,,,,,,,,,,,,,,,,
171,172,ProHealth Care Mukwonago,42.849196,-88.3149,granted,240 Maple Avenue,,Mukwonago,WI,53149,USA,,,,nuclear,www.google.com/search?q=ProHealth+Care+Mukwonago,ProHealth Care Mukwonago Mukwonago,,,,,,,"Sep 30, 2023","Equilibrium Radionuclide Angiography, General Nuclear Medicine, Myocardial Perfusion Imaging",,,,,,,,,,,,,,,,
172,173,ProHealth Care Oconomowoc Memorial Hospital,43.101137,-88.48611,granted,791 Summit Avenue,,Oconomowoc,WI,53066,USA,,,,echo,www.google.com/search?q=ProHealth+Care+Oconomowoc+Memorial+Hospital,ProHealth Care Oconomowoc Memorial Hospital Oconomowoc,,,"Nov 30, 2023","Adult Stress, Adult Transthoracic",,,,,,,,,,,,,,,,,,,,
173,174,ProHealth Care Oconomowoc Outpatient Center,43.071367,-88.473096,granted,1185 Corporate Center Drive,,Oconomowoc,WI,53066,USA,,www.prohealthcare.org,,echo,,ProHealth Care Oconomowoc Outpatient Center Oconomowoc,,,"Nov 30, 2023","Adult Stress, Adult Transthoracic",,,,,,,,,,,,,,,,,,,,
174,175,ProHealth Care Regional Heart and Vascular Center,43.071367,-88.473096,granted,1185 Corporate Center Drive   Suite 350,,Oconomowoc,WI,53066,USA,,,,nuclear,www.google.com/search?q=ProHealth+Care+Regional+Heart+and+Vascular+Center,ProHealth Care Regional Heart and Vascular Center Oconomowoc,,,,,,,"Sep 30, 2023",Myocardial Perfusion Imaging,,,,,,,,,,,,,,,,
175,176,ProHealth Care Waukesha Memorial Hospital,43.011279,-88.245496,granted,725 American Avenue,,Waukesha,WI,53188,USA,,,,echo,www.google.com/search?q=ProHealth+Care+Waukesha+Memorial+Hospital,ProHealth Care Waukesha Memorial Hospital Waukesha,,,"Nov 30, 2023","Adult Stress, Adult Transthoracic",,,,,,,,,,,,,,,,,,,,
176,177,ProHealth Medical Group Brookfield,43.058403,-88.126282,granted,195 Discovery Dr.,,Brookfield,WI,53045,USA,,www.prohealthcare.org,,vascular,,ProHealth Medical Group Brookfield Brookfield,,,,,,,,,"Nov 30, 2024","Extracranial Cerebrovascular Testing, Peripheral Arterial Testing, Peripheral Venous Testing, Screening",,,,,,,,,,,,,,
177,178,ProHealth Medical Group Clinic Brookfield,43.058403,-88.126282,granted,195 Discovery Drive,,Brookfield,WI,53005,USA,,,,echo,www.google.com/search?q=ProHealth+Medical+Group+Clinic+Brookfield,ProHealth Medical Group Clinic Brookfield Brookfield,,,"Nov 30, 2023","Adult Stress, Adult Transthoracic",,,,,,,,,,,,,,,,,,,,
178,179,"ProHealth Oconomowoc Memorial Hospital, Inc.",43.101136,-88.486109,granted,791 Summit Avenue,,Oconomowoc,WI,53066,USA,,www.prohealth.org,,vascular,,"ProHealth Oconomowoc Memorial Hospital, Inc. Oconomowoc",,,,,,,,,"Nov 30, 2024","Extracranial Cerebrovascular Testing, Peripheral Arterial Testing, Peripheral Venous Testing",,,,,,,,,,,,,,
179,180,"ProHealth Waukesha Memorial Hospital, Inc.",43.011279,-88.245496,granted,725 American Avenue,,Waukesha,WI,53188,USA,,www.prohealthcare.org,,vascular,,"ProHealth Waukesha Memorial Hospital, Inc. Waukesha",,,,,,,,,"Nov 30, 2024","Extracranial Cerebrovascular Testing, Peripheral Arterial Testing, Peripheral Venous Testing, Visceral Vascular Testing, Screening",,,,,,,,,,,,,,
180,181,"ProHealth Waukesha Memorial Hospital, Inc. Mukwonago",42.849196,-88.3149,granted,240 West Maple Avenue,,Mukwonago,WI,53149,USA,,www.prohealthcare.org,,vascular,,"ProHealth Waukesha Memorial Hospital, Inc. Mukwonago Mukwonago",,,,,,,,,"Nov 30, 2024","Extracranial Cerebrovascular Testing, Peripheral Arterial Testing, Peripheral Venous Testing, Screening",,,,,,,,,,,,,,
181,182,Quantum Health Care,45.232064,-87.996468,granted,515 N US Hwy 141,,Crivitz,WI,54114,USA,,,,echo,www.google.com/search?q=Quantum+Health+Care,Quantum Health Care Crivitz,,,"Jun 30, 2024",Adult Transthoracic,,,,,,,,,,,,,,,,,,,,
182,183,RAYUS Radiology,44.243786,-88.357705,granted,3525 E. Calumet St,Suite 1500,Appleton,WI,54915,,,,,mr,www.google.com/search?q=RAYUS+Radiology,RAYUS Radiology Appleton,,,,,"Nov 30, 2023","Musculoskeletal MRI, Neurological MRI",,,,,,,,,,,,,,,,,,
183,184,RAYUS Radiology,44.287256,-88.407847,granted,201 West Northland Ave,Suite A,Appleton,WI,54911,USA,,,,mr,www.google.com/search?q=RAYUS+Radiology,RAYUS Radiology Appleton,,,,,"Nov 30, 2023","Musculoskeletal MRI, Neurological MRI",,,,,,,,,,,,,,,,,,
184,185,Sacred Heart Hospital of the Hospital Sisters of the Third Order of St Francis,44.793462,-91.510656,granted,900 West Clairemont Avenue,,Eau Claire,WI,54701,USA,,,,echo,www.google.com/search?q=Sacred+Heart+Hospital+of+the+Hospital+Sisters+of+the+Third+Order+of+St+Francis,Sacred Heart Hospital of the Hospital Sisters of the Third Order of St Francis Eau Claire,,,"Apr 30, 2025",Adult Transthoracic,,,,,,,,,,,,,,,,,,,,
185,186,St Agnes Hospital,43.778691,-88.431179,granted,430 East Division Street,,Fond du Lac,WI,54935,USA,,Agnesianhealthcare.com,,echo,,St Agnes Hospital Fond du Lac,,,"Feb 29, 2024",Adult Transthoracic,,,,,,,,,,,,,,,,,,,,
186,187,St. Croix Regional Medical Center,45.409134,-92.642218,granted,235 State Street,,St. Croix Falls,WI,54024,USA,,,,echo,www.google.com/search?q=St.+Croix+Regional+Medical+Center,St. Croix Regional Medical Center St. Croix Falls,,,"Jan 31, 2023","Adult Stress, Adult Transesophageal, Adult Transthoracic",,,,,,,,,,,,,,,,,,,,
187,188,St. Joseph’s Hospital of the Hospital Sisters of the Third Order of St Francis,44.951661,-91.358217,granted,2661 County Hwy I,,Chippewa Falls,WI,54729,USA,,,,echo,www.google.com/search?q=St.+Joseph’s+Hospital+of+the+Hospital+Sisters+of+the+Third+Order+of+St+Francis,St. Joseph’s Hospital of the Hospital Sisters of the Third Order of St Francis Chippewa Falls,,,"Apr 30, 2025",Adult Transthoracic,,,,,,,,,,,,,,,,,,,,
188,189,St. Mary’s Hospital Madison,43.059474,-89.400805,granted,700 S Park St,,Madison,WI,53715,USA,,stmarysmadison.com,,echo,,St. Mary’s Hospital Madison Madison,,,"Oct 31, 2024","Adult Stress, Adult Transesophageal, Adult Transthoracic",,,,,,,,,,,,,,,,,,,,
189,190,St. Mary’s Hospital Medical Center,44.532184,-88.066561,granted,1726 Shawano Avenue,,Green Bay,WI,54303,USA,,,,echo,www.google.com/search?q=St.+Mary’s+Hospital+Medical+Center,St. Mary’s Hospital Medical Center Green Bay,,,"Nov 30, 2023",Adult Transthoracic,,,,,,,,,,,,,,,,,,,,
190,191,St. Mary’s Hospital Medical Center,44.532184,-88.066561,granted,1726 Shawano Ave.,,Green Bay,WI,54303,USA,,wwwstmgb.org,,nuclear,,St. Mary’s Hospital Medical Center Green Bay,,,,,,,"Nov 30, 2022","Equilibrium Radionuclide Angiography, General Nuclear Medicine, Myocardial Perfusion Imaging, Positron Emission Tomography (PET)",,,,,,,,,,,,,,,,
191,192,St. Mary’s Janesville Hospital,42.67098,-88.976079,granted,3400 East Racine St,,Janesville,WI,53546,USA,,stmarysjanesville.com,,echo,,St. Mary’s Janesville Hospital Janesville,,,"Oct 31, 2024","Adult Transesophageal, Adult Transthoracic",,,,,,,,,,,,,,,,,,,,
192,193,St. Michael’s Hospital,44.526345,-89.566198,granted,900 Illinois Avenue,,Stevens Point,WI,54481,USA,,,,vascular,www.google.com/search?q=St.+Michael’s+Hospital,St. Michael’s Hospital Stevens Point,,,,,,,,,"Jul 31, 2024","Extracranial Cerebrovascular Testing, Peripheral Arterial Testing",,,,,,,,,,,,,,
193,194,St. Vincent Hospital,44.501039,-88.013175,granted,835 South Van Buren,,Green Bay,WI,54307,USA,,www.stvgb.org,,vascular,,St. Vincent Hospital Green Bay,,,,,,,,,"Jan 31, 2023","Extracranial Cerebrovascular Testing, Peripheral Arterial Testing, Peripheral Venous Testing",,,,,,,,,,,,,,
194,195,St. Vincent Hospital,44.501039,-88.013175,granted,835 South VanBuren Street,,Green Bay,WI,54307,USA,,,,echo,www.google.com/search?q=St.+Vincent+Hospital,St. Vincent Hospital Green Bay,,,"Nov 30, 2023",Adult Transthoracic,,,,,,,,,,,,,,,,,,,,
195,196,St. Vincent Hospital,44.501039,-88.013175,granted,835 S. Van Buren Street,,Green Bay,WI,54301,USA,,,,nuclear,www.google.com/search?q=St.+Vincent+Hospital,St. Vincent Hospital Green Bay,,,,,,,"Nov 30, 2022","Equilibrium Radionuclide Angiography, General Nuclear Medicine, Myocardial Perfusion Imaging, Positron Emission Tomography (PET)",,,,,,,,,,,,,,,,
196,197,St. Vincent Hospital Vascular Lab-Prevea Clinic Site,39.390897,-99.066067,granted,1821 S. Webster Ave.  P.O. Box 19070,Allouez Health Center,Green Bay,WI,54307,USA,,Prevea.com,,vascular,,St. Vincent Hospital Vascular Lab-Prevea Clinic Site Green Bay,,,,,,,,,"Jan 31, 2023","Extracranial Cerebrovascular Testing, Peripheral Arterial Testing, Peripheral Venous Testing",,,,,,,,,,,,,,
197,198,Surgical Associates S.C.,44.967979,-89.666773,granted,2400 Pine Ridge Boulevard,,Wausau,WI,54401,USA,,,,vascular,www.google.com/search?q=Surgical+Associates+S.C.,Surgical Associates S.C. Wausau,,,,,,,,,"Apr 30, 2024","Extracranial Cerebrovascular Testing, Peripheral Arterial Testing, Peripheral Venous Testing",,,,,,,,,,,,,,
198,199,Theda Clark Medical Center,44.189172,-88.453907,granted,130 2nd Street,,Neenah,WI,54956,USA,,www.thedacare.org,,echo,,Theda Clark Medical Center Neenah,,,"Sep 30, 2023",Adult Transthoracic,,,,,,,,,,,,,,,,,,,,
199,200,UnityPoint Health - Meriter - Heart and Vascular Institute,43.034874,-89.421571,granted,2601 West Beltline Highway,,Madison,WI,53715,USA,,www.meriter.com,,vascular,,UnityPoint Health - Meriter - Heart and Vascular Institute Madison,,,,,,,,,"Sep 30, 2023","Extracranial Cerebrovascular Testing, Peripheral Arterial Testing, Peripheral Venous Testing, Visceral Vascular Testing",,,,,,,,,,,,,,
200,201,UnityPoint Hospital-Meriter Heart and Vascular Hospital,43.065385,-89.400896,granted,202 South Park Street,,Madison,WI,53715,USA,,,,echo,www.google.com/search?q=UnityPoint+Hospital-Meriter+Heart+and+Vascular+Hospital,UnityPoint Hospital-Meriter Heart and Vascular Hospital Madison,,,"Jan 31, 2025",Adult Transthoracic,,,,,,,,,,,,,,,,,,,,
201,202,University of Wisconsin Hospitals and Clinics Authority,43.077945,-89.433487,granted,1675 Highland Avenue,MC - C200,Madison,WI,53792,USA,,www.uwhealthkids.org/,,pediatric_echo,,University of Wisconsin Hospitals and Clinics Authority Madison,,,,,,,,,,,"Aug 31, 2023","Pediatric Transesophageal, Pediatric Transthoracic, Fetal",,,,,,,,,,,,
202,203,UW Health at One South Park,43.067149,-89.400829,multigranted,1 South Park St.,,Madison,WI,53715,USA,,,,"echo, vascular",www.google.com/search?q=UW+Health+at+One+South+Park,UW Health at One South Park Madison,,,"Mar 31, 2023","Adult Stress, Adult Transthoracic",,,,,"Sep 30, 2023","Extracranial Cerebrovascular Testing, Peripheral Arterial Testing, Peripheral Venous Testing",,,,,,,,,,,,,,
203,204,UW Health at Research Park,43.06935,-89.524639,multigranted,621 Science Drive,,Madison,WI,53711,USA,,,,"echo, vascular",www.google.com/search?q=UW+Health+at+Research+Park,UW Health at Research Park Madison,,,"Mar 31, 2023",Adult Transthoracic,,,,,"Sep 30, 2023","Extracranial Cerebrovascular Testing, Peripheral Arterial Testing, Peripheral Venous Testing",,,,,,,,,,,,,,
204,205,UW Health at University Hospital,43.077228,-89.429064,multigranted,600 Highland Avenue,,Madison,WI,53792,USA,,www.uwhealth.org,,"echo, vascular",,UW Health at University Hospital Madison,,,"Mar 31, 2023","Adult Stress, Adult Transesophageal, Adult Transthoracic",,,,,"Sep 30, 2023","Extracranial Cerebrovascular Testing, Intracranial Cerebrovascular Testing, Peripheral Arterial Testing, Peripheral Venous Testing, Visceral Vascular Testing",,,,,,,,,,,,,,
205,206,UW Health at West Clinic,43.069686,-89.524787,granted,451 Junction Road,,Madison,WI,53717,USA,,,,vascular,www.google.com/search?q=UW+Health+at+West+Clinic,UW Health at West Clinic Madison,,,,,,,,,"Sep 30, 2023","Extracranial Cerebrovascular Testing, Intracranial Cerebrovascular Testing, Peripheral Arterial Testing, Peripheral Venous Testing, Visceral Vascular Testing",,,,,,,,,,,,,,
206,207,UW Health East Madison Hospital,43.153702,-89.301802,multigranted,4602 Eastpark Blvd.,,Madison,WI,53718,USA,,,,"echo, vascular",www.google.com/search?q=UW+Health+East+Madison+Hospital,UW Health East Madison Hospital Madison,,,"Mar 31, 2023","Adult Stress, Adult Transesophageal, Adult Transthoracic",,,,,"Sep 30, 2023","Extracranial Cerebrovascular Testing, Peripheral Arterial Testing, Peripheral Venous Testing, Visceral Vascular Testing",,,,,,,,,,,,,,
207,208,Vein Clinics of America,43.029614,-88.114388,granted,245 S. Executive Drive,Suite 350,Brookfield,WI,53005,USA,,www.veinclinics.com/clinic/brookfield-wisconsin/,,vascular,,Vein Clinics of America Brookfield,,,,,,,,,"Nov 30, 2023",Peripheral Venous Testing,,,,,,,,,,,,,,
208,209,Vein Clinics of America,43.211574,-87.924114,granted,10614 N. Port Washington Rd.,,Mequon,WI,53092,USA,,www.veinclinics.com/clinic/mequon-wisconsin/,,vascular,,Vein Clinics of America Mequon,,,,,,,,,"Nov 30, 2023",Peripheral Venous Testing,,,,,,,,,,,,,,
209,210,Weil Foot and Ankle Institute,42.56811,-87.930749,granted,"10105 74th Street, Stuite 101",,Kenosha,WI,53142,USA,,,,mr,www.google.com/search?q=Weil+Foot+and+Ankle+Institute,Weil Foot and Ankle Institute Kenosha,,,,,"Oct 31, 2023",Musculoskeletal MRI,,,,,,,,,,,,,,,,,,
210,211,West Allis Primary Care Physicians,42.988172,-88.07032,granted,12555 West National Avenue,Suite 201,New Berlin,WI,53151,USA,,,,echo,www.google.com/search?q=West+Allis+Primary+Care+Physicians,West Allis Primary Care Physicians New Berlin,,,"Mar 31, 2023",Adult Transthoracic,,,,,,,,,,,,,,,,,,,,
211,212,Westfields Hospital,45.117183,-92.553217,granted,535 Hospital Road,,New Richmond,WI,54017,USA,,,,echo,www.google.com/search?q=Westfields+Hospital,Westfields Hospital New Richmond,,,"Jan 31, 2023","Adult Stress, Adult Transthoracic",,,,,,,,,,,,,,,,,,,,
212,213,Westfields Hospital and Clinic,45.11746,-92.553214,granted,535 Hospital Road,,New Richmond,WI,54017,USA,,,,nuclear,www.google.com/search?q=Westfields+Hospital+and+Clinic,Westfields Hospital and Clinic New Richmond,,,,,,,"Jan 31, 2023",Myocardial Perfusion Imaging,,,,,,,,,,,,,,,,
213,214,Wheaton Franciscan - Elmbrook Memorial,43.061313,-88.153492,granted,19333 W. North Ave,,Brookfield,WI,53045,USA,,,,echo,www.google.com/search?q=Wheaton+Franciscan+-+Elmbrook+Memorial,Wheaton Franciscan - Elmbrook Memorial Brookfield,,,"Nov 30, 2024",Adult Transthoracic,,,,,,,,,,,,,,,,,,,,
214,215,Wheaton Franciscan - St. Joseph,43.073465,-87.9761,granted,5000 West Chambers Street,,Milwaukee,WI,53210,USA,,www.wfhealthcare.org,,echo,,Wheaton Franciscan - St. Joseph Milwaukee,,,"Nov 30, 2024",Adult Transthoracic,,,,,,,,,,,,,,,,,,,,
215,216,Wheaton Franciscan Healthcare - St. Joseph,43.073465,-87.9761,granted,5000 West  Chambers Street,,Milwaukee,WI,53210,USA,,,,vascular,www.google.com/search?q=Wheaton+Franciscan+Healthcare+-+St.+Joseph,Wheaton Franciscan Healthcare - St. Joseph Milwaukee,,,,,,,,,"Mar 31, 2025","Extracranial Cerebrovascular Testing, Peripheral Arterial Testing, Peripheral Venous Testing",,,,,,,,,,,,,,
216,217,William S. Middleton Memorial VA Hospital,43.074473,-89.433378,granted,2500 Overlook Terrace,,Madison,WI,53705,USA,,,,echo,www.google.com/search?q=William+S.+Middleton+Memorial+VA+Hospital,William S. Middleton Memorial VA Hospital Madison,,,"Oct 31, 2023","Adult Stress, Adult Transesophageal, Adult Transthoracic",,,,,,,,,,,,,,,,,,,,
217,218,"Wisconsin Institute of Urology, SC",44.22222,-88.492934,granted,1265 W American Drive,,Neenah,WI,54956,USA,,,,ct,"www.google.com/search?q=Wisconsin+Institute+of+Urology,+SC","Wisconsin Institute of Urology, SC Neenah","Oct 31, 2024",Body CT,,,,,,,,,,,,,,,,,,,,,,
218,219,"Wisconsin River Orthopaedics, Ltd",44.388256,-89.796969,granted,140 24th Street South,P.O. Box 8005,Wisconsin Rapids,WI,54495,USA,,wroinstitute.com,,mr,,"Wisconsin River Orthopaedics, Ltd Wisconsin Rapids",,,,,"Dec 31, 2023","Musculoskeletal MRI, Neurological MRI",,,,,,,,,,,,,,,,,,
219,220,Zenith Healthcare S.C.,42.579853,-87.884467,granted,6121 Green Bay Rd Ste 100,,Kenosha,WI,53142,USA,,,,vascular,www.google.com/search?q=Zenith+Healthcare+S.C.,Zenith Healthcare S.C. Kenosha,,,,,,,,,"Nov 30, 2024","Extracranial Cerebrovascular Testing, Peripheral Venous Testing",,,,,,,,,,,,,,
220,221,Zenith Healthcare S.C.,42.991345,-87.949717,granted,2801 W. Kinnickinnic River Parkway,Suite 446,Milwaukee,WI,53215,USA,,,,nuclear,www.google.com/search?q=Zenith+Healthcare+S.C.,Zenith Healthcare S.C. Milwaukee,,,,,,,"Sep 30, 2024",Myocardial Perfusion Imaging,,,,,,,,,,,,,,,,
